{"type":"FeatureCollection","name":"turkiye_map.dist.mahalle_geometrileri_by_district.TR-D-34-039","features":[{"type":"Feature","properties":{"id":"TR-Y-34-039-M-0001","level":"yerlesim","type":"mahalle","parent_id":"TR-D-34-039","province_id":"TR-P-34","district_id":"TR-D-34-039","name":"Beştelsiz","source_raw_name":"BEŞTELSİZ","source":"Kullanıcı tarafından sağlanan KML","source_label":"Kullanıcı tarafından sağlanan KML","source_name":"Istanbul Mahalle KML"},"geometry":{"type":"Polygon","coordinates":[[[28.911019,40.994532],[28.910467,40.994472],[28.909318,40.994655],[28.908869,40.994687],[28.908282,40.994673],[28.907175,40.994413],[28.905648,40.994205],[28.905134,40.99419],[28.903013,40.994803],[28.90247,40.995234],[28.902317,40.995465],[28.90386,40.997296],[28.902045,40.999587],[28.901505,40.999979],[28.901496,41.000503],[28.901301,41.001962],[28.902362,41.003533],[28.904497,41.00397],[28.905059,41.004037],[28.906693,41.004122],[28.90772,41.004224],[28.907461,41.001807],[28.90752,41.001127],[28.907749,41.000605],[28.908209,41.000685],[28.908601,41.000204],[28.908773,40.999671],[28.909149,40.998001],[28.909027,40.997916],[28.909657,40.997128],[28.910524,40.99619],[28.910689,40.995836],[28.911019,40.994532]]]}},{"type":"Feature","properties":{"id":"TR-Y-34-039-M-0002","level":"yerlesim","type":"mahalle","parent_id":"TR-D-34-039","province_id":"TR-P-34","district_id":"TR-D-34-039","name":"Çırpıcı","source_raw_name":"ÇIRPICI","source":"Kullanıcı tarafından sağlanan KML","source_label":"Kullanıcı tarafından sağlanan KML","source_name":"Istanbul Mahalle KML"},"geometry":{"type":"Polygon","coordinates":[[[28.901505,40.999979],[28.901458,40.998258],[28.901152,40.997615],[28.899715,40.998011],[28.899456,40.998187],[28.898283,40.998863],[28.897583,40.9991],[28.897178,40.998811],[28.896873,40.998685],[28.896233,40.998593],[28.895557,40.998618],[28.895207,40.99851],[28.894649,40.998139],[28.894718,40.998024],[28.893582,40.997614],[28.89257,40.99733],[28.892324,40.997493],[28.892136,40.997653],[28.892064,40.997785],[28.892034,40.997946],[28.891928,40.998031],[28.891704,40.998235],[28.891621,40.998349],[28.891646,40.998455],[28.891722,40.998523],[28.891868,40.998604],[28.891873,40.998775],[28.891809,41.000074],[28.892758,41.001631],[28.892819,41.001702],[28.892809,41.001796],[28.892731,41.001845],[28.892742,41.001901],[28.892807,41.001969],[28.892903,41.001976],[28.892979,41.002044],[28.893046,41.002236],[28.894356,41.001749],[28.89594,41.001935],[28.896431,41.002062],[28.897113,41.002375],[28.897663,41.002735],[28.897971,41.002877],[28.899594,41.003325],[28.901501,41.003507],[28.902362,41.003533],[28.901301,41.001962],[28.901496,41.000503],[28.901505,40.999979]]]}},{"type":"Feature","properties":{"id":"TR-Y-34-039-M-0003","level":"yerlesim","type":"mahalle","parent_id":"TR-D-34-039","province_id":"TR-P-34","district_id":"TR-D-34-039","name":"Gökalp","source_raw_name":"GÖKALP","source":"Kullanıcı tarafından sağlanan KML","source_label":"Kullanıcı tarafından sağlanan KML","source_name":"Istanbul Mahalle KML"},"geometry":{"type":"Polygon","coordinates":[[[28.903013,40.994803],[28.905134,40.99419],[28.905648,40.994205],[28.907175,40.994413],[28.908282,40.994673],[28.908869,40.994687],[28.909318,40.994655],[28.910467,40.994472],[28.911019,40.994532],[28.911256,40.993906],[28.912059,40.992608],[28.91106,40.992027],[28.910198,40.991273],[28.909397,40.990317],[28.909397,40.990316],[28.908603,40.990617],[28.908018,40.990647],[28.908006,40.990748],[28.906218,40.99062],[28.906217,40.990521],[28.905263,40.99044],[28.905173,40.990654],[28.90455,40.990602],[28.903685,40.990382],[28.90377,40.991262],[28.903269,40.99126],[28.902935,40.994159],[28.903013,40.994803]]]}},{"type":"Feature","properties":{"id":"TR-Y-34-039-M-0004","level":"yerlesim","type":"mahalle","parent_id":"TR-D-34-039","province_id":"TR-P-34","district_id":"TR-D-34-039","name":"Kazlıçeşme","source_raw_name":"KAZLIÇEŞME","source":"Kullanıcı tarafından sağlanan KML","source_label":"Kullanıcı tarafından sağlanan KML","source_name":"Istanbul Mahalle KML"},"geometry":{"type":"Polygon","coordinates":[[[28.912059,40.992608],[28.912365,40.992815],[28.913258,40.993058],[28.913492,40.99311],[28.91369,40.993148],[28.914184,40.993218],[28.914172,40.993278],[28.914294,40.993612],[28.914701,40.994334],[28.914718,40.994364],[28.914989,40.99482],[28.914997,40.994904],[28.915518,40.998179],[28.915981,41.00023],[28.915028,41.00086],[28.914098,41.001169],[28.913576,41.001589],[28.913286,41.001927],[28.913242,41.002232],[28.913562,41.002947],[28.913671,41.004961],[28.91538,41.005237],[28.915725,41.005332],[28.916202,41.005339],[28.917454,41.005616],[28.918222,41.00563],[28.918926,41.005716],[28.920089,41.005797],[28.920483,41.005825],[28.921062,41.005927],[28.921086,41.006048],[28.92183,41.00607],[28.921829,41.006069],[28.92187,41.00605],[28.921864,41.005882],[28.92166,41.005009],[28.92166,41.005007],[28.921647,41.004847],[28.921327,41.003292],[28.921054,41.00233],[28.92091,41.001859],[28.920647,41.000826],[28.920549,40.999822],[28.920549,40.999822],[28.920988,40.998148],[28.921293,40.997124],[28.921767,40.994693],[28.922188,40.993965],[28.922505,40.993312],[28.922582,40.993149],[28.92267,40.992895],[28.922698,40.992729],[28.922549,40.992179],[28.921621,40.991334],[28.920675,40.990488],[28.920157,40.989495],[28.920102,40.989098],[28.92018,40.988745],[28.919902,40.988372],[28.919917,40.987994],[28.919924,40.987865],[28.91974,40.987851],[28.91949,40.987803],[28.919498,40.98779],[28.919327,40.987758],[28.919321,40.987773],[28.919142,40.987789],[28.919049,40.987822],[28.918983,40.987818],[28.918947,40.987795],[28.918481,40.987813],[28.91842,40.987821],[28.91838,40.987822],[28.918349,40.987809],[28.917576,40.987833],[28.917446,40.987831],[28.917341,40.987808],[28.916525,40.987542],[28.915969,40.987367],[28.915583,40.987255],[28.915341,40.98718],[28.91484,40.986988],[28.911818,40.985725],[28.911789,40.985703],[28.911699,40.985553],[28.910413,40.983858],[28.910366,40.983788],[28.910323,40.983746],[28.910312,40.983738],[28.910307,40.983721],[28.910302,40.983703],[28.910295,40.983691],[28.910276,40.983665],[28.910271,40.983634],[28.910262,40.98362],[28.910247,40.9836],[28.910227,40.983583],[28.910209,40.983567],[28.910203,40.983544],[28.910185,40.983513],[28.91017,40.98349],[28.910152,40.983467],[28.910124,40.983435],[28.91011,40.983401],[28.910082,40.983369],[28.910063,40.983347],[28.910065,40.983332],[28.910061,40.983319],[28.910047,40.983308],[28.910035,40.983291],[28.91002,40.983257],[28.910004,40.983235],[28.909976,40.983212],[28.90996,40.98319],[28.909953,40.98318],[28.909933,40.983161],[28.909919,40.983152],[28.90991,40.98314],[28.909892,40.983117],[28.909873,40.983087],[28.90985,40.983059],[28.909841,40.983052],[28.90979,40.983025],[28.909777,40.983014],[28.909764,40.982988],[28.909741,40.982964],[28.909728,40.982939],[28.909714,40.982924],[28.909706,40.982914],[28.909683,40.98288],[28.90968,40.982875],[28.909675,40.982869],[28.909652,40.982834],[28.909579,40.982773],[28.90952,40.982729],[28.909471,40.982692],[28.909433,40.982677],[28.909415,40.982657],[28.909389,40.98263],[28.909377,40.98262],[28.909348,40.9826],[28.909302,40.982566],[28.90924,40.98252],[28.909215,40.982494],[28.909169,40.982465],[28.909121,40.982406],[28.909105,40.982391],[28.90907,40.982363],[28.909047,40.982346],[28.90903,40.982329],[28.909019,40.982318],[28.909001,40.982297],[28.908944,40.98225],[28.90891,40.982216],[28.908865,40.982178],[28.908816,40.982137],[28.908784,40.982105],[28.908764,40.982085],[28.9087,40.982005],[28.908659,40.98197],[28.908636,40.981944],[28.9086,40.981904],[28.908542,40.981869],[28.908528,40.981855],[28.908516,40.981835],[28.90851,40.981814],[28.9085,40.981798],[28.908496,40.981785],[28.908496,40.981773],[28.908492,40.981762],[28.908483,40.981758],[28.908465,40.981749],[28.908465,40.981728],[28.908534,40.981711],[28.908513,40.981671],[28.908454,40.981692],[28.908265,40.981549],[28.908034,40.981402],[28.907645,40.981177],[28.907023,40.980872],[28.906085,40.980495],[28.90526,40.980158],[28.904698,40.979924],[28.903616,40.979483],[28.903246,40.97933],[28.902905,40.979215],[28.902495,40.979106],[28.901968,40.979002],[28.901712,40.978959],[28.901424,40.97893],[28.900753,40.978891],[28.900193,40.97893],[28.899923,40.978959],[28.899683,40.979008],[28.899455,40.979047],[28.899309,40.979077],[28.899099,40.979127],[28.898959,40.979163],[28.898824,40.979215],[28.898792,40.97924],[28.898781,40.979292],[28.898792,40.979348],[28.898317,40.979536],[28.898298,40.979488],[28.897385,40.979748],[28.897368,40.97981],[28.897028,40.979935],[28.896922,40.979764],[28.896444,40.979026],[28.896288,40.979086],[28.896816,40.979903],[28.896411,40.980047],[28.895834,40.979148],[28.89568,40.979205],[28.896284,40.980149],[28.895876,40.980279],[28.895257,40.979335],[28.895114,40.979405],[28.895602,40.980151],[28.89552,40.98018],[28.89548,40.980221],[28.895471,40.980294],[28.895359,40.98033],[28.895227,40.980361],[28.89464,40.979476],[28.894475,40.979528],[28.895058,40.980401],[28.894369,40.980611],[28.894021,40.980097],[28.894054,40.980026],[28.89402,40.979975],[28.894015,40.97997],[28.894008,40.97997],[28.893891,40.980015],[28.893889,40.980015],[28.893817,40.979909],[28.893716,40.979761],[28.893683,40.979711],[28.893652,40.979665],[28.89357,40.979547],[28.893468,40.979391],[28.893401,40.979291],[28.893334,40.979197],[28.893309,40.979206],[28.893309,40.979207],[28.893196,40.979251],[28.893196,40.979258],[28.893256,40.979349],[28.893308,40.979425],[28.893309,40.979426],[28.893439,40.97962],[28.893572,40.979817],[28.89373,40.979972],[28.893756,40.979997],[28.893768,40.980014],[28.893794,40.980052],[28.893855,40.980143],[28.893934,40.980261],[28.893913,40.980268],[28.893925,40.980285],[28.89401,40.980413],[28.894036,40.980521],[28.894091,40.980735],[28.894116,40.980836],[28.894054,40.980856],[28.894042,40.980825],[28.893567,40.981039],[28.893384,40.980938],[28.893017,40.980551],[28.893545,40.980447],[28.893548,40.980394],[28.893503,40.98038],[28.89298,40.980499],[28.892914,40.980384],[28.892854,40.98037],[28.892766,40.980402],[28.892695,40.980443],[28.892696,40.980512],[28.893095,40.980979],[28.893105,40.981053],[28.893028,40.981078],[28.892888,40.981117],[28.892755,40.981152],[28.89267,40.981172],[28.892654,40.981176],[28.892614,40.981185],[28.892609,40.981186],[28.89243,40.981221],[28.892271,40.98122],[28.892268,40.981151],[28.892237,40.981151],[28.892236,40.981238],[28.892174,40.981231],[28.891988,40.981208],[28.891865,40.98119],[28.891714,40.981157],[28.891614,40.98113],[28.891461,40.981096],[28.891413,40.98108],[28.891248,40.981011],[28.891174,40.980957],[28.891121,40.980886],[28.891107,40.980862],[28.891102,40.980843],[28.891107,40.980794],[28.891129,40.980717],[28.891146,40.98063],[28.891168,40.980528],[28.891166,40.980521],[28.891155,40.980511],[28.891139,40.980501],[28.891145,40.980487],[28.891159,40.980488],[28.891182,40.980487],[28.891184,40.980474],[28.89126,40.980337],[28.891311,40.980286],[28.891356,40.980241],[28.891411,40.980187],[28.891578,40.980074],[28.89165,40.980069],[28.891814,40.980072],[28.892046,40.980075],[28.892305,40.980091],[28.892543,40.980106],[28.892551,40.980109],[28.89257,40.980117],[28.892708,40.980133],[28.892713,40.980125],[28.892723,40.980123],[28.892781,40.980124],[28.892842,40.980129],[28.892868,40.980125],[28.892887,40.980123],[28.892904,40.980104],[28.892909,40.980095],[28.892905,40.980069],[28.892891,40.980046],[28.89285,40.980029],[28.892747,40.980009],[28.892655,40.979983],[28.892571,40.979958],[28.892459,40.979942],[28.892333,40.979935],[28.892229,40.979922],[28.892088,40.979915],[28.891996,40.979904],[28.891639,40.97976],[28.891661,40.979667],[28.891685,40.979575],[28.891692,40.979516],[28.891707,40.979436],[28.89172,40.979316],[28.891722,40.979171],[28.891726,40.979055],[28.891736,40.978947],[28.891748,40.9789],[28.891746,40.978777],[28.891743,40.97865],[28.891744,40.978513],[28.891737,40.978347],[28.891741,40.978265],[28.891756,40.978239],[28.891786,40.978214],[28.891828,40.978191],[28.891872,40.978167],[28.891918,40.978137],[28.891945,40.978104],[28.891973,40.978033],[28.891978,40.978005],[28.89197,40.977965],[28.891945,40.977937],[28.891872,40.977892],[28.891832,40.977869],[28.891749,40.977848],[28.89167,40.977855],[28.891627,40.977869],[28.891574,40.97791],[28.891535,40.977959],[28.891525,40.977998],[28.891516,40.978109],[28.891509,40.978368],[28.891503,40.978573],[28.891501,40.978738],[28.891497,40.978923],[28.89149,40.979123],[28.891482,40.979291],[28.891477,40.979456],[28.891453,40.979594],[28.891419,40.979708],[28.891359,40.979838],[28.891311,40.979919],[28.891281,40.979956],[28.891239,40.979999],[28.891227,40.98002],[28.891223,40.980032],[28.891068,40.980005],[28.890878,40.979971],[28.890864,40.980017],[28.890818,40.980038],[28.890811,40.98003],[28.8908,40.980088],[28.889754,40.982229],[28.889638,40.982327],[28.889508,40.982372],[28.889459,40.982485],[28.893287,40.982491],[28.89327,40.982682],[28.89782,40.982786],[28.899961,40.982882],[28.900738,40.983073],[28.902073,40.983679],[28.903444,40.98453],[28.904403,40.985358],[28.906891,40.987447],[28.907766,40.98833],[28.909397,40.990316],[28.909397,40.990317],[28.910198,40.991273],[28.91106,40.992027],[28.912059,40.992608]]]}},{"type":"Feature","properties":{"id":"TR-Y-34-039-M-0005","level":"yerlesim","type":"mahalle","parent_id":"TR-D-34-039","province_id":"TR-P-34","district_id":"TR-D-34-039","name":"Maltepe","source_raw_name":"MALTEPE","source":"Kullanıcı tarafından sağlanan KML","source_label":"Kullanıcı tarafından sağlanan KML","source_name":"Istanbul Mahalle KML"},"geometry":{"type":"Polygon","coordinates":[[[28.913458,41.031656],[28.913804,41.031461],[28.914092,41.031317],[28.914068,41.031294],[28.914103,41.031274],[28.913995,41.031116],[28.914865,41.030751],[28.914866,41.030749],[28.915041,41.030575],[28.915229,41.030191],[28.915405,41.03],[28.915795,41.029587],[28.916013,41.029337],[28.916072,41.02928],[28.916124,41.029228],[28.916196,41.029157],[28.916292,41.029064],[28.916357,41.029001],[28.916556,41.028819],[28.916615,41.028768],[28.916812,41.028589],[28.917409,41.028049],[28.917698,41.02778],[28.917783,41.027697],[28.917907,41.027578],[28.91803,41.027459],[28.918108,41.027381],[28.918166,41.027322],[28.918254,41.027233],[28.918322,41.027164],[28.918457,41.027029],[28.918493,41.026997],[28.9186,41.026902],[28.918682,41.026828],[28.91871,41.026805],[28.918739,41.026779],[28.918795,41.026728],[28.918846,41.026683],[28.918888,41.026646],[28.919047,41.026516],[28.919104,41.02647],[28.919476,41.026188],[28.9199,41.025861],[28.920096,41.025608],[28.920194,41.025413],[28.920431,41.024461],[28.92056,41.024391],[28.920939,41.024428],[28.921363,41.024393],[28.921796,41.024342],[28.922349,41.02519],[28.922731,41.025826],[28.923198,41.026853],[28.923996,41.028696],[28.924096,41.028618],[28.929012,41.024759],[28.929137,41.024675],[28.929277,41.02458],[28.929363,41.024522],[28.928759,41.024046],[28.926272,41.021705],[28.926281,41.021696],[28.926269,41.021685],[28.926225,41.021629],[28.926157,41.021557],[28.926251,41.021498],[28.92545,41.020739],[28.924816,41.019785],[28.924577,41.019502],[28.924576,41.019502],[28.924384,41.019592],[28.92377,41.019701],[28.923692,41.019707],[28.920637,41.01937],[28.918009,41.01886],[28.915221,41.018171],[28.913544,41.017627],[28.910379,41.016134],[28.903934,41.012149],[28.898125,41.008198],[28.897575,41.008352],[28.898138,41.009241],[28.898543,41.009503],[28.899171,41.010218],[28.899249,41.010399],[28.899235,41.010883],[28.899533,41.011605],[28.899885,41.012049],[28.899937,41.012576],[28.900162,41.012759],[28.900163,41.013064],[28.900454,41.013381],[28.900651,41.013602],[28.90074,41.013712],[28.900852,41.013815],[28.90097,41.013904],[28.900974,41.013981],[28.900964,41.014093],[28.900918,41.01412],[28.900838,41.014142],[28.900816,41.014258],[28.900891,41.014314],[28.901645,41.014508],[28.90218,41.01454],[28.902203,41.014829],[28.902264,41.015156],[28.902242,41.015672],[28.902244,41.015759],[28.90228,41.015827],[28.902282,41.015864],[28.902238,41.016071],[28.902302,41.016536],[28.902338,41.016675],[28.902474,41.017076],[28.901797,41.017338],[28.901314,41.01727],[28.901076,41.017353],[28.901019,41.017398],[28.90101,41.017724],[28.900969,41.017873],[28.900986,41.017968],[28.900975,41.01815],[28.900902,41.018398],[28.900921,41.018543],[28.900726,41.020512],[28.900658,41.020681],[28.900642,41.020719],[28.90064,41.020729],[28.90063,41.02076],[28.900624,41.020772],[28.900339,41.021465],[28.900018,41.02224],[28.899882,41.022532],[28.899651,41.02309],[28.899585,41.023242],[28.899492,41.02347],[28.899451,41.023587],[28.899424,41.023712],[28.899377,41.023961],[28.8993,41.024906],[28.899267,41.025307],[28.899197,41.026151],[28.899163,41.026474],[28.899137,41.02685],[28.899112,41.027375],[28.899112,41.027688],[28.899113,41.027705],[28.899141,41.027707],[28.8992,41.027711],[28.899605,41.027716],[28.899729,41.027717],[28.900506,41.027728],[28.90104,41.027695],[28.901068,41.027766],[28.901076,41.027842],[28.90108,41.028027],[28.901065,41.028193],[28.901088,41.02821],[28.90149,41.028494],[28.901627,41.028595],[28.902367,41.029097],[28.902737,41.029215],[28.90288,41.029246],[28.904548,41.029471],[28.904962,41.029527],[28.90554,41.029677],[28.905783,41.029768],[28.906177,41.029915],[28.906585,41.030077],[28.906588,41.030078],[28.906924,41.030198],[28.906932,41.030201],[28.907169,41.030268],[28.908189,41.03057],[28.908397,41.030634],[28.908579,41.031025],[28.908815,41.031544],[28.908835,41.031612],[28.908863,41.031707],[28.908884,41.0317],[28.908958,41.031676],[28.909109,41.031561],[28.909281,41.031522],[28.909368,41.031504],[28.909426,41.031467],[28.909695,41.031451],[28.910209,41.031495],[28.910352,41.031512],[28.911043,41.031669],[28.911263,41.03177],[28.911362,41.031834],[28.911691,41.032211],[28.911912,41.032479],[28.91193,41.032467],[28.91292,41.031948],[28.913105,41.03185],[28.913198,41.031797],[28.913458,41.031656]]]}},{"type":"Feature","properties":{"id":"TR-Y-34-039-M-0006","level":"yerlesim","type":"mahalle","parent_id":"TR-D-34-039","province_id":"TR-P-34","district_id":"TR-D-34-039","name":"Merkezefendi","source_raw_name":"MERKEZEFENDİ","source":"Kullanıcı tarafından sağlanan KML","source_label":"Kullanıcı tarafından sağlanan KML","source_name":"Istanbul Mahalle KML"},"geometry":{"type":"Polygon","coordinates":[[[28.92251,41.009857],[28.922467,41.009213],[28.922698,41.009043],[28.922625,41.008523],[28.922578,41.00822],[28.922292,41.008077],[28.922278,41.007875],[28.922108,41.007071],[28.922034,41.006774],[28.921868,41.006147],[28.92183,41.00607],[28.921086,41.006048],[28.921155,41.006344],[28.921146,41.00635],[28.920716,41.006586],[28.920188,41.006877],[28.919851,41.007084],[28.919672,41.007275],[28.919501,41.007538],[28.919214,41.00786],[28.918951,41.008871],[28.918392,41.00908],[28.917507,41.008946],[28.916008,41.009412],[28.91584,41.008708],[28.915283,41.00845],[28.914488,41.008574],[28.913751,41.008594],[28.911875,41.009027],[28.911564,41.009024],[28.909953,41.009288],[28.909562,41.009705],[28.907436,41.01066],[28.904771,41.011507],[28.903934,41.012149],[28.910379,41.016134],[28.913544,41.017627],[28.915221,41.018171],[28.918009,41.01886],[28.920637,41.01937],[28.923692,41.019707],[28.92377,41.019701],[28.924384,41.019592],[28.924576,41.019502],[28.924275,41.018973],[28.92324,41.017388],[28.92236,41.015554],[28.922111,41.014089],[28.921979,41.013382],[28.922146,41.01274],[28.922529,41.011555],[28.922521,41.011091],[28.92251,41.009857]]]}},{"type":"Feature","properties":{"id":"TR-Y-34-039-M-0007","level":"yerlesim","type":"mahalle","parent_id":"TR-D-34-039","province_id":"TR-P-34","district_id":"TR-D-34-039","name":"Nuripaşa","source_raw_name":"NURİPAŞA","source":"Kullanıcı tarafından sağlanan KML","source_label":"Kullanıcı tarafından sağlanan KML","source_name":"Istanbul Mahalle KML"},"geometry":{"type":"Polygon","coordinates":[[[28.903714,40.989904],[28.904105,40.987537],[28.904401,40.986611],[28.904197,40.98553],[28.904403,40.985358],[28.903444,40.98453],[28.902073,40.983679],[28.900738,40.983073],[28.899961,40.982882],[28.89782,40.982786],[28.897867,40.982945],[28.897997,40.984764],[28.898128,40.985238],[28.898138,40.985731],[28.89846,40.985736],[28.898461,40.986017],[28.89851,40.986256],[28.899091,40.986744],[28.89823,40.986907],[28.898668,40.988459],[28.898804,40.988643],[28.899048,40.989445],[28.898917,40.989466],[28.899357,40.99054],[28.900455,40.990317],[28.900746,40.990147],[28.900776,40.989678],[28.902377,40.989691],[28.903714,40.989904]]]}},{"type":"Feature","properties":{"id":"TR-Y-34-039-M-0008","level":"yerlesim","type":"mahalle","parent_id":"TR-D-34-039","province_id":"TR-P-34","district_id":"TR-D-34-039","name":"Seyitnizam","source_raw_name":"SEYİTNİZAM","source":"Kullanıcı tarafından sağlanan KML","source_label":"Kullanıcı tarafından sağlanan KML","source_name":"Istanbul Mahalle KML"},"geometry":{"type":"Polygon","coordinates":[[[28.921155,41.006344],[28.921086,41.006048],[28.921062,41.005927],[28.920483,41.005825],[28.920089,41.005797],[28.918926,41.005716],[28.918222,41.00563],[28.917454,41.005616],[28.916202,41.005339],[28.915725,41.005332],[28.91538,41.005237],[28.913671,41.004961],[28.9111,41.004714],[28.909817,41.004442],[28.90772,41.004224],[28.906693,41.004122],[28.905059,41.004037],[28.904497,41.00397],[28.902362,41.003533],[28.901501,41.003507],[28.899594,41.003325],[28.897971,41.002877],[28.897663,41.002735],[28.897113,41.002375],[28.896431,41.002062],[28.89594,41.001935],[28.894356,41.001749],[28.893046,41.002236],[28.893135,41.002414],[28.893405,41.002803],[28.894452,41.004015],[28.894859,41.004669],[28.895552,41.005545],[28.895723,41.005742],[28.895915,41.005808],[28.896182,41.005977],[28.896251,41.006085],[28.896325,41.006247],[28.896245,41.006461],[28.896365,41.00656],[28.896453,41.006688],[28.896503,41.006801],[28.896428,41.007052],[28.898125,41.008198],[28.903934,41.012149],[28.904771,41.011507],[28.907436,41.01066],[28.909562,41.009705],[28.909953,41.009288],[28.911564,41.009024],[28.911875,41.009027],[28.913751,41.008594],[28.914488,41.008574],[28.915283,41.00845],[28.91584,41.008708],[28.916008,41.009412],[28.917507,41.008946],[28.918392,41.00908],[28.918951,41.008871],[28.919214,41.00786],[28.919501,41.007538],[28.919672,41.007275],[28.919851,41.007084],[28.920188,41.006877],[28.920716,41.006586],[28.921146,41.00635],[28.921155,41.006344]]]}},{"type":"Feature","properties":{"id":"TR-Y-34-039-M-0009","level":"yerlesim","type":"mahalle","parent_id":"TR-D-34-039","province_id":"TR-P-34","district_id":"TR-D-34-039","name":"Sümer","source_raw_name":"SÜMER","source":"Kullanıcı tarafından sağlanan KML","source_label":"Kullanıcı tarafından sağlanan KML","source_name":"Istanbul Mahalle KML"},"geometry":{"type":"Polygon","coordinates":[[[28.899357,40.99054],[28.898917,40.989466],[28.899048,40.989445],[28.898804,40.988643],[28.898668,40.988459],[28.89823,40.986907],[28.899091,40.986744],[28.89851,40.986256],[28.898461,40.986017],[28.89846,40.985736],[28.898138,40.985731],[28.898128,40.985238],[28.897997,40.984764],[28.897867,40.982945],[28.89782,40.982786],[28.89327,40.982682],[28.893287,40.982491],[28.889459,40.982485],[28.889464,40.982666],[28.890545,40.98263],[28.890641,40.982637],[28.890764,40.982708],[28.890794,40.982773],[28.890958,40.983354],[28.891059,40.983579],[28.891097,40.983838],[28.89117,40.984127],[28.891257,40.984228],[28.891336,40.984385],[28.891349,40.984494],[28.891348,40.984567],[28.891307,40.984708],[28.891285,40.985367],[28.891443,40.985601],[28.89148,40.985925],[28.891675,40.986565],[28.891677,40.986891],[28.891768,40.987222],[28.891893,40.987402],[28.891887,40.987616],[28.891884,40.987693],[28.892086,40.988351],[28.892073,40.988695],[28.891861,40.989067],[28.891858,40.989249],[28.89194,40.989703],[28.891877,40.989973],[28.891648,40.990689],[28.892465,40.992794],[28.89254,40.99293],[28.892825,40.993252],[28.892827,40.993253],[28.893992,40.993295],[28.894604,40.993511],[28.894708,40.993681],[28.896304,40.993576],[28.897323,40.993789],[28.896734,40.992548],[28.897391,40.991817],[28.898501,40.990947],[28.899357,40.99054]]]}},{"type":"Feature","properties":{"id":"TR-Y-34-039-M-0010","level":"yerlesim","type":"mahalle","parent_id":"TR-D-34-039","province_id":"TR-P-34","district_id":"TR-D-34-039","name":"Telsiz","source_raw_name":"TELSİZ","source":"Kullanıcı tarafından sağlanan KML","source_label":"Kullanıcı tarafından sağlanan KML","source_name":"Istanbul Mahalle KML"},"geometry":{"type":"Polygon","coordinates":[[[28.915028,41.00086],[28.915981,41.00023],[28.915518,40.998179],[28.914997,40.994904],[28.914989,40.99482],[28.914718,40.994364],[28.914701,40.994334],[28.914294,40.993612],[28.914172,40.993278],[28.914184,40.993218],[28.91369,40.993148],[28.913492,40.99311],[28.913258,40.993058],[28.912365,40.992815],[28.912059,40.992608],[28.911256,40.993906],[28.911019,40.994532],[28.910689,40.995836],[28.910524,40.99619],[28.909657,40.997128],[28.909027,40.997916],[28.909149,40.998001],[28.908773,40.999671],[28.908601,41.000204],[28.908209,41.000685],[28.907749,41.000605],[28.90752,41.001127],[28.907461,41.001807],[28.90772,41.004224],[28.909817,41.004442],[28.9111,41.004714],[28.913671,41.004961],[28.913562,41.002947],[28.913242,41.002232],[28.913286,41.001927],[28.913576,41.001589],[28.914098,41.001169],[28.915028,41.00086]]]}},{"type":"Feature","properties":{"id":"TR-Y-34-039-M-0011","level":"yerlesim","type":"mahalle","parent_id":"TR-D-34-039","province_id":"TR-P-34","district_id":"TR-D-34-039","name":"Veliefendi","source_raw_name":"VELİEFENDİ","source":"Kullanıcı tarafından sağlanan KML","source_label":"Kullanıcı tarafından sağlanan KML","source_name":"Istanbul Mahalle KML"},"geometry":{"type":"Polygon","coordinates":[[[28.903013,40.994803],[28.902218,40.994674],[28.901173,40.994344],[28.899039,40.994172],[28.897323,40.993789],[28.896304,40.993576],[28.894708,40.993681],[28.894604,40.993511],[28.893992,40.993295],[28.892827,40.993253],[28.892901,40.993336],[28.893436,40.994165],[28.893846,40.994911],[28.893913,40.995085],[28.893903,40.995196],[28.894244,40.995644],[28.894274,40.995703],[28.894254,40.99575],[28.894163,40.995828],[28.893984,40.995891],[28.893897,40.996023],[28.893852,40.996164],[28.893753,40.996289],[28.893601,40.996379],[28.893449,40.99643],[28.89337,40.996524],[28.893274,40.996691],[28.893081,40.996868],[28.89257,40.99733],[28.893582,40.997614],[28.894718,40.998024],[28.894649,40.998139],[28.895207,40.99851],[28.895557,40.998618],[28.896233,40.998593],[28.896873,40.998685],[28.897178,40.998811],[28.897583,40.9991],[28.898283,40.998863],[28.899456,40.998187],[28.899715,40.998011],[28.901152,40.997615],[28.901458,40.998258],[28.901505,40.999979],[28.902045,40.999587],[28.90386,40.997296],[28.902317,40.995465],[28.90247,40.995234],[28.903013,40.994803]]]}},{"type":"Feature","properties":{"id":"TR-Y-34-039-M-0012","level":"yerlesim","type":"mahalle","parent_id":"TR-D-34-039","province_id":"TR-P-34","district_id":"TR-D-34-039","name":"Yenidoğan","source_raw_name":"YENİDOĞAN","source":"Kullanıcı tarafından sağlanan KML","source_label":"Kullanıcı tarafından sağlanan KML","source_name":"Istanbul Mahalle KML"},"geometry":{"type":"Polygon","coordinates":[[[28.909397,40.990316],[28.907766,40.98833],[28.906891,40.987447],[28.904403,40.985358],[28.904197,40.98553],[28.904401,40.986611],[28.904105,40.987537],[28.903714,40.989904],[28.903685,40.990382],[28.90455,40.990602],[28.905173,40.990654],[28.905263,40.99044],[28.906217,40.990521],[28.906218,40.99062],[28.908006,40.990748],[28.908018,40.990647],[28.908603,40.990617],[28.909397,40.990316]]]}},{"type":"Feature","properties":{"id":"TR-Y-34-039-M-0013","level":"yerlesim","type":"mahalle","parent_id":"TR-D-34-039","province_id":"TR-P-34","district_id":"TR-D-34-039","name":"Yeşiltepe","source_raw_name":"YEŞİLTEPE","source":"Kullanıcı tarafından sağlanan KML","source_label":"Kullanıcı tarafından sağlanan KML","source_name":"Istanbul Mahalle KML"},"geometry":{"type":"Polygon","coordinates":[[[28.897323,40.993789],[28.899039,40.994172],[28.901173,40.994344],[28.902218,40.994674],[28.903013,40.994803],[28.902935,40.994159],[28.903269,40.99126],[28.90377,40.991262],[28.903685,40.990382],[28.903714,40.989904],[28.902377,40.989691],[28.900776,40.989678],[28.900746,40.990147],[28.900455,40.990317],[28.899357,40.99054],[28.898501,40.990947],[28.897391,40.991817],[28.896734,40.992548],[28.897323,40.993789]]]}}]}