{"type":"FeatureCollection","name":"turkiye_map.dist.mahalle_geometrileri_by_district.TR-D-35-014","features":[{"type":"Feature","properties":{"id":"TR-Y-35-014-M-0001","level":"yerlesim","type":"mahalle","parent_id":"TR-D-35-014","province_id":"TR-P-35","district_id":"TR-D-35-014","name":"Atatürk","source_raw_name":"ATATÜRK","source":"Kullanıcı tarafından sağlanan KML","source_label":"Kullanıcı tarafından sağlanan KML","source_name":"Izmir Mahalle KML - kullanici tarafindan saglandi"},"geometry":{"type":"Polygon","coordinates":[[[26.891601,38.361049],[26.89182,38.360611],[26.891748,38.360191],[26.891567,38.359693],[26.891528,38.359311],[26.891702,38.358865],[26.891727,38.358522],[26.891691,38.358179],[26.891604,38.357684],[26.891549,38.357464],[26.891516,38.357368],[26.891804,38.357159],[26.892977,38.356498],[26.893416,38.355993],[26.89412,38.355651],[26.895239,38.355334],[26.89579,38.355113],[26.896281,38.354835],[26.896397,38.354284],[26.89697,38.353734],[26.897073,38.353693],[26.89734,38.35301],[26.897746,38.35286],[26.898155,38.352537],[26.898439,38.352043],[26.898639,38.351814],[26.898797,38.351371],[26.898976,38.351133],[26.899217,38.350905],[26.899427,38.350784],[26.89962,38.350747],[26.899982,38.350728],[26.900971,38.350629],[26.901171,38.35067],[26.901944,38.350359],[26.902237,38.350163],[26.902134,38.350132],[26.901449,38.349931],[26.901198,38.350033],[26.900954,38.350044],[26.900689,38.350071],[26.90055,38.350107],[26.900483,38.350099],[26.90045,38.35008],[26.900502,38.349815],[26.900523,38.349675],[26.900512,38.349544],[26.900484,38.349418],[26.901015,38.349224],[26.900628,38.348682],[26.899792,38.348869],[26.899435,38.34813],[26.899261,38.348023],[26.898952,38.347987],[26.89921,38.348536],[26.899007,38.348709],[26.898099,38.348034],[26.897759,38.347747],[26.897539,38.347663],[26.897455,38.347866],[26.897561,38.348128],[26.897106,38.348404],[26.895719,38.347592],[26.895279,38.347262],[26.894687,38.347111],[26.894648,38.347237],[26.894644,38.347282],[26.894603,38.347498],[26.894489,38.347717],[26.894383,38.3479],[26.894211,38.348039],[26.893993,38.348233],[26.893779,38.348447],[26.893644,38.348564],[26.893587,38.348624],[26.893477,38.34863],[26.893391,38.348635],[26.893286,38.34861],[26.893157,38.348517],[26.893037,38.348349],[26.892937,38.348275],[26.892867,38.348258],[26.892738,38.348283],[26.89284,38.348511],[26.892908,38.348802],[26.892993,38.349126],[26.893184,38.34982],[26.893354,38.349974],[26.893453,38.350153],[26.893509,38.350485],[26.893319,38.350816],[26.893153,38.351014],[26.892884,38.351144],[26.892965,38.351227],[26.893071,38.351336],[26.893592,38.351873],[26.893586,38.351908],[26.89343,38.35221],[26.893287,38.352287],[26.892985,38.352338],[26.892585,38.352275],[26.892325,38.352241],[26.892191,38.352261],[26.892039,38.352373],[26.891879,38.352717],[26.891796,38.352819],[26.891483,38.352792],[26.888963,38.352574],[26.888701,38.352551],[26.888649,38.352546],[26.88853,38.352536],[26.88823,38.352514],[26.888059,38.352606],[26.888038,38.35267],[26.888022,38.352713],[26.887993,38.352802],[26.887976,38.35297],[26.887871,38.353063],[26.887806,38.353128],[26.887741,38.353243],[26.88771,38.35329],[26.8877,38.353305],[26.887667,38.353353],[26.88689,38.353276],[26.88608,38.353673],[26.885952,38.353737],[26.885895,38.353759],[26.886141,38.354416],[26.885923,38.354426],[26.885637,38.35441],[26.885486,38.354378],[26.885225,38.354521],[26.885567,38.3552],[26.885568,38.355209],[26.885441,38.35538],[26.885367,38.355463],[26.885338,38.355481],[26.885301,38.355499],[26.885174,38.355532],[26.885159,38.355563],[26.885168,38.355627],[26.885166,38.355656],[26.885169,38.355697],[26.885169,38.355752],[26.885138,38.355821],[26.885122,38.355829],[26.885073,38.355877],[26.885016,38.355923],[26.884959,38.35598],[26.884834,38.356123],[26.884811,38.356156],[26.884808,38.356239],[26.8848,38.356255],[26.884783,38.356268],[26.88475,38.356283],[26.884705,38.356311],[26.884682,38.35632],[26.884647,38.356357],[26.884635,38.356381],[26.884577,38.356454],[26.88458,38.356469],[26.884579,38.35647],[26.884584,38.356488],[26.884539,38.356522],[26.884451,38.35655],[26.884363,38.356565],[26.884167,38.356578],[26.884327,38.356732],[26.884508,38.356872],[26.884745,38.357055],[26.88517,38.357358],[26.885141,38.357509],[26.885143,38.357571],[26.885124,38.357659],[26.885096,38.357762],[26.885094,38.357833],[26.885095,38.35785],[26.885104,38.357952],[26.885129,38.358081],[26.885138,38.358108],[26.885173,38.35822],[26.885274,38.358452],[26.885296,38.358504],[26.885348,38.358597],[26.885387,38.358633],[26.88553,38.358702],[26.885679,38.35876],[26.885964,38.358871],[26.885927,38.358951],[26.886448,38.359122],[26.886445,38.359185],[26.886752,38.35937],[26.887024,38.359533],[26.887056,38.359554],[26.887071,38.359536],[26.887152,38.359614],[26.887222,38.359688],[26.887395,38.359896],[26.887566,38.360069],[26.887643,38.360064],[26.888018,38.360271],[26.887945,38.360361],[26.887762,38.360595],[26.887569,38.360843],[26.887459,38.360983],[26.887259,38.36124],[26.887205,38.361309],[26.887125,38.361412],[26.887041,38.361521],[26.886718,38.361917],[26.886354,38.362373],[26.886268,38.362479],[26.886178,38.362587],[26.886059,38.362747],[26.885942,38.362913],[26.886122,38.362902],[26.886285,38.362772],[26.886385,38.362705],[26.886605,38.362574],[26.886787,38.362467],[26.887148,38.362238],[26.887235,38.362185],[26.887602,38.361963],[26.887818,38.361788],[26.888294,38.361401],[26.888447,38.361283],[26.888895,38.36094],[26.88898,38.360889],[26.889025,38.360908],[26.889186,38.360963],[26.889308,38.360997],[26.889477,38.361123],[26.889537,38.361168],[26.889769,38.361374],[26.889815,38.361415],[26.89005,38.361698],[26.890218,38.361894],[26.890364,38.362223],[26.890417,38.36261],[26.890449,38.362846],[26.890467,38.362976],[26.890476,38.363016],[26.890558,38.36336],[26.890628,38.363653],[26.890794,38.364055],[26.891176,38.364988],[26.891709,38.366251],[26.892283,38.366164],[26.892313,38.366043],[26.892284,38.365924],[26.892228,38.365769],[26.892216,38.365672],[26.892227,38.365525],[26.892382,38.3653],[26.892463,38.365075],[26.892508,38.364893],[26.892544,38.364702],[26.89254,38.364664],[26.892532,38.364609],[26.892513,38.364547],[26.892471,38.364436],[26.892343,38.364227],[26.892287,38.364137],[26.892286,38.364099],[26.892295,38.364055],[26.892324,38.363956],[26.892358,38.363851],[26.892361,38.36375],[26.892307,38.363627],[26.892244,38.363398],[26.892196,38.363214],[26.8921,38.363054],[26.891887,38.362803],[26.891826,38.362388],[26.891719,38.362008],[26.891621,38.361707],[26.891601,38.361049]]]}},{"type":"Feature","properties":{"id":"TR-Y-35-014-M-0002","level":"yerlesim","type":"mahalle","parent_id":"TR-D-35-014","province_id":"TR-P-35","district_id":"TR-D-35-014","name":"Çamlı","source_raw_name":"ÇAMLI","source":"Kullanıcı tarafından sağlanan KML","source_label":"Kullanıcı tarafından sağlanan KML","source_name":"Izmir Mahalle KML - kullanici tarafindan saglandi"},"geometry":{"type":"Polygon","coordinates":[[[26.859369,38.323891],[26.859467,38.323834],[26.860657,38.323699],[26.860839,38.323677],[26.861234,38.323633],[26.861501,38.323604],[26.861591,38.323663],[26.862585,38.323649],[26.862746,38.323583],[26.867728,38.323197],[26.86885,38.324208],[26.869547,38.324676],[26.870147,38.324405],[26.870871,38.32408],[26.871309,38.323882],[26.872065,38.323401],[26.872742,38.322898],[26.873122,38.322661],[26.873444,38.322443],[26.873344,38.322236],[26.87319,38.322108],[26.872904,38.322071],[26.872627,38.32207],[26.872433,38.321904],[26.87247,38.32188],[26.872518,38.321867],[26.872522,38.321867],[26.872968,38.321823],[26.873076,38.321829],[26.873328,38.321841],[26.87347,38.321859],[26.873838,38.321905],[26.874145,38.321832],[26.874367,38.321771],[26.874743,38.321622],[26.874993,38.321551],[26.875344,38.32145],[26.875701,38.32131],[26.876055,38.321247],[26.876675,38.321154],[26.877339,38.321056],[26.877446,38.32109],[26.877474,38.321135],[26.877518,38.321156],[26.877578,38.321185],[26.877614,38.321211],[26.877737,38.321269],[26.877992,38.321358],[26.878199,38.321476],[26.878368,38.321545],[26.878754,38.321863],[26.878915,38.322104],[26.879103,38.32231],[26.879255,38.322104],[26.879435,38.321944],[26.87955,38.321745],[26.879732,38.321445],[26.880828,38.32169],[26.88094,38.321753],[26.880986,38.321754],[26.881036,38.321923],[26.881141,38.322069],[26.881166,38.322034],[26.881708,38.321454],[26.881841,38.321314],[26.882074,38.32121],[26.882235,38.320949],[26.882428,38.32067],[26.882736,38.320493],[26.882831,38.320364],[26.883806,38.320044],[26.883981,38.320014],[26.884295,38.319801],[26.884574,38.319606],[26.884742,38.319505],[26.884786,38.319179],[26.884961,38.319498],[26.885023,38.319762],[26.885181,38.319937],[26.885381,38.319967],[26.885486,38.319768],[26.885505,38.319699],[26.885554,38.319665],[26.885669,38.319648],[26.885722,38.31965],[26.885875,38.319655],[26.886314,38.319837],[26.8863,38.319932],[26.886092,38.320123],[26.886207,38.320357],[26.886511,38.320614],[26.887069,38.320693],[26.887531,38.320732],[26.887698,38.32085],[26.887756,38.320849],[26.887933,38.320844],[26.888117,38.320823],[26.888196,38.320656],[26.888297,38.320628],[26.888391,38.32065],[26.888332,38.320375],[26.888453,38.320431],[26.888898,38.320343],[26.889157,38.320291],[26.889272,38.320364],[26.889473,38.3205],[26.889425,38.320633],[26.889403,38.320725],[26.889078,38.320945],[26.889264,38.321589],[26.889321,38.321654],[26.889443,38.321792],[26.889504,38.321999],[26.889699,38.322309],[26.889922,38.322621],[26.889958,38.322644],[26.889999,38.322642],[26.890075,38.322625],[26.8903,38.322573],[26.890554,38.322745],[26.890813,38.322692],[26.891125,38.322353],[26.891508,38.322398],[26.891623,38.3224],[26.89207,38.322465],[26.892113,38.322471],[26.892394,38.322483],[26.892823,38.322624],[26.893251,38.322525],[26.893787,38.322385],[26.894579,38.322167],[26.894889,38.322022],[26.895437,38.321808],[26.895689,38.321712],[26.896924,38.321237],[26.89753,38.321002],[26.897661,38.32084],[26.897447,38.320712],[26.897385,38.320675],[26.897274,38.320609],[26.897095,38.320483],[26.89692,38.320384],[26.89631,38.320037],[26.896274,38.319707],[26.896247,38.319454],[26.899284,38.316213],[26.899425,38.31598],[26.899574,38.315667],[26.900272,38.314211],[26.900707,38.314215],[26.901662,38.31508],[26.902525,38.312084],[26.904088,38.310219],[26.905029,38.309098],[26.906784,38.307004],[26.906784,38.305653],[26.906144,38.302404],[26.906182,38.301539],[26.905589,38.300177],[26.905587,38.300175],[26.905218,38.300045],[26.904992,38.299872],[26.904847,38.299861],[26.904392,38.299675],[26.904302,38.299627],[26.904187,38.299586],[26.90332,38.300092],[26.903067,38.300274],[26.903068,38.300551],[26.899995,38.300027],[26.896417,38.300765],[26.896314,38.302955],[26.896243,38.304016],[26.895524,38.30538],[26.895145,38.306092],[26.894734,38.306861],[26.893956,38.306936],[26.893038,38.306866],[26.892294,38.306838],[26.8917,38.306438],[26.891473,38.306396],[26.891,38.306575],[26.89024,38.30645],[26.889084,38.305362],[26.889084,38.305361],[26.889158,38.304747],[26.888931,38.304127],[26.889133,38.303493],[26.889641,38.303059],[26.890629,38.302902],[26.891514,38.302296],[26.891772,38.30061],[26.891494,38.300373],[26.890575,38.300006],[26.889793,38.299595],[26.889447,38.299322],[26.889298,38.29884],[26.889203,38.298044],[26.888836,38.296542],[26.887825,38.296902],[26.887206,38.297119],[26.886784,38.297264],[26.886148,38.297549],[26.885923,38.297846],[26.885566,38.298108],[26.885353,38.298556],[26.885072,38.299021],[26.884749,38.299213],[26.884357,38.29929],[26.883917,38.299263],[26.883498,38.299138],[26.883368,38.299221],[26.882565,38.299415],[26.877555,38.300534],[26.877431,38.301608],[26.877166,38.30379],[26.876792,38.303836],[26.876669,38.303816],[26.876142,38.303648],[26.875838,38.303591],[26.875655,38.3035],[26.875605,38.303394],[26.875528,38.303308],[26.875341,38.303178],[26.875161,38.303119],[26.87456,38.303185],[26.874186,38.303204],[26.873979,38.303207],[26.873828,38.30317],[26.873629,38.303065],[26.873477,38.303035],[26.873193,38.303093],[26.872692,38.30325],[26.872419,38.303181],[26.872248,38.303153],[26.872144,38.303165],[26.871839,38.303322],[26.871478,38.303384],[26.871208,38.303348],[26.871045,38.303291],[26.870921,38.3033],[26.870864,38.303357],[26.870778,38.30349],[26.870686,38.303534],[26.869541,38.30355],[26.869168,38.303457],[26.868891,38.303265],[26.868535,38.303172],[26.867887,38.303463],[26.867182,38.303825],[26.867069,38.30363],[26.866701,38.303183],[26.8665,38.302811],[26.866226,38.302505],[26.865924,38.302172],[26.865197,38.301939],[26.864447,38.301213],[26.864369,38.301065],[26.863799,38.299975],[26.863414,38.299951],[26.862747,38.300071],[26.862415,38.300157],[26.862297,38.300094],[26.86206,38.299754],[26.861793,38.299689],[26.861629,38.299743],[26.861389,38.299646],[26.861235,38.299359],[26.861114,38.298966],[26.86046,38.299108],[26.860058,38.299544],[26.859773,38.299569],[26.859571,38.299417],[26.85962,38.298507],[26.858353,38.297437],[26.858166,38.297179],[26.856298,38.296419],[26.856136,38.29588],[26.855104,38.295321],[26.854638,38.294896],[26.853797,38.294709],[26.853701,38.294313],[26.852719,38.293605],[26.852111,38.29349],[26.851652,38.29341],[26.851242,38.293391],[26.850811,38.293439],[26.850396,38.293332],[26.850169,38.293141],[26.849988,38.292783],[26.849519,38.292845],[26.848851,38.292373],[26.848648,38.292161],[26.848055,38.29172],[26.848131,38.291431],[26.848015,38.2911],[26.848161,38.290837],[26.848189,38.290731],[26.847971,38.290096],[26.847304,38.289189],[26.847611,38.288895],[26.847166,38.288563],[26.847072,38.288265],[26.846823,38.287976],[26.846805,38.287369],[26.846336,38.28708],[26.846071,38.286816],[26.845584,38.286715],[26.845482,38.286634],[26.845265,38.28615],[26.844871,38.285915],[26.844813,38.286129],[26.844555,38.286498],[26.844258,38.287559],[26.844108,38.287677],[26.843977,38.28802],[26.844182,38.288406],[26.844084,38.28885],[26.843908,38.289278],[26.843841,38.289774],[26.844292,38.29099],[26.844097,38.291629],[26.843944,38.291729],[26.843038,38.291701],[26.842524,38.291815],[26.841918,38.292174],[26.841734,38.292141],[26.84164,38.292233],[26.841566,38.292486],[26.841336,38.292786],[26.840942,38.292983],[26.840579,38.293295],[26.840095,38.293478],[26.839701,38.293513],[26.838863,38.293814],[26.838187,38.293974],[26.837759,38.29427],[26.837442,38.294459],[26.837039,38.294606],[26.836571,38.294581],[26.836312,38.294874],[26.836425,38.295097],[26.835823,38.295399],[26.835261,38.296012],[26.834693,38.296689],[26.834147,38.296891],[26.833673,38.297059],[26.833629,38.297288],[26.833461,38.297516],[26.833118,38.297853],[26.832878,38.298164],[26.832726,38.298487],[26.83247,38.298749],[26.832086,38.299094],[26.831764,38.299265],[26.831515,38.299355],[26.831135,38.299485],[26.829944,38.299663],[26.829174,38.299704],[26.828726,38.299677],[26.826865,38.299626],[26.824247,38.298729],[26.816795,38.300119],[26.816945,38.300856],[26.817232,38.302267],[26.815064,38.304143],[26.814557,38.304106],[26.814196,38.304054],[26.813735,38.30408],[26.813553,38.304132],[26.813299,38.304312],[26.813132,38.304392],[26.811951,38.304546],[26.81149,38.304631],[26.811417,38.304639],[26.810969,38.304643],[26.810782,38.304815],[26.810693,38.304897],[26.810654,38.305168],[26.810669,38.305649],[26.810707,38.305969],[26.810725,38.306568],[26.810727,38.306885],[26.811041,38.306973],[26.811024,38.307179],[26.81111,38.307709],[26.810997,38.307787],[26.810644,38.307945],[26.810369,38.307939],[26.810269,38.30834],[26.810489,38.30889],[26.810582,38.308942],[26.81053,38.309098],[26.810513,38.3097],[26.810331,38.309944],[26.810253,38.310294],[26.810271,38.31048],[26.810295,38.310736],[26.810024,38.311088],[26.810156,38.311274],[26.810061,38.31142],[26.810222,38.311715],[26.810461,38.311891],[26.810673,38.312216],[26.810843,38.312283],[26.811126,38.31257],[26.811372,38.31267],[26.811527,38.313008],[26.811834,38.313279],[26.812046,38.313262],[26.812203,38.313424],[26.812214,38.313628],[26.812159,38.313743],[26.812454,38.313971],[26.812678,38.314324],[26.812888,38.314643],[26.812916,38.315024],[26.813131,38.315244],[26.813428,38.315122],[26.813608,38.315249],[26.813828,38.315812],[26.814039,38.316068],[26.814207,38.316219],[26.814328,38.316592],[26.814526,38.316724],[26.814463,38.317013],[26.814743,38.317188],[26.815157,38.318159],[26.814759,38.318286],[26.814829,38.318888],[26.814807,38.319276],[26.815263,38.319781],[26.815003,38.320063],[26.814697,38.320999],[26.814848,38.321406],[26.814827,38.322061],[26.81452,38.322575],[26.814261,38.322997],[26.814243,38.323388],[26.814427,38.323679],[26.814783,38.323837],[26.814841,38.323978],[26.814888,38.324259],[26.814847,38.324784],[26.814319,38.324878],[26.814879,38.325337],[26.814753,38.325952],[26.814616,38.326172],[26.814602,38.326297],[26.814973,38.326363],[26.814978,38.326481],[26.814698,38.326678],[26.814467,38.326882],[26.814525,38.327009],[26.814424,38.327217],[26.814588,38.328019],[26.814756,38.328091],[26.815138,38.328122],[26.815265,38.328351],[26.815358,38.328843],[26.815369,38.32902],[26.815,38.329045],[26.813935,38.329255],[26.814011,38.329444],[26.814411,38.329648],[26.814908,38.329661],[26.814868,38.329884],[26.814152,38.3303],[26.814216,38.330447],[26.814434,38.330497],[26.814593,38.330818],[26.81475,38.330761],[26.815283,38.330681],[26.815432,38.330659],[26.815576,38.330642],[26.815566,38.330609],[26.815866,38.330585],[26.816105,38.330557],[26.816169,38.330546],[26.816228,38.330548],[26.816105,38.330909],[26.816053,38.331156],[26.815825,38.33132],[26.81622,38.331256],[26.817096,38.331332],[26.817501,38.331227],[26.817855,38.331074],[26.818166,38.330992],[26.818255,38.331039],[26.8184,38.330978],[26.818525,38.330769],[26.818733,38.330576],[26.818948,38.330525],[26.819163,38.330519],[26.819264,38.330463],[26.819604,38.329985],[26.819686,38.330013],[26.819814,38.330055],[26.820134,38.330162],[26.820364,38.33019],[26.820768,38.330351],[26.821006,38.33045],[26.821734,38.330636],[26.822324,38.330787],[26.823515,38.331091],[26.824522,38.331236],[26.827513,38.331273],[26.83069,38.326105],[26.833056,38.325072],[26.834432,38.324142],[26.838422,38.324303],[26.839972,38.324009],[26.842891,38.323759],[26.843828,38.323604],[26.844497,38.323624],[26.844919,38.32341],[26.845127,38.32325],[26.8454,38.323173],[26.846087,38.322838],[26.846952,38.322819],[26.847078,38.322681],[26.847415,38.322324],[26.84757,38.322377],[26.847966,38.322496],[26.848304,38.322654],[26.849528,38.323196],[26.849873,38.323571],[26.850501,38.323325],[26.851499,38.322975],[26.851772,38.322845],[26.852007,38.32281],[26.852394,38.322778],[26.85257,38.322809],[26.852731,38.322875],[26.852851,38.322912],[26.852933,38.322906],[26.853028,38.322887],[26.853125,38.322881],[26.853198,38.3229],[26.853382,38.322965],[26.853659,38.322972],[26.853845,38.322974],[26.854152,38.323022],[26.854479,38.323143],[26.854942,38.323274],[26.855285,38.323232],[26.855486,38.323259],[26.855707,38.323373],[26.855969,38.323522],[26.856103,38.323544],[26.856283,38.323703],[26.856291,38.323964],[26.856487,38.324135],[26.856746,38.324165],[26.856823,38.324267],[26.856758,38.32435],[26.856722,38.324478],[26.856741,38.324564],[26.856828,38.324617],[26.857424,38.324792],[26.857744,38.324426],[26.857971,38.32385],[26.857979,38.32385],[26.858917,38.32388],[26.859114,38.323885],[26.859369,38.323891]]]}},{"type":"Feature","properties":{"id":"TR-Y-35-014-M-0003","level":"yerlesim","type":"mahalle","parent_id":"TR-D-35-014","province_id":"TR-P-35","district_id":"TR-D-35-014","name":"Çelebi","source_raw_name":"ÇELEBİ","source":"Kullanıcı tarafından sağlanan KML","source_label":"Kullanıcı tarafından sağlanan KML","source_name":"Izmir Mahalle KML - kullanici tarafindan saglandi"},"geometry":{"type":"Polygon","coordinates":[[[26.887459,38.360983],[26.887569,38.360843],[26.887762,38.360595],[26.887945,38.360361],[26.888018,38.360271],[26.887643,38.360064],[26.887566,38.360069],[26.887395,38.359896],[26.887222,38.359688],[26.887152,38.359614],[26.887071,38.359536],[26.887056,38.359554],[26.887024,38.359533],[26.886752,38.35937],[26.886445,38.359185],[26.886448,38.359122],[26.885927,38.358951],[26.885774,38.359132],[26.885651,38.359245],[26.885499,38.359386],[26.885115,38.359739],[26.884877,38.359961],[26.884865,38.359972],[26.884745,38.360104],[26.884258,38.36069],[26.884168,38.360798],[26.883948,38.361044],[26.883656,38.361372],[26.883298,38.361774],[26.883038,38.362066],[26.882862,38.362202],[26.882641,38.362414],[26.882522,38.362528],[26.882476,38.362613],[26.882467,38.362629],[26.882426,38.362705],[26.882301,38.362764],[26.882063,38.362875],[26.881864,38.362988],[26.881649,38.363141],[26.881366,38.36338],[26.881319,38.36342],[26.880935,38.363789],[26.880803,38.363916],[26.880771,38.363947],[26.880609,38.364086],[26.880516,38.364175],[26.880376,38.364309],[26.880088,38.364584],[26.880011,38.364658],[26.879658,38.364999],[26.879341,38.365306],[26.878744,38.36583],[26.878615,38.365865],[26.878514,38.365893],[26.877937,38.366065],[26.87728,38.36638],[26.877097,38.366461],[26.876447,38.366749],[26.876102,38.366901],[26.87548,38.367147],[26.875032,38.36735],[26.874071,38.367775],[26.874406,38.369268],[26.874535,38.369812],[26.875626,38.370045],[26.876615,38.370203],[26.877391,38.370301],[26.878195,38.370379],[26.879136,38.370428],[26.88034,38.370451],[26.880769,38.370451],[26.883265,38.370474],[26.883892,38.370476],[26.884424,38.370478],[26.887009,38.3705],[26.892132,38.370536],[26.892101,38.370407],[26.892044,38.370129],[26.892014,38.369981],[26.891981,38.369697],[26.89201,38.36938],[26.892111,38.368841],[26.892279,38.367921],[26.892283,38.367759],[26.892122,38.367259],[26.891715,38.366266],[26.891709,38.366251],[26.891176,38.364988],[26.890794,38.364055],[26.890628,38.363653],[26.890558,38.36336],[26.890476,38.363016],[26.890467,38.362976],[26.890449,38.362846],[26.890417,38.36261],[26.890364,38.362223],[26.890218,38.361894],[26.89005,38.361698],[26.889815,38.361415],[26.889769,38.361374],[26.889537,38.361168],[26.889477,38.361123],[26.889308,38.360997],[26.889186,38.360963],[26.889025,38.360908],[26.88898,38.360889],[26.888895,38.36094],[26.888447,38.361283],[26.888294,38.361401],[26.887818,38.361788],[26.887602,38.361963],[26.887235,38.362185],[26.887148,38.362238],[26.886787,38.362467],[26.886605,38.362574],[26.886385,38.362705],[26.886285,38.362772],[26.886122,38.362902],[26.885942,38.362913],[26.886059,38.362747],[26.886178,38.362587],[26.886268,38.362479],[26.886354,38.362373],[26.886718,38.361917],[26.887041,38.361521],[26.887125,38.361412],[26.887205,38.361309],[26.887259,38.36124],[26.887459,38.360983]]]}},{"type":"Feature","properties":{"id":"TR-Y-35-014-M-0004","level":"yerlesim","type":"mahalle","parent_id":"TR-D-35-014","province_id":"TR-P-35","district_id":"TR-D-35-014","name":"Kahramandere","source_raw_name":"KAHRAMANDERE","source":"Kullanıcı tarafından sağlanan KML","source_label":"Kullanıcı tarafından sağlanan KML","source_name":"Izmir Mahalle KML - kullanici tarafindan saglandi"},"geometry":{"type":"Polygon","coordinates":[[[26.861359,38.359614],[26.863596,38.362537],[26.865972,38.364942],[26.866746,38.36571],[26.868447,38.367094],[26.869601,38.367856],[26.871294,38.368673],[26.872877,38.369318],[26.874535,38.369812],[26.874406,38.369268],[26.874071,38.367775],[26.875032,38.36735],[26.87548,38.367147],[26.876102,38.366901],[26.876447,38.366749],[26.877097,38.366461],[26.87728,38.36638],[26.877937,38.366065],[26.878514,38.365893],[26.878615,38.365865],[26.878744,38.36583],[26.879341,38.365306],[26.879658,38.364999],[26.880011,38.364658],[26.880088,38.364584],[26.880376,38.364309],[26.880516,38.364175],[26.880609,38.364086],[26.880771,38.363947],[26.880803,38.363916],[26.880935,38.363789],[26.881319,38.36342],[26.881366,38.36338],[26.881649,38.363141],[26.881864,38.362988],[26.882063,38.362875],[26.882301,38.362764],[26.882426,38.362705],[26.882467,38.362629],[26.882476,38.362613],[26.882522,38.362528],[26.882641,38.362414],[26.882862,38.362202],[26.883038,38.362066],[26.883298,38.361774],[26.883656,38.361372],[26.883948,38.361044],[26.884168,38.360798],[26.884258,38.36069],[26.884745,38.360104],[26.884865,38.359972],[26.884877,38.359961],[26.885115,38.359739],[26.885499,38.359386],[26.885651,38.359245],[26.885774,38.359132],[26.885927,38.358951],[26.885964,38.358871],[26.885679,38.35876],[26.88553,38.358702],[26.885387,38.358633],[26.885348,38.358597],[26.885296,38.358504],[26.885274,38.358452],[26.885173,38.35822],[26.885138,38.358108],[26.885129,38.358081],[26.885104,38.357952],[26.885095,38.35785],[26.885094,38.357833],[26.885096,38.357762],[26.885124,38.357659],[26.885143,38.357571],[26.885141,38.357509],[26.88517,38.357358],[26.884745,38.357055],[26.884327,38.356732],[26.884167,38.356578],[26.884363,38.356565],[26.884451,38.35655],[26.884539,38.356522],[26.884584,38.356488],[26.884579,38.35647],[26.88458,38.356469],[26.884577,38.356454],[26.884635,38.356381],[26.884647,38.356357],[26.884682,38.35632],[26.884705,38.356311],[26.88475,38.356283],[26.884783,38.356268],[26.8848,38.356255],[26.884808,38.356239],[26.884811,38.356156],[26.884834,38.356123],[26.884959,38.35598],[26.885016,38.355923],[26.885073,38.355877],[26.885122,38.355829],[26.885138,38.355821],[26.885169,38.355752],[26.885169,38.355697],[26.885166,38.355656],[26.885168,38.355627],[26.885159,38.355563],[26.885174,38.355532],[26.885301,38.355499],[26.885338,38.355481],[26.885367,38.355463],[26.885441,38.35538],[26.885568,38.355209],[26.885567,38.3552],[26.885225,38.354521],[26.885486,38.354378],[26.885637,38.35441],[26.885923,38.354426],[26.886141,38.354416],[26.885895,38.353759],[26.885952,38.353737],[26.88608,38.353673],[26.88689,38.353276],[26.887252,38.353312],[26.887667,38.353353],[26.8877,38.353305],[26.88771,38.35329],[26.887741,38.353243],[26.887806,38.353128],[26.887871,38.353063],[26.887976,38.35297],[26.887993,38.352802],[26.888022,38.352713],[26.888038,38.35267],[26.888059,38.352606],[26.88823,38.352514],[26.887221,38.352427],[26.885418,38.350858],[26.884822,38.350749],[26.883836,38.350712],[26.883122,38.349966],[26.883168,38.349379],[26.883168,38.349378],[26.883283,38.348516],[26.883623,38.34824],[26.88441,38.348116],[26.884253,38.347782],[26.883742,38.347759],[26.883102,38.347731],[26.883571,38.346669],[26.884628,38.345797],[26.883482,38.345593],[26.882534,38.346667],[26.880576,38.346928],[26.880521,38.34726],[26.880203,38.347323],[26.879936,38.347376],[26.878522,38.348502],[26.878143,38.348803],[26.877771,38.348981],[26.878038,38.34927],[26.878193,38.349428],[26.878094,38.349489],[26.877919,38.349595],[26.876551,38.349718],[26.876249,38.349809],[26.875557,38.350696],[26.875422,38.350752],[26.875404,38.35076],[26.875325,38.350814],[26.875014,38.350938],[26.874867,38.350999],[26.874389,38.351198],[26.873899,38.351395],[26.873391,38.351599],[26.873011,38.351755],[26.872741,38.351882],[26.872558,38.352005],[26.87245,38.3521],[26.871991,38.352469],[26.871455,38.352244],[26.870632,38.352861],[26.870754,38.353011],[26.870451,38.353261],[26.869482,38.353124],[26.868944,38.353384],[26.868576,38.353536],[26.868727,38.354286],[26.868322,38.35432],[26.868326,38.354886],[26.867976,38.354905],[26.867952,38.355121],[26.867919,38.35511],[26.86743,38.355218],[26.867392,38.355641],[26.867495,38.356079],[26.866835,38.356179],[26.866799,38.356206],[26.866909,38.356316],[26.867144,38.356628],[26.867193,38.356716],[26.867309,38.356923],[26.867421,38.357302],[26.867773,38.357912],[26.867366,38.358025],[26.867215,38.358048],[26.867101,38.358071],[26.867023,38.358092],[26.866699,38.358217],[26.866581,38.358269],[26.866399,38.358316],[26.866126,38.35836],[26.865883,38.358406],[26.865688,38.358457],[26.865532,38.358483],[26.865463,38.358486],[26.865174,38.358538],[26.864948,38.358572],[26.864905,38.358583],[26.864871,38.358632],[26.864918,38.35873],[26.865016,38.358981],[26.865139,38.359348],[26.865145,38.359397],[26.864177,38.359496],[26.86406,38.3595],[26.863594,38.359491],[26.862032,38.359532],[26.861359,38.359614]]]}},{"type":"Feature","properties":{"id":"TR-Y-35-014-M-0005","level":"yerlesim","type":"mahalle","parent_id":"TR-D-35-014","province_id":"TR-P-35","district_id":"TR-D-35-014","name":"Küçükkaya","source_raw_name":"KÜÇÜKKAYA","source":"Kullanıcı tarafından sağlanan KML","source_label":"Kullanıcı tarafından sağlanan KML","source_name":"Izmir Mahalle KML - kullanici tarafindan saglandi"},"geometry":{"type":"Polygon","coordinates":[[[26.892191,38.352261],[26.892325,38.352241],[26.892585,38.352275],[26.892985,38.352338],[26.893287,38.352287],[26.89343,38.35221],[26.893586,38.351908],[26.893592,38.351873],[26.893071,38.351336],[26.892965,38.351227],[26.892884,38.351144],[26.893153,38.351014],[26.893319,38.350816],[26.893509,38.350485],[26.893453,38.350153],[26.893354,38.349974],[26.893184,38.34982],[26.892993,38.349126],[26.892908,38.348802],[26.89284,38.348511],[26.892738,38.348283],[26.892867,38.348258],[26.892937,38.348275],[26.893037,38.348349],[26.893157,38.348517],[26.893286,38.34861],[26.893391,38.348635],[26.893477,38.34863],[26.893587,38.348624],[26.893644,38.348564],[26.893779,38.348447],[26.893993,38.348233],[26.894211,38.348039],[26.894383,38.3479],[26.894489,38.347717],[26.894603,38.347498],[26.894644,38.347282],[26.894648,38.347237],[26.894687,38.347111],[26.895279,38.347262],[26.895719,38.347592],[26.897106,38.348404],[26.897561,38.348128],[26.897455,38.347866],[26.897539,38.347663],[26.897759,38.347747],[26.898099,38.348034],[26.899007,38.348709],[26.89921,38.348536],[26.898952,38.347987],[26.899261,38.348023],[26.899435,38.34813],[26.899792,38.348869],[26.900628,38.348682],[26.901015,38.349224],[26.900484,38.349418],[26.900512,38.349544],[26.900523,38.349675],[26.900502,38.349815],[26.90045,38.35008],[26.900483,38.350099],[26.90055,38.350107],[26.900689,38.350071],[26.900954,38.350044],[26.901198,38.350033],[26.901449,38.349931],[26.902134,38.350132],[26.902237,38.350163],[26.90269,38.349878],[26.902963,38.349618],[26.903073,38.348824],[26.903046,38.34872],[26.902856,38.34847],[26.902992,38.348184],[26.903319,38.347895],[26.903421,38.347566],[26.9033,38.347155],[26.903003,38.346692],[26.90304,38.346061],[26.903367,38.345383],[26.903606,38.34489],[26.904118,38.344696],[26.904716,38.343901],[26.904748,38.343431],[26.904869,38.343109],[26.905856,38.341458],[26.907319,38.340483],[26.908887,38.339877],[26.908681,38.339629],[26.908681,38.339629],[26.908526,38.339441],[26.908285,38.338961],[26.908126,38.338406],[26.907912,38.338016],[26.907579,38.337517],[26.907215,38.337082],[26.906893,38.336616],[26.906339,38.336269],[26.905923,38.336071],[26.905663,38.335873],[26.905448,38.33572],[26.90553,38.335663],[26.905471,38.335544],[26.905041,38.334637],[26.904862,38.334046],[26.904772,38.333573],[26.904648,38.333471],[26.904601,38.333421],[26.904475,38.333342],[26.904358,38.333223],[26.904301,38.333155],[26.904161,38.333036],[26.904124,38.332977],[26.904076,38.332905],[26.903989,38.332823],[26.903879,38.332747],[26.903733,38.332689],[26.903601,38.33265],[26.903523,38.332619],[26.903455,38.332574],[26.903389,38.332514],[26.90336,38.332405],[26.903332,38.332259],[26.903312,38.332146],[26.903276,38.331931],[26.90327,38.331774],[26.903253,38.331691],[26.903231,38.331631],[26.903193,38.331559],[26.903134,38.331491],[26.903087,38.331419],[26.903051,38.331371],[26.903014,38.331327],[26.903009,38.331258],[26.902998,38.331154],[26.90298,38.33106],[26.902984,38.330965],[26.902983,38.330919],[26.902971,38.330839],[26.902932,38.330776],[26.902775,38.330615],[26.902713,38.330549],[26.902641,38.330483],[26.902396,38.330194],[26.902034,38.330333],[26.901767,38.330415],[26.901683,38.330427],[26.901549,38.330423],[26.901348,38.330427],[26.901176,38.330402],[26.900939,38.330362],[26.900712,38.330292],[26.900699,38.330269],[26.900661,38.330159],[26.900631,38.330075],[26.900575,38.329918],[26.900524,38.329809],[26.900503,38.329735],[26.900457,38.329535],[26.900434,38.329408],[26.900422,38.329299],[26.900447,38.329212],[26.900482,38.329169],[26.900492,38.329134],[26.90049,38.329044],[26.900508,38.3289],[26.900562,38.328798],[26.900616,38.328752],[26.900658,38.328713],[26.90071,38.328655],[26.900733,38.328573],[26.900721,38.328538],[26.900692,38.3285],[26.900665,38.328478],[26.900611,38.328446],[26.900547,38.328408],[26.900483,38.328371],[26.900416,38.328323],[26.900363,38.328279],[26.900337,38.328246],[26.900309,38.328192],[26.900299,38.328145],[26.900291,38.328077],[26.900291,38.328031],[26.900293,38.32797],[26.900292,38.327926],[26.900285,38.327897],[26.900255,38.327852],[26.900222,38.327818],[26.900108,38.327689],[26.900091,38.327646],[26.900019,38.327466],[26.9,38.327431],[26.899976,38.327389],[26.899906,38.327298],[26.899833,38.327232],[26.899771,38.32717],[26.899717,38.32709],[26.899661,38.326987],[26.899624,38.326915],[26.899439,38.326723],[26.899233,38.326532],[26.898971,38.326333],[26.898744,38.326158],[26.898593,38.326043],[26.898538,38.325848],[26.898538,38.325689],[26.898472,38.325594],[26.898534,38.325384],[26.89876,38.325244],[26.898971,38.325235],[26.898975,38.324842],[26.89888,38.32449],[26.898667,38.323854],[26.898811,38.323826],[26.899325,38.323537],[26.899295,38.323482],[26.898991,38.323493],[26.898827,38.323474],[26.898751,38.323332],[26.898666,38.322881],[26.898762,38.322624],[26.89887,38.322339],[26.898942,38.322092],[26.898905,38.321952],[26.898678,38.321826],[26.8986,38.321699],[26.898377,38.321371],[26.897694,38.321009],[26.897595,38.320922],[26.89753,38.321002],[26.896924,38.321237],[26.895689,38.321712],[26.895437,38.321808],[26.894889,38.322022],[26.894579,38.322167],[26.893787,38.322385],[26.893251,38.322525],[26.892823,38.322624],[26.892394,38.322483],[26.892113,38.322471],[26.89207,38.322465],[26.891623,38.3224],[26.891508,38.322398],[26.891125,38.322353],[26.890813,38.322692],[26.890554,38.322745],[26.8903,38.322573],[26.890075,38.322625],[26.889999,38.322642],[26.889958,38.322644],[26.889922,38.322621],[26.889699,38.322309],[26.889504,38.321999],[26.889443,38.321792],[26.889321,38.321654],[26.889264,38.321589],[26.889078,38.320945],[26.889403,38.320725],[26.889425,38.320633],[26.889473,38.3205],[26.889272,38.320364],[26.889157,38.320291],[26.888898,38.320343],[26.888453,38.320431],[26.888332,38.320375],[26.888391,38.32065],[26.888297,38.320628],[26.888196,38.320656],[26.888117,38.320823],[26.887933,38.320844],[26.887756,38.320849],[26.887698,38.32085],[26.887531,38.320732],[26.887069,38.320693],[26.886511,38.320614],[26.886207,38.320357],[26.886092,38.320123],[26.8863,38.319932],[26.886314,38.319837],[26.885875,38.319655],[26.885722,38.31965],[26.885669,38.319648],[26.885554,38.319665],[26.885505,38.319699],[26.885486,38.319768],[26.885381,38.319967],[26.885181,38.319937],[26.885023,38.319762],[26.884961,38.319498],[26.884786,38.319179],[26.884742,38.319505],[26.884574,38.319606],[26.884295,38.319801],[26.883981,38.320014],[26.883806,38.320044],[26.882831,38.320364],[26.882736,38.320493],[26.882428,38.32067],[26.882235,38.320949],[26.882074,38.32121],[26.881841,38.321314],[26.881708,38.321454],[26.881166,38.322034],[26.881141,38.322069],[26.881036,38.321923],[26.880986,38.321754],[26.88094,38.321753],[26.880828,38.32169],[26.879732,38.321445],[26.87955,38.321745],[26.879435,38.321944],[26.879255,38.322104],[26.879103,38.32231],[26.878915,38.322104],[26.878754,38.321863],[26.878368,38.321545],[26.878199,38.321476],[26.877992,38.321358],[26.877737,38.321269],[26.877614,38.321211],[26.877578,38.321185],[26.877518,38.321156],[26.877474,38.321135],[26.877446,38.32109],[26.877339,38.321056],[26.876675,38.321154],[26.876055,38.321247],[26.875701,38.32131],[26.875344,38.32145],[26.874993,38.321551],[26.874743,38.321622],[26.874367,38.321771],[26.874145,38.321832],[26.873838,38.321905],[26.87347,38.321859],[26.873328,38.321841],[26.873076,38.321829],[26.872968,38.321823],[26.872518,38.321867],[26.87247,38.32188],[26.872433,38.321904],[26.872627,38.32207],[26.872904,38.322071],[26.87319,38.322108],[26.873344,38.322236],[26.873444,38.322443],[26.873407,38.322567],[26.873071,38.323026],[26.873083,38.323186],[26.873177,38.32329],[26.873826,38.3235],[26.87397,38.323592],[26.874149,38.324156],[26.874865,38.326711],[26.875051,38.32737],[26.875068,38.328414],[26.875223,38.328863],[26.875961,38.329734],[26.875884,38.329811],[26.875899,38.329963],[26.875997,38.330075],[26.875911,38.330394],[26.875824,38.330807],[26.875805,38.331157],[26.875861,38.331564],[26.876144,38.332177],[26.876242,38.332623],[26.876623,38.333767],[26.876862,38.334144],[26.877144,38.334556],[26.877658,38.335461],[26.8774,38.335987],[26.878125,38.336025],[26.878466,38.336033],[26.878664,38.336458],[26.879042,38.336769],[26.88002,38.337601],[26.881129,38.336703],[26.882001,38.336931],[26.881742,38.337411],[26.881555,38.337537],[26.881543,38.337778],[26.881679,38.339406],[26.881554,38.339742],[26.882584,38.340124],[26.882936,38.340215],[26.883195,38.340339],[26.883396,38.340669],[26.883913,38.34099],[26.883837,38.341048],[26.883844,38.341162],[26.883332,38.341539],[26.883406,38.34157],[26.883699,38.341969],[26.883729,38.342011],[26.8841,38.342396],[26.884229,38.342795],[26.885046,38.343396],[26.885872,38.344083],[26.885457,38.344777],[26.885528,38.3448],[26.886621,38.345146],[26.886707,38.345169],[26.8866,38.34535],[26.886606,38.345381],[26.887031,38.345561],[26.886781,38.346698],[26.887129,38.346881],[26.887346,38.346978],[26.887087,38.348115],[26.886919,38.348884],[26.886886,38.349029],[26.886198,38.349899],[26.886155,38.349954],[26.885523,38.350729],[26.885418,38.350858],[26.887221,38.352427],[26.88823,38.352514],[26.88853,38.352536],[26.888649,38.352546],[26.888701,38.352551],[26.888963,38.352574],[26.891483,38.352792],[26.891796,38.352819],[26.891879,38.352717],[26.892039,38.352373],[26.892191,38.352261]]]}},{"type":"Feature","properties":{"id":"TR-Y-35-014-M-0006","level":"yerlesim","type":"mahalle","parent_id":"TR-D-35-014","province_id":"TR-P-35","district_id":"TR-D-35-014","name":"Maltepe","source_raw_name":"MALTEPE","source":"Kullanıcı tarafından sağlanan KML","source_label":"Kullanıcı tarafından sağlanan KML","source_name":"Izmir Mahalle KML - kullanici tarafindan saglandi"},"geometry":{"type":"Polygon","coordinates":[[[26.92512,38.371435],[26.924522,38.371219],[26.924146,38.371096],[26.923656,38.370958],[26.92278,38.370791],[26.922266,38.370722],[26.92137,38.370681],[26.920489,38.370713],[26.919597,38.370814],[26.918276,38.371096],[26.916478,38.371554],[26.915171,38.371771],[26.913998,38.37181],[26.913013,38.371733],[26.912127,38.371606],[26.911241,38.371395],[26.910271,38.371151],[26.908891,38.370828],[26.907904,38.370707],[26.907862,38.370705],[26.907115,38.370664],[26.90355,38.370636],[26.901942,38.370621],[26.902153,38.371093],[26.902228,38.371207],[26.90238,38.371439],[26.902463,38.371775],[26.902525,38.372006],[26.902559,38.372108],[26.9026,38.372167],[26.902414,38.372179],[26.902395,38.372195],[26.90238,38.372322],[26.902383,38.372345],[26.902391,38.372402],[26.902437,38.372566],[26.902399,38.372687],[26.902387,38.372734],[26.902432,38.372856],[26.902426,38.372891],[26.902259,38.373017],[26.902229,38.373055],[26.902237,38.373202],[26.902001,38.373372],[26.901651,38.373695],[26.90155,38.373771],[26.90138,38.373838],[26.901192,38.373989],[26.901014,38.374001],[26.900866,38.374279],[26.900927,38.374719],[26.901012,38.374968],[26.900947,38.375341],[26.900838,38.375484],[26.900783,38.37556],[26.900742,38.375686],[26.900706,38.375863],[26.900697,38.376025],[26.900677,38.376101],[26.900544,38.376257],[26.900528,38.376361],[26.900531,38.37658],[26.900485,38.376591],[26.900395,38.377009],[26.900574,38.377249],[26.90069,38.377668],[26.900509,38.378386],[26.900217,38.378873],[26.900426,38.378896],[26.900835,38.37897],[26.902528,38.379279],[26.902512,38.379359],[26.902644,38.379386],[26.902662,38.379303],[26.905064,38.379741],[26.905697,38.379859],[26.906471,38.380122],[26.90689,38.380183],[26.906871,38.380265],[26.906914,38.380377],[26.907028,38.380507],[26.907093,38.380478],[26.906977,38.380345],[26.906978,38.380176],[26.908152,38.380417],[26.908089,38.380613],[26.908157,38.380626],[26.908245,38.380436],[26.910662,38.380931],[26.910666,38.38101],[26.910687,38.381082],[26.910728,38.381145],[26.910789,38.38113],[26.910748,38.381073],[26.910729,38.380962],[26.910794,38.38093],[26.911111,38.381006],[26.911894,38.381292],[26.911862,38.381382],[26.911901,38.381409],[26.911942,38.381331],[26.912726,38.381614],[26.913446,38.381705],[26.916104,38.382413],[26.91766,38.383019],[26.917799,38.382928],[26.919755,38.383588],[26.919749,38.383899],[26.919806,38.383915],[26.919891,38.383836],[26.919984,38.383886],[26.920178,38.383908],[26.920339,38.384013],[26.921056,38.384154],[26.921304,38.384204],[26.922455,38.38445],[26.922948,38.384653],[26.922972,38.384858],[26.923081,38.384851],[26.923118,38.384618],[26.923949,38.384403],[26.925152,38.384691],[26.925249,38.384931],[26.925375,38.384932],[26.925427,38.384908],[26.925396,38.384719],[26.925398,38.38471],[26.925344,38.384641],[26.925339,38.38463],[26.925311,38.384569],[26.925161,38.384238],[26.925104,38.384129],[26.92504,38.383987],[26.92495,38.383764],[26.924863,38.383614],[26.924682,38.383372],[26.924636,38.383171],[26.924574,38.382896],[26.924459,38.382444],[26.924348,38.38228],[26.924196,38.382178],[26.924037,38.382085],[26.923982,38.382034],[26.923959,38.381928],[26.924148,38.381174],[26.924148,38.38117],[26.924126,38.380873],[26.923974,38.380646],[26.923859,38.380518],[26.923834,38.380275],[26.923839,38.380076],[26.923805,38.379948],[26.92376,38.379776],[26.923563,38.379579],[26.923434,38.379379],[26.92318,38.379064],[26.923046,38.378871],[26.923031,38.378789],[26.92304,38.378735],[26.923126,38.37841],[26.923259,38.378173],[26.923321,38.377837],[26.923299,38.377538],[26.923301,38.377441],[26.923324,38.377289],[26.923446,38.376866],[26.92346,38.376482],[26.923604,38.375965],[26.923722,38.375426],[26.923632,38.375143],[26.923613,38.374866],[26.923549,38.374473],[26.923497,38.374263],[26.923485,38.374216],[26.9235,38.373927],[26.923656,38.373635],[26.923876,38.373397],[26.924046,38.373251],[26.924243,38.373061],[26.924349,38.372927],[26.924425,38.372739],[26.924448,38.372495],[26.924528,38.372328],[26.924816,38.372012],[26.925055,38.371658],[26.92507,38.371494],[26.92512,38.371435]]]}},{"type":"Feature","properties":{"id":"TR-Y-35-014-M-0007","level":"yerlesim","type":"mahalle","parent_id":"TR-D-35-014","province_id":"TR-P-35","district_id":"TR-D-35-014","name":"Mustafa Kemal Paşa","source_raw_name":"MUSTAFA KEMAL PAŞA","source":"Kullanıcı tarafından sağlanan KML","source_label":"Kullanıcı tarafından sağlanan KML","source_name":"Izmir Mahalle KML - kullanici tarafindan saglandi"},"geometry":{"type":"Polygon","coordinates":[[[26.872784,38.351862],[26.873011,38.351755],[26.873391,38.351599],[26.873899,38.351395],[26.874389,38.351198],[26.874867,38.350999],[26.875014,38.350938],[26.875325,38.350814],[26.875404,38.35076],[26.875557,38.350696],[26.876249,38.349809],[26.876551,38.349718],[26.877919,38.349595],[26.878193,38.349428],[26.878038,38.34927],[26.877771,38.348981],[26.878143,38.348803],[26.878522,38.348502],[26.879936,38.347376],[26.880521,38.34726],[26.880576,38.346928],[26.882534,38.346667],[26.883482,38.345593],[26.884628,38.345797],[26.883571,38.346669],[26.883102,38.347731],[26.884253,38.347782],[26.88441,38.348116],[26.883623,38.34824],[26.883283,38.348516],[26.883168,38.349378],[26.883168,38.349379],[26.883122,38.349966],[26.883836,38.350712],[26.884822,38.350749],[26.885418,38.350858],[26.885523,38.350729],[26.886155,38.349954],[26.886198,38.349899],[26.886886,38.349029],[26.886919,38.348884],[26.887087,38.348115],[26.887346,38.346978],[26.887129,38.346881],[26.886781,38.346698],[26.887031,38.345561],[26.886606,38.345381],[26.8866,38.34535],[26.886707,38.345169],[26.886621,38.345146],[26.885528,38.3448],[26.885457,38.344777],[26.885872,38.344083],[26.885046,38.343396],[26.884229,38.342795],[26.8841,38.342396],[26.883729,38.342011],[26.883699,38.341969],[26.883406,38.34157],[26.883332,38.341539],[26.883844,38.341162],[26.883837,38.341048],[26.883913,38.34099],[26.883396,38.340669],[26.883195,38.340339],[26.882936,38.340215],[26.882584,38.340124],[26.881554,38.339742],[26.881679,38.339406],[26.881628,38.338801],[26.881543,38.337778],[26.881555,38.337537],[26.881742,38.337411],[26.882001,38.336931],[26.881129,38.336703],[26.88002,38.337601],[26.879042,38.336769],[26.878664,38.336458],[26.878466,38.336033],[26.878125,38.336025],[26.8774,38.335987],[26.877658,38.335461],[26.877144,38.334556],[26.876862,38.334144],[26.876623,38.333767],[26.876242,38.332623],[26.876144,38.332177],[26.875861,38.331564],[26.875805,38.331157],[26.875824,38.330807],[26.875911,38.330394],[26.875997,38.330075],[26.875899,38.329963],[26.875884,38.329811],[26.875961,38.329734],[26.875223,38.328863],[26.875068,38.328414],[26.875051,38.32737],[26.874865,38.326711],[26.874318,38.324759],[26.874149,38.324156],[26.87397,38.323592],[26.873826,38.3235],[26.873177,38.32329],[26.873083,38.323186],[26.873071,38.323026],[26.873407,38.322567],[26.873444,38.322443],[26.873122,38.322661],[26.872742,38.322898],[26.872065,38.323401],[26.871309,38.323882],[26.870871,38.32408],[26.870147,38.324405],[26.869547,38.324676],[26.86885,38.324208],[26.867728,38.323197],[26.862746,38.323583],[26.86313,38.331185],[26.863374,38.331511],[26.863393,38.331537],[26.863395,38.33154],[26.863413,38.331564],[26.863808,38.332105],[26.863923,38.33238],[26.864032,38.332497],[26.864173,38.332648],[26.864182,38.332658],[26.864421,38.333108],[26.864529,38.333575],[26.864604,38.333907],[26.864629,38.334016],[26.864784,38.334524],[26.864781,38.334639],[26.864777,38.334753],[26.864783,38.335131],[26.864851,38.335264],[26.865054,38.335651],[26.865252,38.33603],[26.865266,38.336055],[26.865375,38.336253],[26.865474,38.336387],[26.865575,38.336525],[26.865872,38.336838],[26.86626,38.337244],[26.866358,38.337347],[26.866394,38.337378],[26.866595,38.337548],[26.867021,38.337691],[26.86717,38.337789],[26.867283,38.337853],[26.867309,38.337868],[26.867449,38.337944],[26.867814,38.338184],[26.867847,38.338205],[26.868093,38.338365],[26.868171,38.338426],[26.868458,38.338647],[26.868577,38.338739],[26.868624,38.338801],[26.868711,38.338868],[26.868888,38.339008],[26.868987,38.339075],[26.869025,38.339085],[26.869116,38.340637],[26.868976,38.340637],[26.86897,38.340931],[26.868777,38.340935],[26.868772,38.341567],[26.869224,38.341394],[26.869358,38.341847],[26.869352,38.341922],[26.869349,38.341949],[26.869487,38.342367],[26.869533,38.34259],[26.86961,38.342967],[26.869635,38.343087],[26.869636,38.343159],[26.869639,38.343297],[26.869647,38.343632],[26.869654,38.343907],[26.869656,38.344005],[26.869671,38.344548],[26.869675,38.344692],[26.869683,38.344967],[26.869681,38.344992],[26.86965,38.345565],[26.86939,38.345758],[26.869253,38.345882],[26.869119,38.346004],[26.868892,38.346229],[26.868725,38.346445],[26.868635,38.346569],[26.86852,38.346749],[26.868465,38.346836],[26.868427,38.346895],[26.86809,38.347262],[26.867864,38.347505],[26.867831,38.347537],[26.86783,38.347537],[26.867653,38.347707],[26.867497,38.34786],[26.867194,38.348154],[26.867144,38.348291],[26.867075,38.348479],[26.866918,38.348845],[26.866591,38.349384],[26.866591,38.349384],[26.866868,38.349957],[26.866999,38.35023],[26.867388,38.351082],[26.867505,38.351343],[26.867673,38.35172],[26.867862,38.352143],[26.867947,38.352332],[26.86803,38.352492],[26.868106,38.352636],[26.868297,38.353002],[26.868348,38.3531],[26.868514,38.353421],[26.868576,38.353536],[26.868777,38.353453],[26.868944,38.353384],[26.869482,38.353124],[26.870451,38.353261],[26.870754,38.353011],[26.870632,38.352861],[26.871455,38.352244],[26.871991,38.352469],[26.872232,38.352275],[26.87245,38.3521],[26.872558,38.352005],[26.872741,38.351882],[26.872784,38.351862]]]}},{"type":"Feature","properties":{"id":"TR-Y-35-014-M-0008","level":"yerlesim","type":"mahalle","parent_id":"TR-D-35-014","province_id":"TR-P-35","district_id":"TR-D-35-014","name":"Payamlı","source_raw_name":"PAYAMLI","source":"Kullanıcı tarafından sağlanan KML","source_label":"Kullanıcı tarafından sağlanan KML","source_name":"Izmir Mahalle KML - kullanici tarafindan saglandi"},"geometry":{"type":"Polygon","coordinates":[[[26.897661,38.32084],[26.897595,38.320922],[26.897694,38.321009],[26.898377,38.321371],[26.8986,38.321699],[26.898678,38.321826],[26.898905,38.321952],[26.898942,38.322092],[26.89887,38.322339],[26.898762,38.322624],[26.898666,38.322881],[26.898751,38.323332],[26.898827,38.323474],[26.898991,38.323493],[26.899295,38.323482],[26.899325,38.323537],[26.898811,38.323826],[26.898667,38.323854],[26.89888,38.32449],[26.898975,38.324842],[26.898971,38.325235],[26.89876,38.325244],[26.898534,38.325384],[26.898472,38.325594],[26.898538,38.325689],[26.898538,38.325848],[26.898593,38.326043],[26.898744,38.326158],[26.898971,38.326333],[26.899233,38.326532],[26.899439,38.326723],[26.899624,38.326915],[26.899661,38.326987],[26.899717,38.32709],[26.899771,38.32717],[26.899833,38.327232],[26.899906,38.327298],[26.899976,38.327389],[26.9,38.327431],[26.900019,38.327466],[26.900091,38.327646],[26.900108,38.327689],[26.900222,38.327818],[26.900255,38.327852],[26.900285,38.327897],[26.900292,38.327926],[26.900293,38.32797],[26.900291,38.328031],[26.900291,38.328077],[26.900299,38.328145],[26.900309,38.328192],[26.900337,38.328246],[26.900363,38.328279],[26.900416,38.328323],[26.900483,38.328371],[26.900547,38.328408],[26.900611,38.328446],[26.900665,38.328478],[26.900692,38.3285],[26.900721,38.328538],[26.900733,38.328573],[26.90071,38.328655],[26.900658,38.328713],[26.900616,38.328752],[26.900562,38.328798],[26.900508,38.3289],[26.90049,38.329044],[26.900492,38.329134],[26.900482,38.329169],[26.900447,38.329212],[26.900422,38.329299],[26.900434,38.329408],[26.900457,38.329535],[26.900503,38.329735],[26.900524,38.329809],[26.900575,38.329918],[26.900631,38.330075],[26.900661,38.330159],[26.900699,38.330269],[26.900712,38.330292],[26.900939,38.330362],[26.901176,38.330402],[26.901348,38.330427],[26.901549,38.330423],[26.901683,38.330427],[26.901767,38.330415],[26.902034,38.330333],[26.902396,38.330194],[26.902641,38.330483],[26.902713,38.330549],[26.902775,38.330615],[26.902932,38.330776],[26.902971,38.330839],[26.902983,38.330919],[26.902984,38.330965],[26.90298,38.33106],[26.902998,38.331154],[26.903009,38.331258],[26.903014,38.331327],[26.903051,38.331371],[26.903087,38.331419],[26.903134,38.331491],[26.903193,38.331559],[26.903231,38.331631],[26.903253,38.331691],[26.90327,38.331774],[26.903276,38.331931],[26.903312,38.332146],[26.903332,38.332259],[26.90336,38.332405],[26.903389,38.332514],[26.903455,38.332574],[26.903523,38.332619],[26.903601,38.33265],[26.903733,38.332689],[26.903879,38.332747],[26.903989,38.332823],[26.904076,38.332905],[26.904124,38.332977],[26.904161,38.333036],[26.904301,38.333155],[26.904358,38.333223],[26.904475,38.333342],[26.904601,38.333421],[26.904648,38.333471],[26.904772,38.333573],[26.904862,38.334046],[26.905041,38.334637],[26.905471,38.335544],[26.90553,38.335663],[26.905448,38.33572],[26.905663,38.335873],[26.905923,38.336071],[26.906339,38.336269],[26.906893,38.336616],[26.907215,38.337082],[26.907579,38.337517],[26.907912,38.338016],[26.908126,38.338406],[26.908285,38.338961],[26.908526,38.339441],[26.908681,38.339629],[26.908681,38.339629],[26.908695,38.339646],[26.908887,38.339877],[26.909082,38.339858],[26.910075,38.339847],[26.910411,38.33974],[26.91063,38.339606],[26.910953,38.339104],[26.911618,38.33889],[26.912065,38.338514],[26.912823,38.338539],[26.913229,38.339197],[26.913478,38.339242],[26.914109,38.339102],[26.914496,38.339058],[26.914842,38.339114],[26.915731,38.338915],[26.916178,38.338897],[26.916775,38.339014],[26.918705,38.338312],[26.918952,38.338113],[26.919392,38.337699],[26.919709,38.33736],[26.920273,38.337268],[26.921165,38.337289],[26.921544,38.337406],[26.921661,38.337707],[26.922092,38.337635],[26.922273,38.337695],[26.922319,38.337546],[26.922482,38.337388],[26.922639,38.337346],[26.923132,38.337475],[26.923964,38.337896],[26.924368,38.337391],[26.924705,38.337175],[26.925016,38.33697],[26.92539,38.336866],[26.925507,38.336845],[26.925753,38.336723],[26.926215,38.336422],[26.926461,38.336303],[26.927343,38.336119],[26.927967,38.336072],[26.928508,38.336096],[26.929162,38.336072],[26.929276,38.336224],[26.929544,38.336445],[26.929908,38.336661],[26.93002,38.33697],[26.930137,38.337104],[26.930358,38.337211],[26.930225,38.337953],[26.930334,38.338059],[26.930715,38.338096],[26.930793,38.338185],[26.930664,38.338295],[26.930651,38.338374],[26.930896,38.338558],[26.931274,38.338599],[26.93152,38.338861],[26.931531,38.339048],[26.931622,38.33919],[26.931856,38.33938],[26.932253,38.339991],[26.932544,38.340297],[26.932624,38.34076],[26.932733,38.340899],[26.93301,38.341092],[26.933459,38.341219],[26.934174,38.341272],[26.934385,38.341216],[26.934455,38.341271],[26.934441,38.341511],[26.934484,38.341618],[26.934589,38.34171],[26.934727,38.341788],[26.935138,38.341932],[26.935415,38.342008],[26.935808,38.342068],[26.936038,38.342132],[26.936334,38.342286],[26.936534,38.342442],[26.936879,38.34288],[26.93705,38.342915],[26.93725,38.342924],[26.937402,38.343099],[26.937673,38.343105],[26.938046,38.343271],[26.938459,38.343399],[26.939063,38.343771],[26.939213,38.343768],[26.939464,38.343668],[26.939553,38.344127],[26.93976,38.343853],[26.940186,38.343853],[26.940331,38.343893],[26.940547,38.344057],[26.940708,38.344201],[26.940801,38.344295],[26.940851,38.344347],[26.940852,38.344348],[26.940866,38.344362],[26.940911,38.344393],[26.940958,38.344416],[26.941012,38.344434],[26.941338,38.344446],[26.941591,38.344414],[26.941663,38.344414],[26.941712,38.344425],[26.942547,38.344285],[26.943278,38.34408],[26.947117,38.342177],[26.947301,38.342086],[26.947972,38.342075],[26.948996,38.341596],[26.949905,38.340736],[26.94966,38.340385],[26.949951,38.34024],[26.950424,38.339625],[26.950873,38.339158],[26.95153,38.338475],[26.952164,38.338065],[26.952605,38.337873],[26.952006,38.337262],[26.95188,38.336709],[26.951813,38.336575],[26.951593,38.336488],[26.951157,38.336499],[26.950956,38.336461],[26.950421,38.336121],[26.950268,38.336081],[26.949805,38.336026],[26.94916,38.33555],[26.948809,38.335311],[26.948473,38.335188],[26.94796,38.334929],[26.947688,38.334974],[26.947499,38.334965],[26.947144,38.33402],[26.947294,38.333564],[26.947325,38.333332],[26.947156,38.333208],[26.946634,38.332886],[26.9466,38.332826],[26.946596,38.332301],[26.946501,38.332161],[26.94622,38.331639],[26.946032,38.331484],[26.945719,38.331533],[26.945102,38.331637],[26.944844,38.331762],[26.944763,38.331596],[26.944153,38.331474],[26.944405,38.330937],[26.944452,38.330353],[26.944289,38.329761],[26.944286,38.329656],[26.943962,38.329577],[26.943676,38.329248],[26.94369,38.328987],[26.943257,38.325354],[26.943116,38.324149],[26.942807,38.321202],[26.942172,38.319521],[26.941946,38.319076],[26.941278,38.318651],[26.94147,38.317765],[26.940785,38.317363],[26.940525,38.316925],[26.940587,38.316361],[26.940268,38.315992],[26.939778,38.313406],[26.939242,38.312338],[26.939237,38.311247],[26.939198,38.310605],[26.939189,38.309993],[26.9392,38.309827],[26.939181,38.309313],[26.938524,38.309156],[26.93796,38.309012],[26.937564,38.308762],[26.936977,38.308284],[26.936834,38.307804],[26.93654,38.307548],[26.936102,38.307532],[26.935652,38.307777],[26.935207,38.308041],[26.934714,38.308357],[26.934456,38.308923],[26.93379,38.308679],[26.933515,38.308052],[26.933752,38.306631],[26.933418,38.306522],[26.932027,38.306384],[26.929589,38.305954],[26.929407,38.305588],[26.928171,38.304583],[26.927906,38.303866],[26.927855,38.303394],[26.92744,38.30327],[26.926968,38.303539],[26.926853,38.303605],[26.926059,38.303846],[26.925588,38.303895],[26.925459,38.303082],[26.925677,38.302462],[26.925509,38.301565],[26.925109,38.301456],[26.924307,38.301237],[26.92393,38.301273],[26.923453,38.30176],[26.92322,38.302221],[26.923061,38.302443],[26.922791,38.302855],[26.922695,38.303016],[26.922295,38.304231],[26.921959,38.304417],[26.920036,38.304509],[26.919308,38.305374],[26.918654,38.306288],[26.918027,38.30686],[26.917173,38.307174],[26.916611,38.307231],[26.916257,38.306992],[26.915786,38.306765],[26.915287,38.306565],[26.915223,38.306642],[26.914761,38.307271],[26.914687,38.308141],[26.914618,38.308148],[26.914492,38.308127],[26.914316,38.30806],[26.914229,38.308017],[26.914062,38.30794],[26.913656,38.307816],[26.913491,38.307743],[26.913122,38.307489],[26.912986,38.307377],[26.91292,38.307323],[26.912878,38.30724],[26.912651,38.306563],[26.912163,38.306255],[26.911681,38.305884],[26.911591,38.305708],[26.911464,38.305139],[26.91143,38.304987],[26.911334,38.304841],[26.911041,38.304563],[26.910418,38.304135],[26.910311,38.303791],[26.910363,38.303527],[26.909743,38.303163],[26.909251,38.302951],[26.908907,38.302735],[26.90842,38.302621],[26.907901,38.302181],[26.907767,38.302013],[26.907529,38.301566],[26.907209,38.300926],[26.907163,38.300735],[26.90559,38.300175],[26.905587,38.300174],[26.905587,38.300175],[26.905589,38.300177],[26.906182,38.301539],[26.906144,38.302404],[26.906784,38.305653],[26.906784,38.307004],[26.905029,38.309098],[26.904088,38.310219],[26.902525,38.312084],[26.901662,38.31508],[26.900707,38.314215],[26.900272,38.314211],[26.899574,38.315667],[26.899425,38.31598],[26.899284,38.316213],[26.896247,38.319454],[26.896274,38.319707],[26.89631,38.320037],[26.89692,38.320384],[26.897095,38.320483],[26.897274,38.320609],[26.897385,38.320675],[26.897447,38.320712],[26.897661,38.32084]]]}},{"type":"Feature","properties":{"id":"TR-Y-35-014-M-0009","level":"yerlesim","type":"mahalle","parent_id":"TR-D-35-014","province_id":"TR-P-35","district_id":"TR-D-35-014","name":"Siteler","source_raw_name":"SİTELER","source":"Kullanıcı tarafından sağlanan KML","source_label":"Kullanıcı tarafından sağlanan KML","source_name":"Izmir Mahalle KML - kullanici tarafindan saglandi"},"geometry":{"type":"Polygon","coordinates":[[[26.857708,38.365356],[26.857579,38.365503],[26.857506,38.365773],[26.857763,38.366591],[26.858132,38.367571],[26.858145,38.368247],[26.857224,38.369529],[26.856776,38.370969],[26.856542,38.371358],[26.856496,38.371435],[26.856353,38.371615],[26.856203,38.371889],[26.855914,38.372413],[26.855578,38.372792],[26.854843,38.373511],[26.855459,38.373593],[26.855764,38.373582],[26.856285,38.373431],[26.858851,38.373277],[26.859532,38.373206],[26.861548,38.373547],[26.863488,38.373998],[26.863496,38.374515],[26.863817,38.374835],[26.864186,38.374983],[26.866171,38.375417],[26.866259,38.3754],[26.866305,38.375345],[26.866259,38.375274],[26.866169,38.375245],[26.865762,38.375179],[26.865702,38.375144],[26.864153,38.374775],[26.863727,38.374358],[26.86377,38.374036],[26.865404,38.374281],[26.865462,38.374107],[26.86575,38.374177],[26.865795,38.374377],[26.866085,38.374451],[26.865933,38.374858],[26.865969,38.37489],[26.866036,38.374902],[26.866097,38.374885],[26.866222,38.374404],[26.866415,38.374356],[26.866863,38.37445],[26.866911,38.374348],[26.868934,38.374579],[26.870409,38.374765],[26.873786,38.375451],[26.874954,38.375668],[26.875709,38.375748],[26.875653,38.375433],[26.875498,38.37489],[26.875471,38.374394],[26.875414,38.373945],[26.875386,38.373781],[26.875277,38.373152],[26.875205,38.372826],[26.874899,38.371439],[26.874785,38.370923],[26.874657,38.370343],[26.874535,38.369812],[26.872877,38.369318],[26.871294,38.368673],[26.869601,38.367856],[26.868447,38.367094],[26.866746,38.36571],[26.865972,38.364942],[26.863596,38.362537],[26.861359,38.359614],[26.861108,38.359774],[26.860952,38.360831],[26.86125,38.361401],[26.861395,38.361887],[26.861259,38.362177],[26.860453,38.363836],[26.860383,38.364444],[26.858747,38.364462],[26.858402,38.364641],[26.858364,38.364759],[26.857955,38.365096],[26.857785,38.365268],[26.857708,38.365356]]]}},{"type":"Feature","properties":{"id":"TR-Y-35-014-M-0010","level":"yerlesim","type":"mahalle","parent_id":"TR-D-35-014","province_id":"TR-P-35","district_id":"TR-D-35-014","name":"Yaka","source_raw_name":"YAKA","source":"Kullanıcı tarafından sağlanan KML","source_label":"Kullanıcı tarafından sağlanan KML","source_name":"Izmir Mahalle KML - kullanici tarafindan saglandi"},"geometry":{"type":"Polygon","coordinates":[[[26.913229,38.339197],[26.912823,38.338539],[26.912065,38.338514],[26.911618,38.33889],[26.910953,38.339104],[26.910718,38.339469],[26.91063,38.339606],[26.910411,38.33974],[26.910075,38.339847],[26.909082,38.339858],[26.908887,38.339877],[26.908803,38.33991],[26.907319,38.340483],[26.905856,38.341458],[26.904869,38.343109],[26.904748,38.343431],[26.904716,38.343901],[26.904118,38.344696],[26.903606,38.34489],[26.90304,38.346061],[26.903003,38.346692],[26.9033,38.347155],[26.903421,38.347566],[26.903319,38.347895],[26.902992,38.348184],[26.902856,38.34847],[26.903046,38.34872],[26.903073,38.348824],[26.902963,38.349618],[26.90269,38.349878],[26.902237,38.350163],[26.901944,38.350359],[26.901171,38.35067],[26.900971,38.350629],[26.899982,38.350728],[26.89962,38.350747],[26.899427,38.350784],[26.899217,38.350905],[26.898976,38.351133],[26.898797,38.351371],[26.898639,38.351814],[26.898439,38.352043],[26.898155,38.352537],[26.897746,38.35286],[26.89734,38.35301],[26.897073,38.353693],[26.89697,38.353734],[26.896397,38.354284],[26.896281,38.354835],[26.89579,38.355113],[26.895239,38.355334],[26.89412,38.355651],[26.893416,38.355993],[26.892977,38.356498],[26.891804,38.357159],[26.891516,38.357368],[26.891549,38.357464],[26.891604,38.357684],[26.891691,38.358179],[26.891727,38.358522],[26.891702,38.358865],[26.891528,38.359311],[26.891567,38.359693],[26.891748,38.360191],[26.89182,38.360611],[26.891601,38.361049],[26.891621,38.361707],[26.891719,38.362008],[26.891826,38.362388],[26.891887,38.362803],[26.8921,38.363054],[26.892196,38.363214],[26.892244,38.363398],[26.892307,38.363627],[26.892361,38.36375],[26.892358,38.363851],[26.892324,38.363956],[26.892295,38.364055],[26.892286,38.364099],[26.892287,38.364137],[26.892343,38.364227],[26.892471,38.364436],[26.892513,38.364547],[26.892532,38.364609],[26.89254,38.364664],[26.892544,38.364702],[26.892508,38.364893],[26.892463,38.365075],[26.892382,38.3653],[26.892227,38.365525],[26.892216,38.365672],[26.892228,38.365769],[26.892284,38.365924],[26.892313,38.366043],[26.892283,38.366164],[26.892149,38.366185],[26.891709,38.366251],[26.891715,38.366266],[26.892122,38.367259],[26.892283,38.367759],[26.892279,38.367921],[26.892111,38.368841],[26.89201,38.36938],[26.891981,38.369697],[26.892014,38.369981],[26.892044,38.370129],[26.892101,38.370407],[26.892132,38.370536],[26.89479,38.370554],[26.899535,38.370599],[26.901942,38.370621],[26.90355,38.370636],[26.907115,38.370664],[26.907862,38.370705],[26.907904,38.370707],[26.908891,38.370828],[26.910271,38.371151],[26.911241,38.371395],[26.912127,38.371606],[26.913013,38.371733],[26.913998,38.37181],[26.915171,38.371771],[26.916478,38.371554],[26.918276,38.371096],[26.919597,38.370814],[26.920489,38.370713],[26.92137,38.370681],[26.922266,38.370722],[26.92278,38.370791],[26.923656,38.370958],[26.924146,38.371096],[26.924522,38.371219],[26.92512,38.371435],[26.925271,38.371259],[26.925373,38.370988],[26.925332,38.370824],[26.925396,38.370517],[26.925575,38.370336],[26.925873,38.370074],[26.925909,38.369767],[26.925757,38.369439],[26.926484,38.368945],[26.927156,38.368921],[26.92747,38.368617],[26.927605,38.368211],[26.92785,38.367925],[26.928201,38.367482],[26.928659,38.367253],[26.929116,38.366705],[26.929291,38.366524],[26.929487,38.366262],[26.929777,38.366024],[26.930214,38.365895],[26.930522,38.365861],[26.931395,38.365271],[26.931571,38.365097],[26.931803,38.364788],[26.931987,38.364669],[26.932199,38.36459],[26.932256,38.364552],[26.932484,38.364073],[26.932638,38.363861],[26.932908,38.363727],[26.933097,38.363589],[26.933271,38.363458],[26.933466,38.363292],[26.933558,38.363141],[26.93398,38.363007],[26.934302,38.36292],[26.934483,38.362933],[26.934936,38.363157],[26.935214,38.363237],[26.935808,38.363055],[26.93613,38.363227],[26.936529,38.363545],[26.936928,38.363597],[26.937251,38.363534],[26.937488,38.363301],[26.937767,38.363191],[26.938275,38.363153],[26.93884,38.363222],[26.939225,38.363022],[26.940007,38.362915],[26.93984,38.362666],[26.939899,38.362448],[26.940049,38.362244],[26.940192,38.362117],[26.940446,38.361989],[26.940698,38.361932],[26.941007,38.361888],[26.941166,38.361865],[26.941437,38.361906],[26.941817,38.361858],[26.942222,38.361866],[26.942401,38.361942],[26.942684,38.362188],[26.943134,38.362353],[26.943468,38.362412],[26.944023,38.36295],[26.94435,38.363036],[26.944732,38.362998],[26.944953,38.363011],[26.945974,38.36326],[26.946173,38.363285],[26.94633,38.363247],[26.946633,38.363056],[26.946861,38.362844],[26.947079,38.362864],[26.947302,38.363037],[26.947713,38.363241],[26.947912,38.363463],[26.948236,38.363638],[26.948294,38.363718],[26.94835,38.363795],[26.948386,38.363772],[26.948456,38.363708],[26.948554,38.363659],[26.948649,38.36361],[26.948805,38.363557],[26.948917,38.363479],[26.948959,38.363271],[26.949037,38.36315],[26.94932,38.362998],[26.949504,38.362957],[26.949759,38.362938],[26.949989,38.36287],[26.950218,38.362896],[26.950269,38.362889],[26.950327,38.362839],[26.950446,38.362684],[26.950536,38.362348],[26.950607,38.36221],[26.950871,38.361897],[26.951182,38.361556],[26.951351,38.36138],[26.951427,38.361304],[26.951566,38.361103],[26.951604,38.360987],[26.951657,38.360728],[26.951628,38.360387],[26.951716,38.360195],[26.951881,38.360017],[26.951892,38.359828],[26.951876,38.359726],[26.951905,38.359649],[26.951944,38.359284],[26.951935,38.359254],[26.951854,38.359104],[26.9517,38.359009],[26.951613,38.358891],[26.951493,38.358493],[26.951504,38.358289],[26.951496,38.358278],[26.951244,38.358039],[26.950884,38.357788],[26.950869,38.357666],[26.950885,38.357492],[26.951014,38.357289],[26.951198,38.357423],[26.951488,38.357496],[26.951853,38.357574],[26.952409,38.357637],[26.95266,38.357644],[26.95318,38.357628],[26.953395,38.357568],[26.953819,38.357425],[26.954303,38.357136],[26.954559,38.356966],[26.954986,38.356634],[26.955441,38.356289],[26.955763,38.356135],[26.956044,38.356079],[26.956437,38.356059],[26.956809,38.355979],[26.957219,38.355946],[26.957321,38.355933],[26.958089,38.355839],[26.9588,38.355742],[26.958908,38.355706],[26.959162,38.355626],[26.959305,38.355605],[26.959503,38.355552],[26.959806,38.35547],[26.96006,38.355414],[26.960276,38.355338],[26.960547,38.355175],[26.960856,38.354926],[26.961273,38.354676],[26.953413,38.353974],[26.949206,38.354042],[26.949197,38.354041],[26.949197,38.354043],[26.947182,38.353945],[26.945443,38.354845],[26.944303,38.353638],[26.943239,38.352551],[26.943035,38.351576],[26.941446,38.350352],[26.942094,38.349712],[26.941362,38.348687],[26.940896,38.346895],[26.939553,38.344127],[26.939464,38.343668],[26.939213,38.343768],[26.939063,38.343771],[26.938459,38.343399],[26.938046,38.343271],[26.937673,38.343105],[26.937402,38.343099],[26.93725,38.342924],[26.93705,38.342915],[26.936879,38.34288],[26.936534,38.342442],[26.936334,38.342286],[26.936038,38.342132],[26.935808,38.342068],[26.935415,38.342008],[26.935138,38.341932],[26.934727,38.341788],[26.934589,38.34171],[26.934484,38.341618],[26.934441,38.341511],[26.934455,38.341271],[26.934385,38.341216],[26.934174,38.341272],[26.933459,38.341219],[26.93301,38.341092],[26.932733,38.340899],[26.932624,38.34076],[26.932544,38.340297],[26.932253,38.339991],[26.931856,38.33938],[26.931622,38.33919],[26.931531,38.339048],[26.93152,38.338861],[26.931274,38.338599],[26.930896,38.338558],[26.930651,38.338374],[26.930664,38.338295],[26.930793,38.338185],[26.930715,38.338096],[26.930334,38.338059],[26.930225,38.337953],[26.930358,38.337211],[26.930137,38.337104],[26.93002,38.33697],[26.929908,38.336661],[26.929544,38.336445],[26.929276,38.336224],[26.929162,38.336072],[26.928508,38.336096],[26.927967,38.336072],[26.927343,38.336119],[26.926461,38.336303],[26.926215,38.336422],[26.925753,38.336723],[26.925507,38.336845],[26.92539,38.336866],[26.925016,38.33697],[26.924705,38.337175],[26.924368,38.337391],[26.923964,38.337896],[26.923132,38.337475],[26.922639,38.337346],[26.922482,38.337388],[26.922319,38.337546],[26.922273,38.337695],[26.922092,38.337635],[26.921661,38.337707],[26.921544,38.337406],[26.921165,38.337289],[26.920273,38.337268],[26.919709,38.33736],[26.919392,38.337699],[26.918952,38.338113],[26.918705,38.338312],[26.916775,38.339014],[26.916178,38.338897],[26.915731,38.338915],[26.914842,38.339114],[26.914496,38.339058],[26.914109,38.339102],[26.913478,38.339242],[26.913229,38.339197]]]}},{"type":"Feature","properties":{"id":"TR-Y-35-014-M-0011","level":"yerlesim","type":"mahalle","parent_id":"TR-D-35-014","province_id":"TR-P-35","district_id":"TR-D-35-014","name":"Yalı","source_raw_name":"YALI","source":"Kullanıcı tarafından sağlanan KML","source_label":"Kullanıcı tarafından sağlanan KML","source_name":"Izmir Mahalle KML - kullanici tarafindan saglandi"},"geometry":{"type":"Polygon","coordinates":[[[26.890675,38.378438],[26.891787,38.37871],[26.89302,38.37919],[26.893046,38.37945],[26.893545,38.379849],[26.893651,38.37982],[26.893663,38.379754],[26.893236,38.379429],[26.89338,38.379322],[26.893168,38.379203],[26.893213,38.379054],[26.893354,38.378979],[26.895523,38.378716],[26.89651,38.378741],[26.897353,38.378817],[26.897493,38.378797],[26.898524,38.378802],[26.898579,38.378747],[26.899795,38.378782],[26.899953,38.378838],[26.900217,38.378873],[26.900509,38.378386],[26.90069,38.377668],[26.900574,38.377249],[26.900395,38.377009],[26.900485,38.376591],[26.900531,38.37658],[26.900528,38.376361],[26.900544,38.376257],[26.900677,38.376101],[26.900697,38.376025],[26.900706,38.375863],[26.900742,38.375686],[26.900783,38.37556],[26.900838,38.375484],[26.900947,38.375341],[26.901012,38.374968],[26.900927,38.374719],[26.900866,38.374279],[26.901014,38.374001],[26.901192,38.373989],[26.90138,38.373838],[26.90155,38.373771],[26.901651,38.373695],[26.902001,38.373372],[26.902237,38.373202],[26.902229,38.373055],[26.902259,38.373017],[26.902426,38.372891],[26.902432,38.372856],[26.902387,38.372734],[26.902399,38.372687],[26.902437,38.372566],[26.902391,38.372402],[26.902383,38.372345],[26.90238,38.372322],[26.902395,38.372195],[26.902414,38.372179],[26.9026,38.372167],[26.902559,38.372108],[26.902525,38.372006],[26.902463,38.371775],[26.90238,38.371439],[26.902153,38.371093],[26.901942,38.370621],[26.899535,38.370599],[26.89479,38.370554],[26.892132,38.370536],[26.887009,38.3705],[26.884424,38.370478],[26.883892,38.370476],[26.883265,38.370474],[26.880769,38.370451],[26.88034,38.370451],[26.879136,38.370428],[26.878195,38.370379],[26.877391,38.370301],[26.876615,38.370203],[26.875626,38.370045],[26.874535,38.369812],[26.874657,38.370343],[26.874785,38.370923],[26.874899,38.371439],[26.875205,38.372826],[26.875277,38.373152],[26.875386,38.373781],[26.875414,38.373945],[26.875471,38.374394],[26.875498,38.37489],[26.875653,38.375433],[26.875709,38.375748],[26.877235,38.376034],[26.878919,38.376325],[26.878864,38.376599],[26.878544,38.37817],[26.878652,38.378236],[26.878719,38.378209],[26.878769,38.378176],[26.878786,38.378098],[26.878803,38.378058],[26.878745,38.378019],[26.87872,38.377992],[26.878922,38.376994],[26.879765,38.377126],[26.879739,38.377448],[26.883028,38.377872],[26.883394,38.378286],[26.883075,38.379607],[26.88259,38.379882],[26.879302,38.379465],[26.879226,38.379623],[26.879118,38.379636],[26.878784,38.37953],[26.878559,38.379412],[26.877492,38.37828],[26.877584,38.378202],[26.877501,38.378129],[26.877409,38.378136],[26.877325,38.378201],[26.877283,38.378306],[26.878233,38.379333],[26.8785,38.379523],[26.878767,38.379642],[26.879952,38.379834],[26.882623,38.380178],[26.882832,38.380172],[26.88322,38.380055],[26.883393,38.379884],[26.883475,38.379709],[26.883751,38.378362],[26.885598,38.378648],[26.885701,38.3786],[26.885689,38.378522],[26.885538,38.37851],[26.883861,38.378258],[26.883784,38.378157],[26.88393,38.377388],[26.884374,38.377447],[26.884433,38.37746],[26.884546,38.377473],[26.884715,38.3775],[26.884977,38.377526],[26.885206,38.377557],[26.885088,38.378144],[26.885188,38.378193],[26.885271,38.378194],[26.885391,38.377979],[26.886046,38.37771],[26.886283,38.377678],[26.887878,38.378083],[26.888306,38.378072],[26.890675,38.378438]]]}},{"type":"Feature","properties":{"id":"TR-Y-35-014-M-0012","level":"yerlesim","type":"mahalle","parent_id":"TR-D-35-014","province_id":"TR-P-35","district_id":"TR-D-35-014","name":"Yelki","source_raw_name":"YELKİ","source":"Kullanıcı tarafından sağlanan KML","source_label":"Kullanıcı tarafından sağlanan KML","source_name":"Izmir Mahalle KML - kullanici tarafindan saglandi"},"geometry":{"type":"Polygon","coordinates":[[[26.861108,38.359774],[26.861359,38.359614],[26.862032,38.359532],[26.863594,38.359491],[26.86406,38.3595],[26.864177,38.359496],[26.865145,38.359397],[26.865139,38.359348],[26.865016,38.358981],[26.864918,38.35873],[26.864871,38.358632],[26.864905,38.358583],[26.864948,38.358572],[26.865174,38.358538],[26.865463,38.358486],[26.865532,38.358483],[26.865688,38.358457],[26.865883,38.358406],[26.866126,38.35836],[26.866399,38.358316],[26.866581,38.358269],[26.866699,38.358217],[26.867023,38.358092],[26.867101,38.358071],[26.867215,38.358048],[26.867366,38.358025],[26.867773,38.357912],[26.867421,38.357302],[26.867309,38.356923],[26.867193,38.356716],[26.867174,38.356683],[26.867144,38.356628],[26.866909,38.356316],[26.866799,38.356206],[26.866835,38.356179],[26.867495,38.356079],[26.867392,38.355641],[26.86743,38.355218],[26.867919,38.35511],[26.867952,38.355121],[26.867976,38.354905],[26.868326,38.354886],[26.868322,38.35432],[26.868727,38.354286],[26.868576,38.353536],[26.868514,38.353421],[26.868452,38.353302],[26.868348,38.3531],[26.868297,38.353002],[26.868106,38.352636],[26.86803,38.352492],[26.867947,38.352332],[26.867862,38.352143],[26.867673,38.35172],[26.867505,38.351343],[26.867388,38.351082],[26.866999,38.35023],[26.866868,38.349957],[26.866591,38.349384],[26.866591,38.349384],[26.866918,38.348845],[26.867075,38.348479],[26.867144,38.348291],[26.867194,38.348154],[26.867653,38.347707],[26.86783,38.347537],[26.867864,38.347505],[26.86809,38.347262],[26.868427,38.346895],[26.868465,38.346836],[26.86852,38.346749],[26.868635,38.346569],[26.868725,38.346445],[26.868892,38.346229],[26.869119,38.346004],[26.869253,38.345882],[26.86939,38.345758],[26.86965,38.345565],[26.869681,38.344992],[26.869683,38.344967],[26.869675,38.344692],[26.869671,38.344548],[26.869656,38.344005],[26.869654,38.343907],[26.869647,38.343632],[26.869639,38.343297],[26.869636,38.343159],[26.869635,38.343087],[26.86961,38.342967],[26.869533,38.34259],[26.869487,38.342367],[26.869349,38.341949],[26.869352,38.341922],[26.869358,38.341847],[26.869224,38.341394],[26.868772,38.341567],[26.868775,38.341157],[26.868777,38.340935],[26.86897,38.340931],[26.868976,38.340637],[26.869116,38.340637],[26.869025,38.339085],[26.868987,38.339075],[26.868888,38.339008],[26.86873,38.338883],[26.868711,38.338868],[26.868624,38.338801],[26.868577,38.338739],[26.868458,38.338647],[26.868171,38.338426],[26.868093,38.338365],[26.867847,38.338205],[26.867814,38.338184],[26.867449,38.337944],[26.867309,38.337868],[26.867283,38.337853],[26.86717,38.337789],[26.867021,38.337691],[26.866595,38.337548],[26.866394,38.337378],[26.866358,38.337347],[26.86626,38.337244],[26.865872,38.336838],[26.865575,38.336525],[26.865474,38.336387],[26.865375,38.336253],[26.865266,38.336055],[26.865252,38.33603],[26.865054,38.335651],[26.864851,38.335264],[26.864783,38.335131],[26.864777,38.334753],[26.864781,38.334639],[26.864784,38.334524],[26.864629,38.334016],[26.864604,38.333907],[26.864529,38.333575],[26.864421,38.333108],[26.864182,38.332658],[26.864173,38.332648],[26.864032,38.332497],[26.863923,38.33238],[26.863808,38.332105],[26.863413,38.331564],[26.863395,38.33154],[26.863393,38.331537],[26.863374,38.331511],[26.86313,38.331185],[26.862746,38.323583],[26.862585,38.323649],[26.861591,38.323663],[26.861501,38.323604],[26.861234,38.323633],[26.860839,38.323677],[26.860657,38.323699],[26.859467,38.323834],[26.859369,38.323891],[26.859114,38.323885],[26.858917,38.32388],[26.857979,38.32385],[26.857971,38.32385],[26.857744,38.324426],[26.857424,38.324792],[26.856828,38.324617],[26.856741,38.324564],[26.856722,38.324478],[26.856758,38.32435],[26.856823,38.324267],[26.856746,38.324165],[26.856487,38.324135],[26.856291,38.323964],[26.856283,38.323703],[26.856103,38.323544],[26.855969,38.323522],[26.855707,38.323373],[26.855486,38.323259],[26.855285,38.323232],[26.854942,38.323274],[26.854479,38.323143],[26.854152,38.323022],[26.853845,38.322974],[26.853659,38.322972],[26.853382,38.322965],[26.853198,38.3229],[26.853125,38.322881],[26.853028,38.322887],[26.852933,38.322906],[26.852851,38.322912],[26.852731,38.322875],[26.85257,38.322809],[26.852394,38.322778],[26.852007,38.32281],[26.851772,38.322845],[26.851499,38.322975],[26.850501,38.323325],[26.849873,38.323571],[26.849528,38.323196],[26.848304,38.322654],[26.847966,38.322496],[26.84757,38.322377],[26.847415,38.322324],[26.847078,38.322681],[26.846952,38.322819],[26.846087,38.322838],[26.8454,38.323173],[26.845127,38.32325],[26.844919,38.32341],[26.844497,38.323624],[26.843828,38.323604],[26.842891,38.323759],[26.839972,38.324009],[26.838422,38.324303],[26.834432,38.324142],[26.833056,38.325072],[26.83069,38.326105],[26.827513,38.331273],[26.827594,38.332042],[26.827859,38.332674],[26.829838,38.334668],[26.829876,38.335178],[26.829938,38.336028],[26.829807,38.339298],[26.829875,38.340885],[26.830116,38.341594],[26.830612,38.341859],[26.834431,38.343895],[26.834204,38.344392],[26.83518,38.345781],[26.83715,38.347377],[26.838612,38.348553],[26.839364,38.349752],[26.840277,38.350564],[26.841191,38.351466],[26.842737,38.352621],[26.846447,38.354536],[26.848915,38.357134],[26.849149,38.358049],[26.851356,38.359317],[26.852499,38.35995],[26.853071,38.36013],[26.853342,38.361637],[26.85501,38.363286],[26.855695,38.363827],[26.856266,38.364278],[26.857066,38.36464],[26.858402,38.364641],[26.858747,38.364462],[26.860383,38.364444],[26.860393,38.364361],[26.860453,38.363836],[26.861259,38.362177],[26.861395,38.361887],[26.86125,38.361401],[26.860952,38.360831],[26.861108,38.359774]]]}}]}