{"type":"FeatureCollection","name":"turkiye_map.dist.mahalle_geometrileri_by_district.TR-D-20-014","features":[{"type":"Feature","properties":{"id":"TR-Y-20-014-M-0001","level":"yerlesim","type":"mahalle","parent_id":"TR-D-20-014","province_id":"TR-P-20","district_id":"TR-D-20-014","name":"Adamharmanı","source_raw_name":"ADAMHARMANI","source":"Denizli Adres Bilgi Sistemi - MAHALLE"},"geometry":{"type":"Polygon","coordinates":[[[28.774585,37.574191],[28.775948,37.573911],[28.778313,37.572805],[28.780836,37.571479],[28.7837,37.570034],[28.787344,37.568105],[28.790546,37.566762],[28.793532,37.565392],[28.794751,37.56447],[28.796264,37.562569],[28.797871,37.56052],[28.799347,37.558987],[28.80075,37.558166],[28.802179,37.55759],[28.802679,37.557202],[28.802571,37.556243],[28.802292,37.555946],[28.801964,37.555597],[28.800085,37.555308],[28.797678,37.555259],[28.794506,37.554784],[28.790775,37.554475],[28.788375,37.553984],[28.786874,37.55328],[28.784275,37.551754],[28.781948,37.550575],[28.778631,37.549508],[28.7758,37.548963],[28.773773,37.548327],[28.77178,37.54752],[28.770685,37.546526],[28.769615,37.545875],[28.76808,37.545368],[28.766115,37.544757],[28.764488,37.544224],[28.76313,37.54421],[28.760101,37.544448],[28.75806,37.544673],[28.756364,37.544581],[28.753677,37.544626],[28.75253,37.544958],[28.751904,37.545492],[28.752104,37.546428],[28.751985,37.548],[28.752533,37.548621],[28.752515,37.549038],[28.752421,37.549223],[28.752175,37.549423],[28.751628,37.549965],[28.751476,37.550221],[28.751834,37.551513],[28.752451,37.553388],[28.752541,37.555379],[28.751855,37.557291],[28.751141,37.558751],[28.751138,37.558753],[28.749898,37.560218],[28.748584,37.561008],[28.747744,37.561444],[28.747082,37.56216],[28.747613,37.563852],[28.748016,37.56423],[28.748493,37.564632],[28.748909,37.565083],[28.74954,37.565686],[28.750374,37.568226],[28.751601,37.569491],[28.753446,37.570737],[28.753724,37.570966],[28.753785,37.570705],[28.754653,37.571093],[28.754523,37.571316],[28.755208,37.572072],[28.756324,37.572231],[28.756825,37.572517],[28.757311,37.57292],[28.757407,37.573152],[28.757625,37.573329],[28.758862,37.572889],[28.760073,37.572471],[28.760337,37.57238],[28.762303,37.572625],[28.76377,37.572843],[28.763774,37.572843],[28.765172,37.573065],[28.765174,37.573067],[28.766088,37.573689],[28.766789,37.574005],[28.767534,37.573961],[28.768682,37.574034],[28.769088,37.574385],[28.769459,37.574402],[28.76956,37.574406],[28.770015,37.57447],[28.770343,37.574627],[28.770343,37.574627],[28.771191,37.574768],[28.772036,37.574905],[28.77229,37.575049],[28.772448,37.575139],[28.774585,37.574191]]]}},{"type":"Feature","properties":{"id":"TR-Y-20-014-M-0002","level":"yerlesim","type":"mahalle","parent_id":"TR-D-20-014","province_id":"TR-P-20","district_id":"TR-D-20-014","name":"Alanyurt","source_raw_name":"ALANYURT","source":"Denizli Adres Bilgi Sistemi - MAHALLE"},"geometry":{"type":"Polygon","coordinates":[[[28.813501,37.371857],[28.814593,37.370083],[28.815301,37.368693],[28.816548,37.366244],[28.817484,37.365202],[28.818691,37.364135],[28.820674,37.36306],[28.82374,37.361953],[28.824855,37.361029],[28.826044,37.359975],[28.826342,37.358222],[28.82573,37.356293],[28.825727,37.356283],[28.825913,37.355918],[28.825914,37.355916],[28.82546,37.354599],[28.825078,37.352508],[28.8248,37.350648],[28.826626,37.35031],[28.826633,37.350297],[28.827324,37.348904],[28.827429,37.348692],[28.828056,37.347427],[28.828072,37.347395],[28.828329,37.346953],[28.828379,37.346884],[28.828795,37.346313],[28.828938,37.346116],[28.82951,37.34533],[28.829564,37.345256],[28.830089,37.344524],[28.832689,37.344377],[28.833709,37.344566],[28.833269,37.343117],[28.832606,37.342068],[28.831596,37.340549],[28.830359,37.339625],[28.829223,37.339179],[28.827775,37.338719],[28.825835,37.338472],[28.823946,37.338356],[28.822291,37.338078],[28.821242,37.337373],[28.820372,37.336441],[28.819871,37.335495],[28.81935,37.334387],[28.818784,37.332606],[28.818537,37.331622],[28.818731,37.330709],[28.818969,37.32962],[28.818745,37.328956],[28.818372,37.32807],[28.817834,37.327311],[28.817656,37.327059],[28.816059,37.325885],[28.814061,37.324696],[28.812734,37.323933],[28.810254,37.322717],[28.807851,37.321866],[28.806447,37.321543],[28.805038,37.321628],[28.801924,37.322081],[28.800228,37.322759],[28.795321,37.324837],[28.79393,37.32544],[28.792675,37.3262],[28.791062,37.3269],[28.789115,37.327762],[28.78778,37.328322],[28.78647,37.329091],[28.784348,37.329654],[28.7833,37.329588],[28.781269,37.3296],[28.778908,37.32962],[28.776287,37.329427],[28.773694,37.329257],[28.770618,37.329026],[28.767088,37.328725],[28.765286,37.328243],[28.765081,37.328957],[28.765012,37.329828],[28.764936,37.331117],[28.764683,37.332206],[28.764263,37.334231],[28.764066,37.335412],[28.763815,37.336283],[28.763585,37.337116],[28.763315,37.337917],[28.763068,37.339111],[28.76308,37.340198],[28.762991,37.340843],[28.762724,37.341486],[28.762122,37.342709],[28.761843,37.344029],[28.762146,37.344206],[28.762743,37.344503],[28.763939,37.344874],[28.766337,37.346027],[28.768695,37.347268],[28.770426,37.348296],[28.771299,37.349492],[28.7724,37.350334],[28.773904,37.351567],[28.776194,37.352511],[28.778938,37.352984],[28.781501,37.353129],[28.78358,37.353299],[28.785063,37.353552],[28.786536,37.354458],[28.787935,37.355273],[28.78918,37.356503],[28.7903,37.358503],[28.790159,37.360312],[28.7896,37.36271],[28.789768,37.363869],[28.790343,37.365062],[28.791322,37.366645],[28.791786,37.367867],[28.792684,37.369805],[28.793527,37.370615],[28.794443,37.371456],[28.79634,37.371445],[28.797973,37.37161],[28.798717,37.371648],[28.799073,37.372601],[28.799693,37.373409],[28.800425,37.373839],[28.801413,37.374486],[28.802515,37.375174],[28.803705,37.375624],[28.805097,37.375903],[28.806423,37.376195],[28.807299,37.377584],[28.808056,37.379077],[28.808398,37.379572],[28.808949,37.37837],[28.809478,37.37746],[28.810277,37.376393],[28.811312,37.37505],[28.812395,37.374053],[28.813276,37.372938],[28.813501,37.371857]]]}},{"type":"Feature","properties":{"id":"TR-Y-20-014-M-0003","level":"yerlesim","type":"mahalle","parent_id":"TR-D-20-014","province_id":"TR-P-20","district_id":"TR-D-20-014","name":"Belenköy","source_raw_name":"BELENKÖY","source":"Denizli Adres Bilgi Sistemi - MAHALLE"},"geometry":{"type":"Polygon","coordinates":[[[28.769586,37.440412],[28.768007,37.43969],[28.764397,37.438797],[28.763506,37.438415],[28.761776,37.437651],[28.760588,37.436954],[28.759793,37.435395],[28.759049,37.433796],[28.757523,37.432128],[28.755394,37.430263],[28.753978,37.428838],[28.752623,37.427545],[28.752104,37.42614],[28.751365,37.424994],[28.750261,37.423814],[28.749544,37.423319],[28.747075,37.420526],[28.746277,37.41921],[28.744307,37.416194],[28.742812,37.414384],[28.740811,37.413208],[28.740536,37.412581],[28.740554,37.411517],[28.738996,37.411197],[28.73744,37.4108],[28.735038,37.41085],[28.732741,37.411403],[28.731562,37.412409],[28.72933,37.413464],[28.726229,37.414162],[28.723914,37.415484],[28.721837,37.417002],[28.718547,37.417447],[28.713702,37.41853],[28.714222,37.419152],[28.715004,37.419988],[28.716793,37.42122],[28.718649,37.42278],[28.719758,37.424294],[28.720602,37.425747],[28.721102,37.4276],[28.721301,37.428622],[28.721543,37.430049],[28.721628,37.430705],[28.722256,37.432117],[28.723873,37.43352],[28.724932,37.435149],[28.725417,37.436463],[28.725515,37.437792],[28.725629,37.439603],[28.736966,37.442418],[28.744398,37.442582],[28.757796,37.441708],[28.769586,37.440412]]]}},{"type":"Feature","properties":{"id":"TR-Y-20-014-M-0004","level":"yerlesim","type":"mahalle","parent_id":"TR-D-20-014","province_id":"TR-P-20","district_id":"TR-D-20-014","name":"Çakırbağ","source_raw_name":"ÇAKIRBAĞ","source":"Denizli Adres Bilgi Sistemi - MAHALLE"},"geometry":{"type":"Polygon","coordinates":[[[28.765935,37.482461],[28.766657,37.480699],[28.766971,37.479461],[28.767543,37.478182],[28.767848,37.476952],[28.767422,37.47573],[28.766729,37.474543],[28.764764,37.472873],[28.763196,37.471866],[28.761785,37.471072],[28.760358,37.470716],[28.758873,37.470406],[28.758247,37.469794],[28.75739,37.468862],[28.757072,37.467974],[28.756817,37.467351],[28.756628,37.466147],[28.756147,37.46543],[28.755471,37.464977],[28.754187,37.4646],[28.753101,37.464279],[28.752015,37.463912],[28.751434,37.463475],[28.750802,37.462689],[28.750512,37.461876],[28.75038,37.46071],[28.750728,37.459715],[28.751476,37.459277],[28.752745,37.458814],[28.754367,37.458294],[28.755781,37.457696],[28.756698,37.45732],[28.75717,37.456924],[28.757743,37.456121],[28.758973,37.454599],[28.760011,37.453808],[28.760601,37.453118],[28.761296,37.452407],[28.762308,37.451465],[28.764527,37.449801],[28.76549,37.448934],[28.767109,37.447952],[28.768388,37.446929],[28.768986,37.44571],[28.769956,37.444404],[28.770567,37.443639],[28.771321,37.442732],[28.771115,37.441989],[28.770428,37.441096],[28.769763,37.440545],[28.769586,37.440412],[28.757796,37.441708],[28.744398,37.442582],[28.736966,37.442418],[28.725629,37.439603],[28.724749,37.440228],[28.72116,37.441191],[28.718421,37.441815],[28.715531,37.442823],[28.712788,37.443679],[28.708802,37.443866],[28.707107,37.444156],[28.706176,37.444915],[28.706884,37.445847],[28.707638,37.446933],[28.70832,37.448019],[28.708773,37.449756],[28.708862,37.451566],[28.70843,37.452832],[28.708003,37.453828],[28.706463,37.456275],[28.705177,37.458051],[28.704577,37.459258],[28.704103,37.460118],[28.70357,37.461633],[28.703821,37.463888],[28.705105,37.465019],[28.706483,37.466343],[28.707695,37.468916],[28.707487,37.471029],[28.708066,37.471706],[28.708066,37.471706],[28.70781,37.471939],[28.708848,37.473075],[28.709887,37.473457],[28.711134,37.47361],[28.712906,37.473536],[28.714742,37.473209],[28.71705,37.472424],[28.719146,37.472123],[28.720414,37.472669],[28.721765,37.473494],[28.723419,37.473581],[28.724662,37.473965],[28.725083,37.474803],[28.724994,37.476608],[28.726028,37.477313],[28.727503,37.477676],[28.729116,37.478458],[28.730197,37.478122],[28.732128,37.477286],[28.733344,37.475795],[28.73483,37.473751],[28.735834,37.472812],[28.736764,37.47273],[28.738461,37.473766],[28.739712,37.475354],[28.740418,37.476542],[28.741472,37.477757],[28.742425,37.478068],[28.743299,37.477915],[28.744123,37.477276],[28.744557,37.477396],[28.746883,37.480754],[28.747659,37.481249],[28.748792,37.481191],[28.749462,37.481028],[28.751096,37.480836],[28.754007,37.481348],[28.756123,37.482209],[28.758135,37.482964],[28.760018,37.483633],[28.761815,37.484658],[28.764285,37.486201],[28.764592,37.485586],[28.764729,37.48477],[28.765414,37.483567],[28.765935,37.482461]]]}},{"type":"Feature","properties":{"id":"TR-Y-20-014-M-0005","level":"yerlesim","type":"mahalle","parent_id":"TR-D-20-014","province_id":"TR-P-20","district_id":"TR-D-20-014","name":"Çamlarca","source_raw_name":"ÇAMLARCA","source":"Denizli Adres Bilgi Sistemi - MAHALLE"},"geometry":{"type":"Polygon","coordinates":[[[28.799335,37.492819],[28.800897,37.492378],[28.803094,37.492259],[28.805672,37.492444],[28.808065,37.492468],[28.809211,37.492541],[28.811666,37.492821],[28.81377,37.493],[28.81485,37.493037],[28.816524,37.493168],[28.817835,37.493305],[28.818968,37.493509],[28.819218,37.493723],[28.820094,37.493405],[28.820909,37.493061],[28.821598,37.492584],[28.822037,37.492004],[28.822503,37.490489],[28.822812,37.489344],[28.823226,37.488723],[28.824106,37.488219],[28.826131,37.487232],[28.827163,37.486718],[28.828255,37.486347],[28.829059,37.485871],[28.829649,37.485333],[28.830629,37.483268],[28.832163,37.48132],[28.833124,37.479638],[28.834692,37.477941],[28.835874,37.476674],[28.837175,37.475106],[28.837793,37.474367],[28.838438,37.473527],[28.838919,37.473411],[28.840335,37.473354],[28.841589,37.473216],[28.842587,37.471544],[28.843506,37.470153],[28.844973,37.4676],[28.846763,37.465381],[28.848231,37.463336],[28.848235,37.463331],[28.847249,37.460416],[28.844242,37.455266],[28.836292,37.450104],[28.832431,37.448644],[28.829569,37.447518],[28.827651,37.446553],[28.825643,37.444931],[28.824471,37.443933],[28.822518,37.44203],[28.820582,37.439815],[28.81992,37.4386],[28.819139,37.437646],[28.817994,37.436557],[28.813674,37.434187],[28.810402,37.432684],[28.805887,37.430745],[28.803589,37.429876],[28.801511,37.428777],[28.799522,37.427599],[28.79806,37.427403],[28.796313,37.426901],[28.794006,37.426626],[28.793678,37.426623],[28.794571,37.428404],[28.795097,37.429487],[28.796177,37.430666],[28.797089,37.432035],[28.797692,37.433069],[28.79791,37.43439],[28.796675,37.434267],[28.795587,37.434346],[28.793915,37.434692],[28.791817,37.435586],[28.790086,37.436394],[28.788433,37.437072],[28.786202,37.437593],[28.784693,37.438001],[28.783497,37.438532],[28.782537,37.439348],[28.781979,37.439483],[28.77915,37.439434],[28.775335,37.439505],[28.772157,37.440016],[28.770309,37.440228],[28.769586,37.440412],[28.769763,37.440545],[28.770428,37.441096],[28.771115,37.441989],[28.771321,37.442732],[28.770567,37.443639],[28.769956,37.444404],[28.768986,37.44571],[28.768388,37.446929],[28.767109,37.447952],[28.76549,37.448934],[28.764527,37.449801],[28.762308,37.451465],[28.761296,37.452407],[28.760601,37.453118],[28.760011,37.453808],[28.758973,37.454599],[28.757743,37.456121],[28.75717,37.456924],[28.756698,37.45732],[28.755781,37.457696],[28.754367,37.458294],[28.752745,37.458814],[28.751476,37.459277],[28.750728,37.459715],[28.75038,37.46071],[28.750512,37.461876],[28.750802,37.462689],[28.751434,37.463475],[28.752015,37.463912],[28.753101,37.464279],[28.754187,37.4646],[28.755471,37.464977],[28.756147,37.46543],[28.756628,37.466147],[28.756817,37.467351],[28.757072,37.467974],[28.75739,37.468862],[28.758247,37.469794],[28.758873,37.470406],[28.760358,37.470716],[28.761785,37.471072],[28.763196,37.471866],[28.764764,37.472873],[28.766729,37.474543],[28.767422,37.47573],[28.767848,37.476952],[28.767543,37.478182],[28.766971,37.479461],[28.766657,37.480699],[28.765935,37.482461],[28.765414,37.483567],[28.764729,37.48477],[28.764592,37.485586],[28.764285,37.486201],[28.764482,37.487624],[28.764978,37.490134],[28.764997,37.491664],[28.766362,37.491881],[28.767437,37.492208],[28.769508,37.492335],[28.771658,37.492419],[28.77287,37.492485],[28.774359,37.492491],[28.776889,37.492869],[28.77841,37.49299],[28.779707,37.493206],[28.780821,37.493261],[28.78213,37.493442],[28.782864,37.493731],[28.78359,37.494547],[28.78463,37.495744],[28.785561,37.496131],[28.787785,37.496365],[28.789436,37.496619],[28.790358,37.49684],[28.791818,37.496617],[28.793241,37.495938],[28.794165,37.494699],[28.795483,37.493658],[28.7973,37.493193],[28.798294,37.493081],[28.799335,37.492819]]]}},{"type":"Feature","properties":{"id":"TR-Y-20-014-M-0006","level":"yerlesim","type":"mahalle","parent_id":"TR-D-20-014","province_id":"TR-P-20","district_id":"TR-D-20-014","name":"Cevherpaşa","source_raw_name":"CEVHERPAŞA","source":"Denizli Adres Bilgi Sistemi - MAHALLE"},"geometry":{"type":"Polygon","coordinates":[[[28.84443,37.441796],[28.845853,37.441395],[28.847579,37.441527],[28.847936,37.441254],[28.849748,37.439317],[28.850165,37.439006],[28.850602,37.438972],[28.851336,37.438836],[28.851943,37.438479],[28.852853,37.437868],[28.853115,37.437732],[28.853257,37.437475],[28.853217,37.436882],[28.853056,37.435979],[28.853251,37.435204],[28.853633,37.434931],[28.852856,37.434097],[28.85273,37.433961],[28.852192,37.433383],[28.852157,37.433346],[28.851228,37.432348],[28.850971,37.431595],[28.850632,37.430256],[28.850182,37.42943],[28.849667,37.428876],[28.848381,37.42797],[28.847397,37.427157],[28.846603,37.42591],[28.844997,37.424597],[28.84272,37.423393],[28.841681,37.422524],[28.841311,37.421758],[28.841022,37.420734],[28.840653,37.419425],[28.83993,37.418236],[28.838777,37.417061],[28.837498,37.416286],[28.835378,37.415731],[28.832804,37.415209],[28.831069,37.414601],[28.82953,37.413594],[28.827383,37.411742],[28.827134,37.410862],[28.826799,37.409372],[28.826314,37.40828],[28.824208,37.406905],[28.822475,37.406086],[28.820379,37.405608],[28.814714,37.405551],[28.81101,37.405456],[28.811645,37.407056],[28.816593,37.411647],[28.82085,37.417482],[28.823563,37.421693],[28.829995,37.426119],[28.837495,37.432454],[28.838111,37.434038],[28.838434,37.434361],[28.838859,37.435151],[28.83895,37.435424],[28.839358,37.435733],[28.839411,37.435796],[28.839246,37.436037],[28.839307,37.436329],[28.839214,37.436509],[28.83946,37.436893],[28.839848,37.437316],[28.839762,37.43743],[28.839438,37.437677],[28.839733,37.438295],[28.840278,37.439044],[28.84065,37.439892],[28.840576,37.440091],[28.84073,37.440536],[28.839415,37.440949],[28.840095,37.442502],[28.84018,37.442664],[28.840516,37.443124],[28.84083,37.443458],[28.841087,37.443746],[28.841584,37.443329],[28.843041,37.442157],[28.84443,37.441796]]]}},{"type":"Feature","properties":{"id":"TR-Y-20-014-M-0007","level":"yerlesim","type":"mahalle","parent_id":"TR-D-20-014","province_id":"TR-P-20","district_id":"TR-D-20-014","name":"Cumhuriyet","source_raw_name":"CUMHURİYET","source":"Denizli Adres Bilgi Sistemi - MAHALLE"},"geometry":{"type":"Polygon","coordinates":[[[28.852359,37.45094],[28.852504,37.450892],[28.852843,37.451004],[28.853812,37.450872],[28.854459,37.450066],[28.854269,37.450958],[28.856931,37.45109],[28.856957,37.451324],[28.857703,37.451462],[28.857799,37.449957],[28.858102,37.448983],[28.859082,37.448753],[28.865201,37.447306],[28.865918,37.446501],[28.86844,37.443613],[28.869669,37.442143],[28.870188,37.440171],[28.870148,37.438533],[28.869879,37.436866],[28.868378,37.434771],[28.867315,37.431744],[28.86663,37.429579],[28.864507,37.427635],[28.862874,37.425642],[28.860598,37.423072],[28.858559,37.419932],[28.857577,37.41805],[28.857643,37.415866],[28.858726,37.413224],[28.860183,37.409598],[28.860528,37.408327],[28.860417,37.407052],[28.860664,37.405832],[28.861208,37.404329],[28.862611,37.399896],[28.86307,37.39756],[28.863825,37.395097],[28.864111,37.393435],[28.863812,37.391586],[28.863771,37.387867],[28.863771,37.387858],[28.863897,37.385996],[28.864784,37.385484],[28.864714,37.385483],[28.861298,37.385451],[28.858917,37.385558],[28.854246,37.386292],[28.850365,37.386437],[28.844785,37.386928],[28.837473,37.387662],[28.832569,37.38868],[28.829659,37.389275],[28.829151,37.388438],[28.827464,37.387953],[28.824253,37.386907],[28.821796,37.385686],[28.81771,37.384371],[28.812917,37.382451],[28.810592,37.381127],[28.808398,37.379572],[28.808203,37.383868],[28.808174,37.385698],[28.80949,37.388207],[28.809552,37.39087],[28.808986,37.393692],[28.810011,37.396644],[28.811917,37.399218],[28.81246,37.400627],[28.812184,37.402227],[28.813095,37.40419],[28.811906,37.403928],[28.811515,37.404865],[28.811449,37.405025],[28.81101,37.405456],[28.814714,37.405551],[28.820379,37.405608],[28.822475,37.406086],[28.824208,37.406905],[28.826314,37.40828],[28.826799,37.409372],[28.827134,37.410862],[28.827383,37.411742],[28.82953,37.413594],[28.831069,37.414601],[28.832804,37.415209],[28.835378,37.415731],[28.837498,37.416286],[28.838777,37.417061],[28.83993,37.418236],[28.840653,37.419425],[28.841022,37.420734],[28.841311,37.421758],[28.841681,37.422524],[28.84272,37.423393],[28.844997,37.424597],[28.846603,37.42591],[28.847397,37.427157],[28.848381,37.42797],[28.849667,37.428876],[28.850182,37.42943],[28.850632,37.430256],[28.850971,37.431595],[28.851228,37.432348],[28.852157,37.433346],[28.852192,37.433383],[28.85273,37.433961],[28.852856,37.434097],[28.853633,37.434931],[28.853251,37.435204],[28.853056,37.435979],[28.853217,37.436882],[28.853257,37.437475],[28.853115,37.437732],[28.852853,37.437868],[28.851943,37.438479],[28.851336,37.438836],[28.850602,37.438972],[28.850165,37.439006],[28.849748,37.439317],[28.847936,37.441254],[28.847579,37.441527],[28.845853,37.441395],[28.84443,37.441796],[28.845595,37.444446],[28.84589,37.44546],[28.846359,37.446113],[28.846708,37.446707],[28.847474,37.448231],[28.848015,37.448875],[28.849461,37.451244],[28.84987,37.451923],[28.850809,37.45161],[28.852359,37.45094]]]}},{"type":"Feature","properties":{"id":"TR-Y-20-014-M-0008","level":"yerlesim","type":"mahalle","parent_id":"TR-D-20-014","province_id":"TR-P-20","district_id":"TR-D-20-014","name":"Demirciler","source_raw_name":"DEMİRCİLER","source":"Denizli Adres Bilgi Sistemi - MAHALLE"},"geometry":{"type":"Polygon","coordinates":[[[28.748653,37.337486],[28.750012,37.337044],[28.750969,37.336991],[28.75253,37.336858],[28.754358,37.33672],[28.75589,37.336539],[28.757433,37.336248],[28.759599,37.335948],[28.764066,37.335412],[28.764263,37.334231],[28.764683,37.332206],[28.764936,37.331117],[28.765012,37.329828],[28.765081,37.328957],[28.765286,37.328243],[28.767088,37.328725],[28.770618,37.329026],[28.773694,37.329257],[28.776287,37.329427],[28.778908,37.32962],[28.781269,37.3296],[28.7833,37.329588],[28.784348,37.329654],[28.78647,37.329091],[28.78778,37.328322],[28.789115,37.327762],[28.791062,37.3269],[28.792675,37.3262],[28.79393,37.32544],[28.795321,37.324837],[28.800228,37.322759],[28.801924,37.322081],[28.805038,37.321628],[28.806447,37.321543],[28.807851,37.321866],[28.810254,37.322717],[28.812734,37.323933],[28.814061,37.324696],[28.816059,37.325885],[28.817656,37.327059],[28.817834,37.327311],[28.818242,37.326544],[28.818568,37.325934],[28.818667,37.324701],[28.818706,37.323347],[28.818651,37.322333],[28.818513,37.321502],[28.817992,37.320738],[28.817584,37.320131],[28.817076,37.319105],[28.816933,37.318047],[28.817249,37.317171],[28.817562,37.316465],[28.81786,37.31556],[28.817568,37.314352],[28.816726,37.313138],[28.816107,37.311848],[28.815909,37.310868],[28.815798,37.309491],[28.816358,37.308277],[28.816831,37.30758],[28.817222,37.306988],[28.817115,37.306449],[28.816736,37.305714],[28.816171,37.304957],[28.815436,37.304276],[28.814277,37.303442],[28.81322,37.302928],[28.812154,37.3025],[28.811915,37.302404],[28.811331,37.302133],[28.81084,37.301904],[28.810775,37.30183],[28.810314,37.301303],[28.810308,37.301296],[28.810231,37.301079],[28.810002,37.300436],[28.810002,37.300435],[28.810066,37.299578],[28.810069,37.299535],[28.810031,37.299352],[28.80984,37.298435],[28.809838,37.298427],[28.808993,37.297347],[28.808977,37.297326],[28.808448,37.296918],[28.808047,37.296608],[28.80754,37.296202],[28.806961,37.295739],[28.80673,37.295563],[28.806108,37.29509],[28.806101,37.295085],[28.805912,37.294679],[28.805917,37.294663],[28.806183,37.293852],[28.804484,37.29237],[28.80329,37.291368],[28.802262,37.290526],[28.800985,37.289456],[28.799546,37.287891],[28.798166,37.28619],[28.796835,37.285008],[28.79628,37.284598],[28.79486,37.283549],[28.792913,37.282157],[28.792084,37.281159],[28.789836,37.279248],[28.788864,37.278473],[28.788024,37.278218],[28.786229,37.277862],[28.782499,37.277081],[28.780368,37.276632],[28.778715,37.276233],[28.777488,37.275523],[28.7766,37.274772],[28.776226,37.273554],[28.77543,37.272287],[28.774865,37.27073],[28.774513,37.269872],[28.774076,37.269058],[28.772933,37.268416],[28.771819,37.26773],[28.770451,37.267087],[28.769787,37.266383],[28.768705,37.265495],[28.767924,37.265082],[28.766722,37.26462],[28.765741,37.264384],[28.764485,37.263787],[28.76381,37.26378],[28.761872,37.263579],[28.760417,37.263115],[28.759411,37.262699],[28.758068,37.262258],[28.756696,37.261884],[28.756156,37.261799],[28.755366,37.263021],[28.754626,37.264902],[28.75492,37.266195],[28.754784,37.267295],[28.754151,37.267478],[28.75219,37.266985],[28.74994,37.267276],[28.7485,37.268614],[28.74714,37.268718],[28.741024,37.26767],[28.739688,37.268857],[28.737639,37.269791],[28.736283,37.271183],[28.735756,37.273048],[28.736014,37.275031],[28.737518,37.276003],[28.739764,37.276587],[28.739471,37.277772],[28.735564,37.282482],[28.734341,37.28307],[28.732282,37.285587],[28.73219,37.288044],[28.729292,37.289597],[28.729438,37.291662],[28.731091,37.292934],[28.732601,37.293101],[28.734967,37.292662],[28.736054,37.29307],[28.736608,37.293677],[28.736298,37.295817],[28.734704,37.297125],[28.733919,37.298045],[28.73416,37.299372],[28.73647,37.301896],[28.737098,37.30421],[28.735931,37.306547],[28.736544,37.309721],[28.735903,37.311665],[28.736213,37.313172],[28.737391,37.314277],[28.739805,37.315136],[28.741181,37.316667],[28.741418,37.317871],[28.740843,37.320555],[28.741222,37.322457],[28.739982,37.324],[28.738196,37.32547],[28.736443,37.32597],[28.735729,37.326782],[28.734265,37.327408],[28.731864,37.327778],[28.731705,37.330166],[28.730991,37.330896],[28.72889,37.331475],[28.728164,37.333282],[28.727007,37.335003],[28.729361,37.335784],[28.732117,37.336481],[28.735906,37.337653],[28.738183,37.3375],[28.740793,37.337242],[28.74388,37.337378],[28.745482,37.337806],[28.747603,37.338034],[28.748653,37.337486]]]}},{"type":"Feature","properties":{"id":"TR-Y-20-014-M-0009","level":"yerlesim","type":"mahalle","parent_id":"TR-D-20-014","province_id":"TR-P-20","district_id":"TR-D-20-014","name":"Doğanköy","source_raw_name":"DOĞANKÖY","source":"Denizli Adres Bilgi Sistemi - MAHALLE"},"geometry":{"type":"Polygon","coordinates":[[[28.67856,37.532136],[28.680133,37.530738],[28.682299,37.529565],[28.685162,37.527862],[28.689477,37.526082],[28.690225,37.525991],[28.690832,37.52341],[28.692152,37.518515],[28.693962,37.513072],[28.694385,37.510686],[28.691049,37.510763],[28.688812,37.510662],[28.683806,37.510948],[28.680705,37.511255],[28.675765,37.510478],[28.672873,37.509725],[28.66992,37.509729],[28.668018,37.509556],[28.666646,37.50901],[28.664359,37.509059],[28.662561,37.508432],[28.660624,37.507537],[28.65798,37.506255],[28.656145,37.504982],[28.655168,37.503681],[28.653608,37.503056],[28.650947,37.502722],[28.648613,37.502734],[28.645759,37.502549],[28.644184,37.502721],[28.642923,37.503996],[28.642753,37.505512],[28.643346,37.50696],[28.644413,37.50849],[28.646108,37.50961],[28.64724,37.510192],[28.64834,37.512595],[28.650235,37.513186],[28.652557,37.51382],[28.653967,37.514898],[28.655623,37.515486],[28.657093,37.515882],[28.657126,37.516679],[28.65571,37.518598],[28.653483,37.520584],[28.653256,37.52263],[28.654712,37.523785],[28.654262,37.524994],[28.655567,37.526564],[28.659307,37.527897],[28.663139,37.529382],[28.665127,37.530125],[28.667031,37.530223],[28.668448,37.530884],[28.670733,37.531024],[28.67321,37.531014],[28.675485,37.531684],[28.676615,37.532494],[28.677208,37.53378],[28.67856,37.532136]]]}},{"type":"Feature","properties":{"id":"TR-Y-20-014-M-0010","level":"yerlesim","type":"mahalle","parent_id":"TR-D-20-014","province_id":"TR-P-20","district_id":"TR-D-20-014","name":"Esenkaya","source_raw_name":"ESENKAYA","source":"Denizli Adres Bilgi Sistemi - MAHALLE"},"geometry":{"type":"Polygon","coordinates":[[[28.651648,37.422131],[28.6527,37.422058],[28.653167,37.422073],[28.653295,37.420252],[28.653833,37.42],[28.655462,37.419502],[28.656203,37.418552],[28.65699,37.417193],[28.658233,37.416979],[28.659393,37.41608],[28.661066,37.414153],[28.66326,37.412992],[28.665209,37.4116],[28.667435,37.40968],[28.670879,37.407894],[28.672954,37.406945],[28.676346,37.405888],[28.678588,37.405153],[28.681793,37.403912],[28.687282,37.401662],[28.689663,37.400685],[28.69147,37.399748],[28.692472,37.399151],[28.693479,37.399299],[28.694934,37.39892],[28.697592,37.398386],[28.700261,37.39834],[28.705119,37.398393],[28.710604,37.398605],[28.71339,37.398362],[28.715619,37.398371],[28.717426,37.398355],[28.716771,37.397349],[28.715535,37.396659],[28.715083,37.396612],[28.714389,37.396546],[28.713791,37.396388],[28.712835,37.395941],[28.712433,37.39581],[28.712096,37.395663],[28.712038,37.395462],[28.712192,37.395249],[28.711126,37.393412],[28.709866,37.392033],[28.707798,37.391548],[28.705217,37.390618],[28.702514,37.389759],[28.700914,37.388645],[28.700535,37.387568],[28.699075,37.385456],[28.697303,37.383755],[28.694719,37.383044],[28.691831,37.382257],[28.688436,37.380781],[28.686581,37.380297],[28.684147,37.379783],[28.682522,37.380179],[28.681775,37.380975],[28.680407,37.380618],[28.677206,37.380266],[28.674922,37.379899],[28.672998,37.379853],[28.672613,37.37919],[28.672241,37.377797],[28.671928,37.376453],[28.669907,37.373335],[28.668541,37.371556],[28.666691,37.373346],[28.662651,37.372897],[28.658567,37.372654],[28.657278,37.373643],[28.655455,37.374015],[28.65289,37.373572],[28.651552,37.372727],[28.650888,37.371617],[28.64932,37.368395],[28.646883,37.366257],[28.645172,37.366347],[28.644217,37.36698],[28.644903,37.36762],[28.644891,37.368554],[28.64237,37.370048],[28.640606,37.371237],[28.640109,37.372476],[28.638529,37.373646],[28.63882,37.374601],[28.639773,37.375073],[28.640893,37.37484],[28.642287,37.374396],[28.643714,37.374197],[28.644945,37.374211],[28.644663,37.374914],[28.644142,37.376045],[28.64397,37.377056],[28.643494,37.37788],[28.643674,37.378557],[28.64355,37.379017],[28.642775,37.379345],[28.642165,37.379001],[28.641372,37.378193],[28.640675,37.378431],[28.640007,37.379191],[28.639376,37.380013],[28.638437,37.380892],[28.636536,37.3817],[28.635298,37.382054],[28.634442,37.382566],[28.634198,37.3833],[28.63464,37.384411],[28.635283,37.385032],[28.635978,37.384917],[28.636456,37.384032],[28.637361,37.382907],[28.638283,37.382979],[28.639621,37.383486],[28.641111,37.384086],[28.640672,37.384941],[28.639356,37.385356],[28.637873,37.386506],[28.637508,37.387545],[28.636304,37.388146],[28.634367,37.38883],[28.632858,37.389273],[28.631007,37.39122],[28.63119,37.392173],[28.632431,37.392811],[28.634154,37.393407],[28.634346,37.394376],[28.633353,37.396507],[28.633756,37.396388],[28.635378,37.396279],[28.638008,37.396537],[28.640642,37.397519],[28.642742,37.39858],[28.644003,37.399702],[28.644867,37.401175],[28.645249,37.402685],[28.646443,37.40365],[28.64768,37.405113],[28.64885,37.406376],[28.649382,37.407533],[28.649499,37.409949],[28.649934,37.411459],[28.650071,37.412782],[28.650019,37.413676],[28.64776,37.415553],[28.646175,37.416557],[28.644546,37.418002],[28.643577,37.419382],[28.643443,37.41992],[28.644272,37.420356],[28.646308,37.421033],[28.648311,37.42151],[28.650407,37.421818],[28.651648,37.422131]]]}},{"type":"Feature","properties":{"id":"TR-Y-20-014-M-0011","level":"yerlesim","type":"mahalle","parent_id":"TR-D-20-014","province_id":"TR-P-20","district_id":"TR-D-20-014","name":"Gökçeören","source_raw_name":"GÖKÇEÖREN","source":"Denizli Adres Bilgi Sistemi - MAHALLE"},"geometry":{"type":"Polygon","coordinates":[[[28.735038,37.41085],[28.73744,37.4108],[28.738996,37.411197],[28.739601,37.410699],[28.741983,37.407632],[28.743482,37.405709],[28.744849,37.404425],[28.746123,37.401538],[28.748255,37.397746],[28.749198,37.394121],[28.750062,37.393268],[28.751589,37.391328],[28.753816,37.388662],[28.754648,37.38699],[28.755507,37.386021],[28.756647,37.38423],[28.757792,37.382194],[28.758752,37.379698],[28.759162,37.378083],[28.759717,37.376927],[28.759962,37.376013],[28.759553,37.375275],[28.759778,37.373873],[28.759511,37.372565],[28.759391,37.371675],[28.759166,37.370784],[28.759313,37.370425],[28.759478,37.369802],[28.759794,37.369074],[28.760148,37.368527],[28.760525,37.367445],[28.761029,37.366398],[28.761321,37.365805],[28.761887,37.364359],[28.762337,37.363587],[28.762594,37.362971],[28.762877,37.362057],[28.763283,37.361336],[28.763626,37.360619],[28.764024,37.359571],[28.764397,37.358754],[28.764693,37.357879],[28.764976,37.356976],[28.76531,37.356378],[28.765607,37.355036],[28.765767,37.353834],[28.765805,37.353277],[28.76576,37.352568],[28.765581,37.35188],[28.765429,37.351254],[28.764965,37.350298],[28.764608,37.349293],[28.76446,37.348442],[28.763913,37.347401],[28.763723,37.346572],[28.763019,37.345113],[28.762743,37.344503],[28.762146,37.344206],[28.761843,37.344029],[28.762122,37.342709],[28.762724,37.341486],[28.762991,37.340843],[28.76308,37.340198],[28.763068,37.339111],[28.763315,37.337917],[28.763585,37.337116],[28.763815,37.336283],[28.764066,37.335412],[28.759599,37.335948],[28.757433,37.336248],[28.75589,37.336539],[28.754358,37.33672],[28.75253,37.336858],[28.750969,37.336991],[28.750012,37.337044],[28.748653,37.337486],[28.747603,37.338034],[28.745482,37.337806],[28.74388,37.337378],[28.743596,37.337887],[28.742954,37.338266],[28.743208,37.338648],[28.742939,37.339189],[28.742774,37.339938],[28.74243,37.340685],[28.742276,37.341334],[28.73919,37.343418],[28.737164,37.34404],[28.735231,37.34446],[28.733649,37.344455],[28.732312,37.344059],[28.731704,37.344672],[28.730936,37.345081],[28.729992,37.345286],[28.729501,37.345185],[28.728852,37.345607],[28.727453,37.346271],[28.727109,37.346256],[28.726516,37.346023],[28.726112,37.34609],[28.725899,37.34635],[28.725025,37.346805],[28.723946,37.347056],[28.723167,37.347202],[28.722225,37.347299],[28.721748,37.34727],[28.721357,37.347409],[28.720658,37.347259],[28.720272,37.347123],[28.717745,37.343621],[28.715208,37.345754],[28.714172,37.349595],[28.713113,37.35158],[28.713071,37.353217],[28.712212,37.353927],[28.70965,37.354259],[28.708304,37.354594],[28.706887,37.355931],[28.706225,37.358652],[28.705766,37.359127],[28.705123,37.360746],[28.704837,37.362742],[28.704293,37.363716],[28.702938,37.364574],[28.702005,37.366353],[28.700793,37.366885],[28.697903,37.365599],[28.696113,37.366332],[28.695277,37.366432],[28.693246,37.365296],[28.69091,37.364452],[28.687933,37.365041],[28.686033,37.365794],[28.682403,37.366201],[28.680627,37.368429],[28.679518,37.368537],[28.677789,37.368114],[28.675919,37.36794],[28.673631,37.368242],[28.672331,37.369045],[28.671277,37.369514],[28.670447,37.369668],[28.669656,37.370325],[28.66952,37.371076],[28.668541,37.371556],[28.669907,37.373335],[28.671928,37.376453],[28.672241,37.377797],[28.672613,37.37919],[28.672998,37.379853],[28.674922,37.379899],[28.677206,37.380266],[28.680407,37.380618],[28.681775,37.380975],[28.682522,37.380179],[28.684147,37.379783],[28.686581,37.380297],[28.688436,37.380781],[28.691831,37.382257],[28.694719,37.383044],[28.697303,37.383755],[28.699075,37.385456],[28.700535,37.387568],[28.700914,37.388645],[28.702514,37.389759],[28.705217,37.390618],[28.707798,37.391548],[28.709866,37.392033],[28.711126,37.393412],[28.712193,37.395247],[28.712192,37.395249],[28.712038,37.395462],[28.712096,37.395663],[28.71236,37.395789],[28.712433,37.39581],[28.712768,37.395908],[28.712835,37.395941],[28.713303,37.396167],[28.713722,37.396367],[28.713791,37.396388],[28.714302,37.396537],[28.714389,37.396546],[28.715034,37.396605],[28.715083,37.396612],[28.715461,37.396664],[28.716771,37.397349],[28.717426,37.398355],[28.717015,37.399223],[28.716951,37.400727],[28.717309,37.40213],[28.718355,37.403327],[28.719882,37.404332],[28.7213,37.405016],[28.722568,37.405547],[28.723206,37.406116],[28.723753,37.407551],[28.724211,37.408681],[28.725336,37.409757],[28.727568,37.41077],[28.728548,37.411388],[28.730139,37.411983],[28.731562,37.412409],[28.732741,37.411403],[28.735038,37.41085]]]}},{"type":"Feature","properties":{"id":"TR-Y-20-014-M-0012","level":"yerlesim","type":"mahalle","parent_id":"TR-D-20-014","province_id":"TR-P-20","district_id":"TR-D-20-014","name":"Gölbaşı","source_raw_name":"GÖLBAŞI","source":"Denizli Adres Bilgi Sistemi - MAHALLE"},"geometry":{"type":"Polygon","coordinates":[[[28.731178,37.566612],[28.732311,37.566222],[28.733671,37.56652],[28.734739,37.566485],[28.736762,37.566105],[28.738401,37.565674],[28.740896,37.565441],[28.742947,37.565179],[28.74518,37.564707],[28.746936,37.564301],[28.748016,37.56423],[28.747613,37.563852],[28.747082,37.56216],[28.747744,37.561444],[28.748584,37.561008],[28.749898,37.560218],[28.751138,37.558753],[28.751855,37.557291],[28.75189,37.55722],[28.752541,37.555379],[28.752451,37.553388],[28.751834,37.551513],[28.751476,37.550221],[28.751628,37.549965],[28.751648,37.549944],[28.752175,37.549423],[28.752223,37.549383],[28.752421,37.549223],[28.75251,37.549047],[28.752515,37.549038],[28.752533,37.548621],[28.75253,37.548618],[28.751985,37.548],[28.752104,37.546428],[28.751904,37.545492],[28.75253,37.544958],[28.753677,37.544626],[28.753264,37.543564],[28.751949,37.540689],[28.749374,37.536684],[28.748896,37.535537],[28.747712,37.532541],[28.745922,37.528907],[28.74503,37.526897],[28.742495,37.525642],[28.739726,37.525261],[28.738718,37.5249],[28.735211,37.523809],[28.733021,37.523084],[28.730687,37.522953],[28.728308,37.522963],[28.725881,37.523147],[28.72183,37.522963],[28.716981,37.523086],[28.712507,37.524441],[28.708459,37.526678],[28.704699,37.527479],[28.702626,37.527631],[28.698668,37.527131],[28.693564,37.526724],[28.691067,37.525889],[28.690225,37.525991],[28.689477,37.526082],[28.685162,37.527862],[28.682299,37.529565],[28.680133,37.530738],[28.67856,37.532136],[28.677208,37.53378],[28.675747,37.536756],[28.675221,37.537826],[28.674998,37.541383],[28.67509,37.545198],[28.679158,37.549948],[28.680202,37.554155],[28.681598,37.556459],[28.680901,37.559756],[28.677969,37.563029],[28.673597,37.566413],[28.669827,37.571837],[28.669755,37.575904],[28.674487,37.579263],[28.675809,37.579696],[28.678528,37.580587],[28.678564,37.580646],[28.679405,37.581788],[28.680845,37.583431],[28.683236,37.586509],[28.684084,37.587231],[28.684846,37.588308],[28.685294,37.590231],[28.685739,37.591707],[28.686244,37.59364],[28.687355,37.595791],[28.687613,37.598114],[28.68757,37.599255],[28.687412,37.601684],[28.687394,37.603337],[28.687795,37.60473],[28.689009,37.60489],[28.690394,37.605152],[28.692712,37.605917],[28.693966,37.606443],[28.696051,37.607361],[28.698025,37.608059],[28.700575,37.60869],[28.70314,37.609148],[28.704658,37.609685],[28.70794,37.611101],[28.710073,37.611965],[28.711257,37.612571],[28.711867,37.611135],[28.712605,37.610293],[28.714246,37.609023],[28.716054,37.608084],[28.718357,37.607012],[28.720446,37.606423],[28.723788,37.605052],[28.725669,37.604421],[28.725184,37.603283],[28.724087,37.601477],[28.721386,37.598024],[28.71894,37.59533],[28.71649,37.592871],[28.715143,37.591818],[28.713551,37.591257],[28.713119,37.590473],[28.713771,37.588804],[28.715605,37.585684],[28.718211,37.582478],[28.719297,37.581428],[28.72217,37.578248],[28.723837,37.576165],[28.724637,37.574497],[28.725488,37.573302],[28.726908,37.571736],[28.728068,37.569812],[28.729109,37.567935],[28.731178,37.566612]]]}},{"type":"Feature","properties":{"id":"TR-Y-20-014-M-0013","level":"yerlesim","type":"mahalle","parent_id":"TR-D-20-014","province_id":"TR-P-20","district_id":"TR-D-20-014","name":"Gülbağlık","source_raw_name":"GÜLBAĞLIK","source":"Denizli Adres Bilgi Sistemi - MAHALLE"},"geometry":{"type":"Polygon","coordinates":[[[28.708459,37.526678],[28.712507,37.524441],[28.716981,37.523086],[28.72183,37.522963],[28.725881,37.523147],[28.728308,37.522963],[28.730687,37.522953],[28.733021,37.523084],[28.735211,37.523809],[28.738718,37.5249],[28.739726,37.525261],[28.742495,37.525642],[28.74503,37.526897],[28.743592,37.524729],[28.741529,37.521222],[28.740537,37.518383],[28.740294,37.514793],[28.740551,37.512415],[28.739708,37.511061],[28.739075,37.510019],[28.738901,37.507534],[28.74056,37.504136],[28.742055,37.502773],[28.744249,37.501071],[28.748239,37.498702],[28.749553,37.497169],[28.75006,37.496525],[28.751567,37.495442],[28.753352,37.494925],[28.755148,37.494346],[28.756127,37.493829],[28.756638,37.493615],[28.757309,37.493701],[28.75838,37.494319],[28.759303,37.494566],[28.759537,37.494366],[28.75879,37.493532],[28.758196,37.492779],[28.757882,37.492407],[28.758196,37.492129],[28.759422,37.492027],[28.761641,37.491893],[28.763012,37.491652],[28.764414,37.491579],[28.764997,37.491664],[28.764978,37.490134],[28.764482,37.487624],[28.764285,37.486201],[28.761815,37.484658],[28.760018,37.483633],[28.758135,37.482964],[28.756123,37.482209],[28.754007,37.481348],[28.751096,37.480836],[28.749462,37.481028],[28.748792,37.481191],[28.747659,37.481249],[28.746883,37.480754],[28.744557,37.477396],[28.744123,37.477276],[28.743299,37.477915],[28.742425,37.478068],[28.741472,37.477757],[28.740418,37.476542],[28.739712,37.475354],[28.738461,37.473766],[28.736764,37.47273],[28.735834,37.472812],[28.73483,37.473751],[28.733344,37.475795],[28.732128,37.477286],[28.730197,37.478122],[28.729116,37.478458],[28.727503,37.477676],[28.726028,37.477313],[28.724994,37.476608],[28.725083,37.474803],[28.724662,37.473965],[28.723419,37.473581],[28.721765,37.473494],[28.720414,37.472669],[28.719146,37.472123],[28.71705,37.472424],[28.714742,37.473209],[28.712906,37.473536],[28.711134,37.47361],[28.709887,37.473457],[28.708848,37.473075],[28.70781,37.47194],[28.70781,37.471939],[28.707809,37.471938],[28.707614,37.471691],[28.707609,37.471685],[28.707506,37.471582],[28.707504,37.47158],[28.707475,37.471574],[28.707436,37.471565],[28.707419,37.47174],[28.707418,37.471741],[28.707214,37.471854],[28.706635,37.473398],[28.706899,37.474952],[28.707834,37.477995],[28.7088,37.480922],[28.709364,37.483613],[28.710885,37.486361],[28.712407,37.489109],[28.713024,37.490366],[28.711608,37.489957],[28.710653,37.489761],[28.709024,37.489859],[28.707192,37.489955],[28.703182,37.490049],[28.700592,37.490322],[28.698939,37.490165],[28.697117,37.489658],[28.694909,37.48968],[28.691798,37.489831],[28.689472,37.489944],[28.687609,37.490178],[28.686032,37.49067],[28.684446,37.491647],[28.683378,37.492932],[28.682133,37.494306],[28.681015,37.49515],[28.678942,37.495706],[28.676814,37.496122],[28.674781,37.496076],[28.672198,37.495931],[28.669733,37.495672],[28.667523,37.495786],[28.665602,37.496018],[28.664433,37.496376],[28.663302,37.49627],[28.661709,37.496021],[28.657127,37.495529],[28.652774,37.495271],[28.649692,37.495397],[28.64789,37.495446],[28.645007,37.495853],[28.642511,37.495685],[28.640407,37.495546],[28.641139,37.496674],[28.642331,37.498494],[28.6445,37.501622],[28.645759,37.502549],[28.648613,37.502734],[28.650947,37.502722],[28.653608,37.503056],[28.655168,37.503681],[28.656145,37.504982],[28.65798,37.506255],[28.660624,37.507537],[28.662561,37.508432],[28.664359,37.509059],[28.666646,37.50901],[28.668018,37.509556],[28.66992,37.509729],[28.672873,37.509725],[28.675765,37.510478],[28.680705,37.511255],[28.683806,37.510948],[28.688812,37.510662],[28.691049,37.510763],[28.694385,37.510686],[28.693962,37.513072],[28.692152,37.518515],[28.690832,37.52341],[28.690225,37.525991],[28.691067,37.525889],[28.693564,37.526724],[28.698668,37.527131],[28.702626,37.527631],[28.704699,37.527479],[28.708459,37.526678]]]}},{"type":"Feature","properties":{"id":"TR-Y-20-014-M-0014","level":"yerlesim","type":"mahalle","parent_id":"TR-D-20-014","province_id":"TR-P-20","district_id":"TR-D-20-014","name":"Habipler","source_raw_name":"HABİPLER","source":"Denizli Adres Bilgi Sistemi - MAHALLE"},"geometry":{"type":"Polygon","coordinates":[[[28.844785,37.386928],[28.841564,37.379865],[28.836958,37.372722],[28.828744,37.3674],[28.820674,37.36306],[28.818691,37.364135],[28.817484,37.365202],[28.816548,37.366244],[28.815301,37.368693],[28.814593,37.370083],[28.813501,37.371857],[28.813276,37.372938],[28.812395,37.374053],[28.811312,37.37505],[28.810277,37.376393],[28.809478,37.37746],[28.808949,37.37837],[28.808398,37.379572],[28.810592,37.381127],[28.812917,37.382451],[28.81771,37.384371],[28.821796,37.385686],[28.824253,37.386907],[28.827464,37.387953],[28.829151,37.388438],[28.829659,37.389275],[28.832569,37.38868],[28.837473,37.387662],[28.844785,37.386928]]]}},{"type":"Feature","properties":{"id":"TR-Y-20-014-M-0015","level":"yerlesim","type":"mahalle","parent_id":"TR-D-20-014","province_id":"TR-P-20","district_id":"TR-D-20-014","name":"Hürriyet","source_raw_name":"HÜRRİYET","source":"Denizli Adres Bilgi Sistemi - MAHALLE"},"geometry":{"type":"Polygon","coordinates":[[[28.843735,37.453166],[28.843892,37.452109],[28.845245,37.452221],[28.845365,37.451627],[28.846673,37.451796],[28.848872,37.452164],[28.84987,37.451923],[28.849461,37.451244],[28.848015,37.448875],[28.847474,37.448231],[28.846708,37.446707],[28.846359,37.446113],[28.84589,37.44546],[28.845595,37.444446],[28.84443,37.441796],[28.843041,37.442157],[28.841584,37.443329],[28.841087,37.443746],[28.842759,37.445041],[28.842077,37.445434],[28.841536,37.445591],[28.841313,37.445722],[28.840877,37.446119],[28.840533,37.446663],[28.840207,37.44688],[28.83943,37.447625],[28.838586,37.448019],[28.837277,37.448751],[28.837546,37.448966],[28.836292,37.450104],[28.844242,37.455266],[28.845637,37.453645],[28.844648,37.453396],[28.843735,37.453166]]]}},{"type":"Feature","properties":{"id":"TR-Y-20-014-M-0016","level":"yerlesim","type":"mahalle","parent_id":"TR-D-20-014","province_id":"TR-P-20","district_id":"TR-D-20-014","name":"İnceğiz","source_raw_name":"İNCEĞİZ","source":"Denizli Adres Bilgi Sistemi - MAHALLE"},"geometry":{"type":"Polygon","coordinates":[[[28.62043,37.542863],[28.623442,37.543001],[28.625639,37.542723],[28.627925,37.542788],[28.63078,37.542973],[28.635879,37.542956],[28.639739,37.542963],[28.644943,37.542378],[28.651716,37.542],[28.65201,37.541999],[28.657489,37.538389],[28.66171,37.534495],[28.667517,37.531128],[28.677208,37.53378],[28.676615,37.532494],[28.675485,37.531684],[28.67321,37.531014],[28.670733,37.531024],[28.668448,37.530884],[28.667031,37.530223],[28.665127,37.530125],[28.663139,37.529382],[28.659307,37.527897],[28.655567,37.526564],[28.654262,37.524994],[28.654712,37.523785],[28.653256,37.52263],[28.653483,37.520584],[28.65571,37.518598],[28.657126,37.516679],[28.657093,37.515882],[28.655623,37.515486],[28.653967,37.514898],[28.652557,37.51382],[28.650235,37.513186],[28.64834,37.512595],[28.64724,37.510192],[28.646108,37.50961],[28.644413,37.50849],[28.643346,37.50696],[28.642753,37.505512],[28.642923,37.503996],[28.644184,37.502721],[28.645759,37.502549],[28.6445,37.501622],[28.642331,37.498494],[28.641139,37.496674],[28.640407,37.495546],[28.639895,37.494701],[28.638918,37.493271],[28.637913,37.492],[28.637661,37.490659],[28.637582,37.489519],[28.638067,37.487626],[28.638352,37.485751],[28.638248,37.48457],[28.636987,37.483597],[28.636031,37.482407],[28.63593,37.481066],[28.636269,37.479338],[28.63686,37.47736],[28.637839,37.474745],[28.636657,37.473775],[28.635035,37.472358],[28.632891,37.471105],[28.630834,37.469939],[28.629583,37.469512],[28.629019,37.469319],[28.627822,37.469162],[28.627563,37.469602],[28.627224,37.47251],[28.62743,37.473968],[28.628427,37.475278],[28.628759,37.476667],[28.628535,37.477192],[28.627872,37.477213],[28.626719,37.476615],[28.625641,37.475817],[28.624741,37.475078],[28.624091,37.476164],[28.622405,37.477196],[28.618981,37.478373],[28.617087,37.479403],[28.615113,37.48104],[28.614577,37.483745],[28.613001,37.486327],[28.610888,37.487907],[28.608629,37.489928],[28.606071,37.492997],[28.605138,37.494646],[28.605018,37.497356],[28.605619,37.498913],[28.604007,37.501208],[28.604594,37.503403],[28.604331,37.504839],[28.602947,37.507511],[28.603309,37.509141],[28.602241,37.511693],[28.601532,37.511809],[28.599549,37.512912],[28.597433,37.512699],[28.596414,37.512624],[28.595453,37.513613],[28.594934,37.516171],[28.594045,37.517536],[28.593163,37.518526],[28.59322,37.519653],[28.589589,37.520672],[28.586826,37.521452],[28.586143,37.524383],[28.587053,37.526083],[28.586767,37.528768],[28.587734,37.531594],[28.588709,37.534045],[28.58749,37.536219],[28.585167,37.53863],[28.583506,37.543425],[28.582907,37.545982],[28.582208,37.549726],[28.584274,37.5485],[28.58841,37.545736],[28.591433,37.543708],[28.594754,37.542497],[28.597497,37.542842],[28.600319,37.543126],[28.603145,37.543222],[28.60607,37.542194],[28.608598,37.541411],[28.610484,37.541308],[28.613461,37.541718],[28.616273,37.542564],[28.62043,37.542863]]]}},{"type":"Feature","properties":{"id":"TR-Y-20-014-M-0017","level":"yerlesim","type":"mahalle","parent_id":"TR-D-20-014","province_id":"TR-P-20","district_id":"TR-D-20-014","name":"Karaköy","source_raw_name":"KARAKÖY","source":"Denizli Adres Bilgi Sistemi - MAHALLE"},"geometry":{"type":"Polygon","coordinates":[[[28.846971,37.517398],[28.849593,37.517394],[28.851685,37.517483],[28.856272,37.517773],[28.858262,37.518047],[28.859345,37.518116],[28.860513,37.518167],[28.86156,37.518118],[28.862698,37.517816],[28.863317,37.517537],[28.864961,37.517092],[28.867524,37.516989],[28.870612,37.516705],[28.872846,37.515453],[28.874484,37.510637],[28.876766,37.509179],[28.878916,37.507332],[28.878952,37.507269],[28.879101,37.507013],[28.879052,37.506549],[28.879508,37.505747],[28.880289,37.504528],[28.88136,37.503389],[28.882961,37.501084],[28.884244,37.498743],[28.883691,37.497708],[28.883364,37.495921],[28.88251,37.493894],[28.880771,37.491999],[28.876518,37.48872],[28.875196,37.486547],[28.875171,37.48426],[28.875171,37.484247],[28.87474,37.48382],[28.873783,37.482384],[28.872744,37.481536],[28.8708,37.480585],[28.867401,37.479486],[28.863863,37.478139],[28.862273,37.477457],[28.860538,37.47687],[28.854875,37.475482],[28.852357,37.474582],[28.850638,37.474584],[28.849234,37.474209],[28.847281,37.473904],[28.845261,37.473219],[28.843498,37.472916],[28.841598,37.473214],[28.841589,37.473216],[28.840335,37.473354],[28.838919,37.473411],[28.838438,37.473527],[28.837793,37.474367],[28.837175,37.475106],[28.835874,37.476674],[28.834692,37.477941],[28.833124,37.479638],[28.832163,37.48132],[28.830629,37.483268],[28.829649,37.485333],[28.829059,37.485871],[28.828255,37.486347],[28.827163,37.486718],[28.826131,37.487232],[28.824106,37.488219],[28.823226,37.488723],[28.822812,37.489344],[28.822503,37.490489],[28.822037,37.492004],[28.821598,37.492584],[28.820909,37.493061],[28.820094,37.493405],[28.819218,37.493723],[28.819036,37.494749],[28.818976,37.495777],[28.818808,37.496628],[28.818881,37.497586],[28.818914,37.498325],[28.819123,37.499039],[28.81928,37.499585],[28.818956,37.500939],[28.818937,37.50213],[28.819237,37.503137],[28.819828,37.503916],[28.820645,37.505325],[28.822238,37.507536],[28.823771,37.509196],[28.824904,37.509953],[28.826151,37.510495],[28.829115,37.512231],[28.831019,37.51326],[28.832216,37.513909],[28.833488,37.514412],[28.834238,37.515282],[28.834681,37.516081],[28.834671,37.517522],[28.835569,37.51911],[28.83641,37.520451],[28.837087,37.521292],[28.838408,37.523423],[28.839175,37.524734],[28.839642,37.525582],[28.840176,37.525284],[28.841981,37.52485],[28.843402,37.524521],[28.844848,37.524163],[28.8465,37.524022],[28.846749,37.52225],[28.8466,37.5191],[28.845881,37.517809],[28.846971,37.517398]]]}},{"type":"Feature","properties":{"id":"TR-Y-20-014-M-0018","level":"yerlesim","type":"mahalle","parent_id":"TR-D-20-014","province_id":"TR-P-20","district_id":"TR-D-20-014","name":"Karayayla","source_raw_name":"KARAYAYLA","source":"Denizli Adres Bilgi Sistemi - MAHALLE"},"geometry":{"type":"Polygon","coordinates":[[[28.97269,37.371716],[28.973335,37.370149],[28.973851,37.368949],[28.973979,37.367735],[28.973952,37.366969],[28.974077,37.366094],[28.974256,37.365727],[28.975442,37.365648],[28.97592,37.365373],[28.976426,37.36481],[28.97743,37.364341],[28.978945,37.362991],[28.980412,37.36152],[28.981849,37.360358],[28.983125,37.359115],[28.98381,37.358294],[28.984555,37.357584],[28.984998,37.35712],[28.984147,37.356446],[28.983549,37.355455],[28.983308,37.354826],[28.982895,37.354036],[28.982422,37.353056],[28.981825,37.351996],[28.981412,37.351146],[28.980793,37.349917],[28.980223,37.348767],[28.979605,37.347398],[28.978864,37.345948],[28.978427,37.345088],[28.978028,37.344139],[28.977569,37.34308],[28.977181,37.34226],[28.976696,37.341231],[28.97626,37.340311],[28.976157,37.339613],[28.976196,37.338579],[28.976312,37.337425],[28.976658,37.335746],[28.976897,37.333787],[28.976986,37.330891],[28.977202,37.328762],[28.977657,37.326477],[28.978027,37.324001],[28.978118,37.321872],[28.978233,37.319842],[28.97858,37.318103],[28.978718,37.316233],[28.979123,37.314803],[28.979456,37.313253],[28.980141,37.311417],[28.980438,37.309718],[28.980868,37.308368],[28.981449,37.30686],[28.98253,37.305177],[28.980385,37.304396],[28.978306,37.304101],[28.976417,37.303622],[28.973296,37.303271],[28.970767,37.303076],[28.969308,37.302936],[28.967043,37.302465],[28.96453,37.30212],[28.960596,37.301992],[28.958182,37.301867],[28.956471,37.301916],[28.957547,37.303348],[28.95576,37.303253],[28.952749,37.303184],[28.95011,37.303124],[28.94764,37.302944],[28.945152,37.30294],[28.94342,37.302778],[28.94162,37.30258],[28.940425,37.302612],[28.938796,37.302664],[28.937344,37.302602],[28.935306,37.30259],[28.934095,37.30264],[28.932322,37.302715],[28.931051,37.302733],[28.929484,37.30275],[28.928212,37.302841],[28.926691,37.302815],[28.926161,37.303169],[28.924565,37.30409],[28.923235,37.305099],[28.921991,37.305878],[28.920115,37.307295],[28.919206,37.30807],[28.918135,37.308978],[28.916434,37.310342],[28.915296,37.311231],[28.914187,37.312163],[28.912301,37.313628],[28.911052,37.314796],[28.909849,37.315878],[28.908976,37.3168],[28.907881,37.317823],[28.907805,37.318357],[28.907774,37.31842],[28.907303,37.319386],[28.907221,37.319474],[28.906522,37.320229],[28.906102,37.320624],[28.905882,37.320831],[28.905752,37.320984],[28.905092,37.321759],[28.904777,37.322087],[28.904327,37.322554],[28.903735,37.323267],[28.903615,37.323411],[28.903195,37.323932],[28.903158,37.323978],[28.903114,37.324049],[28.902667,37.324775],[28.902451,37.325009],[28.901878,37.325631],[28.901159,37.32642],[28.900609,37.327078],[28.900046,37.327613],[28.89935,37.328336],[28.898721,37.328954],[28.898516,37.329155],[28.898066,37.329754],[28.897786,37.330126],[28.897764,37.330156],[28.897342,37.330516],[28.896847,37.330938],[28.896786,37.330963],[28.896714,37.330992],[28.896351,37.331141],[28.895743,37.331365],[28.895738,37.331367],[28.894659,37.331583],[28.894986,37.331801],[28.89584,37.33237],[28.895842,37.332371],[28.896491,37.332803],[28.897577,37.333527],[28.897701,37.334987],[28.897949,37.336229],[28.898,37.337427],[28.898216,37.338796],[28.898527,37.339868],[28.899161,37.341339],[28.899667,37.342626],[28.900299,37.344187],[28.900642,37.345181],[28.90078,37.346179],[28.900746,37.347437],[28.900617,37.348475],[28.900735,37.349284],[28.90112,37.350017],[28.901382,37.351001],[28.901389,37.351027],[28.901777,37.351009],[28.902958,37.351607],[28.904457,37.352496],[28.905772,37.353085],[28.907356,37.353623],[28.910016,37.354716],[28.911529,37.355498],[28.914261,37.357136],[28.915651,37.358152],[28.916805,37.358793],[28.918081,37.35936],[28.918792,37.35994],[28.918822,37.359964],[28.918227,37.360386],[28.917683,37.361],[28.917866,37.362273],[28.918384,37.363441],[28.919211,37.364506],[28.920948,37.366518],[28.921873,37.367498],[28.921884,37.367509],[28.922732,37.368083],[28.923154,37.368207],[28.924396,37.368572],[28.924397,37.368572],[28.925543,37.368422],[28.927132,37.368007],[28.929097,37.367776],[28.930148,37.368369],[28.930841,37.36876],[28.932047,37.369411],[28.932047,37.369411],[28.932854,37.369862],[28.932854,37.369862],[28.933775,37.370468],[28.934768,37.371105],[28.935218,37.371143],[28.936139,37.371039],[28.937127,37.371077],[28.938618,37.371359],[28.939588,37.371216],[28.94039,37.371209],[28.940963,37.371174],[28.941257,37.371063],[28.941482,37.370903],[28.941732,37.370505],[28.94414,37.370484],[28.945898,37.370588],[28.946972,37.370684],[28.948443,37.370843],[28.948833,37.371291],[28.949175,37.372056],[28.949801,37.373215],[28.95007,37.373619],[28.950811,37.374805],[28.951381,37.37574],[28.952305,37.376575],[28.952373,37.376617],[28.953432,37.377279],[28.953491,37.377333],[28.954682,37.378434],[28.956434,37.380052],[28.956464,37.380076],[28.958151,37.381318],[28.96029,37.382893],[28.962525,37.384346],[28.963881,37.385345],[28.963911,37.385369],[28.965831,37.386989],[28.967817,37.385697],[28.970005,37.384569],[28.971354,37.383621],[28.971414,37.381675],[28.972092,37.378587],[28.972836,37.375446],[28.972777,37.374494],[28.9727,37.373747],[28.972437,37.372938],[28.97269,37.371716]]]}},{"type":"Feature","properties":{"id":"TR-Y-20-014-M-0019","level":"yerlesim","type":"mahalle","parent_id":"TR-D-20-014","province_id":"TR-P-20","district_id":"TR-D-20-014","name":"Kayabaşı","source_raw_name":"KAYABAŞI","source":"Denizli Adres Bilgi Sistemi - MAHALLE"},"geometry":{"type":"Polygon","coordinates":[[[28.899584,37.354629],[28.900012,37.353726],[28.90058,37.352386],[28.901251,37.351281],[28.901389,37.351027],[28.901382,37.351001],[28.90112,37.350017],[28.900735,37.349284],[28.900617,37.348475],[28.900746,37.347437],[28.90078,37.346179],[28.900642,37.345181],[28.900299,37.344187],[28.899667,37.342626],[28.899161,37.341339],[28.898527,37.339868],[28.898216,37.338796],[28.898,37.337427],[28.897949,37.336229],[28.897701,37.334987],[28.897577,37.333527],[28.896491,37.332803],[28.895842,37.332371],[28.89584,37.33237],[28.894659,37.331583],[28.894646,37.331574],[28.893678,37.331736],[28.893469,37.331771],[28.89322,37.331773],[28.891873,37.331785],[28.89183,37.331781],[28.888651,37.331439],[28.886842,37.330859],[28.885371,37.330016],[28.884051,37.328967],[28.882637,37.327571],[28.880969,37.325727],[28.87996,37.324666],[28.879026,37.32391],[28.877764,37.32327],[28.876423,37.322601],[28.87554,37.322376],[28.875523,37.322372],[28.874765,37.322178],[28.874557,37.322125],[28.874033,37.321858],[28.873909,37.321795],[28.873651,37.321491],[28.873648,37.321488],[28.873579,37.321423],[28.873272,37.32113],[28.87274,37.320501],[28.872594,37.32032],[28.872112,37.319722],[28.871884,37.319352],[28.871549,37.318809],[28.871183,37.318086],[28.871178,37.318075],[28.870551,37.317429],[28.870269,37.317138],[28.869675,37.316546],[28.86914,37.316014],[28.868872,37.315737],[28.868056,37.314897],[28.867827,37.314615],[28.866828,37.31338],[28.866801,37.313346],[28.8667,37.312963],[28.866628,37.312623],[28.866534,37.312181],[28.866492,37.312107],[28.866223,37.311639],[28.858951,37.308494],[28.850292,37.307215],[28.84413,37.308548],[28.824302,37.302847],[28.813515,37.302926],[28.81322,37.302928],[28.814277,37.303442],[28.815436,37.304276],[28.816171,37.304957],[28.816736,37.305714],[28.817115,37.306449],[28.817222,37.306988],[28.816831,37.30758],[28.816358,37.308277],[28.815798,37.309491],[28.815909,37.310868],[28.816107,37.311848],[28.816726,37.313138],[28.817568,37.314352],[28.81786,37.31556],[28.817562,37.316465],[28.817249,37.317171],[28.816933,37.318047],[28.817076,37.319105],[28.817584,37.320131],[28.817992,37.320738],[28.818513,37.321502],[28.818651,37.322333],[28.818706,37.323347],[28.818667,37.324701],[28.818568,37.325934],[28.818242,37.326544],[28.817834,37.327311],[28.818372,37.32807],[28.818745,37.328956],[28.818969,37.32962],[28.818731,37.330709],[28.818537,37.331622],[28.818784,37.332606],[28.81935,37.334387],[28.819871,37.335495],[28.820372,37.336441],[28.821242,37.337373],[28.822291,37.338078],[28.823946,37.338356],[28.825835,37.338472],[28.827775,37.338719],[28.829223,37.339179],[28.830359,37.339625],[28.831596,37.340549],[28.832606,37.342068],[28.833269,37.343117],[28.833709,37.344566],[28.834578,37.344705],[28.836156,37.344666],[28.837923,37.344727],[28.838847,37.344801],[28.840195,37.345542],[28.841268,37.346551],[28.841893,37.348371],[28.842663,37.349616],[28.843685,37.351233],[28.844675,37.352339],[28.845538,37.352793],[28.84699,37.353003],[28.849611,37.353267],[28.85169,37.353396],[28.85384,37.353374],[28.857339,37.35407],[28.859089,37.354358],[28.861394,37.354847],[28.864176,37.355265],[28.866397,37.355884],[28.868563,37.35661],[28.871176,37.357428],[28.872727,37.35829],[28.874265,37.359108],[28.876088,37.359253],[28.877332,37.359469],[28.878732,37.360036],[28.879884,37.360727],[28.881291,37.361481],[28.88291,37.362331],[28.884274,37.36311],[28.886019,37.364105],[28.887267,37.364764],[28.888364,37.365574],[28.889704,37.366591],[28.890813,37.3673],[28.892396,37.368413],[28.893504,37.369206],[28.894645,37.369957],[28.895874,37.370556],[28.896448,37.370878],[28.896476,37.370894],[28.896198,37.369396],[28.896245,37.36803],[28.896485,37.366238],[28.89682,37.365281],[28.897171,37.363245],[28.897617,37.361103],[28.897988,37.359515],[28.898393,37.358334],[28.898882,37.356918],[28.899584,37.354629]]]}},{"type":"Feature","properties":{"id":"TR-Y-20-014-M-0020","level":"yerlesim","type":"mahalle","parent_id":"TR-D-20-014","province_id":"TR-P-20","district_id":"TR-D-20-014","name":"Kırköy","source_raw_name":"KIRKÖY","source":"Denizli Adres Bilgi Sistemi - MAHALLE"},"geometry":{"type":"Polygon","coordinates":[[[28.748464,37.607326],[28.75059,37.607302],[28.751886,37.60727],[28.752766,37.606897],[28.754283,37.605882],[28.756229,37.604409],[28.757382,37.603495],[28.757542,37.603368],[28.759426,37.602126],[28.760922,37.60147],[28.762307,37.600488],[28.763311,37.59963],[28.764686,37.598359],[28.765218,37.597832],[28.765194,37.597565],[28.764597,37.59712],[28.76304,37.595553],[28.760956,37.594333],[28.758971,37.592975],[28.756422,37.591843],[28.755366,37.591494],[28.755049,37.59083],[28.75566,37.590053],[28.756578,37.589433],[28.757905,37.588556],[28.759117,37.587647],[28.760019,37.586796],[28.762594,37.585164],[28.765109,37.583624],[28.767505,37.582298],[28.769641,37.581521],[28.771326,37.581185],[28.772419,37.580429],[28.772961,37.579144],[28.772803,37.577054],[28.771962,37.575355],[28.772448,37.575139],[28.772036,37.574905],[28.770343,37.574627],[28.770015,37.57447],[28.76956,37.574406],[28.769088,37.574385],[28.768682,37.574034],[28.767534,37.573961],[28.766789,37.574005],[28.766088,37.573689],[28.765174,37.573067],[28.764295,37.572924],[28.763774,37.572843],[28.762303,37.572625],[28.760337,37.57238],[28.760073,37.572471],[28.758862,37.572889],[28.757625,37.573329],[28.757407,37.573152],[28.757311,37.57292],[28.75682,37.572513],[28.756324,37.572231],[28.755208,37.572072],[28.754523,37.571316],[28.754653,37.571093],[28.753785,37.570705],[28.753724,37.570966],[28.753716,37.570959],[28.753446,37.570737],[28.751601,37.569491],[28.750374,37.568226],[28.74954,37.565686],[28.748909,37.565083],[28.748493,37.564632],[28.748016,37.56423],[28.746936,37.564301],[28.74518,37.564707],[28.742947,37.565179],[28.740896,37.565441],[28.738401,37.565674],[28.736762,37.566105],[28.734739,37.566485],[28.733671,37.56652],[28.732311,37.566222],[28.731178,37.566612],[28.729109,37.567935],[28.728068,37.569812],[28.726908,37.571736],[28.725488,37.573302],[28.724637,37.574497],[28.723837,37.576165],[28.72217,37.578248],[28.719297,37.581428],[28.718211,37.582478],[28.715605,37.585684],[28.713771,37.588804],[28.713119,37.590473],[28.713551,37.591257],[28.715143,37.591818],[28.71649,37.592871],[28.71894,37.59533],[28.721386,37.598024],[28.724087,37.601477],[28.725184,37.603283],[28.725669,37.604421],[28.728116,37.605345],[28.731713,37.606729],[28.73503,37.607119],[28.738026,37.607222],[28.741617,37.607237],[28.744792,37.607247],[28.747252,37.607392],[28.748464,37.607326]]]}},{"type":"Feature","properties":{"id":"TR-Y-20-014-M-0021","level":"yerlesim","type":"mahalle","parent_id":"TR-D-20-014","province_id":"TR-P-20","district_id":"TR-D-20-014","name":"Koçarboğazı","source_raw_name":"KOÇARBOĞAZI","source":"Denizli Adres Bilgi Sistemi - MAHALLE"},"geometry":{"type":"Polygon","coordinates":[[[28.947547,37.401119],[28.950105,37.400158],[28.952987,37.39965],[28.955637,37.399007],[28.960229,37.398114],[28.963954,37.397054],[28.966134,37.396513],[28.968823,37.395496],[28.970535,37.394925],[28.972183,37.394219],[28.969838,37.392118],[28.968489,37.39056],[28.966386,37.387927],[28.965831,37.386989],[28.963903,37.385364],[28.963881,37.385345],[28.962525,37.384346],[28.960239,37.382859],[28.958122,37.381294],[28.956451,37.380065],[28.956434,37.380052],[28.954652,37.37841],[28.95345,37.377296],[28.953432,37.377279],[28.952314,37.376581],[28.952305,37.376575],[28.951381,37.37574],[28.950793,37.374775],[28.950041,37.373595],[28.949801,37.373215],[28.949175,37.372056],[28.948825,37.371274],[28.948463,37.370866],[28.948443,37.370843],[28.946933,37.37068],[28.945864,37.370585],[28.94414,37.370484],[28.941732,37.370505],[28.941482,37.370903],[28.941479,37.370908],[28.941257,37.371063],[28.941153,37.371135],[28.940963,37.371174],[28.940762,37.371216],[28.94039,37.371209],[28.939722,37.371196],[28.939588,37.371216],[28.938618,37.371359],[28.93861,37.37136],[28.937127,37.371077],[28.937125,37.371077],[28.936126,37.371019],[28.935202,37.371137],[28.934768,37.371105],[28.933746,37.370444],[28.932854,37.369862],[28.932854,37.369862],[28.932351,37.369571],[28.932047,37.369411],[28.932047,37.369411],[28.93133,37.369035],[28.930841,37.36876],[28.930148,37.368369],[28.929931,37.368247],[28.929097,37.367776],[28.929035,37.367741],[28.927177,37.367995],[28.927132,37.368007],[28.925543,37.368422],[28.925521,37.368428],[28.924397,37.368572],[28.924396,37.368572],[28.923154,37.368207],[28.922732,37.368083],[28.921854,37.367485],[28.920919,37.366494],[28.919182,37.364482],[28.918384,37.363441],[28.917866,37.362273],[28.917683,37.361],[28.918227,37.360386],[28.918822,37.359964],[28.918081,37.35936],[28.917529,37.359115],[28.916805,37.358793],[28.915651,37.358152],[28.914229,37.357116],[28.9115,37.355474],[28.910016,37.354716],[28.907356,37.353623],[28.905772,37.353085],[28.904457,37.352496],[28.902927,37.351591],[28.901777,37.351009],[28.901389,37.351027],[28.901251,37.351281],[28.900588,37.352372],[28.900031,37.35368],[28.900012,37.353726],[28.899572,37.354613],[28.899427,37.355143],[28.899186,37.355928],[28.898882,37.356918],[28.898401,37.358311],[28.897994,37.359498],[28.897622,37.361082],[28.897141,37.36322],[28.89682,37.365281],[28.896485,37.366238],[28.896248,37.368002],[28.896198,37.369396],[28.896476,37.370894],[28.896538,37.37196],[28.896741,37.373392],[28.896987,37.374939],[28.897216,37.375755],[28.897539,37.376513],[28.897953,37.377346],[28.898469,37.37889],[28.898988,37.380153],[28.899413,37.381563],[28.899617,37.382778],[28.899464,37.383147],[28.898237,37.383343],[28.897231,37.383585],[28.896006,37.383633],[28.894631,37.383842],[28.892697,37.384149],[28.890151,37.384451],[28.888354,37.384345],[28.886651,37.383598],[28.886073,37.383437],[28.885685,37.383328],[28.884841,37.383093],[28.883651,37.383036],[28.882301,37.38298],[28.88164,37.382529],[28.880246,37.38148],[28.878058,37.380635],[28.876852,37.380204],[28.876087,37.380493],[28.875377,37.380871],[28.875054,37.381357],[28.874794,37.381384],[28.872767,37.38127],[28.871751,37.38165],[28.870566,37.382419],[28.869413,37.383266],[28.867963,37.384319],[28.866314,37.385603],[28.864784,37.385484],[28.863897,37.385996],[28.863741,37.387843],[28.863771,37.387858],[28.872824,37.39236],[28.872838,37.392376],[28.87926,37.399845],[28.87927,37.399847],[28.890481,37.401859],[28.890811,37.401831],[28.905665,37.400532],[28.917114,37.404311],[28.920117,37.404685],[28.924551,37.405579],[28.92898,37.406793],[28.932705,37.408133],[28.936772,37.409023],[28.938937,37.409603],[28.942736,37.410464],[28.943971,37.408208],[28.944334,37.407462],[28.944792,37.40652],[28.945211,37.405659],[28.945432,37.40523],[28.945799,37.404523],[28.946307,37.403541],[28.946997,37.402208],[28.947227,37.401753],[28.947547,37.401119]]]}},{"type":"Feature","properties":{"id":"TR-Y-20-014-M-0022","level":"yerlesim","type":"mahalle","parent_id":"TR-D-20-014","province_id":"TR-P-20","district_id":"TR-D-20-014","name":"Köprübaşı","source_raw_name":"KÖPRÜBAŞI","source":"Denizli Adres Bilgi Sistemi - MAHALLE"},"geometry":{"type":"Polygon","coordinates":[[[28.74388,37.337378],[28.740793,37.337242],[28.738183,37.3375],[28.735906,37.337653],[28.732117,37.336481],[28.729361,37.335784],[28.727007,37.335003],[28.725234,37.335617],[28.721912,37.334893],[28.71934,37.336622],[28.717064,37.338671],[28.716705,37.340478],[28.717927,37.342598],[28.717745,37.343621],[28.720272,37.347123],[28.720658,37.347259],[28.721357,37.347409],[28.721748,37.34727],[28.722225,37.347299],[28.723167,37.347202],[28.723946,37.347056],[28.725025,37.346805],[28.725899,37.34635],[28.726112,37.34609],[28.726516,37.346023],[28.727109,37.346256],[28.727453,37.346271],[28.728852,37.345607],[28.729501,37.345185],[28.729992,37.345286],[28.730936,37.345081],[28.731704,37.344672],[28.732312,37.344059],[28.733649,37.344455],[28.735231,37.34446],[28.737164,37.34404],[28.73919,37.343418],[28.742276,37.341334],[28.74243,37.340685],[28.742774,37.339938],[28.742939,37.339189],[28.743208,37.338648],[28.742954,37.338266],[28.743596,37.337887],[28.74388,37.337378]]]}},{"type":"Feature","properties":{"id":"TR-Y-20-014-M-0023","level":"yerlesim","type":"mahalle","parent_id":"TR-D-20-014","province_id":"TR-P-20","district_id":"TR-D-20-014","name":"Künar","source_raw_name":"KÜNAR","source":"Denizli Adres Bilgi Sistemi - MAHALLE"},"geometry":{"type":"Polygon","coordinates":[[[28.648649,37.483983],[28.652051,37.483583],[28.655443,37.483719],[28.657619,37.4835],[28.65892,37.480834],[28.659839,37.479066],[28.661768,37.477187],[28.66369,37.475746],[28.664556,37.475195],[28.666604,37.473488],[28.66731,37.47162],[28.66783,37.46992],[28.669512,37.468159],[28.670591,37.46939],[28.672003,37.470795],[28.673698,37.471789],[28.676542,37.473503],[28.678094,37.473983],[28.680239,37.473715],[28.681546,37.472413],[28.683712,37.469221],[28.685449,37.466072],[28.687106,37.46224],[28.689043,37.458094],[28.689791,37.455567],[28.689706,37.455136],[28.689566,37.454419],[28.688075,37.450528],[28.6866,37.447465],[28.685673,37.444554],[28.684472,37.441568],[28.683708,37.438074],[28.683714,37.432469],[28.684618,37.429701],[28.685079,37.426074],[28.684268,37.421776],[28.684576,37.419878],[28.686565,37.417975],[28.68889,37.4161],[28.692354,37.413653],[28.694934,37.411147],[28.698576,37.407239],[28.700372,37.40587],[28.702691,37.404287],[28.704913,37.402971],[28.70759,37.401879],[28.710294,37.400934],[28.713067,37.399575],[28.716684,37.398883],[28.717426,37.398355],[28.715619,37.398371],[28.71339,37.398362],[28.710604,37.398605],[28.705119,37.398393],[28.700261,37.39834],[28.697592,37.398386],[28.694934,37.39892],[28.693479,37.399299],[28.692472,37.399151],[28.69147,37.399748],[28.689663,37.400685],[28.687282,37.401662],[28.681793,37.403912],[28.678588,37.405153],[28.676346,37.405888],[28.672954,37.406945],[28.670879,37.407894],[28.667435,37.40968],[28.665209,37.4116],[28.66326,37.412992],[28.661066,37.414153],[28.659393,37.41608],[28.658233,37.416979],[28.65699,37.417193],[28.656203,37.418552],[28.655462,37.419502],[28.653833,37.42],[28.653295,37.420252],[28.653167,37.422073],[28.653115,37.422819],[28.653326,37.425954],[28.653635,37.427858],[28.653871,37.431737],[28.65374,37.43581],[28.653486,37.438331],[28.652758,37.441682],[28.653403,37.442936],[28.653076,37.444133],[28.651864,37.446871],[28.650765,37.448607],[28.649299,37.45271],[28.648782,37.454985],[28.647332,37.457127],[28.645831,37.457855],[28.644753,37.45842],[28.644556,37.458783],[28.64468,37.459172],[28.64456,37.459314],[28.64452,37.45936],[28.644517,37.459364],[28.644477,37.460022],[28.644479,37.460027],[28.644567,37.460314],[28.644743,37.460547],[28.645016,37.460614],[28.645016,37.460615],[28.644695,37.461627],[28.643692,37.462239],[28.642539,37.462712],[28.640271,37.463689],[28.637076,37.465279],[28.633981,37.466596],[28.632487,37.466974],[28.62987,37.468221],[28.629583,37.469512],[28.630834,37.469939],[28.632891,37.471105],[28.635035,37.472358],[28.636657,37.473775],[28.637839,37.474745],[28.638576,37.474971],[28.639328,37.475813],[28.640411,37.477199],[28.640627,37.477518],[28.642394,37.479816],[28.643575,37.482121],[28.644471,37.483301],[28.646415,37.48403],[28.648649,37.483983]]]}},{"type":"Feature","properties":{"id":"TR-Y-20-014-M-0024","level":"yerlesim","type":"mahalle","parent_id":"TR-D-20-014","province_id":"TR-P-20","district_id":"TR-D-20-014","name":"Muslugüme","source_raw_name":"MUSLUGÜME","source":"Denizli Adres Bilgi Sistemi - MAHALLE"},"geometry":{"type":"Polygon","coordinates":[[[28.653115,37.422819],[28.653167,37.422073],[28.6527,37.422058],[28.651648,37.422131],[28.650407,37.421818],[28.648311,37.42151],[28.646308,37.421033],[28.644272,37.420356],[28.643443,37.41992],[28.643577,37.419382],[28.644546,37.418002],[28.646175,37.416557],[28.64776,37.415553],[28.650019,37.413676],[28.650071,37.412782],[28.649934,37.411459],[28.649499,37.409949],[28.649382,37.407533],[28.64885,37.406376],[28.64768,37.405113],[28.646443,37.40365],[28.645249,37.402685],[28.644867,37.401175],[28.644003,37.399702],[28.642742,37.39858],[28.640642,37.397519],[28.638008,37.396537],[28.635378,37.396279],[28.633756,37.396388],[28.633353,37.396507],[28.632503,37.396757],[28.631223,37.396643],[28.629103,37.396718],[28.627528,37.397211],[28.625882,37.39864],[28.625742,37.400457],[28.625759,37.402445],[28.625063,37.403502],[28.624435,37.404716],[28.624885,37.405432],[28.626027,37.406297],[28.626753,37.407456],[28.62652,37.408369],[28.626563,37.409276],[28.627569,37.40986],[28.628987,37.410879],[28.629296,37.41198],[28.629414,37.413567],[28.628971,37.414553],[28.627885,37.416071],[28.627165,37.416732],[28.625996,37.417458],[28.625348,37.417702],[28.624588,37.417894],[28.623936,37.41849],[28.622997,37.418897],[28.62252,37.419495],[28.621354,37.419528],[28.620756,37.420403],[28.618986,37.421637],[28.617391,37.422872],[28.616437,37.424069],[28.615608,37.424802],[28.614614,37.425023],[28.61348,37.426496],[28.613109,37.427653],[28.612558,37.429133],[28.613012,37.429788],[28.613626,37.431235],[28.614426,37.432081],[28.615123,37.432182],[28.615698,37.43256],[28.616153,37.43317],[28.61714,37.433321],[28.617604,37.433465],[28.618644,37.433896],[28.619391,37.434462],[28.620379,37.434613],[28.621002,37.435549],[28.621687,37.436347],[28.622776,37.437288],[28.622692,37.438727],[28.622267,37.439651],[28.622719,37.4404],[28.622413,37.441186],[28.621873,37.442062],[28.621673,37.443453],[28.620956,37.44442],[28.620413,37.445436],[28.620337,37.44641],[28.62096,37.447393],[28.621882,37.447915],[28.624111,37.447957],[28.625892,37.449419],[28.627036,37.451373],[28.628028,37.45359],[28.628141,37.455502],[28.629063,37.457542],[28.630297,37.458615],[28.630789,37.459973],[28.630165,37.461818],[28.628386,37.464297],[28.627073,37.465487],[28.628598,37.466828],[28.62987,37.468221],[28.632487,37.466974],[28.633981,37.466596],[28.637076,37.465279],[28.640271,37.463689],[28.642539,37.462712],[28.643692,37.462239],[28.644695,37.461627],[28.645016,37.460615],[28.644743,37.460547],[28.644567,37.460314],[28.644479,37.460027],[28.64452,37.45936],[28.64452,37.459355],[28.64456,37.459314],[28.644684,37.459182],[28.64468,37.459172],[28.644556,37.458783],[28.644753,37.45842],[28.645831,37.457855],[28.647332,37.457127],[28.648782,37.454985],[28.649299,37.45271],[28.650765,37.448607],[28.651864,37.446871],[28.653076,37.444133],[28.653403,37.442936],[28.652758,37.441682],[28.653486,37.438331],[28.65374,37.43581],[28.653871,37.431737],[28.653635,37.427858],[28.653326,37.425954],[28.653115,37.422819]]]}},{"type":"Feature","properties":{"id":"TR-Y-20-014-M-0025","level":"yerlesim","type":"mahalle","parent_id":"TR-D-20-014","province_id":"TR-P-20","district_id":"TR-D-20-014","name":"Narlı","source_raw_name":"NARLI","source":"Denizli Adres Bilgi Sistemi - MAHALLE"},"geometry":{"type":"Polygon","coordinates":[[[28.804294,37.55151],[28.805609,37.549726],[28.807149,37.547023],[28.807864,37.544982],[28.808589,37.542334],[28.80955,37.54134],[28.811004,37.540707],[28.812214,37.540594],[28.814015,37.541239],[28.815452,37.541692],[28.816265,37.541742],[28.816701,37.540722],[28.816926,37.539763],[28.817667,37.539394],[28.81851,37.539214],[28.81983,37.537137],[28.81973,37.53515],[28.819069,37.533742],[28.817612,37.532912],[28.815342,37.532032],[28.811109,37.530798],[28.809095,37.530339],[28.806452,37.529768],[28.804602,37.528913],[28.804353,37.528096],[28.804502,37.526947],[28.806669,37.526028],[28.809158,37.524716],[28.810658,37.522786],[28.811781,37.521522],[28.813023,37.51934],[28.81422,37.516697],[28.814804,37.516243],[28.816325,37.514669],[28.817993,37.513787],[28.819054,37.513087],[28.819591,37.512318],[28.81903,37.511247],[28.818627,37.510155],[28.819139,37.509303],[28.820071,37.508476],[28.820725,37.508608],[28.821804,37.508389],[28.822238,37.507536],[28.820645,37.505325],[28.819828,37.503916],[28.819237,37.503137],[28.818937,37.50213],[28.818956,37.500939],[28.81928,37.499585],[28.819123,37.499039],[28.818914,37.498325],[28.818881,37.497586],[28.818808,37.496628],[28.818976,37.495777],[28.819036,37.494749],[28.819218,37.493723],[28.818968,37.493509],[28.817835,37.493305],[28.816524,37.493168],[28.81485,37.493037],[28.81377,37.493],[28.811666,37.492821],[28.809211,37.492541],[28.808065,37.492468],[28.805672,37.492444],[28.803094,37.492259],[28.800897,37.492378],[28.799335,37.492819],[28.798294,37.493081],[28.7973,37.493193],[28.795483,37.493658],[28.794165,37.494699],[28.793241,37.495938],[28.791818,37.496617],[28.790358,37.49684],[28.789436,37.496619],[28.787785,37.496365],[28.785561,37.496131],[28.78463,37.495744],[28.78359,37.494547],[28.782864,37.493731],[28.78213,37.493442],[28.780821,37.493261],[28.779707,37.493206],[28.77841,37.49299],[28.776889,37.492869],[28.774359,37.492491],[28.77287,37.492485],[28.771658,37.492419],[28.769508,37.492335],[28.767437,37.492208],[28.766362,37.491881],[28.764997,37.491664],[28.764414,37.491579],[28.763012,37.491652],[28.761641,37.491893],[28.759422,37.492027],[28.758196,37.492129],[28.757882,37.492407],[28.758196,37.492779],[28.75879,37.493532],[28.759537,37.494366],[28.759303,37.494566],[28.75838,37.494319],[28.757309,37.493701],[28.756638,37.493615],[28.756127,37.493829],[28.755148,37.494346],[28.753352,37.494925],[28.751567,37.495442],[28.75006,37.496525],[28.749553,37.497169],[28.748239,37.498702],[28.744249,37.501071],[28.742055,37.502773],[28.74056,37.504136],[28.738901,37.507534],[28.739075,37.510019],[28.739708,37.511061],[28.740551,37.512415],[28.740294,37.514793],[28.740537,37.518383],[28.741529,37.521222],[28.743592,37.524729],[28.74503,37.526897],[28.745922,37.528907],[28.747712,37.532541],[28.748896,37.535537],[28.749374,37.536684],[28.751949,37.540689],[28.753264,37.543564],[28.753677,37.544626],[28.756364,37.544581],[28.75806,37.544673],[28.760101,37.544448],[28.76313,37.54421],[28.764488,37.544224],[28.766115,37.544757],[28.76808,37.545368],[28.769615,37.545875],[28.770685,37.546526],[28.77178,37.54752],[28.773773,37.548327],[28.7758,37.548963],[28.778631,37.549508],[28.781948,37.550575],[28.784275,37.551754],[28.786874,37.55328],[28.788375,37.553984],[28.790775,37.554475],[28.794506,37.554784],[28.797678,37.555259],[28.800085,37.555308],[28.801964,37.555597],[28.802292,37.555946],[28.802634,37.555314],[28.80303,37.554537],[28.804294,37.55151]]]}},{"type":"Feature","properties":{"id":"TR-Y-20-014-M-0026","level":"yerlesim","type":"mahalle","parent_id":"TR-D-20-014","province_id":"TR-P-20","district_id":"TR-D-20-014","name":"Ortaköy","source_raw_name":"ORTAKÖY","source":"Denizli Adres Bilgi Sistemi - MAHALLE"},"geometry":{"type":"Polygon","coordinates":[[[28.684576,37.419878],[28.684268,37.421776],[28.685079,37.426074],[28.684618,37.429701],[28.683714,37.432469],[28.683708,37.438074],[28.684472,37.441568],[28.685673,37.444554],[28.6866,37.447465],[28.688075,37.450528],[28.689566,37.454419],[28.689706,37.455136],[28.690074,37.454938],[28.691805,37.454454],[28.694655,37.452942],[28.6966,37.45185],[28.697827,37.451027],[28.700109,37.449337],[28.702431,37.447697],[28.703386,37.447236],[28.704462,37.446354],[28.705501,37.44518],[28.706176,37.444915],[28.707107,37.444156],[28.708802,37.443866],[28.712788,37.443679],[28.715531,37.442823],[28.718421,37.441815],[28.72116,37.441191],[28.724749,37.440228],[28.725629,37.439603],[28.725515,37.437792],[28.725417,37.436463],[28.724932,37.435149],[28.723873,37.43352],[28.722256,37.432117],[28.721628,37.430705],[28.721543,37.430049],[28.721301,37.428622],[28.721102,37.4276],[28.720602,37.425747],[28.719758,37.424294],[28.718649,37.42278],[28.716793,37.42122],[28.715004,37.419988],[28.714222,37.419152],[28.713702,37.41853],[28.718547,37.417447],[28.721837,37.417002],[28.723914,37.415484],[28.726229,37.414162],[28.72933,37.413464],[28.731562,37.412409],[28.730139,37.411983],[28.728548,37.411388],[28.727568,37.41077],[28.725336,37.409757],[28.724211,37.408681],[28.723753,37.407551],[28.723206,37.406116],[28.722568,37.405547],[28.7213,37.405016],[28.719882,37.404332],[28.718355,37.403327],[28.717309,37.40213],[28.716951,37.400727],[28.717015,37.399223],[28.717426,37.398355],[28.716684,37.398883],[28.713067,37.399575],[28.710294,37.400934],[28.70759,37.401879],[28.704913,37.402971],[28.702691,37.404287],[28.700372,37.40587],[28.698576,37.407239],[28.694934,37.411147],[28.692354,37.413653],[28.68889,37.4161],[28.686565,37.417975],[28.684576,37.419878]]]}},{"type":"Feature","properties":{"id":"TR-Y-20-014-M-0027","level":"yerlesim","type":"mahalle","parent_id":"TR-D-20-014","province_id":"TR-P-20","district_id":"TR-D-20-014","name":"Ortatepe","source_raw_name":"ORTATEPE","source":"Denizli Adres Bilgi Sistemi - MAHALLE"},"geometry":{"type":"Polygon","coordinates":[[[28.793678,37.426623],[28.792836,37.425046],[28.790895,37.42391],[28.789328,37.422703],[28.78813,37.421798],[28.789303,37.421806],[28.789763,37.421201],[28.790486,37.420957],[28.791932,37.420506],[28.793957,37.420419],[28.796483,37.419943],[28.798468,37.419497],[28.798939,37.418139],[28.799761,37.417358],[28.801602,37.41752],[28.802638,37.417423],[28.803449,37.417288],[28.803639,37.41668],[28.804317,37.416472],[28.806976,37.416033],[28.807807,37.414714],[28.807599,37.413636],[28.807265,37.412019],[28.806988,37.409649],[28.808241,37.407152],[28.81101,37.405456],[28.811449,37.405025],[28.811515,37.404865],[28.811906,37.403928],[28.813095,37.40419],[28.812184,37.402227],[28.81246,37.400627],[28.811917,37.399218],[28.810011,37.396644],[28.808986,37.393692],[28.809552,37.39087],[28.80949,37.388207],[28.808174,37.385698],[28.808203,37.383868],[28.808398,37.379572],[28.808056,37.379077],[28.807299,37.377584],[28.806423,37.376195],[28.805097,37.375903],[28.803705,37.375624],[28.802515,37.375174],[28.801413,37.374486],[28.800425,37.373839],[28.799693,37.373409],[28.799073,37.372601],[28.798717,37.371648],[28.797973,37.37161],[28.79634,37.371445],[28.794443,37.371456],[28.793527,37.370615],[28.792684,37.369805],[28.791786,37.367867],[28.791322,37.366645],[28.790343,37.365062],[28.789768,37.363869],[28.7896,37.36271],[28.790159,37.360312],[28.7903,37.358503],[28.78918,37.356503],[28.787935,37.355273],[28.786536,37.354458],[28.785063,37.353552],[28.78358,37.353299],[28.781501,37.353129],[28.778938,37.352984],[28.776194,37.352511],[28.773904,37.351567],[28.7724,37.350334],[28.771299,37.349492],[28.770426,37.348296],[28.768695,37.347268],[28.766337,37.346027],[28.763939,37.344874],[28.762743,37.344503],[28.763019,37.345113],[28.763723,37.346572],[28.763913,37.347401],[28.76446,37.348442],[28.764608,37.349293],[28.764965,37.350298],[28.765429,37.351254],[28.765581,37.35188],[28.76576,37.352568],[28.765805,37.353277],[28.765767,37.353834],[28.765607,37.355036],[28.76531,37.356378],[28.764976,37.356976],[28.764693,37.357879],[28.764397,37.358754],[28.764024,37.359571],[28.763626,37.360619],[28.763283,37.361336],[28.762877,37.362057],[28.762594,37.362971],[28.762337,37.363587],[28.761887,37.364359],[28.761321,37.365805],[28.761029,37.366398],[28.760525,37.367445],[28.760148,37.368527],[28.759794,37.369074],[28.759478,37.369802],[28.759313,37.370425],[28.759166,37.370784],[28.759391,37.371675],[28.759511,37.372565],[28.759778,37.373873],[28.759553,37.375275],[28.759962,37.376013],[28.759717,37.376927],[28.759162,37.378083],[28.758752,37.379698],[28.757792,37.382194],[28.756647,37.38423],[28.755507,37.386021],[28.754648,37.38699],[28.753816,37.388662],[28.751589,37.391328],[28.750062,37.393268],[28.749198,37.394121],[28.748255,37.397746],[28.746123,37.401538],[28.744849,37.404425],[28.743482,37.405709],[28.741983,37.407632],[28.739601,37.410699],[28.738996,37.411197],[28.740554,37.411517],[28.740536,37.412581],[28.740811,37.413208],[28.742812,37.414384],[28.744307,37.416194],[28.746277,37.41921],[28.747075,37.420526],[28.749544,37.423319],[28.750261,37.423814],[28.751365,37.424994],[28.752104,37.42614],[28.752623,37.427545],[28.753978,37.428838],[28.755394,37.430263],[28.757523,37.432128],[28.759049,37.433796],[28.759793,37.435395],[28.760588,37.436954],[28.761776,37.437651],[28.763506,37.438415],[28.764397,37.438797],[28.768007,37.43969],[28.769586,37.440412],[28.770309,37.440228],[28.772157,37.440016],[28.775335,37.439505],[28.77915,37.439434],[28.781979,37.439483],[28.782537,37.439348],[28.783497,37.438532],[28.784693,37.438001],[28.786202,37.437593],[28.788433,37.437072],[28.790086,37.436394],[28.791817,37.435586],[28.793915,37.434692],[28.795587,37.434346],[28.796675,37.434267],[28.79791,37.43439],[28.797692,37.433069],[28.797089,37.432035],[28.796177,37.430666],[28.795097,37.429487],[28.794571,37.428404],[28.793678,37.426623]]]}},{"type":"Feature","properties":{"id":"TR-Y-20-014-M-0028","level":"yerlesim","type":"mahalle","parent_id":"TR-D-20-014","province_id":"TR-P-20","district_id":"TR-D-20-014","name":"Özlüce","source_raw_name":"ÖZLÜCE","source":"Denizli Adres Bilgi Sistemi - MAHALLE"},"geometry":{"type":"Polygon","coordinates":[[[28.85892,37.385555],[28.861301,37.385448],[28.864717,37.385481],[28.864787,37.385482],[28.866317,37.385601],[28.867966,37.384316],[28.869416,37.383264],[28.870569,37.382417],[28.871754,37.381648],[28.87277,37.381268],[28.874797,37.381381],[28.875057,37.381354],[28.87538,37.380869],[28.87609,37.380491],[28.876855,37.380202],[28.878091,37.380643],[28.880249,37.381478],[28.881643,37.382527],[28.882304,37.382977],[28.883676,37.383035],[28.884844,37.38309],[28.886654,37.383596],[28.888357,37.384343],[28.888575,37.384356],[28.890154,37.384449],[28.892732,37.384142],[28.894668,37.383834],[28.896009,37.38363],[28.897234,37.383583],[28.89824,37.38334],[28.899467,37.383145],[28.89962,37.382776],[28.899416,37.38156],[28.898991,37.38015],[28.898501,37.378911],[28.897986,37.377367],[28.897571,37.376535],[28.897219,37.375753],[28.89699,37.374936],[28.896744,37.373389],[28.896541,37.371958],[28.896451,37.370875],[28.895877,37.370554],[28.894648,37.369955],[28.893507,37.369204],[28.892399,37.36841],[28.890816,37.367297],[28.889707,37.366589],[28.888367,37.365572],[28.88727,37.364761],[28.886022,37.364103],[28.884277,37.363107],[28.882913,37.362328],[28.881294,37.361479],[28.879887,37.360725],[28.878735,37.360033],[28.877335,37.359467],[28.876091,37.359251],[28.874268,37.359106],[28.87273,37.358287],[28.871179,37.357426],[28.868566,37.356608],[28.8664,37.355881],[28.864179,37.355263],[28.861397,37.354845],[28.859092,37.354356],[28.857342,37.354068],[28.853843,37.353371],[28.851694,37.353394],[28.849614,37.353265],[28.846993,37.353],[28.845541,37.352791],[28.844678,37.352337],[28.843688,37.351231],[28.842666,37.349614],[28.841896,37.348368],[28.841271,37.346549],[28.840198,37.345539],[28.83885,37.344799],[28.837926,37.344724],[28.836159,37.344664],[28.834581,37.344702],[28.833713,37.344563],[28.832692,37.344374],[28.830092,37.344521],[28.829513,37.345327],[28.828941,37.346114],[28.828798,37.34631],[28.828382,37.346882],[28.82806,37.347425],[28.827432,37.348689],[28.827327,37.348902],[28.826636,37.350295],[28.824803,37.350645],[28.825081,37.352505],[28.825463,37.354597],[28.825916,37.355915],[28.825733,37.356291],[28.826345,37.358219],[28.826047,37.359973],[28.824858,37.361026],[28.823743,37.361951],[28.820677,37.363058],[28.828747,37.367398],[28.836961,37.37272],[28.841567,37.379863],[28.844788,37.386926],[28.850368,37.386434],[28.854249,37.38629],[28.85892,37.385555]]]}},{"type":"Feature","properties":{"id":"TR-Y-20-014-M-0029","level":"yerlesim","type":"mahalle","parent_id":"TR-D-20-014","province_id":"TR-P-20","district_id":"TR-D-20-014","name":"Toki","source_raw_name":"TOKİ","source":"Denizli Adres Bilgi Sistemi - MAHALLE"},"geometry":{"type":"Polygon","coordinates":[[[28.823563,37.421693],[28.82085,37.417482],[28.816593,37.411647],[28.811645,37.407056],[28.81101,37.405456],[28.808241,37.407152],[28.806988,37.409649],[28.807265,37.412019],[28.807599,37.413636],[28.807807,37.414714],[28.806976,37.416033],[28.804317,37.416472],[28.803639,37.41668],[28.803449,37.417288],[28.802638,37.417423],[28.801602,37.41752],[28.799761,37.417358],[28.798939,37.418139],[28.798468,37.419497],[28.796483,37.419943],[28.793957,37.420419],[28.791932,37.420506],[28.790486,37.420957],[28.789763,37.421201],[28.789303,37.421806],[28.78813,37.421798],[28.789328,37.422703],[28.790895,37.42391],[28.792836,37.425046],[28.793678,37.426623],[28.794006,37.426626],[28.796313,37.426901],[28.79806,37.427403],[28.799522,37.427599],[28.801511,37.428777],[28.803589,37.429876],[28.805887,37.430745],[28.810402,37.432684],[28.813674,37.434187],[28.817994,37.436557],[28.819139,37.437646],[28.81992,37.4386],[28.820582,37.439815],[28.822518,37.44203],[28.824471,37.443933],[28.825643,37.444931],[28.827651,37.446553],[28.829569,37.447518],[28.832431,37.448644],[28.836292,37.450104],[28.837548,37.448967],[28.837546,37.448966],[28.837273,37.448753],[28.837277,37.448751],[28.838586,37.448019],[28.838609,37.448006],[28.83943,37.447625],[28.840207,37.44688],[28.840533,37.446663],[28.840877,37.446119],[28.841313,37.445722],[28.841536,37.445591],[28.842077,37.445434],[28.842759,37.445041],[28.841087,37.443746],[28.84083,37.443458],[28.840795,37.443419],[28.840516,37.443124],[28.84051,37.443117],[28.840194,37.442691],[28.84018,37.442664],[28.840095,37.442502],[28.840029,37.442374],[28.839415,37.440949],[28.84073,37.440536],[28.840576,37.440091],[28.84065,37.439892],[28.840278,37.439044],[28.839733,37.438295],[28.839438,37.437677],[28.839762,37.43743],[28.839848,37.437316],[28.83946,37.436893],[28.839214,37.436509],[28.839307,37.436329],[28.839246,37.436037],[28.839411,37.435796],[28.839358,37.435733],[28.83895,37.435424],[28.838859,37.435151],[28.838434,37.434361],[28.838111,37.434038],[28.837495,37.432454],[28.829995,37.426119],[28.823563,37.421693]]]}},{"type":"Feature","properties":{"id":"TR-Y-20-014-M-0030","level":"yerlesim","type":"mahalle","parent_id":"TR-D-20-014","province_id":"TR-P-20","district_id":"TR-D-20-014","name":"Uluçam","source_raw_name":"ULUÇAM","source":"Denizli Adres Bilgi Sistemi - MAHALLE"},"geometry":{"type":"Polygon","coordinates":[[[28.877657,37.475599],[28.878164,37.473256],[28.878162,37.473248],[28.877789,37.470718],[28.877069,37.467659],[28.876748,37.465496],[28.875796,37.462201],[28.875652,37.460833],[28.875652,37.460822],[28.875745,37.458701],[28.876005,37.455218],[28.876706,37.453103],[28.877489,37.451463],[28.870733,37.449743],[28.867506,37.448133],[28.865201,37.447306],[28.858102,37.448983],[28.858082,37.448988],[28.857799,37.449957],[28.857798,37.449959],[28.857703,37.451462],[28.856957,37.451324],[28.856931,37.45109],[28.854269,37.450958],[28.854459,37.450066],[28.853812,37.450872],[28.852869,37.451012],[28.852843,37.451004],[28.852504,37.450892],[28.852359,37.45094],[28.850809,37.45161],[28.84987,37.451923],[28.848872,37.452164],[28.8482,37.452074],[28.846673,37.451796],[28.845365,37.451627],[28.845245,37.452221],[28.843892,37.452109],[28.843735,37.453166],[28.843735,37.453168],[28.844648,37.453396],[28.84564,37.453643],[28.844242,37.455266],[28.847249,37.460416],[28.848231,37.463336],[28.848235,37.463346],[28.846763,37.465396],[28.844973,37.467614],[28.843506,37.470167],[28.842587,37.471558],[28.841598,37.473214],[28.841588,37.47323],[28.843498,37.47293],[28.845261,37.473233],[28.84728,37.473919],[28.849234,37.474223],[28.850637,37.474599],[28.852357,37.474596],[28.854875,37.475497],[28.860538,37.476884],[28.862273,37.477472],[28.863863,37.478153],[28.867401,37.479501],[28.8708,37.480599],[28.872744,37.481551],[28.873783,37.482398],[28.87474,37.483835],[28.875171,37.484261],[28.875171,37.48426],[28.875231,37.484082],[28.876829,37.479319],[28.876898,37.479113],[28.877159,37.477906],[28.877657,37.475599]]]}},{"type":"Feature","properties":{"id":"TR-Y-20-014-M-0031","level":"yerlesim","type":"mahalle","parent_id":"TR-D-20-014","province_id":"TR-P-20","district_id":"TR-D-20-014","name":"Yenidere","source_raw_name":"YENİDERE","source":"Denizli Adres Bilgi Sistemi - MAHALLE"},"geometry":{"type":"Polygon","coordinates":[[[28.667523,37.495786],[28.669733,37.495672],[28.672198,37.495931],[28.674781,37.496076],[28.676814,37.496122],[28.678942,37.495706],[28.681015,37.49515],[28.682133,37.494306],[28.683378,37.492932],[28.684446,37.491647],[28.686032,37.49067],[28.687609,37.490178],[28.689472,37.489944],[28.691798,37.489831],[28.694909,37.48968],[28.697117,37.489658],[28.698939,37.490165],[28.700592,37.490322],[28.703182,37.490049],[28.707192,37.489955],[28.709024,37.489859],[28.710653,37.489761],[28.711608,37.489957],[28.713024,37.490366],[28.712407,37.489109],[28.710885,37.486361],[28.709364,37.483613],[28.7088,37.480922],[28.707834,37.477995],[28.706899,37.474952],[28.706635,37.473398],[28.707214,37.471854],[28.707418,37.471741],[28.707436,37.471565],[28.707436,37.471563],[28.707475,37.471574],[28.707506,37.471582],[28.707614,37.471691],[28.707615,37.471692],[28.707809,37.471938],[28.708066,37.471706],[28.70807,37.471703],[28.707489,37.471019],[28.707695,37.468916],[28.706483,37.466343],[28.705105,37.465019],[28.703821,37.463888],[28.70357,37.461633],[28.704103,37.460118],[28.704577,37.459258],[28.705177,37.458051],[28.706463,37.456275],[28.708003,37.453828],[28.70843,37.452832],[28.708862,37.451566],[28.708773,37.449756],[28.70832,37.448019],[28.707638,37.446933],[28.706884,37.445847],[28.706176,37.444915],[28.705501,37.44518],[28.704462,37.446354],[28.703386,37.447236],[28.702431,37.447697],[28.700109,37.449337],[28.697827,37.451027],[28.6966,37.45185],[28.694655,37.452942],[28.691805,37.454454],[28.690074,37.454938],[28.689706,37.455136],[28.689791,37.455567],[28.689043,37.458094],[28.687106,37.46224],[28.685449,37.466072],[28.683712,37.469221],[28.681546,37.472413],[28.680239,37.473715],[28.678094,37.473983],[28.676542,37.473503],[28.673698,37.471789],[28.672003,37.470795],[28.670591,37.46939],[28.669512,37.468159],[28.66783,37.46992],[28.66731,37.47162],[28.666604,37.473488],[28.664556,37.475195],[28.66369,37.475746],[28.661768,37.477187],[28.659839,37.479066],[28.65892,37.480834],[28.657619,37.4835],[28.655443,37.483719],[28.652051,37.483583],[28.648649,37.483983],[28.646415,37.48403],[28.644471,37.483301],[28.643575,37.482121],[28.642394,37.479816],[28.640627,37.477518],[28.640411,37.477199],[28.639328,37.475813],[28.638576,37.474971],[28.637839,37.474745],[28.63686,37.47736],[28.636269,37.479338],[28.63593,37.481066],[28.636031,37.482407],[28.636987,37.483597],[28.638248,37.48457],[28.638352,37.485751],[28.638067,37.487626],[28.637582,37.489519],[28.637661,37.490659],[28.637913,37.492],[28.638918,37.493271],[28.639895,37.494701],[28.640407,37.495546],[28.642511,37.495685],[28.645007,37.495853],[28.64789,37.495446],[28.649692,37.495397],[28.652774,37.495271],[28.657127,37.495529],[28.661709,37.496021],[28.663302,37.49627],[28.664433,37.496376],[28.665602,37.496018],[28.667523,37.495786]]]}},{"type":"Feature","properties":{"id":"TR-Y-20-014-M-0032","level":"yerlesim","type":"mahalle","parent_id":"TR-D-20-014","province_id":"TR-P-20","district_id":"TR-D-20-014","name":"Yeniköy","source_raw_name":"YENİKÖY","source":"Denizli Adres Bilgi Sistemi - MAHALLE"},"geometry":{"type":"Polygon","coordinates":[[[28.888944,37.430558],[28.892024,37.430373],[28.894331,37.430395],[28.896445,37.429962],[28.89933,37.429295],[28.902848,37.428875],[28.905158,37.428709],[28.908064,37.428923],[28.910371,37.428998],[28.912673,37.429339],[28.914044,37.429378],[28.915685,37.42918],[28.917633,37.428665],[28.918809,37.428275],[28.91912,37.427558],[28.919207,37.426145],[28.91844,37.423685],[28.917029,37.421832],[28.916781,37.420416],[28.917016,37.418044],[28.917233,37.414633],[28.91751,37.411595],[28.917539,37.409568],[28.91686,37.407962],[28.916349,37.406357],[28.916672,37.404787],[28.917114,37.404311],[28.905665,37.400532],[28.890481,37.401859],[28.87929,37.39987],[28.87927,37.399847],[28.872853,37.392384],[28.872838,37.392376],[28.863771,37.387867],[28.863812,37.391586],[28.864111,37.393435],[28.863825,37.395097],[28.86307,37.39756],[28.862611,37.399896],[28.861208,37.404329],[28.860664,37.405832],[28.860417,37.407052],[28.860528,37.408327],[28.860183,37.409598],[28.858726,37.413224],[28.857643,37.415866],[28.857577,37.41805],[28.858559,37.419932],[28.860598,37.423072],[28.862874,37.425642],[28.864507,37.427635],[28.86663,37.429579],[28.867315,37.431744],[28.868378,37.434771],[28.869879,37.436866],[28.870148,37.438533],[28.870188,37.440171],[28.869669,37.442143],[28.86844,37.443613],[28.865918,37.446501],[28.865201,37.447306],[28.867506,37.448133],[28.870733,37.449743],[28.877489,37.451463],[28.878244,37.450676],[28.879611,37.449776],[28.880601,37.449204],[28.881831,37.448481],[28.882946,37.447508],[28.883024,37.446228],[28.881957,37.445009],[28.881105,37.444301],[28.879798,37.443198],[28.878581,37.442084],[28.876798,37.440965],[28.875221,37.440049],[28.874416,37.439235],[28.874711,37.438408],[28.875745,37.436818],[28.877259,37.435042],[28.878632,37.433656],[28.879958,37.43246],[28.881608,37.431515],[28.882784,37.431033],[28.884191,37.430886],[28.886599,37.430829],[28.888944,37.430558]]]}}]}