{"type":"FeatureCollection","name":"turkiye_map.dist.mahalle_geometrileri_by_district.TR-D-34-035","features":[{"type":"Feature","properties":{"id":"TR-Y-34-035-M-0001","level":"yerlesim","type":"mahalle","parent_id":"TR-D-34-035","province_id":"TR-P-34","district_id":"TR-D-34-035","name":"19 Mayıs","source_raw_name":"19 MAYIS","source":"Kullanıcı tarafından sağlanan KML","source_label":"Kullanıcı tarafından sağlanan KML","source_name":"Istanbul Mahalle KML"},"geometry":{"type":"Polygon","coordinates":[[[28.997208,41.056381],[28.996437,41.056544],[28.994936,41.056798],[28.993574,41.056693],[28.992933,41.056844],[28.991392,41.057155],[28.990751,41.057106],[28.990213,41.056809],[28.989833,41.05689],[28.986942,41.057035],[28.986972,41.058259],[28.987174,41.059306],[28.987605,41.060641],[28.988593,41.061906],[28.991056,41.063378],[28.992296,41.064369],[28.992798,41.064479],[28.994475,41.062989],[28.994409,41.062451],[28.994718,41.061629],[28.994705,41.060814],[28.994136,41.059928],[28.994356,41.059379],[28.994994,41.05869],[28.995055,41.058092],[28.995304,41.057816],[28.995765,41.0575],[28.996391,41.057167],[28.996778,41.057099],[28.997208,41.056381]]]}},{"type":"Feature","properties":{"id":"TR-Y-34-035-M-0002","level":"yerlesim","type":"mahalle","parent_id":"TR-D-34-035","province_id":"TR-P-34","district_id":"TR-D-34-035","name":"Bozkurt","source_raw_name":"BOZKURT","source":"Kullanıcı tarafından sağlanan KML","source_label":"Kullanıcı tarafından sağlanan KML","source_name":"Istanbul Mahalle KML"},"geometry":{"type":"Polygon","coordinates":[[[28.983222,41.051144],[28.984444,41.052574],[28.987269,41.05136],[28.986234,41.050242],[28.985843,41.049917],[28.984575,41.046706],[28.984209,41.046306],[28.982354,41.047314],[28.980616,41.048102],[28.983222,41.051144]]]}},{"type":"Feature","properties":{"id":"TR-Y-34-035-M-0003","level":"yerlesim","type":"mahalle","parent_id":"TR-D-34-035","province_id":"TR-P-34","district_id":"TR-D-34-035","name":"Cumhuriyet","source_raw_name":"CUMHURİYET","source":"Kullanıcı tarafından sağlanan KML","source_label":"Kullanıcı tarafından sağlanan KML","source_name":"Istanbul Mahalle KML"},"geometry":{"type":"Polygon","coordinates":[[[28.987019,41.05536],[28.987227,41.053709],[28.987557,41.05125],[28.987269,41.05136],[28.984444,41.052574],[28.983756,41.052873],[28.981805,41.054443],[28.981137,41.054591],[28.981243,41.054949],[28.980038,41.055212],[28.980094,41.055439],[28.979722,41.055596],[28.978752,41.055748],[28.976811,41.056182],[28.976462,41.056363],[28.975597,41.056885],[28.974683,41.057529],[28.97439,41.057654],[28.97462,41.057805],[28.976255,41.059368],[28.976547,41.059476],[28.976581,41.059179],[28.97668,41.058994],[28.976626,41.058959],[28.976813,41.058755],[28.977406,41.058624],[28.977553,41.058521],[28.985258,41.056824],[28.985481,41.056474],[28.985431,41.055855],[28.98555,41.05556],[28.987019,41.05536]]]}},{"type":"Feature","properties":{"id":"TR-Y-34-035-M-0004","level":"yerlesim","type":"mahalle","parent_id":"TR-D-34-035","province_id":"TR-P-34","district_id":"TR-D-34-035","name":"Duatepe","source_raw_name":"DUATEPE","source":"Kullanıcı tarafından sağlanan KML","source_label":"Kullanıcı tarafından sağlanan KML","source_name":"Istanbul Mahalle KML"},"geometry":{"type":"Polygon","coordinates":[[[28.978752,41.055748],[28.979722,41.055596],[28.980094,41.055439],[28.980038,41.055212],[28.981243,41.054949],[28.981137,41.054591],[28.981805,41.054443],[28.983756,41.052873],[28.984444,41.052574],[28.983222,41.051144],[28.979285,41.05308],[28.978822,41.052482],[28.97793,41.052223],[28.97776,41.05379],[28.978405,41.054423],[28.978669,41.055233],[28.978685,41.055478],[28.978752,41.055748]]]}},{"type":"Feature","properties":{"id":"TR-Y-34-035-M-0005","level":"yerlesim","type":"mahalle","parent_id":"TR-D-34-035","province_id":"TR-P-34","district_id":"TR-D-34-035","name":"Ergenekon","source_raw_name":"ERGENEKON","source":"Kullanıcı tarafından sağlanan KML","source_label":"Kullanıcı tarafından sağlanan KML","source_name":"Istanbul Mahalle KML"},"geometry":{"type":"Polygon","coordinates":[[[28.984209,41.046306],[28.984575,41.046706],[28.985843,41.049917],[28.986234,41.050242],[28.987269,41.05136],[28.987557,41.05125],[28.987515,41.04805],[28.986997,41.046997],[28.986528,41.045624],[28.985456,41.045644],[28.98452,41.045703],[28.984248,41.045733],[28.983787,41.045867],[28.984209,41.046306]]]}},{"type":"Feature","properties":{"id":"TR-Y-34-035-M-0006","level":"yerlesim","type":"mahalle","parent_id":"TR-D-34-035","province_id":"TR-P-34","district_id":"TR-D-34-035","name":"Esentepe","source_raw_name":"ESENTEPE","source":"Kullanıcı tarafından sağlanan KML","source_label":"Kullanıcı tarafından sağlanan KML","source_name":"Istanbul Mahalle KML"},"geometry":{"type":"Polygon","coordinates":[[[29.005401,41.093831],[29.005407,41.092576],[29.005563,41.091505],[29.005787,41.090738],[29.006224,41.089532],[29.00655,41.088472],[29.007239,41.086376],[29.007791,41.085389],[29.008324,41.084832],[29.008489,41.084659],[29.0086,41.084543],[29.008666,41.084473],[29.009284,41.083826],[29.009428,41.083672],[29.009582,41.083449],[29.010768,41.081725],[29.011201,41.081095],[29.011634,41.080462],[29.014758,41.075766],[29.015012,41.075379],[29.015557,41.074144],[29.016091,41.072899],[29.015893,41.072008],[29.014945,41.070002],[29.014751,41.06959],[29.014483,41.069023],[29.014312,41.06866],[29.014171,41.068356],[29.01233,41.064339],[29.011785,41.062798],[29.011063,41.063347],[29.009028,41.065323],[29.008199,41.065877],[29.007328,41.066273],[29.006686,41.06639],[29.005649,41.066375],[29.004745,41.066479],[29.003574,41.066761],[29.003339,41.067557],[29.003831,41.068055],[29.00396,41.068421],[29.004424,41.069464],[29.004449,41.069879],[29.00475,41.070446],[29.004971,41.070656],[29.004915,41.071035],[29.004582,41.071244],[29.004879,41.071571],[29.003002,41.072439],[29.002511,41.072789],[29.001956,41.072945],[29.001516,41.073183],[29.001065,41.073665],[29.001217,41.074124],[29.000909,41.074665],[29.001254,41.074785],[29.001572,41.074897],[29.001853,41.074996],[29.002155,41.075103],[29.002304,41.07511],[29.00259,41.075061],[29.002866,41.074983],[29.00296,41.074967],[29.003262,41.074984],[29.003498,41.074998],[29.003659,41.074994],[29.004212,41.075045],[29.004846,41.075178],[29.005489,41.075314],[29.006013,41.075433],[29.006333,41.075542],[29.007134,41.075853],[29.007154,41.075954],[29.007184,41.076131],[29.007181,41.076369],[29.007174,41.076539],[29.00717,41.076693],[29.007179,41.076909],[29.007157,41.076978],[29.007169,41.077281],[29.007177,41.077315],[29.007226,41.077514],[29.007295,41.077688],[29.007368,41.077901],[29.007453,41.078107],[29.007544,41.078273],[29.007679,41.078633],[29.007687,41.07871],[29.007671,41.078966],[29.007657,41.079181],[29.007645,41.079377],[29.007636,41.07954],[29.007602,41.079645],[29.00758,41.07975],[29.007519,41.079903],[29.00738,41.079906],[29.007328,41.08016],[29.007242,41.080351],[29.00716,41.080535],[29.007056,41.080805],[29.006857,41.0811],[29.006771,41.081251],[29.006712,41.081377],[29.006397,41.082026],[29.006356,41.08216],[29.006203,41.082426],[29.005857,41.082855],[29.005712,41.08307],[29.00542,41.083565],[29.005196,41.083905],[29.004969,41.084271],[29.004871,41.084342],[29.00499,41.084371],[29.005136,41.084404],[29.005375,41.08443],[29.005782,41.084437],[29.006247,41.084468],[29.006996,41.084538],[29.007258,41.084553],[29.00721,41.084747],[29.007082,41.085042],[29.00691,41.085455],[29.006864,41.085584],[29.006797,41.08589],[29.006782,41.085956],[29.006859,41.086037],[29.00695,41.086104],[29.006938,41.086266],[29.00671,41.086547],[29.00658,41.086811],[29.006544,41.086989],[29.006439,41.087329],[29.006325,41.087751],[29.006273,41.087908],[29.00623,41.088077],[29.006203,41.088183],[29.006188,41.088234],[29.006145,41.088384],[29.006117,41.088465],[29.006092,41.088543],[29.006074,41.088601],[29.005926,41.088964],[29.005777,41.089361],[29.005587,41.089792],[29.005433,41.090161],[29.005342,41.09038],[29.005239,41.090607],[29.004863,41.091442],[29.004749,41.091841],[29.004649,41.092074],[29.004606,41.092245],[29.00456,41.092472],[29.004544,41.092717],[29.004541,41.092882],[29.004549,41.093122],[29.004583,41.093356],[29.004672,41.093598],[29.004775,41.093857],[29.005401,41.093831]]]}},{"type":"Feature","properties":{"id":"TR-Y-34-035-M-0007","level":"yerlesim","type":"mahalle","parent_id":"TR-D-34-035","province_id":"TR-P-34","district_id":"TR-D-34-035","name":"Eskişehir","source_raw_name":"ESKİŞEHİR","source":"Kullanıcı tarafından sağlanan KML","source_label":"Kullanıcı tarafından sağlanan KML","source_name":"Istanbul Mahalle KML"},"geometry":{"type":"Polygon","coordinates":[[[28.984209,41.046306],[28.983787,41.045867],[28.983081,41.04513],[28.981968,41.043516],[28.98079,41.042164],[28.979217,41.043186],[28.979095,41.043423],[28.978386,41.0439],[28.978343,41.043867],[28.978141,41.044037],[28.978028,41.044132],[28.977783,41.044338],[28.977906,41.044461],[28.978262,41.045218],[28.980616,41.048102],[28.982354,41.047314],[28.984209,41.046306]]]}},{"type":"Feature","properties":{"id":"TR-Y-34-035-M-0008","level":"yerlesim","type":"mahalle","parent_id":"TR-D-34-035","province_id":"TR-P-34","district_id":"TR-D-34-035","name":"Feriköy","source_raw_name":"FERİKÖY","source":"Kullanıcı tarafından sağlanan KML","source_label":"Kullanıcı tarafından sağlanan KML","source_name":"Istanbul Mahalle KML"},"geometry":{"type":"Polygon","coordinates":[[[28.983222,41.051144],[28.980616,41.048102],[28.978262,41.045218],[28.977906,41.044461],[28.977783,41.044338],[28.97761,41.044269],[28.977402,41.044278],[28.977159,41.044167],[28.977133,41.0442],[28.97684,41.044566],[28.977037,41.044796],[28.97602,41.045605],[28.975932,41.045628],[28.975847,41.045649],[28.975879,41.045733],[28.975504,41.045951],[28.97615,41.046406],[28.976504,41.046216],[28.976693,41.046423],[28.978669,41.048178],[28.977435,41.049013],[28.976879,41.049414],[28.977256,41.049704],[28.977092,41.049858],[28.977369,41.050005],[28.977477,41.050082],[28.977419,41.050181],[28.977413,41.050303],[28.977797,41.050471],[28.977962,41.050586],[28.978913,41.051703],[28.978664,41.051838],[28.978594,41.051848],[28.978445,41.051969],[28.978822,41.052482],[28.979285,41.05308],[28.983222,41.051144]]]}},{"type":"Feature","properties":{"id":"TR-Y-34-035-M-0009","level":"yerlesim","type":"mahalle","parent_id":"TR-D-34-035","province_id":"TR-P-34","district_id":"TR-D-34-035","name":"Fulya","source_raw_name":"FULYA","source":"Kullanıcı tarafından sağlanan KML","source_label":"Kullanıcı tarafından sağlanan KML","source_name":"Istanbul Mahalle KML"},"geometry":{"type":"Polygon","coordinates":[[[29.001083,41.05783],[28.998744,41.055525],[28.998085,41.056038],[28.997208,41.056381],[28.996778,41.057099],[28.996391,41.057167],[28.995765,41.0575],[28.995304,41.057816],[28.995055,41.058092],[28.994994,41.05869],[28.994356,41.059379],[28.994136,41.059928],[28.994705,41.060814],[28.994718,41.061629],[28.994409,41.062451],[28.994475,41.062989],[28.992798,41.064479],[28.996002,41.066616],[29.000665,41.066555],[29.003195,41.066712],[29.003158,41.065794],[29.002531,41.064544],[29.002314,41.063525],[29.001962,41.063402],[29.001704,41.063191],[29.001625,41.062864],[29.001422,41.062031],[29.001398,41.06101],[29.00126,41.060077],[29.001222,41.05873],[29.001083,41.05783]]]}},{"type":"Feature","properties":{"id":"TR-Y-34-035-M-0010","level":"yerlesim","type":"mahalle","parent_id":"TR-D-34-035","province_id":"TR-P-34","district_id":"TR-D-34-035","name":"Gülbahar","source_raw_name":"GÜLBAHAR","source":"Kullanıcı tarafından sağlanan KML","source_label":"Kullanıcı tarafından sağlanan KML","source_name":"Istanbul Mahalle KML"},"geometry":{"type":"Polygon","coordinates":[[[28.99433,41.076618],[28.995007,41.076613],[28.995406,41.076602],[28.995695,41.07657],[28.996035,41.07648],[28.99688,41.076115],[28.997164,41.076068],[28.997679,41.076111],[28.997786,41.076112],[28.998226,41.076064],[28.998662,41.075832],[28.998656,41.075727],[28.999045,41.075337],[28.999199,41.075213],[28.999825,41.07502],[29.000514,41.074844],[29.000909,41.074665],[29.001217,41.074124],[29.001065,41.073665],[29.001516,41.073183],[29.001956,41.072945],[29.002511,41.072789],[29.003002,41.072439],[29.004879,41.071571],[29.004582,41.071244],[29.004915,41.071035],[29.004971,41.070656],[29.00475,41.070446],[29.004449,41.069879],[29.004424,41.069464],[29.00396,41.068421],[29.003831,41.068055],[29.003339,41.067557],[29.003574,41.066761],[29.003195,41.066712],[29.000665,41.066555],[29.001256,41.067675],[29.001187,41.06812],[29.000576,41.069366],[29.000283,41.069304],[28.998959,41.070911],[28.998595,41.071669],[28.998639,41.072329],[28.997941,41.072499],[28.995476,41.073883],[28.994919,41.074296],[28.994366,41.074993],[28.993935,41.075424],[28.993826,41.075618],[28.993764,41.076162],[28.993928,41.076173],[28.994088,41.076429],[28.994099,41.07647],[28.994136,41.076617],[28.99433,41.076618]]]}},{"type":"Feature","properties":{"id":"TR-Y-34-035-M-0011","level":"yerlesim","type":"mahalle","parent_id":"TR-D-34-035","province_id":"TR-P-34","district_id":"TR-D-34-035","name":"Halaskargazi","source_raw_name":"HALASKARGAZİ","source":"Kullanıcı tarafından sağlanan KML","source_label":"Kullanıcı tarafından sağlanan KML","source_name":"Istanbul Mahalle KML"},"geometry":{"type":"Polygon","coordinates":[[[28.987227,41.053709],[28.989009,41.053179],[28.99022,41.0527],[28.991435,41.051715],[28.990578,41.050974],[28.988305,41.049506],[28.987515,41.04805],[28.987557,41.05125],[28.987227,41.053709]]]}},{"type":"Feature","properties":{"id":"TR-Y-34-035-M-0012","level":"yerlesim","type":"mahalle","parent_id":"TR-D-34-035","province_id":"TR-P-34","district_id":"TR-D-34-035","name":"Halide Edip Adıvar","source_raw_name":"HALİDE EDİP ADIVAR","source":"Kullanıcı tarafından sağlanan KML","source_label":"Kullanıcı tarafından sağlanan KML","source_name":"Istanbul Mahalle KML"},"geometry":{"type":"Polygon","coordinates":[[[28.972787,41.060574],[28.972872,41.060657],[28.977749,41.065409],[28.980028,41.064569],[28.981953,41.063964],[28.982436,41.063857],[28.982926,41.063868],[28.983595,41.063273],[28.982558,41.062583],[28.981131,41.061869],[28.978715,41.060971],[28.978254,41.060514],[28.977629,41.06026],[28.977067,41.059976],[28.976986,41.059798],[28.976771,41.059568],[28.976547,41.059476],[28.976255,41.059368],[28.97462,41.057805],[28.97439,41.057654],[28.973802,41.057506],[28.973342,41.057298],[28.972866,41.057407],[28.972664,41.057638],[28.972066,41.057818],[28.972243,41.059588],[28.972787,41.060574]]]}},{"type":"Feature","properties":{"id":"TR-Y-34-035-M-0013","level":"yerlesim","type":"mahalle","parent_id":"TR-D-34-035","province_id":"TR-P-34","district_id":"TR-D-34-035","name":"Halil Rıfat Paşa","source_raw_name":"HALİL RIFAT PAŞA","source":"Kullanıcı tarafından sağlanan KML","source_label":"Kullanıcı tarafından sağlanan KML","source_name":"Istanbul Mahalle KML"},"geometry":{"type":"Polygon","coordinates":[[[28.972787,41.060574],[28.972243,41.059588],[28.972066,41.057818],[28.97193,41.057092],[28.971571,41.05642],[28.971091,41.055877],[28.968693,41.054156],[28.96643,41.056094],[28.965995,41.056293],[28.965563,41.056349],[28.965155,41.05629],[28.964316,41.055803],[28.963457,41.055507],[28.962941,41.055378],[28.962832,41.055351],[28.962722,41.055323],[28.962696,41.055316],[28.962711,41.055347],[28.962786,41.055528],[28.963136,41.056153],[28.963418,41.056566],[28.963898,41.05717],[28.964289,41.057593],[28.965064,41.058407],[28.965422,41.058843],[28.96592,41.059445],[28.966722,41.060466],[28.967373,41.061243],[28.96846,41.062584],[28.968616,41.062788],[28.968815,41.062789],[28.968989,41.06268],[28.969273,41.062907],[28.970209,41.06245],[28.970246,41.06237],[28.970422,41.062389],[28.972134,41.061468],[28.972174,41.060976],[28.972323,41.060813],[28.972787,41.060574]]]}},{"type":"Feature","properties":{"id":"TR-Y-34-035-M-0014","level":"yerlesim","type":"mahalle","parent_id":"TR-D-34-035","province_id":"TR-P-34","district_id":"TR-D-34-035","name":"Harbiye","source_raw_name":"HARBİYE","source":"Kullanıcı tarafından sağlanan KML","source_label":"Kullanıcı tarafından sağlanan KML","source_name":"Istanbul Mahalle KML"},"geometry":{"type":"Polygon","coordinates":[[[28.996888,41.047412],[28.996379,41.046692],[28.996302,41.04655],[28.996175,41.046271],[28.99615,41.046183],[28.99613,41.04605],[28.996108,41.045967],[28.996057,41.045892],[28.996007,41.045822],[28.995974,41.045766],[28.995956,41.045713],[28.99594,41.045618],[28.995839,41.04558],[28.995604,41.045554],[28.99537,41.04553],[28.995128,41.045459],[28.995237,41.045314],[28.995507,41.044933],[28.995641,41.044769],[28.99575,41.044621],[28.996023,41.044259],[28.995162,41.043892],[28.995295,41.043712],[28.995416,41.043491],[28.995495,41.043227],[28.995212,41.043179],[28.994516,41.042775],[28.994207,41.042722],[28.994381,41.042174],[28.994457,41.042052],[28.994561,41.041893],[28.994094,41.04163],[28.993991,41.041679],[28.993902,41.04174],[28.993655,41.041979],[28.993539,41.042043],[28.99345,41.042071],[28.993355,41.04208],[28.99328,41.042071],[28.993182,41.042022],[28.99313,41.041977],[28.993112,41.041915],[28.993149,41.041117],[28.993122,41.040663],[28.993112,41.040596],[28.992924,41.040149],[28.992348,41.039777],[28.991612,41.039609],[28.991814,41.03921],[28.991032,41.039228],[28.990643,41.039213],[28.990213,41.039223],[28.990091,41.03925],[28.989988,41.039298],[28.98991,41.039346],[28.989837,41.039404],[28.989807,41.039441],[28.989773,41.039486],[28.989433,41.040023],[28.989391,41.040073],[28.989334,41.040108],[28.989239,41.040141],[28.989013,41.040192],[28.988694,41.040245],[28.986784,41.040614],[28.986438,41.040794],[28.986625,41.041291],[28.98659,41.041989],[28.986498,41.042436],[28.986413,41.043592],[28.986435,41.044545],[28.986528,41.045624],[28.986997,41.046997],[28.987515,41.04805],[28.988305,41.049506],[28.990578,41.050974],[28.991435,41.051715],[28.992771,41.050607],[28.994276,41.048758],[28.99454,41.048586],[28.996888,41.047412]]]}},{"type":"Feature","properties":{"id":"TR-Y-34-035-M-0015","level":"yerlesim","type":"mahalle","parent_id":"TR-D-34-035","province_id":"TR-P-34","district_id":"TR-D-34-035","name":"İnönü","source_raw_name":"İNÖNÜ","source":"Kullanıcı tarafından sağlanan KML","source_label":"Kullanıcı tarafından sağlanan KML","source_name":"Istanbul Mahalle KML"},"geometry":{"type":"Polygon","coordinates":[[[28.986528,41.045624],[28.986435,41.044545],[28.986413,41.043592],[28.986498,41.042436],[28.98659,41.041989],[28.986625,41.041291],[28.986438,41.040794],[28.98604,41.040921],[28.984518,41.041254],[28.984116,41.041381],[28.983188,41.041851],[28.982918,41.041761],[28.982023,41.04089],[28.981742,41.041256],[28.981336,41.041643],[28.98079,41.042164],[28.981968,41.043516],[28.983081,41.04513],[28.983787,41.045867],[28.984248,41.045733],[28.98452,41.045703],[28.985456,41.045644],[28.986528,41.045624]]]}},{"type":"Feature","properties":{"id":"TR-Y-34-035-M-0016","level":"yerlesim","type":"mahalle","parent_id":"TR-D-34-035","province_id":"TR-P-34","district_id":"TR-D-34-035","name":"İzzet Paşa","source_raw_name":"İZZET PAŞA","source":"Kullanıcı tarafından sağlanan KML","source_label":"Kullanıcı tarafından sağlanan KML","source_name":"Istanbul Mahalle KML"},"geometry":{"type":"Polygon","coordinates":[[[28.98819,41.067114],[28.985442,41.067198],[28.982673,41.069124],[28.982676,41.069127],[28.983074,41.069461],[28.983301,41.069667],[28.9835,41.069861],[28.983596,41.069945],[28.983982,41.070278],[28.984337,41.070581],[28.984636,41.070832],[28.984712,41.070874],[28.984941,41.070758],[28.985083,41.070688],[28.985312,41.070602],[28.985666,41.070763],[28.9858,41.070811],[28.98606,41.070938],[28.986202,41.070968],[28.98628,41.070993],[28.986454,41.071064],[28.986775,41.071278],[28.986918,41.071404],[28.987089,41.071556],[28.987284,41.071715],[28.987442,41.071788],[28.9876,41.071838],[28.987783,41.071884],[28.987921,41.071916],[28.988112,41.071999],[28.988428,41.072226],[28.988745,41.072453],[28.988814,41.07251],[28.988713,41.072265],[28.988559,41.071921],[28.988543,41.071765],[28.988502,41.071352],[28.988732,41.070104],[28.988653,41.069344],[28.988536,41.068921],[28.988428,41.068092],[28.988285,41.067712],[28.98819,41.067114]]]}},{"type":"Feature","properties":{"id":"TR-Y-34-035-M-0017","level":"yerlesim","type":"mahalle","parent_id":"TR-D-34-035","province_id":"TR-P-34","district_id":"TR-D-34-035","name":"Kaptanpaşa","source_raw_name":"KAPTANPAŞA","source":"Kullanıcı tarafından sağlanan KML","source_label":"Kullanıcı tarafından sağlanan KML","source_name":"Istanbul Mahalle KML"},"geometry":{"type":"Polygon","coordinates":[[[28.977749,41.065409],[28.972872,41.060657],[28.972787,41.060574],[28.972323,41.060813],[28.972174,41.060976],[28.972134,41.061468],[28.970422,41.062389],[28.970246,41.06237],[28.970209,41.06245],[28.969273,41.062907],[28.968989,41.06268],[28.968815,41.062789],[28.968616,41.062788],[28.969028,41.063325],[28.969494,41.063901],[28.969669,41.064031],[28.969975,41.064177],[28.970345,41.064335],[28.971418,41.064782],[28.972865,41.065435],[28.973575,41.065791],[28.974177,41.066066],[28.974553,41.066229],[28.974802,41.066297],[28.974876,41.066333],[28.974902,41.066368],[28.974866,41.066478],[28.974766,41.06682],[28.974695,41.067038],[28.974551,41.067479],[28.974555,41.067549],[28.974955,41.067637],[28.975303,41.067727],[28.975535,41.067788],[28.975874,41.067885],[28.975983,41.067929],[28.976072,41.068017],[28.976182,41.06813],[28.976331,41.068276],[28.976546,41.068476],[28.976675,41.068554],[28.976857,41.068619],[28.977069,41.068659],[28.977328,41.068711],[28.978013,41.068843],[28.978143,41.06893],[28.978258,41.069052],[28.978371,41.069207],[28.978426,41.069279],[28.978559,41.069453],[28.978546,41.069142],[28.978517,41.06893],[28.978445,41.067433],[28.978431,41.066988],[28.978414,41.066767],[28.978353,41.066454],[28.978267,41.066207],[28.978138,41.065902],[28.977749,41.065409]]]}},{"type":"Feature","properties":{"id":"TR-Y-34-035-M-0018","level":"yerlesim","type":"mahalle","parent_id":"TR-D-34-035","province_id":"TR-P-34","district_id":"TR-D-34-035","name":"Kuştepe","source_raw_name":"KUŞTEPE","source":"Kullanıcı tarafından sağlanan KML","source_label":"Kullanıcı tarafından sağlanan KML","source_name":"Istanbul Mahalle KML"},"geometry":{"type":"Polygon","coordinates":[[[28.989694,41.078056],[28.989911,41.078013],[28.990066,41.077966],[28.990573,41.077731],[28.991165,41.077428],[28.992063,41.07699],[28.992497,41.076781],[28.992635,41.076695],[28.992635,41.076554],[28.992634,41.075697],[28.992918,41.074966],[28.993412,41.074378],[28.993674,41.073862],[28.994315,41.07296],[28.993174,41.071779],[28.992987,41.071339],[28.992987,41.070629],[28.99276,41.070533],[28.992667,41.070371],[28.992842,41.070089],[28.992904,41.069871],[28.992853,41.069531],[28.992843,41.067959],[28.992736,41.066799],[28.98819,41.067114],[28.988285,41.067712],[28.988428,41.068092],[28.988536,41.068921],[28.988653,41.069344],[28.988732,41.070104],[28.988502,41.071352],[28.988543,41.071765],[28.988559,41.071921],[28.988713,41.072265],[28.988814,41.07251],[28.988914,41.072701],[28.989001,41.07296],[28.989118,41.073236],[28.98931,41.073753],[28.9893,41.073827],[28.989334,41.074007],[28.989352,41.074131],[28.989399,41.074436],[28.989438,41.074642],[28.989488,41.074985],[28.989552,41.075363],[28.989586,41.075558],[28.98953,41.075719],[28.989438,41.076019],[28.989367,41.076269],[28.989347,41.076424],[28.989333,41.076566],[28.989326,41.076664],[28.989324,41.076922],[28.989279,41.077109],[28.989255,41.077204],[28.989204,41.077446],[28.989166,41.077584],[28.989133,41.077693],[28.989081,41.077808],[28.989125,41.077894],[28.989226,41.078049],[28.989246,41.078136],[28.989246,41.078137],[28.989247,41.078136],[28.98953,41.078087],[28.989584,41.078077],[28.989694,41.078056]]]}},{"type":"Feature","properties":{"id":"TR-Y-34-035-M-0019","level":"yerlesim","type":"mahalle","parent_id":"TR-D-34-035","province_id":"TR-P-34","district_id":"TR-D-34-035","name":"Mahmut Şevket Paşa","source_raw_name":"MAHMUT ŞEVKET PAŞA","source":"Kullanıcı tarafından sağlanan KML","source_label":"Kullanıcı tarafından sağlanan KML","source_name":"Istanbul Mahalle KML"},"geometry":{"type":"Polygon","coordinates":[[[28.968693,41.054156],[28.968283,41.053685],[28.967941,41.05307],[28.967753,41.052297],[28.968063,41.047488],[28.967687,41.047474],[28.967648,41.047764],[28.967577,41.047853],[28.967204,41.048025],[28.967009,41.047903],[28.966642,41.048115],[28.966331,41.048363],[28.966219,41.048561],[28.965638,41.048994],[28.965435,41.049012],[28.965171,41.049232],[28.965043,41.049287],[28.964858,41.049458],[28.964943,41.049563],[28.964244,41.050285],[28.96414,41.050478],[28.963598,41.050541],[28.96343,41.050571],[28.962999,41.050857],[28.962707,41.050914],[28.962798,41.051319],[28.962794,41.051604],[28.962304,41.052967],[28.961788,41.053311],[28.961701,41.053369],[28.961793,41.053432],[28.961885,41.053517],[28.961975,41.053629],[28.962064,41.053782],[28.96253,41.054985],[28.962696,41.055316],[28.962722,41.055323],[28.962832,41.055351],[28.962941,41.055378],[28.963457,41.055507],[28.964316,41.055803],[28.965155,41.05629],[28.965563,41.056349],[28.965995,41.056293],[28.96643,41.056094],[28.968693,41.054156]]]}},{"type":"Feature","properties":{"id":"TR-Y-34-035-M-0020","level":"yerlesim","type":"mahalle","parent_id":"TR-D-34-035","province_id":"TR-P-34","district_id":"TR-D-34-035","name":"Mecidiyeköy","source_raw_name":"MECİDİYEKÖY","source":"Kullanıcı tarafından sağlanan KML","source_label":"Kullanıcı tarafından sağlanan KML","source_name":"Istanbul Mahalle KML"},"geometry":{"type":"Polygon","coordinates":[[[28.994136,41.076617],[28.994099,41.07647],[28.994088,41.076429],[28.993928,41.076173],[28.993764,41.076162],[28.993826,41.075618],[28.993935,41.075424],[28.994366,41.074993],[28.994919,41.074296],[28.995476,41.073883],[28.997941,41.072499],[28.998639,41.072329],[28.998595,41.071669],[28.998959,41.070911],[29.000283,41.069304],[29.000576,41.069366],[29.001187,41.06812],[29.001256,41.067675],[29.000665,41.066555],[28.996002,41.066616],[28.992736,41.066799],[28.992843,41.067959],[28.992853,41.069531],[28.992904,41.069871],[28.992842,41.070089],[28.992667,41.070371],[28.99276,41.070533],[28.992987,41.070629],[28.992987,41.071339],[28.993174,41.071779],[28.994315,41.07296],[28.993674,41.073862],[28.993412,41.074378],[28.992918,41.074966],[28.992634,41.075697],[28.992635,41.076554],[28.992635,41.076695],[28.992731,41.07666],[28.992898,41.076646],[28.993347,41.076647],[28.993498,41.076641],[28.99375,41.076631],[28.993845,41.076625],[28.993996,41.07662],[28.994136,41.076617]]]}},{"type":"Feature","properties":{"id":"TR-Y-34-035-M-0021","level":"yerlesim","type":"mahalle","parent_id":"TR-D-34-035","province_id":"TR-P-34","district_id":"TR-D-34-035","name":"Meşrutiyet","source_raw_name":"MEŞRUTİYET","source":"Kullanıcı tarafından sağlanan KML","source_label":"Kullanıcı tarafından sağlanan KML","source_name":"Istanbul Mahalle KML"},"geometry":{"type":"Polygon","coordinates":[[[28.986942,41.057035],[28.989833,41.05689],[28.990213,41.056809],[28.990751,41.057106],[28.991392,41.057155],[28.992933,41.056844],[28.993574,41.056693],[28.994936,41.056798],[28.996437,41.056544],[28.996007,41.055943],[28.996062,41.055686],[28.991435,41.051715],[28.99022,41.0527],[28.989009,41.053179],[28.987227,41.053709],[28.987019,41.05536],[28.986942,41.057035]]]}},{"type":"Feature","properties":{"id":"TR-Y-34-035-M-0022","level":"yerlesim","type":"mahalle","parent_id":"TR-D-34-035","province_id":"TR-P-34","district_id":"TR-D-34-035","name":"Paşa","source_raw_name":"PAŞA","source":"Kullanıcı tarafından sağlanan KML","source_label":"Kullanıcı tarafından sağlanan KML","source_name":"Istanbul Mahalle KML"},"geometry":{"type":"Polygon","coordinates":[[[28.97439,41.057654],[28.974683,41.057529],[28.975597,41.056885],[28.976462,41.056363],[28.976811,41.056182],[28.978752,41.055748],[28.978685,41.055478],[28.978669,41.055233],[28.978405,41.054423],[28.97776,41.05379],[28.97793,41.052223],[28.975467,41.05131],[28.974574,41.050234],[28.972433,41.047448],[28.971736,41.046379],[28.971027,41.044837],[28.970942,41.04469],[28.970108,41.045024],[28.969486,41.045159],[28.969321,41.045195],[28.968077,41.045466],[28.968104,41.045559],[28.96813,41.046067],[28.968096,41.047172],[28.968075,41.047373],[28.968063,41.047488],[28.967753,41.052297],[28.967941,41.05307],[28.968283,41.053685],[28.968693,41.054156],[28.971091,41.055877],[28.971571,41.05642],[28.97193,41.057092],[28.972066,41.057818],[28.972664,41.057638],[28.972866,41.057407],[28.973342,41.057298],[28.973802,41.057506],[28.97439,41.057654]]]}},{"type":"Feature","properties":{"id":"TR-Y-34-035-M-0023","level":"yerlesim","type":"mahalle","parent_id":"TR-D-34-035","province_id":"TR-P-34","district_id":"TR-D-34-035","name":"Şişli Merkez","source_raw_name":"MERKEZ","source":"Kullanıcı tarafından sağlanan KML","source_label":"Kullanıcı tarafından sağlanan KML","source_name":"Istanbul Mahalle KML"},"geometry":{"type":"Polygon","coordinates":[[[28.980908,41.070294],[28.981724,41.069786],[28.982428,41.069305],[28.982673,41.069124],[28.985442,41.067198],[28.98819,41.067114],[28.992736,41.066799],[28.996002,41.066616],[28.992798,41.064479],[28.992296,41.064369],[28.991056,41.063378],[28.988593,41.061906],[28.987605,41.060641],[28.987174,41.059306],[28.986972,41.058259],[28.986942,41.057035],[28.987019,41.05536],[28.98555,41.05556],[28.985431,41.055855],[28.985481,41.056474],[28.985258,41.056824],[28.977553,41.058521],[28.977406,41.058624],[28.976813,41.058755],[28.976626,41.058959],[28.97668,41.058994],[28.976581,41.059179],[28.976547,41.059476],[28.976771,41.059568],[28.976986,41.059798],[28.977067,41.059976],[28.977629,41.06026],[28.978254,41.060514],[28.978715,41.060971],[28.981131,41.061869],[28.982558,41.062583],[28.983595,41.063273],[28.982926,41.063868],[28.982436,41.063857],[28.981953,41.063964],[28.980028,41.064569],[28.977749,41.065409],[28.978138,41.065902],[28.978267,41.066207],[28.978353,41.066454],[28.978414,41.066767],[28.978431,41.066988],[28.978445,41.067433],[28.978517,41.06893],[28.978546,41.069142],[28.978559,41.069453],[28.978667,41.069675],[28.978851,41.069906],[28.979059,41.070129],[28.979483,41.070515],[28.979681,41.07072],[28.979719,41.07077],[28.979745,41.070761],[28.980908,41.070294]]]}},{"type":"Feature","properties":{"id":"TR-Y-34-035-M-0024","level":"yerlesim","type":"mahalle","parent_id":"TR-D-34-035","province_id":"TR-P-34","district_id":"TR-D-34-035","name":"Teşvikiye","source_raw_name":"TEŞVİKİYE","source":"Kullanıcı tarafından sağlanan KML","source_label":"Kullanıcı tarafından sağlanan KML","source_name":"Istanbul Mahalle KML"},"geometry":{"type":"Polygon","coordinates":[[[28.997208,41.056381],[28.998085,41.056038],[28.998744,41.055525],[28.999042,41.055144],[28.999352,41.054266],[28.999696,41.053666],[29.001512,41.052174],[29.001544,41.052159],[29.00077,41.052051],[29.000179,41.052041],[29.000725,41.050743],[29.00088,41.050315],[29.001015,41.050115],[29.001012,41.0501],[29.00104,41.049894],[29.000803,41.049187],[29.000779,41.049117],[29.000777,41.049113],[29.000007,41.049535],[28.998803,41.049847],[28.998561,41.049885],[28.99837,41.049884],[28.998161,41.049806],[28.998216,41.049729],[28.996888,41.047412],[28.99454,41.048586],[28.994276,41.048758],[28.992771,41.050607],[28.991435,41.051715],[28.996062,41.055686],[28.996007,41.055943],[28.996437,41.056544],[28.997208,41.056381]]]}},{"type":"Feature","properties":{"id":"TR-Y-34-035-M-0025","level":"yerlesim","type":"mahalle","parent_id":"TR-D-34-035","province_id":"TR-P-34","district_id":"TR-D-34-035","name":"Yayla","source_raw_name":"YAYLA","source":"Kullanıcı tarafından sağlanan KML","source_label":"Kullanıcı tarafından sağlanan KML","source_name":"Istanbul Mahalle KML"},"geometry":{"type":"Polygon","coordinates":[[[28.975847,41.045649],[28.97564,41.045573],[28.975095,41.045753],[28.974417,41.045801],[28.97401,41.046052],[28.973338,41.045897],[28.972984,41.045614],[28.972228,41.045301],[28.971411,41.044752],[28.971027,41.044837],[28.971736,41.046379],[28.972433,41.047448],[28.974574,41.050234],[28.975467,41.05131],[28.97793,41.052223],[28.978822,41.052482],[28.978445,41.051969],[28.978594,41.051848],[28.978664,41.051838],[28.978913,41.051703],[28.977962,41.050586],[28.977797,41.050471],[28.977413,41.050303],[28.977419,41.050181],[28.977477,41.050082],[28.977369,41.050005],[28.977092,41.049858],[28.977256,41.049704],[28.976879,41.049414],[28.977435,41.049013],[28.978669,41.048178],[28.976693,41.046423],[28.976504,41.046216],[28.97615,41.046406],[28.975504,41.045951],[28.975879,41.045733],[28.975847,41.045649]]]}}]}