{"type":"FeatureCollection","name":"turkiye_map.dist.mahalle_geometrileri_by_district.TR-D-34-017","features":[{"type":"Feature","properties":{"id":"TR-Y-34-017-M-0001","level":"yerlesim","type":"mahalle","parent_id":"TR-D-34-017","province_id":"TR-P-34","district_id":"TR-D-34-017","name":"15 Temmuz","source_raw_name":"15 TEMMUZ","source":"Kullanıcı tarafından sağlanan KML","source_label":"Kullanıcı tarafından sağlanan KML","source_name":"Istanbul Mahalle KML"},"geometry":{"type":"Polygon","coordinates":[[[28.878848,41.07553],[28.878873,41.074914],[28.878885,41.074734],[28.878888,41.074464],[28.878889,41.074342],[28.878904,41.074041],[28.878911,41.073618],[28.878927,41.07342],[28.87898,41.071804],[28.878981,41.071772],[28.878959,41.071597],[28.878897,41.071469],[28.878739,41.071234],[28.878567,41.071062],[28.878482,41.070989],[28.878534,41.070937],[28.879043,41.07022],[28.879753,41.069221],[28.880098,41.068741],[28.880517,41.068142],[28.880727,41.067852],[28.880783,41.067777],[28.880948,41.067552],[28.880968,41.067524],[28.881027,41.06745],[28.88108,41.067378],[28.883303,41.064363],[28.883337,41.064317],[28.883427,41.064193],[28.883632,41.063919],[28.884082,41.063274],[28.884367,41.062839],[28.884468,41.062674],[28.88458,41.062485],[28.884827,41.062025],[28.884916,41.061842],[28.885008,41.061651],[28.885174,41.061272],[28.885217,41.061163],[28.885308,41.06093],[28.885403,41.060668],[28.885573,41.060137],[28.885654,41.059833],[28.885788,41.059246],[28.885859,41.05871],[28.885875,41.058622],[28.885937,41.058031],[28.88595,41.057865],[28.885973,41.057463],[28.885989,41.05691],[28.885985,41.056386],[28.885987,41.056304],[28.885892,41.056291],[28.885804,41.056284],[28.885238,41.056236],[28.884565,41.056212],[28.883935,41.056221],[28.883028,41.0563],[28.882374,41.056387],[28.882116,41.056421],[28.881285,41.056517],[28.880789,41.056582],[28.880299,41.056643],[28.880113,41.056669],[28.879984,41.056685],[28.879816,41.056694],[28.87936,41.056699],[28.879076,41.056687],[28.878813,41.056666],[28.878537,41.056632],[28.878136,41.056564],[28.877612,41.056477],[28.877313,41.056422],[28.876508,41.056288],[28.876413,41.056267],[28.876062,41.056096],[28.876121,41.056217],[28.876207,41.056407],[28.876333,41.056673],[28.876454,41.056958],[28.876577,41.057285],[28.876591,41.057323],[28.876738,41.057727],[28.876763,41.05781],[28.875386,41.058345],[28.874324,41.058737],[28.873891,41.058895],[28.872988,41.059267],[28.871843,41.059717],[28.871683,41.059803],[28.871547,41.059897],[28.871399,41.060026],[28.871281,41.060164],[28.871178,41.060325],[28.871133,41.06041],[28.871067,41.060625],[28.871056,41.060821],[28.871085,41.061046],[28.871206,41.061518],[28.871301,41.061753],[28.871281,41.062674],[28.871889,41.064176],[28.871913,41.064395],[28.871867,41.064509],[28.871913,41.064741],[28.872286,41.065652],[28.872334,41.065762],[28.872839,41.068142],[28.872972,41.068635],[28.873168,41.069294],[28.873332,41.069803],[28.873433,41.070018],[28.874452,41.0718],[28.874497,41.071985],[28.874627,41.072898],[28.874852,41.07443],[28.874832,41.074481],[28.874133,41.075211],[28.873957,41.075333],[28.873829,41.075358],[28.873712,41.075334],[28.873635,41.075298],[28.872613,41.074709],[28.872472,41.074614],[28.872382,41.074554],[28.872201,41.074462],[28.870069,41.073245],[28.868872,41.072556],[28.868319,41.072127],[28.867867,41.071675],[28.866936,41.070894],[28.866744,41.070677],[28.865969,41.071124],[28.866202,41.071293],[28.866623,41.071611],[28.867028,41.071936],[28.86743,41.072273],[28.867813,41.072616],[28.868208,41.072977],[28.868555,41.07332],[28.868908,41.073681],[28.869278,41.07409],[28.870103,41.075085],[28.870458,41.075546],[28.871182,41.076634],[28.87184,41.077727],[28.872038,41.078049],[28.872284,41.078466],[28.872509,41.078843],[28.872925,41.079525],[28.873147,41.079875],[28.873338,41.08016],[28.873459,41.080338],[28.873915,41.080966],[28.874268,41.081429],[28.874371,41.081556],[28.876578,41.07919],[28.877262,41.078528],[28.878359,41.077622],[28.878621,41.077414],[28.878752,41.07731],[28.878826,41.076822],[28.878835,41.076516],[28.878848,41.07553]]]}},{"type":"Feature","properties":{"id":"TR-Y-34-017-M-0002","level":"yerlesim","type":"mahalle","parent_id":"TR-D-34-017","province_id":"TR-P-34","district_id":"TR-D-34-017","name":"Atışalanı","source_raw_name":"ATIŞALANI","source":"Kullanıcı tarafından sağlanan KML","source_label":"Kullanıcı tarafından sağlanan KML","source_name":"Istanbul Mahalle KML"},"geometry":{"type":"Polygon","coordinates":[[[28.876763,41.05781],[28.876738,41.057727],[28.876591,41.057323],[28.876577,41.057285],[28.876454,41.056958],[28.876333,41.056673],[28.876207,41.056407],[28.876121,41.056217],[28.876062,41.056096],[28.876031,41.055794],[28.875944,41.055588],[28.875885,41.055425],[28.875853,41.055352],[28.875764,41.055179],[28.875572,41.054827],[28.875412,41.054532],[28.875298,41.054325],[28.87521,41.054167],[28.875081,41.053941],[28.875026,41.053841],[28.875015,41.053811],[28.874998,41.053763],[28.874989,41.053715],[28.874968,41.053597],[28.874956,41.053498],[28.874953,41.053401],[28.874859,41.053407],[28.874682,41.053449],[28.874554,41.053481],[28.87441,41.053514],[28.874221,41.053551],[28.87402,41.053591],[28.873892,41.053616],[28.873771,41.053646],[28.873616,41.053714],[28.873513,41.053779],[28.873386,41.053876],[28.873292,41.053948],[28.87326,41.053984],[28.87321,41.054032],[28.873166,41.054089],[28.873148,41.054113],[28.873035,41.054292],[28.872948,41.054404],[28.872614,41.054423],[28.872359,41.054456],[28.871907,41.054385],[28.871561,41.054368],[28.871467,41.054364],[28.871398,41.054355],[28.871143,41.054331],[28.871018,41.054322],[28.870929,41.054313],[28.870811,41.054301],[28.870692,41.054269],[28.870616,41.05425],[28.870418,41.054207],[28.87032,41.054232],[28.870084,41.054173],[28.869801,41.05412],[28.869502,41.054064],[28.86938,41.054063],[28.869085,41.054042],[28.868834,41.054057],[28.868706,41.054083],[28.868453,41.054162],[28.868227,41.054213],[28.868071,41.054248],[28.867849,41.054277],[28.867427,41.054287],[28.867103,41.054292],[28.866874,41.054277],[28.866454,41.054209],[28.866237,41.054174],[28.865993,41.05406],[28.86592,41.053936],[28.865852,41.05382],[28.865066,41.053901],[28.864781,41.053951],[28.864586,41.053997],[28.864497,41.054019],[28.864385,41.054047],[28.864255,41.054086],[28.864126,41.054126],[28.863906,41.054192],[28.863774,41.05424],[28.863649,41.054311],[28.863459,41.054456],[28.86384,41.055264],[28.864081,41.055514],[28.864124,41.055573],[28.864357,41.055877],[28.864453,41.05604],[28.864523,41.056126],[28.864602,41.056266],[28.864611,41.05628],[28.864704,41.056416],[28.864811,41.05653],[28.864973,41.056721],[28.865027,41.056784],[28.86515,41.056925],[28.865239,41.057025],[28.865488,41.057311],[28.865688,41.057534],[28.865747,41.057633],[28.865826,41.057782],[28.865947,41.058036],[28.866105,41.058361],[28.86617,41.058448],[28.866286,41.058642],[28.866345,41.058733],[28.86647,41.058923],[28.866556,41.059082],[28.866618,41.059316],[28.866699,41.059538],[28.866776,41.059809],[28.866844,41.060264],[28.86692,41.060386],[28.867107,41.060478],[28.867382,41.060662],[28.867556,41.060842],[28.867587,41.060947],[28.867597,41.061047],[28.867656,41.061106],[28.867684,41.061226],[28.867683,41.061288],[28.867754,41.061354],[28.867836,41.061432],[28.868124,41.061708],[28.868254,41.061728],[28.868536,41.062001],[28.868667,41.06211],[28.86881,41.062231],[28.869083,41.062082],[28.869321,41.061985],[28.869503,41.061926],[28.869961,41.061818],[28.870699,41.061639],[28.871206,41.061518],[28.871085,41.061046],[28.871056,41.060821],[28.871067,41.060625],[28.871133,41.06041],[28.871178,41.060325],[28.871281,41.060164],[28.871399,41.060026],[28.871547,41.059897],[28.871683,41.059803],[28.871843,41.059717],[28.872988,41.059267],[28.873891,41.058895],[28.874324,41.058737],[28.875386,41.058345],[28.876763,41.05781]]]}},{"type":"Feature","properties":{"id":"TR-Y-34-017-M-0003","level":"yerlesim","type":"mahalle","parent_id":"TR-D-34-017","province_id":"TR-P-34","district_id":"TR-D-34-017","name":"Birlik","source_raw_name":"BİRLİK","source":"Kullanıcı tarafından sağlanan KML","source_label":"Kullanıcı tarafından sağlanan KML","source_name":"Istanbul Mahalle KML"},"geometry":{"type":"Polygon","coordinates":[[[28.865852,41.05382],[28.86592,41.053936],[28.865993,41.05406],[28.866237,41.054174],[28.866454,41.054209],[28.866874,41.054277],[28.867103,41.054292],[28.867427,41.054287],[28.867849,41.054277],[28.868071,41.054248],[28.868227,41.054213],[28.868453,41.054162],[28.868706,41.054083],[28.868834,41.054057],[28.869085,41.054042],[28.86938,41.054063],[28.869502,41.054064],[28.869801,41.05412],[28.870084,41.054173],[28.87032,41.054232],[28.870418,41.054207],[28.870616,41.05425],[28.870692,41.054269],[28.870811,41.054301],[28.870929,41.054313],[28.871018,41.054322],[28.871143,41.054331],[28.871398,41.054355],[28.871467,41.054364],[28.871561,41.054368],[28.871907,41.054385],[28.872359,41.054456],[28.872614,41.054423],[28.872948,41.054404],[28.873035,41.054292],[28.873148,41.054113],[28.873166,41.054089],[28.87321,41.054032],[28.87326,41.053984],[28.873292,41.053948],[28.873386,41.053876],[28.873513,41.053779],[28.873616,41.053714],[28.873771,41.053646],[28.873892,41.053616],[28.87402,41.053591],[28.874221,41.053551],[28.87441,41.053514],[28.874554,41.053481],[28.874682,41.053449],[28.874859,41.053407],[28.874953,41.053401],[28.874969,41.05324],[28.874991,41.052955],[28.875008,41.052776],[28.875017,41.052683],[28.875037,41.05241],[28.875054,41.052208],[28.875066,41.052085],[28.875085,41.051867],[28.875104,41.051716],[28.875122,41.051576],[28.875154,41.05137],[28.87518,41.05127],[28.875242,41.051085],[28.875267,41.051028],[28.875311,41.050952],[28.875354,41.050888],[28.875454,41.050736],[28.875689,41.05037],[28.875816,41.050152],[28.875875,41.050035],[28.876306,41.04937],[28.876647,41.048849],[28.876786,41.048645],[28.877102,41.048151],[28.877178,41.048042],[28.877219,41.047974],[28.877268,41.047892],[28.877327,41.047802],[28.877421,41.047654],[28.877423,41.047652],[28.877277,41.047728],[28.876782,41.047983],[28.875462,41.048694],[28.874645,41.049195],[28.874417,41.049009],[28.874061,41.048705],[28.873727,41.048459],[28.873635,41.048426],[28.873553,41.048363],[28.87338,41.048168],[28.87319,41.047977],[28.872815,41.0476],[28.872748,41.047523],[28.872404,41.047177],[28.872195,41.046972],[28.871943,41.046695],[28.871815,41.046735],[28.871494,41.046862],[28.871256,41.046986],[28.870768,41.047251],[28.870603,41.047335],[28.870487,41.047409],[28.870463,41.047427],[28.870391,41.047481],[28.870371,41.047496],[28.870251,41.047588],[28.870026,41.04777],[28.869966,41.047819],[28.869737,41.048015],[28.869666,41.048064],[28.869659,41.048069],[28.869449,41.048184],[28.869298,41.048241],[28.868502,41.047301],[28.868266,41.047028],[28.868301,41.046995],[28.86849,41.046936],[28.868313,41.0467],[28.868171,41.046591],[28.868023,41.046405],[28.867933,41.04629],[28.867926,41.046279],[28.867753,41.045991],[28.867736,41.045964],[28.867732,41.045956],[28.867709,41.045926],[28.8675,41.046111],[28.867294,41.046294],[28.867243,41.046339],[28.867133,41.046439],[28.866997,41.04657],[28.866552,41.047003],[28.866251,41.04745],[28.866141,41.047656],[28.866015,41.047929],[28.865602,41.050321],[28.86542,41.050778],[28.865361,41.050972],[28.865308,41.051158],[28.865262,41.051324],[28.865218,41.0515],[28.865171,41.051682],[28.865117,41.051935],[28.8652,41.052255],[28.865249,41.052459],[28.865312,41.052601],[28.865434,41.052763],[28.865491,41.052917],[28.865531,41.053138],[28.865576,41.053233],[28.865636,41.053373],[28.865672,41.053454],[28.865852,41.05382]]]}},{"type":"Feature","properties":{"id":"TR-Y-34-017-M-0004","level":"yerlesim","type":"mahalle","parent_id":"TR-D-34-017","province_id":"TR-P-34","district_id":"TR-D-34-017","name":"Çifte Havuzlar","source_raw_name":"ÇİFTE HAVUZLAR","source":"Kullanıcı tarafından sağlanan KML","source_label":"Kullanıcı tarafından sağlanan KML","source_name":"Istanbul Mahalle KML"},"geometry":{"type":"Polygon","coordinates":[[[28.892944,41.031141],[28.893005,41.031053],[28.893156,41.030743],[28.89322,41.030618],[28.893289,41.030574],[28.893255,41.030408],[28.893224,41.030324],[28.893293,41.0301],[28.893419,41.029709],[28.893481,41.029536],[28.893563,41.029319],[28.893623,41.029184],[28.893751,41.028913],[28.89385,41.02872],[28.893932,41.028563],[28.894077,41.028269],[28.894181,41.028066],[28.894311,41.028003],[28.894428,41.027833],[28.894482,41.027773],[28.894533,41.027726],[28.894569,41.027703],[28.894867,41.02755],[28.895021,41.027484],[28.895182,41.027451],[28.895215,41.027458],[28.896292,41.02768],[28.896786,41.027779],[28.897313,41.027862],[28.897728,41.027932],[28.897806,41.027878],[28.898441,41.027768],[28.898707,41.027721],[28.899021,41.027715],[28.899113,41.027705],[28.899112,41.027688],[28.899112,41.027375],[28.899137,41.02685],[28.899163,41.026474],[28.899197,41.026151],[28.899267,41.025307],[28.8993,41.024906],[28.899377,41.023961],[28.899424,41.023712],[28.899451,41.023587],[28.899492,41.02347],[28.899585,41.023242],[28.899651,41.02309],[28.899882,41.022532],[28.900018,41.02224],[28.900339,41.021465],[28.900624,41.020772],[28.90063,41.02076],[28.90064,41.020729],[28.900642,41.020719],[28.900541,41.020684],[28.900401,41.020639],[28.90009,41.020505],[28.899778,41.020071],[28.89927,41.019422],[28.899081,41.01926],[28.89884,41.019146],[28.8983,41.018938],[28.897808,41.01888],[28.897232,41.018908],[28.896208,41.018894],[28.894187,41.018869],[28.892774,41.018822],[28.892468,41.018795],[28.892277,41.018735],[28.892004,41.018577],[28.891638,41.018302],[28.8912,41.018095],[28.890884,41.017926],[28.890616,41.017785],[28.890065,41.017524],[28.889843,41.017423],[28.889719,41.017381],[28.889273,41.017315],[28.889083,41.017321],[28.888679,41.017363],[28.888303,41.017392],[28.887112,41.017398],[28.886733,41.017364],[28.886775,41.017867],[28.886695,41.018161],[28.886662,41.018402],[28.886825,41.018973],[28.887185,41.019856],[28.887417,41.020493],[28.887454,41.020609],[28.887382,41.020787],[28.886229,41.021685],[28.885828,41.022026],[28.885713,41.0222],[28.885398,41.022602],[28.88554,41.022668],[28.885543,41.022672],[28.88554,41.022679],[28.887107,41.025227],[28.88725,41.025338],[28.887877,41.025861],[28.887992,41.025966],[28.888093,41.026077],[28.888326,41.026352],[28.888598,41.026654],[28.88886,41.026944],[28.888997,41.02718],[28.88909,41.027299],[28.88932,41.027589],[28.889488,41.027783],[28.889597,41.027907],[28.890639,41.029142],[28.890339,41.029904],[28.890405,41.029959],[28.890623,41.029968],[28.890883,41.030087],[28.891077,41.030181],[28.891265,41.030273],[28.89148,41.030377],[28.891559,41.030461],[28.891636,41.030535],[28.891738,41.030631],[28.891769,41.030683],[28.891838,41.030749],[28.891987,41.030847],[28.892025,41.030866],[28.892392,41.031052],[28.892506,41.031095],[28.892647,41.031148],[28.892741,41.031181],[28.892802,41.031205],[28.892806,41.031291],[28.892944,41.031141]]]}},{"type":"Feature","properties":{"id":"TR-Y-34-017-M-0005","level":"yerlesim","type":"mahalle","parent_id":"TR-D-34-017","province_id":"TR-P-34","district_id":"TR-D-34-017","name":"Davutpaşa","source_raw_name":"DAVUTPAŞA","source":"Kullanıcı tarafından sağlanan KML","source_label":"Kullanıcı tarafından sağlanan KML","source_name":"Istanbul Mahalle KML"},"geometry":{"type":"Polygon","coordinates":[[[28.894831,41.033963],[28.894836,41.033935],[28.894845,41.033886],[28.894935,41.033411],[28.894943,41.033382],[28.895157,41.032612],[28.895075,41.032604],[28.894773,41.032537],[28.894432,41.03245],[28.894501,41.032319],[28.893579,41.031987],[28.893068,41.031795],[28.892637,41.03162],[28.89245,41.031547],[28.89238,41.03155],[28.892439,41.031486],[28.892806,41.031291],[28.892802,41.031205],[28.892741,41.031181],[28.892647,41.031148],[28.892506,41.031095],[28.892392,41.031052],[28.892025,41.030866],[28.891987,41.030847],[28.891838,41.030749],[28.891769,41.030683],[28.891738,41.030631],[28.891636,41.030535],[28.891559,41.030461],[28.89148,41.030377],[28.891265,41.030273],[28.891077,41.030181],[28.890883,41.030087],[28.890623,41.029968],[28.890405,41.029959],[28.89024,41.030018],[28.890157,41.030079],[28.890071,41.030151],[28.889947,41.030263],[28.889852,41.030346],[28.889724,41.030458],[28.889557,41.030605],[28.889449,41.030701],[28.889356,41.030783],[28.889274,41.030853],[28.889097,41.031012],[28.888986,41.031111],[28.888842,41.031237],[28.888758,41.031314],[28.888654,41.031403],[28.888557,41.031486],[28.88847,41.031564],[28.888282,41.031726],[28.888167,41.031818],[28.888042,41.031921],[28.887926,41.032008],[28.887815,41.03209],[28.887689,41.032182],[28.887549,41.032286],[28.887443,41.032365],[28.887312,41.032462],[28.8871,41.032611],[28.886096,41.033349],[28.885939,41.033473],[28.885778,41.033634],[28.885601,41.033839],[28.885477,41.033995],[28.886191,41.033971],[28.886611,41.033917],[28.886913,41.033878],[28.886932,41.033878],[28.887146,41.033872],[28.887304,41.033865],[28.887784,41.033907],[28.887805,41.033909],[28.888207,41.033938],[28.888616,41.033965],[28.888633,41.033966],[28.889097,41.033985],[28.889377,41.033988],[28.889543,41.03399],[28.889922,41.033984],[28.889993,41.033983],[28.890011,41.033984],[28.890095,41.033985],[28.890138,41.033987],[28.890449,41.033994],[28.890915,41.034012],[28.891219,41.034024],[28.891351,41.03403],[28.891549,41.034041],[28.89181,41.034053],[28.891824,41.034054],[28.891902,41.034058],[28.892117,41.034072],[28.892133,41.034073],[28.89224,41.034084],[28.892363,41.034089],[28.892696,41.034106],[28.892841,41.034112],[28.892954,41.034117],[28.89331,41.03413],[28.893479,41.034136],[28.893564,41.034137],[28.893611,41.034115],[28.893705,41.03407],[28.893795,41.034028],[28.893846,41.034011],[28.893901,41.033993],[28.893988,41.033966],[28.894032,41.033953],[28.894065,41.033947],[28.894107,41.03394],[28.89418,41.033933],[28.894219,41.03393],[28.894345,41.033927],[28.894434,41.033932],[28.894701,41.033951],[28.894831,41.033963]]]}},{"type":"Feature","properties":{"id":"TR-Y-34-017-M-0006","level":"yerlesim","type":"mahalle","parent_id":"TR-D-34-017","province_id":"TR-P-34","district_id":"TR-D-34-017","name":"Fatih","source_raw_name":"FATİH","source":"Kullanıcı tarafından sağlanan KML","source_label":"Kullanıcı tarafından sağlanan KML","source_name":"Istanbul Mahalle KML"},"geometry":{"type":"Polygon","coordinates":[[[28.868589,41.045181],[28.868656,41.045135],[28.868806,41.045017],[28.868852,41.044877],[28.868872,41.044738],[28.868873,41.044654],[28.868861,41.044497],[28.868847,41.044357],[28.868831,41.044156],[28.868825,41.044053],[28.868837,41.043981],[28.868848,41.04394],[28.868872,41.043889],[28.868904,41.043846],[28.868919,41.043824],[28.868939,41.043806],[28.869008,41.043753],[28.869067,41.043711],[28.869132,41.043663],[28.869182,41.043625],[28.869241,41.043576],[28.86927,41.043549],[28.869328,41.043491],[28.869399,41.043419],[28.869434,41.043385],[28.869514,41.043303],[28.869587,41.043231],[28.869693,41.043123],[28.869814,41.043001],[28.86999,41.04282],[28.870131,41.042675],[28.870199,41.042609],[28.87038,41.042432],[28.870481,41.042332],[28.870613,41.042207],[28.870771,41.04206],[28.870926,41.041915],[28.871073,41.041786],[28.871112,41.041751],[28.871304,41.041604],[28.87135,41.041569],[28.871449,41.041493],[28.871588,41.041372],[28.871625,41.041337],[28.871702,41.04125],[28.871764,41.041159],[28.8718,41.041082],[28.871837,41.040968],[28.871862,41.04087],[28.871894,41.040733],[28.87194,41.040538],[28.872008,41.040231],[28.87203,41.040142],[28.872059,41.040006],[28.872084,41.039896],[28.87212,41.039743],[28.872173,41.039505],[28.87222,41.039276],[28.872229,41.039243],[28.872254,41.039157],[28.872292,41.039057],[28.872455,41.038656],[28.87257,41.038548],[28.872496,41.03851],[28.87138,41.038453],[28.871243,41.038449],[28.871153,41.038484],[28.868687,41.038495],[28.865858,41.039347],[28.861136,41.040287],[28.861085,41.040434],[28.861039,41.040569],[28.860976,41.040685],[28.860628,41.04151],[28.860551,41.04174],[28.860467,41.041994],[28.860144,41.042734],[28.859941,41.042714],[28.859332,41.042731],[28.859471,41.043377],[28.860301,41.043353],[28.860327,41.043258],[28.860903,41.043296],[28.861067,41.043315],[28.861307,41.043327],[28.861787,41.043363],[28.862299,41.043395],[28.862812,41.043405],[28.862829,41.043522],[28.862901,41.043712],[28.862949,41.043817],[28.863038,41.043976],[28.863165,41.044167],[28.863219,41.044228],[28.863399,41.044441],[28.863627,41.044709],[28.863663,41.044773],[28.863862,41.044995],[28.863907,41.045068],[28.86399,41.045204],[28.864025,41.045326],[28.864384,41.045269],[28.864598,41.045232],[28.864723,41.045211],[28.865051,41.04516],[28.865524,41.045102],[28.865465,41.045286],[28.865868,41.045297],[28.86599,41.045276],[28.866192,41.045194],[28.866462,41.045058],[28.866567,41.045016],[28.866667,41.044997],[28.86686,41.044959],[28.866888,41.044956],[28.867686,41.044868],[28.867965,41.044955],[28.868099,41.045005],[28.868426,41.04512],[28.868508,41.045151],[28.868528,41.045159],[28.868589,41.045181]]]}},{"type":"Feature","properties":{"id":"TR-Y-34-017-M-0007","level":"yerlesim","type":"mahalle","parent_id":"TR-D-34-017","province_id":"TR-P-34","district_id":"TR-D-34-017","name":"Fevzi Çakmak","source_raw_name":"FEVZİ ÇAKMAK","source":"Kullanıcı tarafından sağlanan KML","source_label":"Kullanıcı tarafından sağlanan KML","source_name":"Istanbul Mahalle KML"},"geometry":{"type":"Polygon","coordinates":[[[28.884738,41.045517],[28.884732,41.045425],[28.884708,41.045146],[28.884701,41.044944],[28.884698,41.044803],[28.88471,41.044593],[28.884748,41.044275],[28.884774,41.044154],[28.88482,41.043975],[28.884933,41.043632],[28.884995,41.043483],[28.885181,41.043099],[28.885486,41.042551],[28.886084,41.041552],[28.885985,41.041518],[28.885405,41.041307],[28.884868,41.041099],[28.884356,41.040909],[28.883852,41.040697],[28.883459,41.040505],[28.883372,41.040463],[28.883658,41.040097],[28.883904,41.039775],[28.884421,41.039001],[28.884654,41.038661],[28.884906,41.038299],[28.885274,41.037877],[28.885487,41.037674],[28.886015,41.037106],[28.886093,41.037028],[28.886209,41.036929],[28.886307,41.036874],[28.886114,41.036913],[28.885809,41.036939],[28.885659,41.036955],[28.885487,41.036973],[28.885432,41.036972],[28.885053,41.036951],[28.884948,41.036946],[28.88494,41.036945],[28.884646,41.036928],[28.88452,41.036926],[28.884501,41.036926],[28.884149,41.036977],[28.883943,41.037033],[28.883373,41.037253],[28.883283,41.037286],[28.882847,41.037446],[28.882677,41.037488],[28.882416,41.037665],[28.882335,41.037834],[28.882298,41.037944],[28.882268,41.038048],[28.882255,41.03809],[28.882233,41.038194],[28.882211,41.038302],[28.882196,41.038405],[28.882185,41.038506],[28.882178,41.038576],[28.882171,41.038659],[28.882167,41.038689],[28.88215,41.03875],[28.882116,41.03885],[28.882082,41.038934],[28.882037,41.03904],[28.881942,41.039257],[28.881791,41.039636],[28.881724,41.039907],[28.881674,41.040114],[28.881645,41.040229],[28.881615,41.040329],[28.881599,41.040378],[28.881579,41.040425],[28.881549,41.040496],[28.881465,41.04067],[28.881412,41.040776],[28.881282,41.041034],[28.88115,41.041294],[28.881063,41.041464],[28.880965,41.041653],[28.880853,41.041872],[28.880687,41.042199],[28.880536,41.042496],[28.88046,41.04265],[28.880335,41.042895],[28.88021,41.043141],[28.880083,41.043387],[28.879961,41.043619],[28.879861,41.043804],[28.879829,41.043863],[28.879698,41.044105],[28.879557,41.044329],[28.879302,41.04473],[28.879284,41.044752],[28.879108,41.045036],[28.878854,41.045434],[28.878627,41.045792],[28.878549,41.045912],[28.878238,41.046386],[28.877423,41.047652],[28.877421,41.047654],[28.877327,41.047802],[28.877268,41.047892],[28.877219,41.047974],[28.877178,41.048042],[28.877102,41.048151],[28.876786,41.048645],[28.876647,41.048849],[28.876306,41.04937],[28.875875,41.050035],[28.875816,41.050152],[28.875689,41.05037],[28.875454,41.050736],[28.875354,41.050888],[28.875311,41.050952],[28.875267,41.051028],[28.876065,41.050711],[28.876203,41.050636],[28.876331,41.050598],[28.877004,41.050362],[28.877825,41.050081],[28.877843,41.050023],[28.878233,41.049435],[28.878719,41.04962],[28.879101,41.049777],[28.879248,41.049822],[28.879354,41.049855],[28.879614,41.049647],[28.879814,41.0495],[28.879985,41.04938],[28.88008,41.049309],[28.88036,41.049114],[28.880534,41.049012],[28.880688,41.048955],[28.880925,41.048872],[28.880997,41.048841],[28.881186,41.048753],[28.881291,41.04875],[28.881383,41.048714],[28.881734,41.048637],[28.881872,41.048559],[28.88214,41.048433],[28.882044,41.048248],[28.882017,41.048149],[28.881997,41.048067],[28.881986,41.04786],[28.881976,41.047414],[28.881964,41.047142],[28.881963,41.047126],[28.881946,41.046639],[28.881917,41.046059],[28.88229,41.045975],[28.88265,41.045894],[28.883032,41.045809],[28.883639,41.045697],[28.88464,41.04553],[28.884737,41.045517],[28.884738,41.045517]]]}},{"type":"Feature","properties":{"id":"TR-Y-34-017-M-0008","level":"yerlesim","type":"mahalle","parent_id":"TR-D-34-017","province_id":"TR-P-34","district_id":"TR-D-34-017","name":"Kazım Karabekir","source_raw_name":"KAZIM KARABEKİR","source":"Kullanıcı tarafından sağlanan KML","source_label":"Kullanıcı tarafından sağlanan KML","source_name":"Istanbul Mahalle KML"},"geometry":{"type":"Polygon","coordinates":[[[28.877423,41.047652],[28.878238,41.046386],[28.878549,41.045912],[28.878627,41.045792],[28.878854,41.045434],[28.879108,41.045036],[28.879284,41.044752],[28.879302,41.04473],[28.879557,41.044329],[28.879698,41.044105],[28.879829,41.043863],[28.879656,41.043889],[28.879455,41.043905],[28.879079,41.044001],[28.878857,41.04407],[28.878347,41.044228],[28.878147,41.044217],[28.877963,41.044242],[28.877573,41.044378],[28.877428,41.044435],[28.877135,41.044544],[28.876862,41.044641],[28.876844,41.044647],[28.876711,41.044693],[28.876577,41.044742],[28.876311,41.044834],[28.875865,41.044996],[28.875534,41.045119],[28.875088,41.045299],[28.874927,41.045387],[28.874849,41.045157],[28.874869,41.044787],[28.874873,41.04447],[28.874873,41.044426],[28.874849,41.044184],[28.874847,41.04409],[28.874859,41.044018],[28.874857,41.043901],[28.874832,41.043757],[28.87483,41.043742],[28.874794,41.043423],[28.874596,41.043429],[28.87426,41.043249],[28.874125,41.043155],[28.873885,41.042946],[28.873715,41.042791],[28.873477,41.042604],[28.873419,41.042569],[28.873361,41.042568],[28.873312,41.042589],[28.873157,41.042682],[28.873047,41.042659],[28.872941,41.042599],[28.872714,41.042304],[28.872564,41.042253],[28.872274,41.042079],[28.871894,41.041859],[28.871385,41.041589],[28.87135,41.041569],[28.871304,41.041604],[28.871112,41.041751],[28.871073,41.041786],[28.870926,41.041915],[28.870771,41.04206],[28.870613,41.042207],[28.870481,41.042332],[28.87038,41.042432],[28.870199,41.042609],[28.870131,41.042675],[28.86999,41.04282],[28.869814,41.043001],[28.869693,41.043123],[28.869587,41.043231],[28.869514,41.043303],[28.869434,41.043385],[28.869399,41.043419],[28.869328,41.043491],[28.86927,41.043549],[28.869241,41.043576],[28.869182,41.043625],[28.869132,41.043663],[28.869067,41.043711],[28.869008,41.043753],[28.868939,41.043806],[28.868919,41.043824],[28.868904,41.043846],[28.868872,41.043889],[28.868848,41.04394],[28.868837,41.043981],[28.868825,41.044053],[28.868831,41.044156],[28.868847,41.044357],[28.868861,41.044497],[28.868873,41.044654],[28.868872,41.044738],[28.868852,41.044877],[28.868806,41.045017],[28.868656,41.045135],[28.868589,41.045181],[28.868515,41.045234],[28.868177,41.045511],[28.867986,41.045679],[28.867727,41.04591],[28.867709,41.045925],[28.867709,41.045926],[28.867732,41.045956],[28.867736,41.045964],[28.867753,41.045991],[28.867926,41.046279],[28.867933,41.04629],[28.868023,41.046405],[28.868171,41.046591],[28.868313,41.0467],[28.86849,41.046936],[28.868301,41.046995],[28.868266,41.047028],[28.868502,41.047301],[28.869298,41.048241],[28.869449,41.048184],[28.869659,41.048069],[28.869666,41.048064],[28.869737,41.048015],[28.869966,41.047819],[28.870026,41.04777],[28.870251,41.047588],[28.870371,41.047496],[28.870391,41.047481],[28.870463,41.047427],[28.870487,41.047409],[28.870603,41.047335],[28.870768,41.047251],[28.871256,41.046986],[28.871494,41.046862],[28.871815,41.046735],[28.871943,41.046695],[28.872195,41.046972],[28.872404,41.047177],[28.872748,41.047523],[28.872815,41.0476],[28.87319,41.047977],[28.87338,41.048168],[28.873553,41.048363],[28.873635,41.048426],[28.873727,41.048459],[28.874061,41.048705],[28.874417,41.049009],[28.874645,41.049195],[28.875462,41.048694],[28.876782,41.047983],[28.877277,41.047728],[28.877423,41.047652]]]}},{"type":"Feature","properties":{"id":"TR-Y-34-017-M-0009","level":"yerlesim","type":"mahalle","parent_id":"TR-D-34-017","province_id":"TR-P-34","district_id":"TR-D-34-017","name":"Kemer","source_raw_name":"KEMER","source":"Kullanıcı tarafından sağlanan KML","source_label":"Kullanıcı tarafından sağlanan KML","source_name":"Istanbul Mahalle KML"},"geometry":{"type":"Polygon","coordinates":[[[28.885987,41.056304],[28.885986,41.056278],[28.885985,41.056232],[28.88599,41.056069],[28.885987,41.055844],[28.885982,41.05559],[28.885972,41.055405],[28.885966,41.055263],[28.88595,41.054933],[28.885932,41.054645],[28.88592,41.054465],[28.885908,41.054313],[28.885891,41.054101],[28.885812,41.053318],[28.885779,41.053026],[28.885735,41.052691],[28.885708,41.052526],[28.885684,41.052314],[28.885533,41.051406],[28.885447,41.05094],[28.88544,41.050906],[28.885422,41.050816],[28.885408,41.050751],[28.885402,41.050712],[28.885322,41.050289],[28.88521,41.04972],[28.885144,41.049304],[28.885103,41.049046],[28.885067,41.048789],[28.885026,41.048507],[28.884991,41.048222],[28.884967,41.048019],[28.884929,41.047686],[28.8849,41.047418],[28.884894,41.047347],[28.884876,41.047186],[28.88486,41.046994],[28.884833,41.046683],[28.884812,41.046422],[28.884772,41.045939],[28.884745,41.0456],[28.884738,41.045517],[28.884737,41.045517],[28.88464,41.04553],[28.883639,41.045697],[28.883032,41.045809],[28.88265,41.045894],[28.88229,41.045975],[28.881917,41.046059],[28.881946,41.046639],[28.881963,41.047126],[28.881964,41.047142],[28.881976,41.047414],[28.881986,41.04786],[28.881997,41.048067],[28.882017,41.048149],[28.882044,41.048248],[28.88214,41.048433],[28.881872,41.048559],[28.881734,41.048637],[28.881383,41.048714],[28.881291,41.04875],[28.881186,41.048753],[28.880997,41.048841],[28.880925,41.048872],[28.880688,41.048955],[28.880534,41.049012],[28.88036,41.049114],[28.88008,41.049309],[28.879985,41.04938],[28.879814,41.0495],[28.879614,41.049647],[28.879354,41.049855],[28.879248,41.049822],[28.879101,41.049777],[28.878719,41.04962],[28.878233,41.049435],[28.877843,41.050023],[28.877825,41.050081],[28.877004,41.050362],[28.876331,41.050598],[28.876203,41.050636],[28.876065,41.050711],[28.875267,41.051028],[28.875242,41.051085],[28.87518,41.05127],[28.875154,41.05137],[28.875122,41.051576],[28.875104,41.051716],[28.875085,41.051867],[28.875066,41.052085],[28.875054,41.052208],[28.875037,41.05241],[28.875017,41.052683],[28.875008,41.052776],[28.874991,41.052955],[28.874969,41.05324],[28.874953,41.053401],[28.874956,41.053498],[28.874968,41.053597],[28.874989,41.053715],[28.874998,41.053763],[28.875015,41.053811],[28.875026,41.053841],[28.875081,41.053941],[28.87521,41.054167],[28.875298,41.054325],[28.875412,41.054532],[28.875572,41.054827],[28.875764,41.055179],[28.875853,41.055352],[28.875885,41.055425],[28.875944,41.055588],[28.876031,41.055794],[28.876062,41.056096],[28.876413,41.056267],[28.876508,41.056288],[28.877313,41.056422],[28.877612,41.056477],[28.878136,41.056564],[28.878537,41.056632],[28.878813,41.056666],[28.879076,41.056687],[28.87936,41.056699],[28.879816,41.056694],[28.879984,41.056685],[28.880113,41.056669],[28.880299,41.056643],[28.880789,41.056582],[28.881285,41.056517],[28.882116,41.056421],[28.882374,41.056387],[28.883028,41.0563],[28.883935,41.056221],[28.884565,41.056212],[28.885238,41.056236],[28.885804,41.056284],[28.885892,41.056291],[28.885987,41.056304]]]}},{"type":"Feature","properties":{"id":"TR-Y-34-017-M-0010","level":"yerlesim","type":"mahalle","parent_id":"TR-D-34-017","province_id":"TR-P-34","district_id":"TR-D-34-017","name":"Menderes","source_raw_name":"MENDERES","source":"Kullanıcı tarafından sağlanan KML","source_label":"Kullanıcı tarafından sağlanan KML","source_name":"Istanbul Mahalle KML"},"geometry":{"type":"Polygon","coordinates":[[[28.877963,41.044242],[28.878147,41.044217],[28.878347,41.044228],[28.878857,41.04407],[28.879079,41.044001],[28.879455,41.043905],[28.879656,41.043889],[28.879829,41.043863],[28.879861,41.043804],[28.879961,41.043619],[28.880083,41.043387],[28.88021,41.043141],[28.880335,41.042895],[28.88046,41.04265],[28.880536,41.042496],[28.880687,41.042199],[28.880853,41.041872],[28.880965,41.041653],[28.881063,41.041464],[28.88115,41.041294],[28.881282,41.041034],[28.881412,41.040776],[28.881465,41.04067],[28.881549,41.040496],[28.881579,41.040425],[28.881599,41.040378],[28.881615,41.040329],[28.881645,41.040229],[28.881674,41.040114],[28.881724,41.039907],[28.881791,41.039636],[28.881942,41.039257],[28.882037,41.03904],[28.882082,41.038934],[28.882116,41.03885],[28.88215,41.03875],[28.882167,41.038689],[28.882171,41.038659],[28.882178,41.038576],[28.882185,41.038506],[28.882196,41.038405],[28.882211,41.038302],[28.882233,41.038194],[28.882255,41.03809],[28.882268,41.038048],[28.882298,41.037944],[28.882335,41.037834],[28.882416,41.037665],[28.88211,41.037737],[28.882033,41.037763],[28.881957,41.037791],[28.881822,41.03785],[28.881262,41.038047],[28.880807,41.038183],[28.880188,41.038375],[28.879779,41.038533],[28.879538,41.038625],[28.87923,41.038762],[28.878923,41.038885],[28.878768,41.038937],[28.878619,41.03899],[28.878452,41.039042],[28.878304,41.039084],[28.878194,41.039106],[28.878165,41.039112],[28.877928,41.039139],[28.877922,41.03914],[28.877775,41.039148],[28.877759,41.039149],[28.877585,41.039157],[28.877552,41.039159],[28.877242,41.039161],[28.87724,41.039161],[28.87699,41.039161],[28.876974,41.039161],[28.876634,41.03915],[28.876434,41.039126],[28.876004,41.039027],[28.875601,41.038917],[28.875296,41.038849],[28.87495,41.038774],[28.874573,41.038725],[28.874194,41.038676],[28.873723,41.038636],[28.873215,41.038577],[28.872787,41.038555],[28.87257,41.038548],[28.872455,41.038656],[28.872292,41.039057],[28.872254,41.039157],[28.872229,41.039243],[28.87222,41.039276],[28.872173,41.039505],[28.87212,41.039743],[28.872084,41.039896],[28.872059,41.040006],[28.87203,41.040142],[28.872008,41.040231],[28.87194,41.040538],[28.871894,41.040733],[28.871862,41.04087],[28.871837,41.040968],[28.8718,41.041082],[28.871764,41.041159],[28.871702,41.04125],[28.871625,41.041337],[28.871588,41.041372],[28.871449,41.041493],[28.87135,41.041569],[28.871385,41.041589],[28.871894,41.041859],[28.872274,41.042079],[28.872564,41.042253],[28.872714,41.042304],[28.872941,41.042599],[28.873047,41.042659],[28.873157,41.042682],[28.873312,41.042589],[28.873361,41.042568],[28.873419,41.042569],[28.873477,41.042604],[28.873715,41.042791],[28.873885,41.042946],[28.874125,41.043155],[28.87426,41.043249],[28.874596,41.043429],[28.874794,41.043423],[28.87483,41.043742],[28.874832,41.043757],[28.874857,41.043901],[28.874859,41.044018],[28.874847,41.04409],[28.874849,41.044184],[28.874873,41.044426],[28.874873,41.04447],[28.874869,41.044787],[28.874849,41.045157],[28.874927,41.045387],[28.875088,41.045299],[28.875534,41.045119],[28.875865,41.044996],[28.876311,41.044834],[28.876577,41.044742],[28.876711,41.044693],[28.876844,41.044647],[28.876862,41.044641],[28.877135,41.044544],[28.877428,41.044435],[28.877573,41.044378],[28.877963,41.044242]]]}},{"type":"Feature","properties":{"id":"TR-Y-34-017-M-0011","level":"yerlesim","type":"mahalle","parent_id":"TR-D-34-017","province_id":"TR-P-34","district_id":"TR-D-34-017","name":"Mimar Sinan","source_raw_name":"MİMAR SİNAN","source":"Kullanıcı tarafından sağlanan KML","source_label":"Kullanıcı tarafından sağlanan KML","source_name":"Istanbul Mahalle KML"},"geometry":{"type":"Polygon","coordinates":[[[28.882677,41.037488],[28.882847,41.037446],[28.883283,41.037286],[28.883373,41.037253],[28.883943,41.037033],[28.884149,41.036977],[28.884501,41.036926],[28.88452,41.036926],[28.884646,41.036928],[28.88494,41.036945],[28.884948,41.036946],[28.885053,41.036951],[28.885432,41.036972],[28.885487,41.036973],[28.885659,41.036955],[28.885809,41.036939],[28.886114,41.036913],[28.886307,41.036874],[28.886588,41.036791],[28.886661,41.036733],[28.887104,41.036596],[28.887109,41.036594],[28.887437,41.036482],[28.887839,41.036312],[28.887862,41.036299],[28.888313,41.036031],[28.888625,41.035841],[28.888962,41.035704],[28.889137,41.035665],[28.889443,41.035614],[28.889893,41.035574],[28.890238,41.035551],[28.890253,41.03555],[28.89036,41.035542],[28.890814,41.035488],[28.891268,41.03542],[28.891697,41.035315],[28.891723,41.035308],[28.892073,41.035221],[28.892155,41.035197],[28.892176,41.035191],[28.892435,41.035089],[28.892472,41.035074],[28.89266,41.034992],[28.892878,41.034887],[28.893101,41.034582],[28.893277,41.034373],[28.89336,41.034268],[28.893388,41.034235],[28.893419,41.03421],[28.893442,41.034195],[28.893481,41.034173],[28.893528,41.034152],[28.893564,41.034137],[28.893479,41.034136],[28.89331,41.03413],[28.892954,41.034117],[28.892841,41.034112],[28.892696,41.034106],[28.892363,41.034089],[28.89224,41.034084],[28.892133,41.034073],[28.892117,41.034072],[28.891902,41.034058],[28.891824,41.034054],[28.89181,41.034053],[28.891549,41.034041],[28.891351,41.03403],[28.891219,41.034024],[28.890915,41.034012],[28.890449,41.033994],[28.890138,41.033987],[28.890095,41.033985],[28.890011,41.033984],[28.889993,41.033983],[28.889922,41.033984],[28.889543,41.03399],[28.889377,41.033988],[28.889097,41.033985],[28.888633,41.033966],[28.888616,41.033965],[28.888207,41.033938],[28.887805,41.033909],[28.887784,41.033907],[28.887304,41.033865],[28.887146,41.033872],[28.886932,41.033878],[28.886913,41.033878],[28.886611,41.033917],[28.886191,41.033971],[28.885477,41.033995],[28.885468,41.034005],[28.885387,41.034092],[28.885381,41.034098],[28.885146,41.03438],[28.885141,41.034386],[28.884965,41.03459],[28.884889,41.03469],[28.884552,41.035095],[28.884288,41.035411],[28.884127,41.035599],[28.883783,41.036016],[28.883756,41.036048],[28.883429,41.03643],[28.883333,41.036532],[28.883186,41.036722],[28.883103,41.036812],[28.882838,41.03714],[28.882642,41.037366],[28.882635,41.037401],[28.882677,41.037488]]]}},{"type":"Feature","properties":{"id":"TR-Y-34-017-M-0012","level":"yerlesim","type":"mahalle","parent_id":"TR-D-34-017","province_id":"TR-P-34","district_id":"TR-D-34-017","name":"Namık Kemal","source_raw_name":"NAMIK KEMAL","source":"Kullanıcı tarafından sağlanan KML","source_label":"Kullanıcı tarafından sağlanan KML","source_name":"Istanbul Mahalle KML"},"geometry":{"type":"Polygon","coordinates":[[[28.897304,41.031703],[28.897388,41.031504],[28.897462,41.03133],[28.89748,41.031282],[28.897511,41.031218],[28.897571,41.031131],[28.897616,41.031088],[28.897889,41.030853],[28.897967,41.030762],[28.898096,41.030605],[28.898291,41.030341],[28.898346,41.030258],[28.898399,41.030169],[28.898514,41.029968],[28.898572,41.029858],[28.898625,41.029751],[28.89868,41.029637],[28.898746,41.029474],[28.898821,41.02927],[28.898895,41.029045],[28.898948,41.028877],[28.898988,41.028727],[28.899008,41.028644],[28.899028,41.028555],[28.899088,41.028217],[28.899111,41.027724],[28.899113,41.027705],[28.899021,41.027715],[28.898707,41.027721],[28.898441,41.027768],[28.897806,41.027878],[28.897728,41.027932],[28.897313,41.027862],[28.896786,41.027779],[28.896292,41.02768],[28.895215,41.027458],[28.895182,41.027451],[28.895021,41.027484],[28.894867,41.02755],[28.894569,41.027703],[28.894533,41.027726],[28.894482,41.027773],[28.894428,41.027833],[28.894311,41.028003],[28.894181,41.028066],[28.894077,41.028269],[28.893932,41.028563],[28.89385,41.02872],[28.893751,41.028913],[28.893623,41.029184],[28.893563,41.029319],[28.893481,41.029536],[28.893419,41.029709],[28.893293,41.0301],[28.893224,41.030324],[28.893255,41.030408],[28.893289,41.030574],[28.89322,41.030618],[28.893156,41.030743],[28.893005,41.031053],[28.892944,41.031141],[28.892806,41.031291],[28.892439,41.031486],[28.89238,41.03155],[28.89245,41.031547],[28.892637,41.03162],[28.893068,41.031795],[28.893579,41.031987],[28.894501,41.032319],[28.894432,41.03245],[28.894773,41.032537],[28.895075,41.032604],[28.895157,41.032612],[28.894943,41.033382],[28.894935,41.033411],[28.894845,41.033886],[28.894836,41.033935],[28.894831,41.033963],[28.895121,41.033995],[28.895433,41.03403],[28.895501,41.034038],[28.895543,41.034043],[28.895587,41.034049],[28.895633,41.034058],[28.895772,41.034083],[28.896112,41.034142],[28.896146,41.034148],[28.896166,41.034153],[28.896275,41.034],[28.89636,41.033887],[28.896417,41.033777],[28.896453,41.033713],[28.896558,41.033509],[28.896681,41.033273],[28.896766,41.033107],[28.896828,41.032981],[28.896842,41.032947],[28.896936,41.032689],[28.896997,41.0325],[28.897056,41.032315],[28.8971,41.032188],[28.897155,41.032053],[28.897304,41.031703]]]}},{"type":"Feature","properties":{"id":"TR-Y-34-017-M-0013","level":"yerlesim","type":"mahalle","parent_id":"TR-D-34-017","province_id":"TR-P-34","district_id":"TR-D-34-017","name":"Nine Hatun","source_raw_name":"NİNE HATUN","source":"Kullanıcı tarafından sağlanan KML","source_label":"Kullanıcı tarafından sağlanan KML","source_name":"Istanbul Mahalle KML"},"geometry":{"type":"Polygon","coordinates":[[[28.87699,41.039161],[28.87724,41.039161],[28.877242,41.039161],[28.877552,41.039159],[28.877585,41.039157],[28.877759,41.039149],[28.877775,41.039148],[28.877922,41.03914],[28.877928,41.039139],[28.878165,41.039112],[28.878194,41.039106],[28.878304,41.039084],[28.878452,41.039042],[28.878619,41.03899],[28.878768,41.038937],[28.878923,41.038885],[28.87923,41.038762],[28.879538,41.038625],[28.879779,41.038533],[28.880188,41.038375],[28.880807,41.038183],[28.881262,41.038047],[28.881822,41.03785],[28.881957,41.037791],[28.882033,41.037763],[28.88211,41.037737],[28.882416,41.037665],[28.882677,41.037488],[28.882635,41.037401],[28.882642,41.037366],[28.882838,41.03714],[28.883103,41.036812],[28.883186,41.036722],[28.883333,41.036532],[28.883429,41.03643],[28.883756,41.036048],[28.883783,41.036016],[28.884127,41.035599],[28.884288,41.035411],[28.884552,41.035095],[28.884889,41.03469],[28.884965,41.03459],[28.885141,41.034386],[28.885146,41.03438],[28.885381,41.034098],[28.885387,41.034092],[28.885468,41.034005],[28.885477,41.033995],[28.884907,41.03399],[28.884019,41.033851],[28.883688,41.033756],[28.883468,41.033688],[28.883437,41.033678],[28.883336,41.03365],[28.882918,41.033539],[28.88253,41.033445],[28.882312,41.033393],[28.882136,41.033333],[28.881566,41.033089],[28.881129,41.032933],[28.880711,41.032784],[28.880452,41.032721],[28.880407,41.03271],[28.87999,41.032609],[28.879495,41.032488],[28.87916,41.032404],[28.879025,41.03238],[28.878796,41.032315],[28.878611,41.032263],[28.878348,41.032193],[28.877304,41.031979],[28.876993,41.031983],[28.87694,41.031988],[28.876524,41.031928],[28.876466,41.032076],[28.876356,41.032336],[28.87624,41.032606],[28.876228,41.032634],[28.876097,41.032937],[28.876093,41.032947],[28.875943,41.033277],[28.875882,41.033457],[28.875833,41.033596],[28.875767,41.033762],[28.875698,41.033964],[28.875629,41.034107],[28.875425,41.034515],[28.875258,41.034793],[28.875132,41.034967],[28.874957,41.03516],[28.87473,41.035422],[28.874652,41.03552],[28.874601,41.0357],[28.874608,41.035844],[28.874625,41.036038],[28.874689,41.036336],[28.87464,41.036547],[28.874604,41.036682],[28.874557,41.036744],[28.874517,41.036798],[28.874436,41.036882],[28.874379,41.036931],[28.874288,41.036998],[28.873776,41.037303],[28.873749,41.037319],[28.873618,41.03741],[28.873281,41.037619],[28.873201,41.037694],[28.873073,41.037837],[28.872955,41.037985],[28.872839,41.03815],[28.872761,41.03828],[28.872717,41.038357],[28.872668,41.038436],[28.872621,41.03849],[28.87257,41.038548],[28.872787,41.038555],[28.873215,41.038577],[28.873723,41.038636],[28.874194,41.038676],[28.874573,41.038725],[28.87495,41.038774],[28.875296,41.038849],[28.875601,41.038917],[28.876004,41.039027],[28.876434,41.039126],[28.876634,41.03915],[28.876974,41.039161],[28.87699,41.039161]]]}},{"type":"Feature","properties":{"id":"TR-Y-34-017-M-0014","level":"yerlesim","type":"mahalle","parent_id":"TR-D-34-017","province_id":"TR-P-34","district_id":"TR-D-34-017","name":"Oruçreis","source_raw_name":"ORUÇREİS","source":"Kullanıcı tarafından sağlanan KML","source_label":"Kullanıcı tarafından sağlanan KML","source_name":"Istanbul Mahalle KML"},"geometry":{"type":"Polygon","coordinates":[[[28.873433,41.070018],[28.873332,41.069803],[28.873168,41.069294],[28.872972,41.068635],[28.872839,41.068142],[28.872334,41.065762],[28.872286,41.065652],[28.871913,41.064741],[28.871867,41.064509],[28.871913,41.064395],[28.871889,41.064176],[28.871281,41.062674],[28.871301,41.061753],[28.871206,41.061518],[28.870699,41.061639],[28.869961,41.061818],[28.869503,41.061926],[28.869321,41.061985],[28.869083,41.062082],[28.86881,41.062231],[28.868662,41.062339],[28.868433,41.062534],[28.868263,41.062731],[28.86764,41.063528],[28.866982,41.06436],[28.866766,41.064518],[28.866564,41.064614],[28.8652,41.065035],[28.864042,41.065382],[28.863538,41.06552],[28.863052,41.06563],[28.862705,41.06569],[28.862594,41.065572],[28.862171,41.065094],[28.861935,41.064803],[28.861789,41.064626],[28.861767,41.064597],[28.861711,41.064522],[28.861674,41.064459],[28.861546,41.064318],[28.861292,41.06418],[28.861172,41.064094],[28.861118,41.064048],[28.86103,41.063926],[28.860987,41.063813],[28.860958,41.063709],[28.860914,41.063614],[28.860892,41.063571],[28.860759,41.063414],[28.860651,41.063256],[28.860554,41.063052],[28.860488,41.062871],[28.86034,41.062658],[28.860041,41.062354],[28.859872,41.062176],[28.85971,41.061964],[28.859607,41.061656],[28.859425,41.061271],[28.859356,41.061181],[28.859331,41.061095],[28.85931,41.060987],[28.859306,41.060865],[28.859305,41.060753],[28.859234,41.060477],[28.859211,41.060364],[28.859175,41.060247],[28.85917,41.060179],[28.859203,41.060099],[28.859271,41.059969],[28.859383,41.059731],[28.859514,41.059418],[28.859645,41.059122],[28.859735,41.058839],[28.859771,41.058736],[28.859888,41.05853],[28.860088,41.05823],[28.860119,41.058118],[28.860142,41.057983],[28.860154,41.057916],[28.860171,41.057826],[28.860195,41.057673],[28.860208,41.057551],[28.860226,41.057376],[28.86025,41.057292],[28.860254,41.057279],[28.860312,41.057201],[28.860505,41.057028],[28.860667,41.056872],[28.860881,41.056698],[28.860942,41.056618],[28.861003,41.056561],[28.861067,41.056479],[28.861229,41.056229],[28.861304,41.056095],[28.861404,41.055934],[28.861554,41.055836],[28.861751,41.05572],[28.861757,41.055716],[28.862033,41.055611],[28.862201,41.055541],[28.8623,41.055465],[28.862364,41.05537],[28.862368,41.055365],[28.862415,41.055214],[28.862459,41.055152],[28.862804,41.054921],[28.862936,41.054823],[28.863084,41.054649],[28.863076,41.054501],[28.862861,41.054552],[28.862587,41.054595],[28.862276,41.054614],[28.861931,41.054599],[28.861906,41.054597],[28.861749,41.054577],[28.861528,41.05454],[28.861242,41.054523],[28.860987,41.05452],[28.860713,41.054545],[28.860393,41.054586],[28.859776,41.054656],[28.859368,41.054742],[28.858912,41.054854],[28.858852,41.054872],[28.858514,41.054956],[28.858502,41.054959],[28.858501,41.054959],[28.858249,41.055019],[28.857696,41.055168],[28.857169,41.055311],[28.855981,41.055489],[28.855395,41.055591],[28.855095,41.055651],[28.85526,41.056612],[28.855261,41.056618],[28.854925,41.05758],[28.854981,41.058066],[28.854741,41.060405],[28.855086,41.062675],[28.855585,41.063764],[28.855996,41.065067],[28.856472,41.066077],[28.856518,41.066403],[28.856321,41.066794],[28.856617,41.06688],[28.857168,41.06705],[28.857708,41.067217],[28.858803,41.067567],[28.859524,41.06781],[28.860429,41.068147],[28.860955,41.068358],[28.861476,41.068582],[28.861979,41.068808],[28.862483,41.069046],[28.862967,41.069288],[28.863465,41.069553],[28.86395,41.069824],[28.864414,41.070099],[28.864875,41.070385],[28.865325,41.070678],[28.865769,41.070982],[28.865969,41.071124],[28.866744,41.070677],[28.866936,41.070894],[28.867867,41.071675],[28.868319,41.072127],[28.868872,41.072556],[28.870069,41.073245],[28.872201,41.074462],[28.872382,41.074554],[28.872472,41.074614],[28.872613,41.074709],[28.873635,41.075298],[28.873712,41.075334],[28.873829,41.075358],[28.873957,41.075333],[28.874133,41.075211],[28.874832,41.074481],[28.874852,41.07443],[28.874627,41.072898],[28.874497,41.071985],[28.874452,41.0718],[28.873433,41.070018]]]}},{"type":"Feature","properties":{"id":"TR-Y-34-017-M-0016","level":"yerlesim","type":"mahalle","parent_id":"TR-D-34-017","province_id":"TR-P-34","district_id":"TR-D-34-017","name":"Tuna","source_raw_name":"TUNA","source":"Kullanıcı tarafından sağlanan KML","source_label":"Kullanıcı tarafından sağlanan KML","source_name":"Istanbul Mahalle KML"},"geometry":{"type":"Polygon","coordinates":[[[28.860987,41.05452],[28.861242,41.054523],[28.861528,41.05454],[28.861749,41.054577],[28.861906,41.054597],[28.861931,41.054599],[28.862276,41.054614],[28.862587,41.054595],[28.862861,41.054552],[28.863076,41.054501],[28.863459,41.054456],[28.863649,41.054311],[28.863774,41.05424],[28.863906,41.054192],[28.864126,41.054126],[28.864255,41.054086],[28.864385,41.054047],[28.864497,41.054019],[28.864586,41.053997],[28.864781,41.053951],[28.865066,41.053901],[28.865852,41.05382],[28.865672,41.053454],[28.865636,41.053373],[28.865576,41.053233],[28.865531,41.053138],[28.865491,41.052917],[28.865434,41.052763],[28.865312,41.052601],[28.865249,41.052459],[28.8652,41.052255],[28.865117,41.051935],[28.865171,41.051682],[28.865218,41.0515],[28.865262,41.051324],[28.865308,41.051158],[28.865361,41.050972],[28.86542,41.050778],[28.865602,41.050321],[28.866015,41.047929],[28.866141,41.047656],[28.866251,41.04745],[28.866552,41.047003],[28.866997,41.04657],[28.867133,41.046439],[28.867243,41.046339],[28.867294,41.046294],[28.8675,41.046111],[28.867709,41.045926],[28.867709,41.045925],[28.867727,41.04591],[28.867986,41.045679],[28.868177,41.045511],[28.868515,41.045234],[28.868589,41.045181],[28.868528,41.045159],[28.868508,41.045151],[28.868426,41.04512],[28.868099,41.045005],[28.867965,41.044955],[28.867686,41.044868],[28.866888,41.044956],[28.86686,41.044959],[28.866667,41.044997],[28.866567,41.045016],[28.866462,41.045058],[28.866192,41.045194],[28.86599,41.045276],[28.865868,41.045297],[28.865465,41.045286],[28.865524,41.045102],[28.865051,41.04516],[28.864723,41.045211],[28.864598,41.045232],[28.864384,41.045269],[28.864025,41.045326],[28.86399,41.045204],[28.863907,41.045068],[28.863862,41.044995],[28.863663,41.044773],[28.863627,41.044709],[28.863399,41.044441],[28.863219,41.044228],[28.863165,41.044167],[28.863038,41.043976],[28.862949,41.043817],[28.862901,41.043712],[28.862829,41.043522],[28.862812,41.043405],[28.862299,41.043395],[28.861787,41.043363],[28.861307,41.043327],[28.861067,41.043315],[28.860903,41.043296],[28.860327,41.043258],[28.860301,41.043353],[28.859471,41.043377],[28.859556,41.043804],[28.859664,41.044196],[28.859674,41.044231],[28.859776,41.044604],[28.859809,41.044911],[28.859809,41.04493],[28.859813,41.045231],[28.859815,41.045256],[28.859831,41.045496],[28.859832,41.045512],[28.859838,41.045694],[28.859837,41.045833],[28.859852,41.046081],[28.859853,41.046095],[28.859875,41.046457],[28.859877,41.046489],[28.859906,41.046856],[28.859924,41.047122],[28.859939,41.0474],[28.85994,41.047408],[28.859967,41.047798],[28.859972,41.048185],[28.859932,41.048455],[28.859888,41.048571],[28.859661,41.049006],[28.859529,41.049229],[28.859374,41.049516],[28.859304,41.049638],[28.859246,41.049753],[28.858969,41.050201],[28.858826,41.050447],[28.858758,41.050563],[28.858631,41.05081],[28.858439,41.051159],[28.858377,41.051298],[28.858309,41.051423],[28.858281,41.051477],[28.857992,41.051942],[28.856985,41.053527],[28.856827,41.05391],[28.856794,41.054024],[28.856786,41.054119],[28.85647,41.054133],[28.854701,41.054264],[28.854885,41.054933],[28.855095,41.055651],[28.855395,41.055591],[28.855981,41.055489],[28.857169,41.055311],[28.857696,41.055168],[28.858249,41.055019],[28.858501,41.054959],[28.858502,41.054959],[28.858514,41.054956],[28.858852,41.054872],[28.858912,41.054854],[28.859368,41.054742],[28.859776,41.054656],[28.860393,41.054586],[28.860713,41.054545],[28.860987,41.05452]]]}},{"type":"Feature","properties":{"id":"TR-Y-34-017-M-0017","level":"yerlesim","type":"mahalle","parent_id":"TR-D-34-017","province_id":"TR-P-34","district_id":"TR-D-34-017","name":"Turgut Reis","source_raw_name":"TURGUT REİS","source":"Kullanıcı tarafından sağlanan KML","source_label":"Kullanıcı tarafından sağlanan KML","source_name":"Istanbul Mahalle KML"},"geometry":{"type":"Polygon","coordinates":[[[28.868263,41.062731],[28.868433,41.062534],[28.868662,41.062339],[28.86881,41.062231],[28.868667,41.06211],[28.868536,41.062001],[28.868254,41.061728],[28.868124,41.061708],[28.867836,41.061432],[28.867754,41.061354],[28.867683,41.061288],[28.867684,41.061226],[28.867656,41.061106],[28.867597,41.061047],[28.867587,41.060947],[28.867556,41.060842],[28.867382,41.060662],[28.867107,41.060478],[28.86692,41.060386],[28.866844,41.060264],[28.866776,41.059809],[28.866699,41.059538],[28.866618,41.059316],[28.866556,41.059082],[28.86647,41.058923],[28.866345,41.058733],[28.866286,41.058642],[28.86617,41.058448],[28.866105,41.058361],[28.865947,41.058036],[28.865826,41.057782],[28.865747,41.057633],[28.865688,41.057534],[28.865488,41.057311],[28.865239,41.057025],[28.86515,41.056925],[28.865027,41.056784],[28.864973,41.056721],[28.864811,41.05653],[28.864704,41.056416],[28.864611,41.05628],[28.864602,41.056266],[28.864523,41.056126],[28.864453,41.05604],[28.864357,41.055877],[28.864124,41.055573],[28.864081,41.055514],[28.86384,41.055264],[28.863459,41.054456],[28.863076,41.054501],[28.863084,41.054649],[28.862936,41.054823],[28.862804,41.054921],[28.862459,41.055152],[28.862415,41.055214],[28.862368,41.055365],[28.862364,41.05537],[28.8623,41.055465],[28.862201,41.055541],[28.862033,41.055611],[28.861757,41.055716],[28.861751,41.05572],[28.861554,41.055836],[28.861404,41.055934],[28.861304,41.056095],[28.861229,41.056229],[28.861067,41.056479],[28.861003,41.056561],[28.860942,41.056618],[28.860881,41.056698],[28.860667,41.056872],[28.860505,41.057028],[28.860312,41.057201],[28.860254,41.057279],[28.86025,41.057292],[28.860226,41.057376],[28.860208,41.057551],[28.860195,41.057673],[28.860171,41.057826],[28.860154,41.057916],[28.860142,41.057983],[28.860119,41.058118],[28.860088,41.05823],[28.859888,41.05853],[28.859771,41.058736],[28.859735,41.058839],[28.859645,41.059122],[28.859514,41.059418],[28.859383,41.059731],[28.859271,41.059969],[28.859203,41.060099],[28.85917,41.060179],[28.859175,41.060247],[28.859211,41.060364],[28.859234,41.060477],[28.859305,41.060753],[28.859306,41.060865],[28.85931,41.060987],[28.859331,41.061095],[28.859356,41.061181],[28.859425,41.061271],[28.859607,41.061656],[28.85971,41.061964],[28.859872,41.062176],[28.860041,41.062354],[28.86034,41.062658],[28.860488,41.062871],[28.860554,41.063052],[28.860651,41.063256],[28.860759,41.063414],[28.860892,41.063571],[28.860914,41.063614],[28.860958,41.063709],[28.860987,41.063813],[28.86103,41.063926],[28.861118,41.064048],[28.861172,41.064094],[28.861292,41.06418],[28.861546,41.064318],[28.861674,41.064459],[28.861711,41.064522],[28.861767,41.064597],[28.861789,41.064626],[28.861935,41.064803],[28.862171,41.065094],[28.862594,41.065572],[28.862705,41.06569],[28.863052,41.06563],[28.863538,41.06552],[28.864042,41.065382],[28.8652,41.065035],[28.866564,41.064614],[28.866766,41.064518],[28.866982,41.06436],[28.86764,41.063528],[28.868263,41.062731]]]}},{"type":"Feature","properties":{"id":"TR-Y-34-017-M-0018","level":"yerlesim","type":"mahalle","parent_id":"TR-D-34-017","province_id":"TR-P-34","district_id":"TR-D-34-017","name":"Yavuz Selim","source_raw_name":"YAVUZ SELİM","source":"Kullanıcı tarafından sağlanan KML","source_label":"Kullanıcı tarafından sağlanan KML","source_name":"Istanbul Mahalle KML"},"geometry":{"type":"Polygon","coordinates":[[[28.886085,41.04155],[28.886132,41.041472],[28.887465,41.039215],[28.888022,41.038514],[28.888379,41.038173],[28.888586,41.037996],[28.888907,41.037761],[28.889084,41.03764],[28.889337,41.037487],[28.889592,41.037344],[28.889757,41.037264],[28.890008,41.037149],[28.890179,41.037078],[28.890595,41.03693],[28.890834,41.036852],[28.890904,41.036833],[28.892394,41.036533],[28.892627,41.036486],[28.892862,41.036438],[28.89305,41.036381],[28.893877,41.036127],[28.894033,41.036041],[28.894574,41.035755],[28.894755,41.035659],[28.894883,41.035574],[28.894975,41.03549],[28.895039,41.035426],[28.895149,41.035311],[28.89521,41.035241],[28.896093,41.034254],[28.896149,41.034176],[28.896166,41.034153],[28.896146,41.034148],[28.896112,41.034142],[28.895772,41.034083],[28.895633,41.034058],[28.895587,41.034049],[28.895543,41.034043],[28.895501,41.034038],[28.895433,41.03403],[28.895121,41.033995],[28.894831,41.033963],[28.894701,41.033951],[28.894434,41.033932],[28.894345,41.033927],[28.894219,41.03393],[28.89418,41.033933],[28.894107,41.03394],[28.894065,41.033947],[28.894032,41.033953],[28.893988,41.033966],[28.893901,41.033993],[28.893846,41.034011],[28.893795,41.034028],[28.893705,41.03407],[28.893611,41.034115],[28.893564,41.034137],[28.893528,41.034152],[28.893481,41.034173],[28.893442,41.034195],[28.893419,41.03421],[28.893388,41.034235],[28.89336,41.034268],[28.893277,41.034373],[28.893101,41.034582],[28.892878,41.034887],[28.89266,41.034992],[28.892472,41.035074],[28.892435,41.035089],[28.892176,41.035191],[28.892155,41.035197],[28.892073,41.035221],[28.891723,41.035308],[28.891697,41.035315],[28.891268,41.03542],[28.890814,41.035488],[28.89036,41.035542],[28.890253,41.03555],[28.890238,41.035551],[28.889893,41.035574],[28.889443,41.035614],[28.889137,41.035665],[28.888962,41.035704],[28.888625,41.035841],[28.888313,41.036031],[28.887862,41.036299],[28.887839,41.036312],[28.887437,41.036482],[28.887109,41.036594],[28.887104,41.036596],[28.886661,41.036733],[28.886588,41.036791],[28.886307,41.036874],[28.886209,41.036929],[28.886093,41.037028],[28.886015,41.037106],[28.885487,41.037674],[28.885274,41.037877],[28.884906,41.038299],[28.884654,41.038661],[28.884421,41.039001],[28.883904,41.039775],[28.883658,41.040097],[28.883372,41.040463],[28.883459,41.040505],[28.883852,41.040697],[28.884356,41.040909],[28.884868,41.041099],[28.885405,41.041307],[28.885985,41.041518],[28.886084,41.041552],[28.886085,41.04155]]]}},{"type":"Feature","properties":{"id":"TR-Y-34-017-M-SRC-ASKERIBOLGE","level":"yerlesim","type":"mahalle","parent_id":"TR-D-34-017","province_id":"TR-P-34","district_id":"TR-D-34-017","name":"Askeri Bölge","source_raw_name":"ASKERİ BÖLGE","source":"Kullanıcı tarafından sağlanan KML","source_label":"Kullanıcı tarafından sağlanan KML","source_name":"Istanbul Mahalle KML","source_only":true},"geometry":{"type":"Polygon","coordinates":[[[28.854124,41.102391],[28.85448,41.101825],[28.854991,41.100987],[28.855384,41.100468],[28.856118,41.099717],[28.856556,41.099202],[28.856939,41.098716],[28.857115,41.098478],[28.85736,41.098124],[28.857718,41.097529],[28.858055,41.096963],[28.858413,41.096375],[28.85871,41.095992],[28.858922,41.095767],[28.859204,41.095462],[28.859493,41.095157],[28.859829,41.094799],[28.860277,41.094321],[28.860634,41.093942],[28.861237,41.093305],[28.861423,41.093092],[28.861543,41.092955],[28.861868,41.092484],[28.862209,41.091959],[28.862412,41.091665],[28.862755,41.091244],[28.8632,41.090722],[28.863418,41.090523],[28.863608,41.090377],[28.863836,41.090235],[28.864307,41.089921],[28.864624,41.089559],[28.864917,41.08941],[28.865131,41.089182],[28.865382,41.088917],[28.865549,41.088747],[28.865719,41.088596],[28.86601,41.08837],[28.866318,41.08816],[28.866667,41.087952],[28.86713,41.087695],[28.867909,41.08727],[28.868318,41.087045],[28.868745,41.086813],[28.868978,41.086681],[28.869549,41.086367],[28.869879,41.086166],[28.870201,41.085945],[28.870413,41.085778],[28.870618,41.085599],[28.870888,41.085326],[28.871381,41.084796],[28.871788,41.084362],[28.872786,41.083287],[28.87303,41.083014],[28.873862,41.082116],[28.87418,41.081763],[28.874371,41.081556],[28.874268,41.081429],[28.873915,41.080966],[28.873459,41.080338],[28.873338,41.08016],[28.873147,41.079875],[28.872925,41.079525],[28.872509,41.078843],[28.872284,41.078466],[28.872038,41.078049],[28.87184,41.077727],[28.871182,41.076634],[28.870458,41.075546],[28.870103,41.075085],[28.869278,41.07409],[28.868908,41.073681],[28.868555,41.07332],[28.868208,41.072977],[28.867813,41.072616],[28.86743,41.072273],[28.867028,41.071936],[28.866623,41.071611],[28.866202,41.071293],[28.865969,41.071124],[28.865769,41.070982],[28.865325,41.070678],[28.864875,41.070385],[28.864414,41.070099],[28.86395,41.069824],[28.863465,41.069553],[28.862967,41.069288],[28.862483,41.069046],[28.861979,41.068808],[28.861476,41.068582],[28.860955,41.068358],[28.860429,41.068147],[28.859524,41.06781],[28.858803,41.067567],[28.857708,41.067217],[28.857168,41.06705],[28.856617,41.06688],[28.856321,41.066794],[28.856292,41.066846],[28.857525,41.067359],[28.857875,41.067953],[28.858467,41.068838],[28.85905,41.069484],[28.859541,41.070115],[28.860469,41.071386],[28.860243,41.07148],[28.859856,41.071604],[28.858618,41.071931],[28.857799,41.072146],[28.857489,41.072179],[28.856974,41.072218],[28.856501,41.072165],[28.856132,41.072122],[28.855299,41.072113],[28.854714,41.072044],[28.853849,41.07196],[28.853671,41.071732],[28.853647,41.071455],[28.852334,41.070909],[28.851014,41.069404],[28.8495,41.068143],[28.848387,41.067201],[28.847839,41.066688],[28.847243,41.066225],[28.846934,41.066022],[28.846504,41.065789],[28.845839,41.065496],[28.845379,41.065349],[28.844701,41.065199],[28.844042,41.065085],[28.843567,41.065044],[28.843005,41.065017],[28.842457,41.065051],[28.841889,41.065135],[28.841438,41.065241],[28.840807,41.065427],[28.84017,41.065675],[28.839732,41.065888],[28.839235,41.066209],[28.838538,41.066624],[28.8372,41.067553],[28.836056,41.068135],[28.833769,41.06888],[28.837487,41.072399],[28.838132,41.074164],[28.838682,41.075543],[28.839465,41.077491],[28.839879,41.078218],[28.841363,41.080538],[28.842229,41.081848],[28.84246,41.082219],[28.842558,41.082373],[28.842685,41.082573],[28.84275,41.082675],[28.84291,41.082931],[28.843171,41.083408],[28.843209,41.083505],[28.843292,41.083744],[28.843348,41.08392],[28.843744,41.085401],[28.844064,41.086484],[28.84425,41.087247],[28.844338,41.087608],[28.84488,41.089537],[28.845256,41.090877],[28.845653,41.091862],[28.846022,41.092851],[28.846341,41.093707],[28.846476,41.094201],[28.846617,41.094579],[28.846842,41.094959],[28.847022,41.095273],[28.848629,41.097209],[28.848937,41.097644],[28.849669,41.099184],[28.849871,41.099698],[28.850082,41.100237],[28.850134,41.100375],[28.850253,41.100693],[28.850339,41.100922],[28.850621,41.10164],[28.850552,41.102285],[28.850487,41.102648],[28.850206,41.104213],[28.850192,41.104451],[28.850143,41.105023],[28.850121,41.105275],[28.850121,41.105275],[28.850086,41.105679],[28.850062,41.105963],[28.850054,41.106145],[28.850054,41.106146],[28.850354,41.106568],[28.850378,41.106681],[28.850482,41.107162],[28.850462,41.107267],[28.850441,41.107384],[28.850431,41.107434],[28.850595,41.107394],[28.850755,41.107293],[28.851074,41.107043],[28.851253,41.106886],[28.851709,41.106476],[28.852018,41.106008],[28.852182,41.105756],[28.852374,41.10544],[28.852516,41.105177],[28.852626,41.104966],[28.852914,41.104355],[28.853197,41.103878],[28.853378,41.103586],[28.853802,41.102888],[28.854124,41.102391]]]}}]}