{"type":"FeatureCollection","name":"turkiye_map.dist.mahalle_geometrileri_by_district.TR-D-20-010","features":[{"type":"Feature","properties":{"id":"KK-Y-20-010-140044","level":"yerlesim","type":"yerlesim","parent_id":"TR-D-20-010","province_id":"TR-P-20","province_name":"Denizli","district_id":"TR-D-20-010","name":"Cumhuriyet Sb","source_raw_name":"Cumhuriyet Sb","source":"Kamu kaynak","source_only":true},"geometry":{"type":"MultiPolygon","coordinates":[[[[29.67432,37.804701],[29.673989,37.802794],[29.673798,37.801693],[29.673682,37.801014],[29.673385,37.799281],[29.67045,37.799352],[29.669501,37.799375],[29.668204,37.799404],[29.668213,37.799187],[29.666479,37.799442],[29.666249,37.799368],[29.666239,37.799357],[29.665822,37.798957],[29.665331,37.798486],[29.664536,37.797748],[29.664043,37.79729],[29.663753,37.796941],[29.663434,37.79642],[29.663301,37.796409],[29.662052,37.797687],[29.661798,37.797954],[29.662418,37.798732],[29.66284,37.799384],[29.663014,37.799722],[29.663397,37.800466],[29.664091,37.801807],[29.664628,37.802847],[29.665249,37.80405],[29.665542,37.804613],[29.666039,37.804597],[29.667758,37.804547],[29.669333,37.804501],[29.669422,37.804504],[29.669895,37.804517],[29.670955,37.804543],[29.672417,37.804587],[29.67336,37.804646],[29.67432,37.804701]]]]}},{"type":"Feature","properties":{"id":"KK-Y-20-010-20757","level":"yerlesim","type":"yerlesim","parent_id":"TR-D-20-010","province_id":"TR-P-20","province_name":"Denizli","district_id":"TR-D-20-010","name":"Denizli Çardak Osb","source_raw_name":"Denizli Çardak Osb","source":"Kamu kaynak","source_only":true},"geometry":{"type":"MultiPolygon","coordinates":[[[[29.692141,37.809453],[29.687181,37.808162],[29.674586,37.808159],[29.670852,37.808158],[29.670491,37.808545],[29.668372,37.808721],[29.668285,37.8086],[29.666934,37.808703],[29.667033,37.809589],[29.662204,37.81009],[29.662253,37.810509],[29.659733,37.810735],[29.657077,37.810973],[29.657007,37.810983],[29.657793,37.812718],[29.658248,37.814554],[29.658383,37.814998],[29.658442,37.815233],[29.658721,37.816121],[29.659076,37.817408],[29.659165,37.817634],[29.65919,37.817723],[29.659325,37.818068],[29.659605,37.818575],[29.65997,37.819114],[29.660764,37.820266],[29.661344,37.821037],[29.661438,37.821017],[29.664921,37.820444],[29.665749,37.820283],[29.669245,37.819708],[29.669263,37.819176],[29.67465,37.819172],[29.674653,37.818838],[29.674653,37.818838],[29.674656,37.818483],[29.68001,37.817981],[29.691699,37.817932],[29.691696,37.817907],[29.691699,37.817907],[29.691403,37.814672],[29.691112,37.811482],[29.692141,37.809453]]]]}},{"type":"Feature","properties":{"id":"TR-Y-20-010-M-0001","level":"yerlesim","type":"mahalle","parent_id":"TR-D-20-010","province_id":"TR-P-20","province_name":"Denizli","district_id":"TR-D-20-010","name":"Ayvaz","source_raw_name":"Ayvaz","source":"Kamu kaynak","source_only":false},"geometry":{"type":"MultiPolygon","coordinates":[[[[29.744671,37.763324],[29.744713,37.763104],[29.744997,37.763107],[29.745253,37.763097],[29.745768,37.763092],[29.745811,37.763092],[29.746086,37.763064],[29.746406,37.763066],[29.746533,37.763063],[29.746882,37.763084],[29.746894,37.76293],[29.747882,37.762831],[29.748014,37.762806],[29.748618,37.76266],[29.748926,37.762596],[29.749377,37.762484],[29.750134,37.762366],[29.750565,37.762295],[29.750785,37.762255],[29.750914,37.762232],[29.751267,37.762159],[29.751329,37.762156],[29.751394,37.762142],[29.751586,37.762129],[29.751945,37.76213],[29.752181,37.762148],[29.752386,37.762155],[29.752591,37.762151],[29.752697,37.762151],[29.752848,37.762143],[29.753293,37.762122],[29.753812,37.762152],[29.754189,37.762185],[29.754206,37.762013],[29.754318,37.76203],[29.754362,37.762023],[29.754431,37.762011],[29.754523,37.762008],[29.754796,37.762022],[29.755042,37.762029],[29.755271,37.762026],[29.755583,37.762013],[29.755743,37.762002],[29.75588,37.761989],[29.756071,37.76197],[29.756102,37.761954],[29.756169,37.761953],[29.7562,37.761939],[29.756205,37.761923],[29.756301,37.761906],[29.756526,37.761863],[29.756597,37.761843],[29.756758,37.761812],[29.756897,37.761787],[29.756958,37.761775],[29.757033,37.761763],[29.757362,37.761682],[29.757418,37.761683],[29.75742,37.761683],[29.757471,37.761668],[29.757519,37.761666],[29.757585,37.761659],[29.757682,37.761656],[29.757737,37.761661],[29.758047,37.761636],[29.758169,37.7616],[29.758256,37.761568],[29.758358,37.761533],[29.758529,37.761482],[29.758806,37.761436],[29.758951,37.761401],[29.759039,37.761381],[29.75907,37.761365],[29.75928,37.76126],[29.759653,37.761093],[29.759993,37.760983],[29.7602,37.760935],[29.760191,37.76081],[29.760258,37.760798],[29.760257,37.760745],[29.760454,37.760715],[29.760457,37.760631],[29.760556,37.76063],[29.760556,37.760613],[29.76086,37.760607],[29.76092,37.760614],[29.760989,37.760615],[29.761022,37.760616],[29.761156,37.760583],[29.761406,37.760531],[29.761591,37.760473],[29.761876,37.760377],[29.762034,37.760266],[29.761962,37.760191],[29.76206,37.760123],[29.762131,37.760123],[29.762166,37.760106],[29.762229,37.760098],[29.762306,37.760123],[29.76232,37.760146],[29.762579,37.760108],[29.762713,37.760081],[29.763024,37.760008],[29.763146,37.759971],[29.763361,37.759897],[29.763488,37.759841],[29.763529,37.759829],[29.763923,37.75967],[29.763967,37.759661],[29.763968,37.759661],[29.764009,37.759643],[29.764363,37.759541],[29.764606,37.759487],[29.764806,37.759449],[29.764729,37.759203],[29.764942,37.759169],[29.765132,37.759127],[29.765143,37.759125],[29.765226,37.759106],[29.765365,37.759081],[29.765535,37.759054],[29.765738,37.759031],[29.765771,37.759027],[29.765882,37.759012],[29.765829,37.75868],[29.765841,37.758678],[29.765831,37.758639],[29.766965,37.758404],[29.76714,37.758361],[29.767158,37.758356],[29.767955,37.75817],[29.768001,37.758198],[29.768046,37.758285],[29.768109,37.758323],[29.768189,37.758362],[29.768299,37.7584],[29.768332,37.75843],[29.768341,37.758504],[29.76862,37.758519],[29.76872,37.758535],[29.768889,37.758592],[29.768936,37.75824],[29.769235,37.757537],[29.76926,37.757407],[29.769289,37.757347],[29.769387,37.757339],[29.769396,37.757314],[29.769644,37.757296],[29.769695,37.757293],[29.769906,37.756895],[29.769999,37.756904],[29.770017,37.756872],[29.770262,37.756887],[29.770498,37.756907],[29.770697,37.75693],[29.771103,37.756991],[29.771297,37.757015],[29.771308,37.757016],[29.771575,37.756016],[29.771997,37.755049],[29.772035,37.755063],[29.772091,37.754957],[29.77211,37.754965],[29.772127,37.754935],[29.772089,37.754912],[29.77205,37.754895],[29.772165,37.754674],[29.772304,37.75441],[29.77241,37.754201],[29.772569,37.753891],[29.773008,37.753042],[29.773347,37.75237],[29.773348,37.75237],[29.77336,37.752336],[29.773456,37.75234],[29.77347,37.752313],[29.773541,37.752316],[29.773576,37.752078],[29.773631,37.752059],[29.774407,37.752049],[29.775854,37.752093],[29.775816,37.750389],[29.775818,37.74984],[29.775806,37.749845],[29.775653,37.749906],[29.775648,37.749908],[29.775628,37.749951],[29.775458,37.749998],[29.775369,37.750023],[29.775259,37.750037],[29.775179,37.750039],[29.775102,37.750017],[29.775113,37.749999],[29.775053,37.749983],[29.774853,37.749932],[29.774569,37.749815],[29.774285,37.749685],[29.773603,37.749328],[29.773191,37.749105],[29.77327,37.749042],[29.77323,37.749019],[29.773996,37.748396],[29.773996,37.748395],[29.77399,37.748392],[29.773715,37.748184],[29.773528,37.747981],[29.773439,37.74789],[29.773393,37.747845],[29.773303,37.747756],[29.773252,37.74771],[29.773212,37.747666],[29.773107,37.747556],[29.772854,37.747334],[29.772762,37.747245],[29.772699,37.747186],[29.772639,37.747133],[29.77251,37.747045],[29.772347,37.746951],[29.772241,37.746944],[29.772109,37.747179],[29.772078,37.747173],[29.772064,37.74719],[29.77199,37.747178],[29.771787,37.747135],[29.771541,37.747093],[29.771165,37.747024],[29.771153,37.747039],[29.771026,37.747025],[29.771007,37.747095],[29.770965,37.747093],[29.770721,37.747055],[29.770636,37.746959],[29.770476,37.746755],[29.770265,37.746616],[29.770116,37.746558],[29.769988,37.746538],[29.769696,37.746431],[29.769461,37.746336],[29.769259,37.746233],[29.769277,37.746201],[29.768895,37.746052],[29.768464,37.745925],[29.768077,37.745835],[29.767972,37.745771],[29.768044,37.745709],[29.768032,37.745694],[29.768038,37.745694],[29.767863,37.745385],[29.767873,37.745376],[29.767871,37.745372],[29.767953,37.74531],[29.768101,37.745186],[29.768018,37.745044],[29.767981,37.745],[29.767933,37.74505],[29.767799,37.744872],[29.767671,37.744705],[29.76758,37.744587],[29.76749,37.744459],[29.767284,37.744326],[29.767016,37.744205],[29.766528,37.743889],[29.766253,37.743707],[29.766002,37.743518],[29.765882,37.743439],[29.765743,37.74335],[29.765502,37.743203],[29.765136,37.742964],[29.764672,37.742664],[29.764426,37.742508],[29.763524,37.741929],[29.763369,37.741832],[29.763184,37.741717],[29.762858,37.741518],[29.762612,37.741362],[29.762089,37.741039],[29.761305,37.740569],[29.760741,37.74023],[29.760436,37.73999],[29.760038,37.739667],[29.75936,37.739121],[29.758855,37.738719],[29.758589,37.738509],[29.75838,37.738337],[29.758223,37.738219],[29.758187,37.738181],[29.758084,37.738064],[29.757966,37.737928],[29.757859,37.73781],[29.757644,37.737559],[29.757533,37.737436],[29.755712,37.73688],[29.755216,37.736782],[29.755071,37.736842],[29.755041,37.736856],[29.754734,37.736677],[29.754279,37.736445],[29.754131,37.736394],[29.753626,37.736278],[29.753216,37.736231],[29.750995,37.738042],[29.749418,37.737828],[29.748386,37.737939],[29.748276,37.737983],[29.748704,37.739166],[29.748814,37.739737],[29.748914,37.739925],[29.749034,37.740318],[29.749105,37.741024],[29.749071,37.741099],[29.74921,37.744518],[29.749748,37.744215],[29.749671,37.744786],[29.74961,37.744964],[29.749457,37.745459],[29.749345,37.746162],[29.749284,37.746624],[29.749169,37.747242],[29.749372,37.747274],[29.749371,37.747308],[29.749357,37.747493],[29.74931,37.747765],[29.749288,37.748408],[29.7493,37.748721],[29.749289,37.749027],[29.749113,37.749428],[29.748705,37.750606],[29.748735,37.750911],[29.748209,37.752244],[29.748137,37.752626],[29.748026,37.753062],[29.747952,37.753274],[29.748002,37.75334],[29.747705,37.754049],[29.747657,37.754369],[29.747248,37.755374],[29.747221,37.755402],[29.746452,37.75576],[29.74635,37.755838],[29.746232,37.756029],[29.746056,37.756595],[29.745861,37.757111],[29.745805,37.757249],[29.745683,37.75789],[29.745522,37.758729],[29.745487,37.758778],[29.745483,37.758801],[29.745171,37.759528],[29.744814,37.760383],[29.744555,37.760995],[29.744422,37.761348],[29.744214,37.761953],[29.744003,37.762513],[29.743735,37.763248],[29.743996,37.763267],[29.744671,37.763324]]]]}},{"type":"Feature","properties":{"id":"TR-Y-20-010-M-0002","level":"yerlesim","type":"mahalle","parent_id":"TR-D-20-010","province_id":"TR-P-20","province_name":"Denizli","district_id":"TR-D-20-010","name":"Bahçelievler","source_raw_name":"Bahçelievler","source":"Kamu kaynak","source_only":false},"geometry":{"type":"MultiPolygon","coordinates":[[[[29.685278,37.878474],[29.692456,37.872455],[29.698962,37.865074],[29.707254,37.86016],[29.721381,37.851811],[29.731246,37.845981],[29.750686,37.833805],[29.752823,37.832477],[29.752983,37.832606],[29.752967,37.832531],[29.752364,37.831303],[29.752024,37.829244],[29.751643,37.828013],[29.750817,37.826886],[29.749642,37.826073],[29.748985,37.825789],[29.748141,37.825593],[29.745548,37.82527],[29.735259,37.824413],[29.727523,37.823799],[29.722795,37.822537],[29.720542,37.822472],[29.710772,37.823521],[29.703036,37.823025],[29.696058,37.822659],[29.696003,37.826333],[29.690768,37.826457],[29.690173,37.8264],[29.688224,37.82632],[29.686944,37.826269],[29.685402,37.826336],[29.683501,37.826499],[29.682174,37.826684],[29.68116,37.826803],[29.680628,37.82683],[29.679311,37.826821],[29.678122,37.826902],[29.677204,37.82701],[29.675383,37.827159],[29.673687,37.827381],[29.67227,37.829208],[29.672203,37.829472],[29.672675,37.830124],[29.672996,37.830826],[29.673865,37.833469],[29.673853,37.833573],[29.673571,37.833718],[29.673226,37.83421],[29.673243,37.833541],[29.671906,37.832695],[29.671578,37.832642],[29.671057,37.832465],[29.670502,37.832386],[29.669837,37.832325],[29.669601,37.832476],[29.669496,37.832459],[29.66937,37.832318],[29.669037,37.833245],[29.669548,37.83449],[29.669414,37.834901],[29.667834,37.836135],[29.667694,37.836502],[29.667723,37.838046],[29.667376,37.838899],[29.667602,37.839586],[29.667595,37.839691],[29.667596,37.839694],[29.667593,37.839725],[29.66755,37.840415],[29.667764,37.841012],[29.667773,37.841508],[29.668107,37.842138],[29.668253,37.843216],[29.670226,37.844713],[29.670914,37.846124],[29.672015,37.8467],[29.67578,37.847769],[29.67678,37.847803],[29.677975,37.848621],[29.678125,37.84938],[29.677904,37.850616],[29.679202,37.852837],[29.681134,37.854423],[29.682757,37.856658],[29.683541,37.859255],[29.685408,37.861339],[29.68886,37.864323],[29.691888,37.864979],[29.693383,37.866252],[29.692593,37.867179],[29.692446,37.86733],[29.692261,37.867631],[29.69193,37.868109],[29.691653,37.868533],[29.691154,37.869448],[29.690884,37.869948],[29.690711,37.870458],[29.690581,37.870954],[29.690473,37.871404],[29.690457,37.87188],[29.690435,37.872331],[29.690458,37.872797],[29.690496,37.87324],[29.690474,37.873444],[29.690394,37.873658],[29.69032,37.87388],[29.690184,37.874136],[29.690068,37.874332],[29.689864,37.874525],[29.689412,37.874978],[29.689152,37.875217],[29.688845,37.875434],[29.688303,37.875817],[29.687881,37.876073],[29.687444,37.876262],[29.686987,37.876396],[29.686766,37.876412],[29.686537,37.876411],[29.686128,37.876377],[29.685538,37.876348],[29.685309,37.87636],[29.685123,37.876407],[29.684926,37.876509],[29.684683,37.876662],[29.6844,37.876887],[29.683619,37.877691],[29.683292,37.8781],[29.683235,37.878247],[29.682544,37.878456],[29.682527,37.878707],[29.682527,37.878787],[29.682549,37.87892],[29.682621,37.87917],[29.682815,37.879643],[29.683036,37.880062],[29.683419,37.880765],[29.68386,37.881992],[29.683964,37.882279],[29.683998,37.882375],[29.684109,37.882819],[29.684128,37.883154],[29.684146,37.883338],[29.684212,37.883569],[29.684351,37.883903],[29.684367,37.884232],[29.684373,37.884338],[29.684147,37.885085],[29.684146,37.885088],[29.683914,37.885856],[29.684453,37.885328],[29.685139,37.878591],[29.685278,37.878474]]]]}},{"type":"Feature","properties":{"id":"TR-Y-20-010-M-0003","level":"yerlesim","type":"mahalle","parent_id":"TR-D-20-010","province_id":"TR-P-20","province_name":"Denizli","district_id":"TR-D-20-010","name":"Beylerli","source_raw_name":"Beylerli","source":"Kamu kaynak","source_only":false},"geometry":{"type":"MultiPolygon","coordinates":[[[[29.678973,37.752815],[29.684891,37.747334],[29.684891,37.746256],[29.685166,37.746161],[29.684655,37.744418],[29.684971,37.74429],[29.685312,37.744177],[29.685751,37.744056],[29.685937,37.743991],[29.686128,37.743876],[29.686475,37.743611],[29.686725,37.743447],[29.686994,37.743319],[29.687646,37.743051],[29.687816,37.742994],[29.688048,37.74295],[29.688345,37.742928],[29.688831,37.742942],[29.689017,37.742957],[29.689555,37.742777],[29.689958,37.742766],[29.690559,37.742695],[29.690718,37.742694],[29.690955,37.742722],[29.691151,37.742794],[29.691278,37.74286],[29.691585,37.74312],[29.69176,37.743283],[29.691852,37.743422],[29.691934,37.743671],[29.692129,37.74405],[29.692264,37.744029],[29.692488,37.743966],[29.692815,37.743779],[29.693033,37.743651],[29.693268,37.743451],[29.693595,37.743288],[29.693846,37.743107],[29.69407,37.742926],[29.694336,37.742785],[29.694756,37.742607],[29.695094,37.742505],[29.695379,37.742362],[29.69552,37.742036],[29.695524,37.741776],[29.695509,37.741696],[29.695534,37.741644],[29.695629,37.74161],[29.69586,37.741645],[29.696324,37.741822],[29.69662,37.741867],[29.696841,37.741868],[29.697152,37.741807],[29.697734,37.741814],[29.697907,37.741866],[29.698442,37.741879],[29.698969,37.741917],[29.699193,37.74195],[29.699234,37.741761],[29.699348,37.741652],[29.699839,37.741472],[29.702322,37.736765],[29.70228,37.736763],[29.701821,37.736465],[29.69993,37.735015],[29.699231,37.734547],[29.698728,37.734284],[29.697681,37.733986],[29.696997,37.733624],[29.696256,37.73313],[29.695927,37.732972],[29.695506,37.732859],[29.695185,37.732727],[29.69413,37.732167],[29.693364,37.73166],[29.692796,37.731305],[29.69193,37.731231],[29.691534,37.731052],[29.691337,37.730875],[29.69119,37.730461],[29.690919,37.730238],[29.690532,37.729981],[29.690195,37.729666],[29.689595,37.728831],[29.689481,37.728536],[29.689284,37.728319],[29.68902,37.728259],[29.688575,37.728022],[29.688263,37.727694],[29.688065,37.727575],[29.693491,37.724875],[29.693867,37.723932],[29.697801,37.714282],[29.701903,37.708875],[29.702879,37.709258],[29.7035,37.710463],[29.703773,37.710998],[29.705366,37.712638],[29.708418,37.713941],[29.709375,37.714134],[29.712189,37.713184],[29.713557,37.712645],[29.707183,37.710459],[29.704041,37.709645],[29.702275,37.708912],[29.698478,37.708303],[29.696681,37.707206],[29.693412,37.705714],[29.694861,37.703792],[29.694671,37.702204],[29.694516,37.700148],[29.693444,37.697907],[29.692269,37.696993],[29.691257,37.696106],[29.689031,37.695866],[29.685369,37.694529],[29.684522,37.693486],[29.683679,37.691427],[29.681301,37.68848],[29.680393,37.6865],[29.67923,37.682828],[29.676029,37.680997],[29.675145,37.680015],[29.672433,37.679615],[29.667807,37.677918],[29.665428,37.67707],[29.663587,37.674434],[29.662405,37.672326],[29.660427,37.670532],[29.659116,37.66981],[29.656507,37.67092],[29.653496,37.671493],[29.653197,37.671523],[29.651368,37.672442],[29.650657,37.672938],[29.647538,37.674334],[29.64564,37.675282],[29.645079,37.67572],[29.64321,37.67671],[29.638063,37.677545],[29.637302,37.677361],[29.636546,37.676869],[29.636007,37.676631],[29.634641,37.676699],[29.632643,37.676213],[29.631042,37.675801],[29.630373,37.675431],[29.629431,37.674769],[29.628445,37.673941],[29.626292,37.6729],[29.624862,37.672457],[29.623758,37.671457],[29.621703,37.670574],[29.619308,37.670386],[29.618909,37.670144],[29.612164,37.670972],[29.612198,37.671042],[29.612106,37.671722],[29.612089,37.672594],[29.612239,37.673874],[29.612432,37.673959],[29.612571,37.674032],[29.612713,37.674203],[29.612746,37.674749],[29.612976,37.675521],[29.612915,37.676237],[29.613387,37.675777],[29.613668,37.675533],[29.614432,37.674945],[29.614765,37.674593],[29.614928,37.674475],[29.614936,37.674523],[29.614799,37.675604],[29.614856,37.676094],[29.614813,37.676386],[29.614765,37.676787],[29.614947,37.677333],[29.615822,37.677919],[29.615797,37.678216],[29.615752,37.678386],[29.61557,37.67872],[29.615461,37.678907],[29.615462,37.678923],[29.615482,37.678997],[29.615648,37.67917],[29.615784,37.679333],[29.616027,37.679624],[29.616037,37.679722],[29.615932,37.679825],[29.615845,37.679924],[29.615777,37.680064],[29.615756,37.680224],[29.615776,37.680312],[29.615882,37.680482],[29.615971,37.680762],[29.61598,37.680969],[29.615908,37.681304],[29.615887,37.681559],[29.615839,37.681732],[29.615818,37.681862],[29.615878,37.682014],[29.616077,37.682244],[29.61615,37.682369],[29.616129,37.682595],[29.615877,37.682847],[29.615728,37.683038],[29.615706,37.683442],[29.615651,37.68367],[29.615507,37.683861],[29.61525,37.684201],[29.615143,37.684358],[29.615141,37.684421],[29.615221,37.684492],[29.615512,37.68457],[29.615666,37.684652],[29.61592,37.684892],[29.616046,37.685038],[29.616061,37.685153],[29.616013,37.68526],[29.61586,37.685429],[29.615655,37.685642],[29.615571,37.685835],[29.61406,37.687207],[29.614634,37.687562],[29.616154,37.688253],[29.617423,37.688839],[29.61795,37.689003],[29.618128,37.689308],[29.617845,37.690795],[29.618094,37.691377],[29.619168,37.692496],[29.619371,37.692448],[29.619238,37.691983],[29.619308,37.691429],[29.619455,37.691181],[29.619538,37.691215],[29.619649,37.691197],[29.619859,37.691325],[29.619963,37.691376],[29.62012,37.691395],[29.620206,37.691485],[29.620213,37.691508],[29.620353,37.691505],[29.620305,37.691574],[29.62009,37.691584],[29.61989,37.69155],[29.619961,37.69176],[29.619925,37.691988],[29.619938,37.692447],[29.620008,37.692422],[29.620173,37.692436],[29.620088,37.692736],[29.620384,37.692909],[29.620195,37.693332],[29.620544,37.693372],[29.620376,37.693635],[29.620294,37.693821],[29.620244,37.693965],[29.62015,37.694083],[29.61994,37.694489],[29.619703,37.694803],[29.619664,37.694881],[29.619482,37.695038],[29.619223,37.695226],[29.619033,37.695343],[29.618767,37.695506],[29.618629,37.695545],[29.61824,37.695522],[29.618205,37.695337],[29.617818,37.695283],[29.617585,37.695083],[29.617307,37.695332],[29.617236,37.695692],[29.616785,37.695892],[29.616369,37.695949],[29.616134,37.696139],[29.615989,37.696647],[29.615704,37.696972],[29.615775,37.69701],[29.616206,37.697305],[29.616236,37.697341],[29.615905,37.69759],[29.615788,37.697672],[29.615498,37.697847],[29.615238,37.698025],[29.615164,37.69807],[29.614927,37.698208],[29.614597,37.698475],[29.61407,37.698781],[29.612996,37.699261],[29.613106,37.699463],[29.613105,37.699464],[29.613216,37.699669],[29.613325,37.699871],[29.613405,37.700021],[29.613486,37.700172],[29.613508,37.70022],[29.613618,37.700361],[29.613628,37.700373],[29.613629,37.700374],[29.613719,37.700478],[29.613789,37.700558],[29.613877,37.70066],[29.614057,37.700859],[29.614114,37.700926],[29.614143,37.700967],[29.614187,37.701025],[29.613874,37.701226],[29.613464,37.701338],[29.612761,37.701522],[29.612079,37.702081],[29.611605,37.702283],[29.611118,37.702399],[29.610914,37.702532],[29.610707,37.703191],[29.612968,37.70408],[29.613638,37.704395],[29.613132,37.704998],[29.613131,37.705192],[29.612858,37.705766],[29.615299,37.706568],[29.615163,37.706872],[29.61563,37.707007],[29.615487,37.707441],[29.614588,37.707176],[29.614374,37.707675],[29.615379,37.707874],[29.614973,37.70877],[29.614916,37.708866],[29.614406,37.7097],[29.614631,37.709835],[29.614436,37.710074],[29.613668,37.709661],[29.613395,37.710021],[29.613358,37.710085],[29.615312,37.710863],[29.615817,37.711131],[29.616068,37.711294],[29.616546,37.71166],[29.617091,37.71218],[29.617918,37.713184],[29.617849,37.71353],[29.617826,37.714479],[29.617999,37.714613],[29.618611,37.714791],[29.618913,37.714939],[29.619124,37.715097],[29.619544,37.715563],[29.621117,37.716981],[29.622116,37.718024],[29.623733,37.72038],[29.625131,37.721734],[29.625572,37.722298],[29.626758,37.725262],[29.626971,37.726474],[29.62766,37.729623],[29.627591,37.729903],[29.627627,37.730302],[29.6286,37.732194],[29.627868,37.734653],[29.631009,37.735307],[29.629062,37.741202],[29.623192,37.739975],[29.621431,37.745321],[29.622291,37.745267],[29.623515,37.745298],[29.62506,37.745434],[29.627687,37.745442],[29.629691,37.745282],[29.632969,37.745104],[29.634729,37.74491],[29.637761,37.744836],[29.637776,37.744938],[29.639816,37.745224],[29.642681,37.745543],[29.645554,37.745921],[29.651135,37.746575],[29.655268,37.746754],[29.656229,37.747361],[29.656666,37.747198],[29.658014,37.747739],[29.658071,37.747774],[29.658114,37.748304],[29.658334,37.748487],[29.658546,37.748718],[29.658508,37.749729],[29.659413,37.749751],[29.659453,37.749345],[29.659581,37.749328],[29.659581,37.749174],[29.659694,37.749159],[29.66002,37.749362],[29.660572,37.7494],[29.660708,37.749168],[29.662248,37.749496],[29.662249,37.749345],[29.662563,37.749512],[29.662947,37.749552],[29.663398,37.749538],[29.663455,37.749681],[29.663813,37.749689],[29.664051,37.749745],[29.664769,37.750148],[29.665341,37.750602],[29.66556,37.751012],[29.665599,37.75141],[29.665665,37.751472],[29.678202,37.75353],[29.678973,37.752815]]]]}},{"type":"Feature","properties":{"id":"TR-Y-20-010-M-0004","level":"yerlesim","type":"mahalle","parent_id":"TR-D-20-010","province_id":"TR-P-20","province_name":"Denizli","district_id":"TR-D-20-010","name":"Çaltı","source_raw_name":"Çaltı","source":"Kamu kaynak","source_only":false},"geometry":{"type":"MultiPolygon","coordinates":[[[[29.72694,37.7767],[29.726962,37.776346],[29.72691,37.775963],[29.727407,37.775919],[29.727852,37.77589],[29.728235,37.775869],[29.728609,37.775839],[29.728787,37.775827],[29.728915,37.775813],[29.728952,37.775798],[29.729064,37.775782],[29.729265,37.775748],[29.729652,37.775635],[29.730106,37.775523],[29.730654,37.775539],[29.73096,37.775513],[29.731079,37.775514],[29.731247,37.775503],[29.731495,37.775496],[29.731986,37.775485],[29.73224,37.775471],[29.732431,37.775448],[29.732636,37.775426],[29.733109,37.775378],[29.733363,37.77536],[29.733802,37.775321],[29.734043,37.775299],[29.73428,37.775264],[29.734428,37.775245],[29.734586,37.775222],[29.734857,37.775203],[29.735094,37.775195],[29.735291,37.775196],[29.735404,37.7752],[29.735572,37.775204],[29.735784,37.775197],[29.735878,37.775189],[29.735971,37.775185],[29.736152,37.775179],[29.736352,37.775166],[29.736553,37.775128],[29.736827,37.775086],[29.737023,37.775054],[29.737244,37.775026],[29.737457,37.775007],[29.737715,37.775007],[29.737935,37.774998],[29.738201,37.774992],[29.738467,37.77497],[29.738696,37.774928],[29.73888,37.774916],[29.73904,37.774903],[29.739236,37.774903],[29.739493,37.774901],[29.739735,37.774898],[29.740008,37.774888],[29.740238,37.774873],[29.74038,37.774855],[29.740639,37.774853],[29.740975,37.774825],[29.741145,37.774804],[29.741362,37.774782],[29.741548,37.774761],[29.741757,37.774733],[29.741884,37.77473],[29.742066,37.774727],[29.742362,37.774728],[29.742362,37.774728],[29.743058,37.774729],[29.743058,37.774729],[29.743213,37.77473],[29.743475,37.77473],[29.74474,37.774653],[29.744784,37.774207],[29.744777,37.774156],[29.744786,37.773954],[29.744776,37.7736],[29.744826,37.7725],[29.743416,37.772483],[29.743416,37.772483],[29.743485,37.772119],[29.743572,37.770707],[29.743633,37.769942],[29.743538,37.769778],[29.743649,37.769733],[29.743653,37.76968],[29.743894,37.768675],[29.744049,37.768518],[29.743997,37.768522],[29.744001,37.768266],[29.74392,37.767582],[29.743826,37.766832],[29.743798,37.765976],[29.743782,37.765403],[29.743715,37.764546],[29.7437,37.764326],[29.7437,37.764168],[29.743725,37.764136],[29.743735,37.763248],[29.744003,37.762513],[29.744214,37.761953],[29.744422,37.761348],[29.744555,37.760995],[29.744814,37.760383],[29.745171,37.759528],[29.745483,37.758801],[29.745487,37.758778],[29.745522,37.758729],[29.745683,37.75789],[29.745805,37.757249],[29.745861,37.757111],[29.746056,37.756595],[29.746232,37.756029],[29.74635,37.755838],[29.746452,37.75576],[29.747221,37.755402],[29.747248,37.755374],[29.747657,37.754369],[29.747705,37.754049],[29.748002,37.75334],[29.747952,37.753274],[29.748026,37.753062],[29.748137,37.752626],[29.748209,37.752244],[29.748735,37.750911],[29.748705,37.750606],[29.749113,37.749428],[29.749289,37.749027],[29.7493,37.748721],[29.749288,37.748408],[29.74931,37.747765],[29.749357,37.747493],[29.749371,37.747308],[29.749372,37.747274],[29.749169,37.747242],[29.749284,37.746624],[29.749345,37.746162],[29.749457,37.745459],[29.74961,37.744964],[29.749671,37.744786],[29.749748,37.744215],[29.74921,37.744518],[29.749071,37.741099],[29.749105,37.741024],[29.749034,37.740318],[29.748914,37.739925],[29.748814,37.739737],[29.748704,37.739166],[29.748276,37.737983],[29.748232,37.737998],[29.746367,37.738605],[29.744905,37.738748],[29.743199,37.738947],[29.7403,37.738529],[29.739218,37.738145],[29.737996,37.738293],[29.737263,37.738134],[29.738819,37.734343],[29.738259,37.733002],[29.738473,37.730559],[29.741518,37.728668],[29.742677,37.726792],[29.744408,37.724886],[29.745005,37.724548],[29.745598,37.720985],[29.7462,37.72036],[29.746895,37.718003],[29.746895,37.718003],[29.746944,37.718021],[29.747078,37.717607],[29.746596,37.717759],[29.742862,37.717543],[29.739095,37.717587],[29.733588,37.718485],[29.728381,37.718031],[29.727045,37.71605],[29.720629,37.714656],[29.714216,37.712871],[29.713557,37.712645],[29.712189,37.713184],[29.709375,37.714134],[29.708418,37.713941],[29.705366,37.712638],[29.703773,37.710998],[29.7035,37.710463],[29.702879,37.709258],[29.701903,37.708875],[29.697801,37.714282],[29.693867,37.723932],[29.693491,37.724875],[29.688065,37.727575],[29.688263,37.727694],[29.688575,37.728022],[29.68902,37.728259],[29.689284,37.728319],[29.689481,37.728536],[29.689595,37.728831],[29.690195,37.729666],[29.690532,37.729981],[29.690919,37.730238],[29.69119,37.730461],[29.691337,37.730875],[29.691534,37.731052],[29.69193,37.731231],[29.692796,37.731305],[29.693364,37.73166],[29.69413,37.732167],[29.695185,37.732727],[29.695506,37.732859],[29.695927,37.732972],[29.696256,37.73313],[29.696997,37.733624],[29.697681,37.733986],[29.698728,37.734284],[29.699231,37.734547],[29.69993,37.735015],[29.701821,37.736465],[29.70228,37.736763],[29.702322,37.736765],[29.699839,37.741472],[29.699348,37.741652],[29.699234,37.741761],[29.699193,37.74195],[29.698969,37.741917],[29.698442,37.741879],[29.697907,37.741866],[29.697734,37.741814],[29.697152,37.741807],[29.696841,37.741868],[29.69662,37.741867],[29.696324,37.741822],[29.69586,37.741645],[29.695629,37.74161],[29.695534,37.741644],[29.695509,37.741696],[29.695524,37.741776],[29.69552,37.742036],[29.695379,37.742362],[29.695094,37.742505],[29.694756,37.742607],[29.694336,37.742785],[29.69407,37.742926],[29.693846,37.743107],[29.693595,37.743288],[29.693268,37.743451],[29.693033,37.743651],[29.692815,37.743779],[29.692488,37.743966],[29.692264,37.744029],[29.692129,37.74405],[29.691934,37.743671],[29.691852,37.743422],[29.69176,37.743283],[29.691585,37.74312],[29.691278,37.74286],[29.691151,37.742794],[29.690955,37.742722],[29.690718,37.742694],[29.690559,37.742695],[29.689958,37.742766],[29.689555,37.742777],[29.689017,37.742957],[29.688831,37.742942],[29.688345,37.742928],[29.688048,37.74295],[29.687816,37.742994],[29.687646,37.743051],[29.686994,37.743319],[29.686725,37.743447],[29.686475,37.743611],[29.686128,37.743876],[29.685937,37.743991],[29.685751,37.744056],[29.685312,37.744177],[29.684971,37.74429],[29.684655,37.744418],[29.685166,37.746161],[29.684891,37.746256],[29.684891,37.747334],[29.678202,37.75353],[29.681121,37.759498],[29.681888,37.760929],[29.682831,37.762602],[29.683684,37.764238],[29.684418,37.765546],[29.68448,37.765624],[29.684679,37.766084],[29.684815,37.766438],[29.684976,37.766843],[29.685034,37.767034],[29.685089,37.767222],[29.68527,37.767628],[29.685415,37.767974],[29.685439,37.768059],[29.685582,37.768508],[29.685679,37.768921],[29.685679,37.768921],[29.685819,37.769593],[29.68586,37.769776],[29.685903,37.770057],[29.686372,37.770017],[29.68673,37.769966],[29.68731,37.76977],[29.687492,37.770387],[29.689161,37.77101],[29.690041,37.771131],[29.692518,37.771215],[29.694387,37.771447],[29.699449,37.772693],[29.699406,37.772769],[29.698822,37.773177],[29.698154,37.773683],[29.697695,37.773921],[29.697768,37.773963],[29.697293,37.774301],[29.696678,37.774737],[29.69639,37.774827],[29.695988,37.775098],[29.695605,37.775329],[29.696453,37.775204],[29.696831,37.775141],[29.697191,37.775101],[29.697686,37.77506],[29.698186,37.775037],[29.699051,37.774981],[29.699366,37.77498],[29.700094,37.774895],[29.700457,37.774876],[29.700451,37.775094],[29.700452,37.775116],[29.701008,37.775122],[29.701533,37.775133],[29.702202,37.775145],[29.702694,37.775158],[29.702715,37.775167],[29.702739,37.775167],[29.702771,37.77518],[29.703071,37.775202],[29.703691,37.77523],[29.704266,37.775271],[29.704622,37.775277],[29.705198,37.775261],[29.705496,37.775254],[29.706208,37.775242],[29.706208,37.775236],[29.706221,37.775236],[29.706342,37.775233],[29.706679,37.775215],[29.70702,37.775195],[29.707137,37.775192],[29.707292,37.775181],[29.707731,37.775147],[29.709766,37.77535],[29.710697,37.775449],[29.711624,37.775517],[29.711857,37.775561],[29.711979,37.775589],[29.712135,37.775289],[29.713211,37.775346],[29.713744,37.775302],[29.714054,37.775363],[29.714597,37.7756],[29.71484,37.775682],[29.715532,37.775802],[29.715741,37.775822],[29.715947,37.775855],[29.716121,37.775876],[29.716172,37.775882],[29.716551,37.775973],[29.716679,37.776004],[29.716928,37.77605],[29.716964,37.776048],[29.716961,37.776057],[29.71724,37.776118],[29.717307,37.77613],[29.717363,37.776144],[29.717363,37.776145],[29.717683,37.776216],[29.717784,37.776232],[29.717963,37.776269],[29.718113,37.776302],[29.718315,37.77636],[29.718501,37.776399],[29.718672,37.776434],[29.718872,37.776473],[29.719056,37.776507],[29.719206,37.776104],[29.719247,37.775916],[29.719878,37.776004],[29.720341,37.776088],[29.720854,37.776191],[29.720954,37.776068],[29.721073,37.776067],[29.7211,37.776056],[29.721164,37.776052],[29.721213,37.776052],[29.721301,37.776057],[29.721352,37.776064],[29.721353,37.776062],[29.721489,37.776076],[29.72181,37.776114],[29.721847,37.776118],[29.722281,37.776165],[29.722343,37.776116],[29.722366,37.776084],[29.722427,37.775972],[29.722471,37.776],[29.722492,37.776011],[29.722497,37.776022],[29.722518,37.776024],[29.722595,37.776065],[29.722766,37.776096],[29.722961,37.776135],[29.7231,37.776159],[29.723303,37.776193],[29.723303,37.776196],[29.723559,37.77623],[29.723559,37.77623],[29.723628,37.776237],[29.723707,37.776253],[29.723708,37.77625],[29.723769,37.776259],[29.723772,37.776252],[29.723897,37.776261],[29.724115,37.776295],[29.72434,37.776324],[29.72456,37.776358],[29.724773,37.776375],[29.724961,37.776399],[29.725137,37.776415],[29.725557,37.776432],[29.726025,37.776398],[29.72647,37.77635],[29.726465,37.776396],[29.726512,37.776392],[29.726476,37.776706],[29.726474,37.776729],[29.726939,37.776723],[29.72694,37.7767]]]]}},{"type":"Feature","properties":{"id":"TR-Y-20-010-M-0005","level":"yerlesim","type":"mahalle","parent_id":"TR-D-20-010","province_id":"TR-P-20","province_name":"Denizli","district_id":"TR-D-20-010","name":"Çınar","source_raw_name":"Çınar","source":"Kamu kaynak","source_only":false},"geometry":{"type":"MultiPolygon","coordinates":[[[[29.673865,37.833469],[29.672996,37.830826],[29.672675,37.830124],[29.672203,37.829472],[29.67227,37.829208],[29.673687,37.827381],[29.674952,37.825868],[29.676257,37.824377],[29.671689,37.824725],[29.668575,37.824933],[29.668489,37.827347],[29.668102,37.827966],[29.668002,37.828728],[29.668332,37.830426],[29.668795,37.830578],[29.668982,37.830885],[29.669002,37.831335],[29.669076,37.831635],[29.669525,37.832274],[29.669601,37.832476],[29.669837,37.832325],[29.670502,37.832386],[29.671057,37.832465],[29.671578,37.832642],[29.671906,37.832695],[29.673243,37.833541],[29.673226,37.83421],[29.673571,37.833718],[29.673853,37.833573],[29.673865,37.833469]]]]}},{"type":"Feature","properties":{"id":"TR-Y-20-010-M-0006","level":"yerlesim","type":"mahalle","parent_id":"TR-D-20-010","province_id":"TR-P-20","province_name":"Denizli","district_id":"TR-D-20-010","name":"Cumhuriyet","source_raw_name":"Cumhuriyet","source":"Kamu kaynak","source_only":false},"geometry":{"type":"MultiPolygon","coordinates":[[[[29.750212,37.824644],[29.743615,37.801899],[29.748313,37.795163],[29.746991,37.795315],[29.744406,37.795311],[29.743816,37.795077],[29.743583,37.794924],[29.743165,37.794651],[29.742475,37.79148],[29.742332,37.790126],[29.743179,37.789588],[29.742954,37.787179],[29.743134,37.787104],[29.744811,37.787062],[29.746569,37.786239],[29.748613,37.785059],[29.749907,37.78498],[29.750685,37.784654],[29.750687,37.78338],[29.75036,37.783362],[29.750184,37.783401],[29.749678,37.783375],[29.749631,37.783378],[29.749157,37.7835],[29.748595,37.783541],[29.748221,37.78355],[29.747923,37.783531],[29.747519,37.783488],[29.747526,37.783589],[29.747478,37.783591],[29.74745,37.783341],[29.74754,37.780874],[29.747566,37.780787],[29.747603,37.780662],[29.747591,37.78067],[29.74759,37.780644],[29.74756,37.780661],[29.747527,37.779123],[29.747516,37.779124],[29.747457,37.779074],[29.747443,37.779075],[29.747641,37.776367],[29.747777,37.774918],[29.747824,37.774188],[29.747855,37.773952],[29.747824,37.773926],[29.74698,37.774009],[29.746281,37.774057],[29.745528,37.774131],[29.744784,37.774207],[29.74474,37.774653],[29.743475,37.77473],[29.743213,37.77473],[29.743058,37.774729],[29.743058,37.774729],[29.742362,37.774728],[29.742362,37.774728],[29.742066,37.774727],[29.741884,37.77473],[29.741757,37.774733],[29.741548,37.774761],[29.741362,37.774782],[29.741145,37.774804],[29.740975,37.774825],[29.740639,37.774853],[29.74038,37.774855],[29.740238,37.774873],[29.740008,37.774888],[29.739735,37.774898],[29.739493,37.774901],[29.739236,37.774903],[29.73904,37.774903],[29.73888,37.774916],[29.738696,37.774928],[29.738467,37.77497],[29.738201,37.774992],[29.737935,37.774998],[29.737715,37.775007],[29.737457,37.775007],[29.737244,37.775026],[29.737023,37.775054],[29.736827,37.775086],[29.736553,37.775128],[29.736352,37.775166],[29.736152,37.775179],[29.735971,37.775185],[29.735878,37.775189],[29.735784,37.775197],[29.735572,37.775204],[29.735404,37.7752],[29.735291,37.775196],[29.735094,37.775195],[29.734857,37.775203],[29.734586,37.775222],[29.734428,37.775245],[29.73428,37.775264],[29.734043,37.775299],[29.733802,37.775321],[29.733363,37.77536],[29.733109,37.775378],[29.732636,37.775426],[29.732431,37.775448],[29.73224,37.775471],[29.731986,37.775485],[29.731495,37.775496],[29.731247,37.775503],[29.731079,37.775514],[29.73096,37.775513],[29.730654,37.775539],[29.730106,37.775523],[29.729652,37.775635],[29.729265,37.775748],[29.729064,37.775782],[29.728952,37.775798],[29.728915,37.775813],[29.728802,37.775825],[29.728787,37.775827],[29.728609,37.775839],[29.728235,37.775869],[29.727852,37.77589],[29.727407,37.775919],[29.72691,37.775963],[29.726962,37.776346],[29.726939,37.776723],[29.726474,37.776729],[29.726476,37.776706],[29.726512,37.776392],[29.726465,37.776396],[29.72647,37.77635],[29.726025,37.776398],[29.725557,37.776432],[29.725137,37.776415],[29.724961,37.776399],[29.724773,37.776375],[29.72456,37.776358],[29.72434,37.776324],[29.724115,37.776295],[29.723897,37.776261],[29.723772,37.776252],[29.723769,37.776259],[29.723708,37.77625],[29.723707,37.776253],[29.723628,37.776237],[29.723559,37.77623],[29.723559,37.77623],[29.723303,37.776196],[29.723303,37.776193],[29.7231,37.776159],[29.722961,37.776135],[29.722766,37.776096],[29.722595,37.776065],[29.722518,37.776024],[29.722497,37.776022],[29.722492,37.776011],[29.722471,37.776],[29.722427,37.775972],[29.722366,37.776084],[29.722343,37.776116],[29.722281,37.776165],[29.721847,37.776118],[29.72181,37.776114],[29.721489,37.776076],[29.721353,37.776062],[29.721352,37.776064],[29.721301,37.776057],[29.721213,37.776052],[29.721164,37.776052],[29.7211,37.776056],[29.721073,37.776067],[29.720954,37.776068],[29.720854,37.776191],[29.720341,37.776088],[29.719878,37.776004],[29.719247,37.775916],[29.719206,37.776104],[29.719056,37.776507],[29.718872,37.776473],[29.718672,37.776434],[29.718501,37.776399],[29.718315,37.77636],[29.718113,37.776302],[29.717963,37.776269],[29.717784,37.776232],[29.717683,37.776216],[29.717363,37.776145],[29.717363,37.776144],[29.717307,37.77613],[29.71724,37.776118],[29.716961,37.776057],[29.716964,37.776048],[29.716928,37.77605],[29.716679,37.776004],[29.716551,37.775973],[29.716172,37.775882],[29.716121,37.775876],[29.715947,37.775855],[29.715741,37.775822],[29.715532,37.775802],[29.71484,37.775682],[29.714597,37.7756],[29.714054,37.775363],[29.713744,37.775302],[29.713211,37.775346],[29.712135,37.775289],[29.711979,37.775589],[29.711857,37.775561],[29.711624,37.775517],[29.710697,37.775449],[29.709766,37.77535],[29.707731,37.775147],[29.707292,37.775181],[29.707137,37.775192],[29.70702,37.775195],[29.706679,37.775215],[29.706342,37.775233],[29.706221,37.775236],[29.706208,37.775236],[29.706208,37.775242],[29.705496,37.775254],[29.705198,37.775261],[29.704622,37.775277],[29.704266,37.775271],[29.703691,37.77523],[29.703071,37.775202],[29.702771,37.77518],[29.702739,37.775167],[29.702715,37.775167],[29.702694,37.775158],[29.702202,37.775145],[29.701533,37.775133],[29.701008,37.775122],[29.700452,37.775116],[29.700451,37.775094],[29.700457,37.774876],[29.700094,37.774895],[29.699366,37.77498],[29.699051,37.774981],[29.698186,37.775037],[29.697686,37.77506],[29.697191,37.775101],[29.696831,37.775141],[29.696453,37.775204],[29.695605,37.775329],[29.695988,37.775098],[29.69639,37.774827],[29.696678,37.774737],[29.697293,37.774301],[29.697768,37.773963],[29.697695,37.773921],[29.698154,37.773683],[29.698822,37.773177],[29.699406,37.772769],[29.699449,37.772693],[29.694387,37.771447],[29.692518,37.771215],[29.690041,37.771131],[29.689161,37.77101],[29.687492,37.770387],[29.68731,37.76977],[29.68673,37.769966],[29.686601,37.770774],[29.687159,37.771033],[29.684253,37.774776],[29.682806,37.774138],[29.681607,37.775704],[29.678207,37.774127],[29.677746,37.77471],[29.681134,37.776382],[29.679943,37.777961],[29.681391,37.778651],[29.681034,37.77912],[29.680283,37.779224],[29.679224,37.779425],[29.678848,37.779497],[29.678324,37.779616],[29.67749,37.779756],[29.676327,37.779893],[29.675537,37.779965],[29.674701,37.780163],[29.673852,37.780382],[29.673641,37.780424],[29.673596,37.78038],[29.673206,37.780463],[29.673299,37.780727],[29.672784,37.780812],[29.672682,37.780826],[29.672409,37.780886],[29.671962,37.780956],[29.671094,37.781124],[29.669866,37.781377],[29.669423,37.780952],[29.66938,37.780968],[29.669527,37.78146],[29.668453,37.781712],[29.667061,37.78201],[29.666502,37.782123],[29.66522,37.78236],[29.664639,37.782444],[29.663913,37.782566],[29.663759,37.782588],[29.663478,37.782647],[29.663343,37.782282],[29.66295,37.78236],[29.662732,37.782422],[29.662336,37.782515],[29.661628,37.78263],[29.661432,37.782665],[29.661367,37.782262],[29.660205,37.782474],[29.659756,37.782597],[29.65946,37.782654],[29.659118,37.78273],[29.658767,37.782798],[29.65842,37.782855],[29.658083,37.782953],[29.657478,37.783126],[29.656729,37.78321],[29.656145,37.783319],[29.65578,37.783335],[29.65506,37.78338],[29.654676,37.783454],[29.654299,37.783562],[29.652802,37.783883],[29.652007,37.784069],[29.650281,37.784342],[29.648176,37.784765],[29.647658,37.784834],[29.64755,37.784841],[29.647402,37.784855],[29.64703,37.784935],[29.646906,37.784968],[29.646191,37.785101],[29.644801,37.785723],[29.643578,37.786359],[29.642289,37.787113],[29.641258,37.787911],[29.640689,37.788714],[29.638352,37.791258],[29.63651,37.79317],[29.634925,37.794796],[29.634484,37.795326],[29.634245,37.795545],[29.633921,37.79586],[29.633294,37.796525],[29.632516,37.797187],[29.632543,37.797224],[29.632902,37.797391],[29.632703,37.798007],[29.632745,37.798021],[29.632703,37.79814],[29.63255,37.79859],[29.632525,37.798678],[29.632436,37.798969],[29.632221,37.799253],[29.632122,37.799608],[29.632077,37.799884],[29.63201,37.800126],[29.632031,37.800377],[29.632466,37.800482],[29.632409,37.800914],[29.632899,37.801132],[29.632759,37.801236],[29.632669,37.801304],[29.632352,37.801372],[29.632178,37.801346],[29.632034,37.801812],[29.631695,37.802226],[29.631475,37.802485],[29.631278,37.802761],[29.63118,37.802648],[29.630748,37.802956],[29.630267,37.80325],[29.629894,37.803534],[29.6294,37.803963],[29.629285,37.804127],[29.629877,37.804309],[29.629776,37.804528],[29.62968,37.804734],[29.629426,37.805028],[29.629324,37.805208],[29.629115,37.805308],[29.628982,37.805472],[29.628798,37.805627],[29.628374,37.805951],[29.628038,37.80625],[29.62769,37.806559],[29.62726,37.806833],[29.626874,37.807142],[29.626664,37.807397],[29.626568,37.807722],[29.62573,37.807509],[29.625546,37.807823],[29.62529,37.808393],[29.6252,37.808753],[29.625206,37.808833],[29.625584,37.808899],[29.625252,37.811005],[29.625945,37.811087],[29.626515,37.811127],[29.62639,37.811586],[29.625968,37.811533],[29.625769,37.812263],[29.625692,37.812593],[29.62557,37.812963],[29.625257,37.813667],[29.624873,37.813596],[29.624757,37.813968],[29.624797,37.813984],[29.624778,37.814051],[29.624755,37.814299],[29.624752,37.814351],[29.62474,37.814462],[29.624725,37.814705],[29.624741,37.814904],[29.624763,37.815031],[29.624951,37.815005],[29.625096,37.814983],[29.625338,37.814942],[29.625523,37.814912],[29.62567,37.814884],[29.625716,37.814993],[29.625745,37.815076],[29.625796,37.815273],[29.625925,37.815622],[29.625897,37.815634],[29.626102,37.816054],[29.625978,37.816098],[29.625722,37.816185],[29.625826,37.81635],[29.626,37.816596],[29.62613,37.816773],[29.626173,37.81684],[29.626262,37.816964],[29.62639,37.817147],[29.6265,37.81731],[29.627033,37.817964],[29.627418,37.817838],[29.627479,37.817915],[29.627542,37.817989],[29.62763,37.818087],[29.627697,37.818144],[29.627608,37.818197],[29.627445,37.818304],[29.627254,37.818434],[29.627155,37.818509],[29.626924,37.818655],[29.626763,37.818718],[29.626844,37.818848],[29.627042,37.819139],[29.627257,37.819447],[29.627374,37.819604],[29.627441,37.819611],[29.62861,37.820562],[29.628556,37.820596],[29.62843,37.820676],[29.628366,37.820718],[29.628296,37.820763],[29.628363,37.820832],[29.628457,37.820934],[29.628624,37.821104],[29.628733,37.821212],[29.628821,37.82129],[29.629073,37.821462],[29.629211,37.821548],[29.629372,37.821638],[29.630702,37.822596],[29.630681,37.8227],[29.630645,37.822861],[29.630606,37.823046],[29.630576,37.823223],[29.630558,37.82338],[29.630551,37.823524],[29.630544,37.82362],[29.630533,37.823754],[29.630484,37.824134],[29.630467,37.824334],[29.630453,37.82453],[29.630434,37.824796],[29.630417,37.825006],[29.630413,37.825056],[29.630494,37.825801],[29.63068,37.825817],[29.631326,37.825823],[29.631934,37.825812],[29.632728,37.825785],[29.633457,37.825774],[29.633467,37.825898],[29.633488,37.826146],[29.633504,37.826354],[29.633516,37.826438],[29.632783,37.826496],[29.632136,37.826543],[29.632303,37.828847],[29.634415,37.828569],[29.658281,37.825681],[29.659709,37.825489],[29.660379,37.825262],[29.660795,37.825033],[29.661896,37.824768],[29.66302,37.824435],[29.663113,37.824408],[29.665137,37.823815],[29.668415,37.823071],[29.669509,37.822905],[29.672036,37.822709],[29.679434,37.822548],[29.680557,37.822378],[29.686157,37.822136],[29.690947,37.822342],[29.691185,37.822507],[29.691694,37.822556],[29.692528,37.822483],[29.693145,37.82247],[29.693256,37.822478],[29.695918,37.822652],[29.703036,37.823025],[29.710772,37.823521],[29.720542,37.822472],[29.722795,37.822537],[29.727523,37.823799],[29.735259,37.824413],[29.745548,37.82527],[29.748141,37.825593],[29.748985,37.825789],[29.749642,37.826073],[29.750817,37.826886],[29.751643,37.828013],[29.752024,37.829244],[29.752364,37.831303],[29.752967,37.832531],[29.752983,37.832606],[29.753597,37.833101],[29.754302,37.833489],[29.754686,37.833711],[29.754712,37.832567],[29.754755,37.830671],[29.754948,37.830471],[29.754022,37.828352],[29.751868,37.825544],[29.750212,37.824644]],[[29.659325,37.818068],[29.65919,37.817723],[29.659165,37.817634],[29.659076,37.817408],[29.658721,37.816121],[29.658442,37.815233],[29.658383,37.814998],[29.658248,37.814554],[29.657793,37.812718],[29.657007,37.810983],[29.657077,37.810973],[29.659733,37.810735],[29.662253,37.810509],[29.662204,37.81009],[29.667033,37.809589],[29.666934,37.808703],[29.668285,37.8086],[29.668372,37.808721],[29.670491,37.808545],[29.670852,37.808158],[29.674359,37.808159],[29.674529,37.808159],[29.674699,37.808159],[29.687181,37.808162],[29.692141,37.809453],[29.691112,37.811482],[29.691403,37.814672],[29.691699,37.817907],[29.691696,37.817907],[29.691699,37.817932],[29.68001,37.817981],[29.674656,37.818483],[29.674653,37.818838],[29.674653,37.818838],[29.67465,37.819172],[29.669263,37.819176],[29.669254,37.819438],[29.669252,37.819483],[29.669252,37.819503],[29.669245,37.819708],[29.665749,37.820283],[29.664921,37.820444],[29.661438,37.821017],[29.661344,37.821037],[29.660764,37.820266],[29.65997,37.819114],[29.659605,37.818575],[29.659325,37.818068]],[[29.67336,37.804646],[29.672417,37.804587],[29.670955,37.804543],[29.669895,37.804517],[29.669422,37.804504],[29.669333,37.804501],[29.667758,37.804547],[29.666039,37.804597],[29.665542,37.804613],[29.665249,37.80405],[29.664628,37.802847],[29.664091,37.801807],[29.663397,37.800466],[29.663014,37.799722],[29.66284,37.799384],[29.662418,37.798732],[29.661798,37.797954],[29.662052,37.797687],[29.663301,37.796409],[29.663434,37.79642],[29.663753,37.796941],[29.664043,37.79729],[29.664536,37.797748],[29.665331,37.798486],[29.665822,37.798957],[29.666239,37.799357],[29.666249,37.799368],[29.666479,37.799442],[29.668213,37.799187],[29.668204,37.799404],[29.669501,37.799375],[29.67045,37.799352],[29.673385,37.799281],[29.673682,37.801014],[29.673798,37.801693],[29.673989,37.802794],[29.67432,37.804701],[29.67336,37.804646]]]]}},{"type":"Feature","properties":{"id":"TR-Y-20-010-M-0007","level":"yerlesim","type":"mahalle","parent_id":"TR-D-20-010","province_id":"TR-P-20","province_name":"Denizli","district_id":"TR-D-20-010","name":"Gemişli","source_raw_name":"Gemişli","source":"Kamu kaynak","source_only":false},"geometry":{"type":"MultiPolygon","coordinates":[[[[29.821528,37.813968],[29.818514,37.787546],[29.81893,37.78328],[29.819299,37.777043],[29.818885,37.775601],[29.818712,37.775064],[29.818519,37.774691],[29.8185,37.773983],[29.818769,37.772698],[29.818963,37.771703],[29.818197,37.770664],[29.81563,37.767758],[29.814339,37.766204],[29.813598,37.765508],[29.812852,37.765146],[29.812635,37.765],[29.812042,37.764743],[29.811699,37.764491],[29.811407,37.764197],[29.811126,37.764048],[29.809859,37.762772],[29.809199,37.762004],[29.808784,37.761466],[29.808166,37.760863],[29.807788,37.760597],[29.806888,37.760098],[29.805588,37.759142],[29.805157,37.758927],[29.803974,37.757939],[29.803262,37.757345],[29.803086,37.757121],[29.802859,37.756614],[29.802593,37.756286],[29.802407,37.755958],[29.802276,37.755615],[29.80228,37.755496],[29.802438,37.755508],[29.802734,37.755553],[29.803046,37.755497],[29.803283,37.755369],[29.803478,37.755173],[29.804376,37.754805],[29.805144,37.754589],[29.805303,37.754508],[29.805423,37.754345],[29.805499,37.754134],[29.805516,37.753904],[29.805533,37.753636],[29.805613,37.7534],[29.805631,37.753192],[29.805629,37.753065],[29.805571,37.752828],[29.805485,37.75253],[29.805127,37.751713],[29.805027,37.751409],[29.80491,37.750779],[29.804907,37.75052],[29.804645,37.750224],[29.804339,37.74964],[29.803961,37.749174],[29.803752,37.748834],[29.803456,37.748607],[29.803175,37.748338],[29.802932,37.748037],[29.80279,37.747787],[29.802656,37.747324],[29.802657,37.747241],[29.802774,37.746732],[29.802782,37.746416],[29.802682,37.746007],[29.80268,37.745674],[29.802665,37.745495],[29.802551,37.745182],[29.802455,37.745064],[29.802059,37.744741],[29.801322,37.744028],[29.800828,37.743416],[29.800143,37.742759],[29.799544,37.742297],[29.798986,37.741652],[29.798333,37.740833],[29.797917,37.740393],[29.797472,37.739775],[29.796937,37.739184],[29.796768,37.738929],[29.795494,37.737278],[29.795161,37.736887],[29.79508,37.736795],[29.795081,37.736793],[29.794757,37.736412],[29.794688,37.736462],[29.794167,37.736899],[29.793838,37.736701],[29.793798,37.736739],[29.793783,37.73673],[29.792738,37.737777],[29.791956,37.738718],[29.791969,37.738733],[29.791947,37.738761],[29.791929,37.738755],[29.791182,37.73968],[29.79096,37.739868],[29.790761,37.740077],[29.790366,37.740476],[29.789906,37.740938],[29.789161,37.741772],[29.788885,37.742095],[29.788646,37.742398],[29.788208,37.743013],[29.787728,37.743697],[29.787475,37.744014],[29.786808,37.744658],[29.78679,37.744681],[29.786751,37.744665],[29.786512,37.744597],[29.7864,37.744578],[29.786393,37.744594],[29.786363,37.744585],[29.786119,37.745121],[29.786119,37.745121],[29.786018,37.74539],[29.785832,37.745965],[29.785923,37.745967],[29.785883,37.74615],[29.785862,37.746337],[29.785788,37.746335],[29.785756,37.746335],[29.785749,37.74637],[29.78574,37.746967],[29.785578,37.7477],[29.785326,37.748447],[29.785305,37.748515],[29.78452,37.74853],[29.784528,37.748506],[29.78448,37.748505],[29.784475,37.748523],[29.784331,37.748888],[29.784299,37.748969],[29.784123,37.748951],[29.783827,37.749006],[29.783608,37.749055],[29.783253,37.749157],[29.782613,37.749364],[29.782384,37.749441],[29.781738,37.749638],[29.781508,37.749138],[29.781196,37.749201],[29.780929,37.749256],[29.780799,37.74929],[29.78076,37.74924],[29.780537,37.749325],[29.780314,37.749411],[29.780051,37.749569],[29.779357,37.74991],[29.778821,37.750148],[29.778663,37.749908],[29.778554,37.749785],[29.778035,37.749222],[29.777929,37.749122],[29.777749,37.748954],[29.777469,37.749074],[29.777424,37.749111],[29.777278,37.74926],[29.777065,37.749483],[29.776791,37.749618],[29.776671,37.749669],[29.776573,37.749707],[29.776456,37.749745],[29.776346,37.749766],[29.776231,37.749774],[29.775983,37.749782],[29.775984,37.749781],[29.77594,37.749782],[29.775889,37.749785],[29.775888,37.749788],[29.775818,37.749795],[29.775816,37.750389],[29.775854,37.752093],[29.774407,37.752049],[29.773631,37.752059],[29.773576,37.752078],[29.773541,37.752316],[29.77347,37.752313],[29.773456,37.75234],[29.77336,37.752336],[29.773348,37.75237],[29.773347,37.75237],[29.773008,37.753042],[29.772569,37.753891],[29.77241,37.754201],[29.772304,37.75441],[29.772165,37.754674],[29.77205,37.754895],[29.772089,37.754912],[29.772127,37.754935],[29.77211,37.754965],[29.772091,37.754957],[29.772035,37.755063],[29.771997,37.755049],[29.771575,37.756016],[29.771308,37.757016],[29.771297,37.757015],[29.771103,37.756991],[29.770697,37.75693],[29.770498,37.756907],[29.770262,37.756887],[29.770017,37.756872],[29.769999,37.756904],[29.769906,37.756895],[29.769695,37.757293],[29.769644,37.757296],[29.769396,37.757314],[29.769387,37.757339],[29.769289,37.757347],[29.76926,37.757407],[29.769235,37.757537],[29.768936,37.75824],[29.768889,37.758592],[29.76872,37.758535],[29.76862,37.758519],[29.768341,37.758504],[29.768332,37.75843],[29.768299,37.7584],[29.768189,37.758362],[29.768109,37.758323],[29.768046,37.758285],[29.768001,37.758198],[29.767955,37.75817],[29.767158,37.758356],[29.76714,37.758361],[29.766965,37.758404],[29.765831,37.758639],[29.765841,37.758678],[29.765829,37.75868],[29.765882,37.759012],[29.765771,37.759027],[29.765738,37.759031],[29.765535,37.759054],[29.765365,37.759081],[29.765226,37.759106],[29.765143,37.759125],[29.765132,37.759127],[29.764942,37.759169],[29.764729,37.759203],[29.764806,37.759449],[29.764606,37.759487],[29.764363,37.759541],[29.764009,37.759643],[29.763968,37.759661],[29.763967,37.759661],[29.763923,37.75967],[29.763529,37.759829],[29.763488,37.759841],[29.763361,37.759897],[29.763146,37.759971],[29.763024,37.760008],[29.762713,37.760081],[29.762579,37.760108],[29.76232,37.760146],[29.762306,37.760123],[29.762229,37.760098],[29.762166,37.760106],[29.762131,37.760123],[29.76206,37.760123],[29.761962,37.760191],[29.762034,37.760266],[29.761876,37.760377],[29.761591,37.760473],[29.761406,37.760531],[29.761156,37.760583],[29.761022,37.760616],[29.760989,37.760615],[29.76092,37.760614],[29.76086,37.760607],[29.760556,37.760613],[29.760556,37.76063],[29.760457,37.760631],[29.760454,37.760715],[29.760257,37.760745],[29.760258,37.760798],[29.760191,37.76081],[29.7602,37.760935],[29.759993,37.760983],[29.759653,37.761093],[29.75928,37.76126],[29.75907,37.761365],[29.759039,37.761381],[29.758951,37.761401],[29.758806,37.761436],[29.758529,37.761482],[29.758358,37.761533],[29.758256,37.761568],[29.758169,37.7616],[29.758047,37.761636],[29.757737,37.761661],[29.757682,37.761656],[29.757585,37.761659],[29.757519,37.761666],[29.757471,37.761668],[29.75742,37.761683],[29.757418,37.761683],[29.757362,37.761682],[29.757033,37.761763],[29.756958,37.761775],[29.756897,37.761787],[29.756758,37.761812],[29.756597,37.761843],[29.756526,37.761863],[29.756301,37.761906],[29.756205,37.761923],[29.7562,37.761939],[29.756169,37.761953],[29.756102,37.761954],[29.756071,37.76197],[29.75588,37.761989],[29.755743,37.762002],[29.755583,37.762013],[29.755271,37.762026],[29.755042,37.762029],[29.754796,37.762022],[29.754523,37.762008],[29.754431,37.762011],[29.754362,37.762023],[29.754318,37.76203],[29.754206,37.762013],[29.754189,37.762185],[29.753812,37.762152],[29.753293,37.762122],[29.752848,37.762143],[29.752697,37.762151],[29.752591,37.762151],[29.752386,37.762155],[29.752181,37.762148],[29.751945,37.76213],[29.751586,37.762129],[29.751394,37.762142],[29.751329,37.762156],[29.751267,37.762159],[29.750914,37.762232],[29.750785,37.762255],[29.750565,37.762295],[29.750134,37.762366],[29.749377,37.762484],[29.748926,37.762596],[29.748618,37.76266],[29.748014,37.762806],[29.747882,37.762831],[29.746894,37.76293],[29.746882,37.763084],[29.746533,37.763063],[29.746406,37.763066],[29.746086,37.763064],[29.745811,37.763092],[29.745768,37.763092],[29.745253,37.763097],[29.744997,37.763107],[29.744713,37.763104],[29.744671,37.763324],[29.743996,37.763267],[29.743735,37.763248],[29.743725,37.764136],[29.7437,37.764168],[29.7437,37.764326],[29.743715,37.764546],[29.743782,37.765403],[29.743798,37.765976],[29.743826,37.766832],[29.74392,37.767582],[29.744001,37.768266],[29.743997,37.768522],[29.744049,37.768518],[29.743894,37.768675],[29.743653,37.76968],[29.743649,37.769733],[29.743538,37.769778],[29.743633,37.769942],[29.743572,37.770707],[29.743485,37.772119],[29.743416,37.772483],[29.743416,37.772483],[29.744826,37.7725],[29.744776,37.7736],[29.744786,37.773954],[29.744777,37.774156],[29.744784,37.774207],[29.745528,37.774131],[29.746281,37.774057],[29.74698,37.774009],[29.747824,37.773926],[29.747855,37.773952],[29.747824,37.774188],[29.747777,37.774918],[29.747641,37.776367],[29.747443,37.779075],[29.747457,37.779074],[29.747516,37.779124],[29.747527,37.779123],[29.74756,37.780661],[29.74759,37.780644],[29.747591,37.78067],[29.747603,37.780662],[29.74754,37.780874],[29.74745,37.783341],[29.747478,37.783591],[29.747526,37.783589],[29.747519,37.783488],[29.747923,37.783531],[29.748221,37.78355],[29.748595,37.783541],[29.749157,37.7835],[29.749631,37.783378],[29.749678,37.783375],[29.750184,37.783401],[29.75036,37.783362],[29.750687,37.78338],[29.750685,37.784654],[29.749907,37.78498],[29.748613,37.785059],[29.746569,37.786239],[29.744811,37.787062],[29.743134,37.787104],[29.742954,37.787179],[29.743179,37.789588],[29.742332,37.790126],[29.742475,37.79148],[29.743165,37.794651],[29.743583,37.794924],[29.743816,37.795077],[29.744406,37.795311],[29.746991,37.795315],[29.748313,37.795163],[29.743615,37.801899],[29.750212,37.824644],[29.751868,37.825544],[29.754022,37.828352],[29.754948,37.830471],[29.754755,37.830671],[29.754712,37.832567],[29.754686,37.833711],[29.757808,37.835513],[29.762666,37.83853],[29.76397,37.839696],[29.765134,37.840749],[29.768497,37.84456],[29.769421,37.845522],[29.770545,37.846493],[29.781662,37.855275],[29.783663,37.856862],[29.786397,37.859006],[29.79036,37.861326],[29.792574,37.862593],[29.803491,37.86879],[29.820013,37.878169],[29.828584,37.882817],[29.828744,37.873792],[29.83178,37.868661],[29.835275,37.861545],[29.812935,37.824958],[29.821528,37.813968]]]]}},{"type":"Feature","properties":{"id":"TR-Y-20-010-M-0008","level":"yerlesim","type":"mahalle","parent_id":"TR-D-20-010","province_id":"TR-P-20","province_name":"Denizli","district_id":"TR-D-20-010","name":"Gemişpınarı","source_raw_name":"Gemişpınarı","source":"Kamu kaynak","source_only":false},"geometry":{"type":"MultiPolygon","coordinates":[[[[29.888942,37.779958],[29.890675,37.777156],[29.896023,37.777841],[29.907353,37.783876],[29.909119,37.784571],[29.908442,37.7842],[29.904543,37.782375],[29.901791,37.780395],[29.895863,37.776149],[29.891141,37.776561],[29.889312,37.771979],[29.882499,37.768537],[29.874239,37.767774],[29.869123,37.768991],[29.866012,37.767218],[29.86464,37.76451],[29.865731,37.759333],[29.864297,37.754907],[29.863353,37.751341],[29.861915,37.749076],[29.861622,37.747061],[29.860848,37.741736],[29.859446,37.738117],[29.855617,37.735276],[29.852148,37.733033],[29.850775,37.731809],[29.849828,37.72996],[29.850387,37.72892],[29.843506,37.729119],[29.842923,37.727792],[29.841836,37.728289],[29.840923,37.728219],[29.839558,37.728733],[29.837321,37.729171],[29.8357,37.72918],[29.8351,37.729227],[29.834363,37.729584],[29.833431,37.730653],[29.824176,37.727188],[29.824779,37.726397],[29.825357,37.725349],[29.826616,37.721022],[29.826599,37.720507],[29.826077,37.720563],[29.824154,37.721266],[29.823565,37.721895],[29.823096,37.72197],[29.822401,37.721664],[29.820721,37.721509],[29.820084,37.72167],[29.818689,37.722812],[29.816982,37.723611],[29.816002,37.724396],[29.814866,37.725009],[29.807767,37.726542],[29.804755,37.728211],[29.803853,37.728939],[29.802988,37.72918],[29.802122,37.729966],[29.802335,37.73111],[29.799421,37.73244],[29.795664,37.735162],[29.794757,37.736412],[29.795081,37.736793],[29.79508,37.736795],[29.795161,37.736887],[29.795494,37.737278],[29.796768,37.738929],[29.796937,37.739184],[29.797472,37.739775],[29.797917,37.740393],[29.798333,37.740833],[29.798986,37.741652],[29.799544,37.742297],[29.800143,37.742759],[29.800828,37.743416],[29.801322,37.744028],[29.802059,37.744741],[29.802455,37.745064],[29.802551,37.745182],[29.802665,37.745495],[29.80268,37.745674],[29.802682,37.746007],[29.802782,37.746416],[29.802774,37.746732],[29.802657,37.747241],[29.802656,37.747324],[29.80279,37.747787],[29.802932,37.748037],[29.803175,37.748338],[29.803456,37.748607],[29.803752,37.748834],[29.803961,37.749174],[29.804339,37.74964],[29.804645,37.750224],[29.804907,37.75052],[29.80491,37.750779],[29.805027,37.751409],[29.805127,37.751713],[29.805485,37.75253],[29.805571,37.752828],[29.805629,37.753065],[29.805631,37.753192],[29.805613,37.7534],[29.805533,37.753636],[29.805516,37.753904],[29.805499,37.754134],[29.805423,37.754345],[29.805303,37.754508],[29.805144,37.754589],[29.804376,37.754805],[29.803478,37.755173],[29.803283,37.755369],[29.803046,37.755497],[29.802734,37.755553],[29.802438,37.755508],[29.80228,37.755496],[29.802276,37.755615],[29.802407,37.755958],[29.802593,37.756286],[29.802859,37.756614],[29.803086,37.757121],[29.803262,37.757345],[29.803974,37.757939],[29.805157,37.758927],[29.805588,37.759142],[29.806888,37.760098],[29.807788,37.760597],[29.808166,37.760863],[29.808784,37.761466],[29.809199,37.762004],[29.809859,37.762772],[29.811126,37.764048],[29.811407,37.764197],[29.811699,37.764491],[29.812042,37.764743],[29.812635,37.765],[29.812852,37.765146],[29.813598,37.765508],[29.814339,37.766204],[29.81563,37.767758],[29.818197,37.770664],[29.818963,37.771703],[29.818769,37.772698],[29.8185,37.773983],[29.818519,37.774691],[29.818712,37.775064],[29.818885,37.775601],[29.819299,37.777043],[29.81893,37.78328],[29.818615,37.786511],[29.818514,37.787546],[29.821528,37.813968],[29.884693,37.794995],[29.885494,37.791686],[29.888942,37.779958]]]]}},{"type":"Feature","properties":{"id":"TR-Y-20-010-M-0009","level":"yerlesim","type":"mahalle","parent_id":"TR-D-20-010","province_id":"TR-P-20","province_name":"Denizli","district_id":"TR-D-20-010","name":"Gölcük","source_raw_name":"Gölcük","source":"Kamu kaynak","source_only":false},"geometry":{"type":"MultiPolygon","coordinates":[[[[29.780729,37.749252],[29.78076,37.74924],[29.780799,37.74929],[29.780929,37.749256],[29.781196,37.749201],[29.781508,37.749138],[29.781738,37.749638],[29.782384,37.749441],[29.782613,37.749364],[29.783253,37.749157],[29.783608,37.749055],[29.783827,37.749006],[29.784123,37.748951],[29.784299,37.748969],[29.784331,37.748888],[29.784475,37.748523],[29.78448,37.748505],[29.784528,37.748506],[29.78452,37.74853],[29.785305,37.748515],[29.785326,37.748447],[29.785578,37.7477],[29.78574,37.746967],[29.785749,37.74637],[29.785756,37.746335],[29.785788,37.746335],[29.785862,37.746337],[29.785883,37.74615],[29.785923,37.745967],[29.785832,37.745965],[29.786018,37.74539],[29.786119,37.745121],[29.786119,37.745121],[29.786363,37.744585],[29.786393,37.744594],[29.7864,37.744578],[29.786512,37.744597],[29.786751,37.744665],[29.78679,37.744681],[29.786808,37.744658],[29.787475,37.744014],[29.787728,37.743697],[29.788208,37.743013],[29.788646,37.742398],[29.788885,37.742095],[29.789161,37.741772],[29.789906,37.740938],[29.790366,37.740476],[29.790761,37.740077],[29.79096,37.739868],[29.791182,37.73968],[29.791929,37.738755],[29.791947,37.738761],[29.791969,37.738733],[29.791956,37.738718],[29.792738,37.737777],[29.793783,37.73673],[29.793798,37.736739],[29.793838,37.736701],[29.794167,37.736899],[29.794688,37.736462],[29.794757,37.736412],[29.795664,37.735162],[29.799421,37.73244],[29.802335,37.73111],[29.802122,37.729966],[29.802988,37.72918],[29.803853,37.728939],[29.804755,37.728211],[29.807767,37.726542],[29.814866,37.725009],[29.816002,37.724396],[29.816982,37.723611],[29.818689,37.722812],[29.820084,37.72167],[29.820721,37.721509],[29.822401,37.721664],[29.823096,37.72197],[29.823565,37.721895],[29.824154,37.721266],[29.826077,37.720563],[29.826599,37.720507],[29.826616,37.721022],[29.825357,37.725349],[29.824779,37.726397],[29.824176,37.727188],[29.833431,37.730653],[29.834363,37.729584],[29.8351,37.729227],[29.8357,37.72918],[29.837321,37.729171],[29.839558,37.728733],[29.840923,37.728219],[29.841836,37.728289],[29.842923,37.727792],[29.842854,37.727635],[29.844894,37.723838],[29.844443,37.720168],[29.843006,37.718058],[29.843342,37.713843],[29.840858,37.711081],[29.839787,37.706526],[29.838155,37.704285],[29.837081,37.700875],[29.834999,37.694548],[29.830809,37.693632],[29.826034,37.6911],[29.822797,37.689066],[29.811406,37.687044],[29.80675,37.689431],[29.802457,37.69049],[29.797322,37.688374],[29.795813,37.689438],[29.794905,37.689585],[29.794738,37.689612],[29.791357,37.690159],[29.788077,37.692131],[29.787353,37.693353],[29.786898,37.693995],[29.786432,37.694652],[29.782564,37.69605],[29.778212,37.694637],[29.774053,37.694629],[29.770684,37.693165],[29.767996,37.693992],[29.764788,37.693726],[29.763603,37.695701],[29.761757,37.699289],[29.760473,37.701498],[29.759736,37.706493],[29.759732,37.707612],[29.759332,37.709771],[29.757915,37.712422],[29.752401,37.715586],[29.750008,37.716257],[29.747908,37.717346],[29.747078,37.717607],[29.746944,37.718021],[29.746895,37.718003],[29.746895,37.718003],[29.7462,37.72036],[29.745598,37.720985],[29.745005,37.724548],[29.744408,37.724886],[29.742677,37.726792],[29.741518,37.728668],[29.738473,37.730559],[29.738259,37.733002],[29.738819,37.734343],[29.737263,37.738134],[29.737996,37.738293],[29.739218,37.738145],[29.7403,37.738529],[29.743199,37.738947],[29.744905,37.738748],[29.746367,37.738605],[29.748232,37.737998],[29.748276,37.737983],[29.748386,37.737939],[29.749418,37.737828],[29.750995,37.738042],[29.753216,37.736231],[29.753626,37.736278],[29.754131,37.736394],[29.754279,37.736445],[29.754734,37.736677],[29.755041,37.736856],[29.755071,37.736842],[29.755216,37.736782],[29.755712,37.73688],[29.757533,37.737436],[29.757644,37.737559],[29.757859,37.73781],[29.757966,37.737928],[29.758084,37.738064],[29.758187,37.738181],[29.758223,37.738219],[29.75838,37.738337],[29.758589,37.738509],[29.758855,37.738719],[29.75936,37.739121],[29.760038,37.739667],[29.760436,37.73999],[29.760741,37.74023],[29.761305,37.740569],[29.762089,37.741039],[29.762612,37.741362],[29.762858,37.741518],[29.763184,37.741717],[29.763369,37.741832],[29.763524,37.741929],[29.764426,37.742508],[29.764672,37.742664],[29.765136,37.742964],[29.765502,37.743203],[29.765743,37.74335],[29.765882,37.743439],[29.766002,37.743518],[29.766253,37.743707],[29.766528,37.743889],[29.767016,37.744205],[29.767284,37.744326],[29.76749,37.744459],[29.76758,37.744587],[29.767671,37.744705],[29.767799,37.744872],[29.767933,37.74505],[29.767981,37.745],[29.768018,37.745044],[29.768101,37.745186],[29.767953,37.74531],[29.767871,37.745372],[29.767873,37.745376],[29.767863,37.745385],[29.768038,37.745694],[29.768032,37.745694],[29.768044,37.745709],[29.767972,37.745771],[29.768077,37.745835],[29.768464,37.745925],[29.768895,37.746052],[29.769277,37.746201],[29.769259,37.746233],[29.769461,37.746336],[29.769696,37.746431],[29.769988,37.746538],[29.770116,37.746558],[29.770265,37.746616],[29.770476,37.746755],[29.770636,37.746959],[29.770721,37.747055],[29.770965,37.747093],[29.771007,37.747095],[29.771026,37.747025],[29.771153,37.747039],[29.771165,37.747024],[29.771541,37.747093],[29.771787,37.747135],[29.77199,37.747178],[29.772064,37.74719],[29.772078,37.747173],[29.772109,37.747179],[29.772241,37.746944],[29.772347,37.746951],[29.77251,37.747045],[29.772639,37.747133],[29.772699,37.747186],[29.772762,37.747245],[29.772854,37.747334],[29.773107,37.747556],[29.773212,37.747666],[29.773252,37.74771],[29.773303,37.747756],[29.773393,37.747845],[29.773439,37.74789],[29.773528,37.747981],[29.773715,37.748184],[29.77399,37.748392],[29.773996,37.748395],[29.773996,37.748396],[29.77323,37.749019],[29.77327,37.749042],[29.773191,37.749105],[29.773603,37.749328],[29.774285,37.749685],[29.774569,37.749815],[29.774853,37.749932],[29.775053,37.749983],[29.775113,37.749999],[29.775102,37.750017],[29.775179,37.750039],[29.775259,37.750037],[29.775369,37.750023],[29.775458,37.749998],[29.775628,37.749951],[29.775648,37.749908],[29.775653,37.749906],[29.775806,37.749845],[29.775818,37.74984],[29.775818,37.749795],[29.775888,37.749788],[29.775889,37.749785],[29.77594,37.749782],[29.775984,37.749781],[29.775983,37.749782],[29.776231,37.749774],[29.776346,37.749766],[29.776456,37.749745],[29.776573,37.749707],[29.776671,37.749669],[29.776791,37.749618],[29.777065,37.749483],[29.777278,37.74926],[29.777424,37.749111],[29.777469,37.749074],[29.777749,37.748954],[29.777929,37.749122],[29.778035,37.749222],[29.778554,37.749785],[29.778663,37.749908],[29.778821,37.750148],[29.779357,37.74991],[29.780051,37.749569],[29.780314,37.749411],[29.780537,37.749325],[29.780729,37.749252]]]]}},{"type":"Feature","properties":{"id":"TR-Y-20-010-M-0010","level":"yerlesim","type":"mahalle","parent_id":"TR-D-20-010","province_id":"TR-P-20","province_name":"Denizli","district_id":"TR-D-20-010","name":"Hayriye","source_raw_name":"Hayriye","source":"Kamu kaynak","source_only":false},"geometry":{"type":"MultiPolygon","coordinates":[[[[29.673781,37.67092],[29.673893,37.667928],[29.675941,37.663718],[29.677582,37.662577],[29.678244,37.66107],[29.693845,37.656297],[29.697918,37.652768],[29.710428,37.642521],[29.713842,37.639692],[29.714891,37.639461],[29.717018,37.639492],[29.719732,37.639941],[29.720458,37.638251],[29.720465,37.63656],[29.720731,37.635233],[29.721557,37.633179],[29.72349,37.632455],[29.725916,37.63142],[29.731543,37.631511],[29.734762,37.628031],[29.736598,37.62715],[29.738563,37.626556],[29.739547,37.625804],[29.740795,37.624609],[29.741877,37.623805],[29.742697,37.623156],[29.743388,37.622273],[29.74041,37.622266],[29.738577,37.622679],[29.736514,37.623117],[29.734878,37.623217],[29.732917,37.622666],[29.730793,37.62175],[29.729188,37.622371],[29.725946,37.623144],[29.722907,37.622278],[29.719769,37.621334],[29.717282,37.621536],[29.714403,37.621608],[29.709483,37.616391],[29.708636,37.615452],[29.705105,37.61487],[29.701142,37.616032],[29.69646,37.616982],[29.695542,37.617422],[29.693411,37.61864],[29.690103,37.619334],[29.687389,37.619171],[29.685293,37.619503],[29.680315,37.620739],[29.679102,37.621464],[29.677826,37.621435],[29.676322,37.621249],[29.675514,37.61893],[29.674173,37.618718],[29.672797,37.619287],[29.671355,37.619908],[29.66952,37.620423],[29.668112,37.620809],[29.666837,37.620519],[29.664745,37.620097],[29.662913,37.620014],[29.66177,37.61975],[29.659483,37.619015],[29.657456,37.618697],[29.65569,37.618484],[29.653338,37.617852],[29.650913,37.618652],[29.649046,37.619219],[29.647375,37.619708],[29.645015,37.62056],[29.642363,37.621046],[29.640432,37.621196],[29.639284,37.621739],[29.636727,37.622824],[29.634141,37.622999],[29.632832,37.623151],[29.631783,37.623486],[29.630867,37.623535],[29.629332,37.622984],[29.626317,37.623937],[29.624746,37.62401],[29.624153,37.624919],[29.622238,37.62827],[29.619089,37.629925],[29.618616,37.629777],[29.618746,37.631058],[29.616799,37.631406],[29.612886,37.632758],[29.612484,37.632712],[29.612587,37.632735],[29.611907,37.632655],[29.611837,37.63265],[29.610864,37.632334],[29.608858,37.633192],[29.608792,37.633173],[29.608752,37.63319],[29.608432,37.633103],[29.608443,37.633095],[29.608398,37.633084],[29.608387,37.633091],[29.608354,37.633082],[29.605812,37.634822],[29.605189,37.635588],[29.604757,37.635966],[29.604687,37.63634],[29.604877,37.636396],[29.604707,37.636702],[29.604675,37.637098],[29.604803,37.637146],[29.604607,37.637621],[29.604685,37.637633],[29.60468,37.637646],[29.604704,37.637644],[29.604875,37.637657],[29.604881,37.637656],[29.604886,37.637657],[29.605417,37.637699],[29.606123,37.637733],[29.606124,37.63773],[29.606199,37.637734],[29.606226,37.637714],[29.606577,37.637683],[29.606846,37.637696],[29.607209,37.637784],[29.608093,37.637986],[29.609108,37.638034],[29.609417,37.638024],[29.609575,37.638116],[29.610088,37.638218],[29.610359,37.63822],[29.610792,37.638181],[29.611551,37.637983],[29.611926,37.637993],[29.612451,37.638014],[29.617614,37.639701],[29.617644,37.639742],[29.617163,37.641347],[29.618867,37.644404],[29.619205,37.64545],[29.6187,37.646481],[29.616698,37.646864],[29.615327,37.650634],[29.614788,37.651893],[29.614749,37.651907],[29.615133,37.65368],[29.615377,37.654612],[29.614822,37.656925],[29.614843,37.657053],[29.615022,37.658152],[29.614709,37.660401],[29.615571,37.660265],[29.615794,37.660889],[29.616059,37.661621],[29.615102,37.664629],[29.615018,37.66508],[29.614483,37.666048],[29.614257,37.666452],[29.614046,37.666633],[29.612509,37.668232],[29.612505,37.668268],[29.612525,37.668311],[29.612463,37.668745],[29.6124,37.669184],[29.612285,37.670009],[29.612164,37.670972],[29.618909,37.670144],[29.619308,37.670386],[29.621703,37.670574],[29.623758,37.671457],[29.624862,37.672457],[29.626292,37.6729],[29.628445,37.673941],[29.629431,37.674769],[29.630373,37.675431],[29.631042,37.675801],[29.632643,37.676213],[29.634641,37.676699],[29.636007,37.676631],[29.636546,37.676869],[29.637302,37.677361],[29.638063,37.677545],[29.64321,37.67671],[29.645079,37.67572],[29.64564,37.675282],[29.647538,37.674334],[29.650657,37.672938],[29.651368,37.672442],[29.653197,37.671523],[29.653496,37.671493],[29.656507,37.67092],[29.659116,37.66981],[29.660427,37.670532],[29.662405,37.672326],[29.663587,37.674434],[29.665428,37.67707],[29.667807,37.677918],[29.672433,37.679615],[29.675145,37.680015],[29.673683,37.678388],[29.673035,37.676851],[29.675345,37.672642],[29.673781,37.67092]]]]}},{"type":"Feature","properties":{"id":"TR-Y-20-010-M-0011","level":"yerlesim","type":"mahalle","parent_id":"TR-D-20-010","province_id":"TR-P-20","province_name":"Denizli","district_id":"TR-D-20-010","name":"Hürriyet","source_raw_name":"Hürriyet","source":"Kamu kaynak","source_only":false},"geometry":{"type":"MultiPolygon","coordinates":[[[[29.686437,37.822148],[29.686157,37.822136],[29.680557,37.822378],[29.679434,37.822548],[29.672036,37.822709],[29.669509,37.822905],[29.668415,37.823071],[29.665137,37.823815],[29.663113,37.824408],[29.66302,37.824435],[29.661896,37.824768],[29.660795,37.825033],[29.660379,37.825262],[29.663605,37.825251],[29.668575,37.824933],[29.671689,37.824725],[29.676257,37.824377],[29.678207,37.8243],[29.6825,37.824297],[29.683759,37.824244],[29.684725,37.824085],[29.685925,37.823826],[29.687516,37.823445],[29.691065,37.822657],[29.691694,37.822556],[29.691185,37.822507],[29.690947,37.822342],[29.686437,37.822148]]]]}},{"type":"Feature","properties":{"id":"TR-Y-20-010-M-0012","level":"yerlesim","type":"mahalle","parent_id":"TR-D-20-010","province_id":"TR-P-20","province_name":"Denizli","district_id":"TR-D-20-010","name":"İstiklal","source_raw_name":"İstiklal","source":"Kamu kaynak","source_only":false},"geometry":{"type":"MultiPolygon","coordinates":[[[[29.679139,37.826833],[29.679311,37.826821],[29.680628,37.82683],[29.68116,37.826803],[29.682174,37.826684],[29.683501,37.826499],[29.685402,37.826336],[29.686944,37.826269],[29.688224,37.82632],[29.690173,37.8264],[29.690768,37.826457],[29.696003,37.826333],[29.696058,37.822659],[29.695918,37.822652],[29.693256,37.822478],[29.693145,37.82247],[29.692528,37.822483],[29.691694,37.822556],[29.691065,37.822657],[29.687516,37.823445],[29.685925,37.823826],[29.684725,37.824085],[29.683759,37.824244],[29.6825,37.824297],[29.678207,37.8243],[29.676257,37.824377],[29.674952,37.825868],[29.673687,37.827381],[29.675383,37.827159],[29.677204,37.82701],[29.678122,37.826902],[29.679139,37.826833]]]]}},{"type":"Feature","properties":{"id":"TR-Y-20-010-M-0013","level":"yerlesim","type":"mahalle","parent_id":"TR-D-20-010","province_id":"TR-P-20","province_name":"Denizli","district_id":"TR-D-20-010","name":"Saray","source_raw_name":"Saray","source":"Kamu kaynak","source_only":false},"geometry":{"type":"MultiPolygon","coordinates":[[[[29.685309,37.87636],[29.685538,37.876348],[29.686128,37.876377],[29.686537,37.876411],[29.686766,37.876412],[29.686987,37.876396],[29.687444,37.876262],[29.687881,37.876073],[29.688303,37.875817],[29.688845,37.875434],[29.689152,37.875217],[29.689412,37.874978],[29.689864,37.874525],[29.690068,37.874332],[29.690184,37.874136],[29.69032,37.87388],[29.690394,37.873658],[29.690474,37.873444],[29.690496,37.87324],[29.690458,37.872797],[29.690435,37.872331],[29.690457,37.87188],[29.690473,37.871404],[29.690581,37.870954],[29.690711,37.870458],[29.690884,37.869948],[29.691154,37.869448],[29.691653,37.868533],[29.69193,37.868109],[29.692261,37.867631],[29.692446,37.86733],[29.692593,37.867179],[29.693383,37.866252],[29.691888,37.864979],[29.68886,37.864323],[29.685408,37.861339],[29.683541,37.859255],[29.682757,37.856658],[29.681134,37.854423],[29.679202,37.852837],[29.677904,37.850616],[29.678125,37.84938],[29.677975,37.848621],[29.67678,37.847803],[29.67578,37.847769],[29.672015,37.8467],[29.670914,37.846124],[29.670226,37.844713],[29.668253,37.843216],[29.668107,37.842138],[29.667773,37.841508],[29.667764,37.841012],[29.66755,37.840415],[29.667593,37.839725],[29.667596,37.839694],[29.667595,37.839691],[29.667602,37.839586],[29.667376,37.838899],[29.667723,37.838046],[29.667694,37.836502],[29.667834,37.836135],[29.669414,37.834901],[29.669548,37.83449],[29.669037,37.833245],[29.66937,37.832318],[29.669496,37.832459],[29.669601,37.832476],[29.669525,37.832274],[29.669076,37.831635],[29.669002,37.831335],[29.668982,37.830885],[29.668795,37.830578],[29.668332,37.830426],[29.668002,37.828728],[29.668102,37.827966],[29.668489,37.827347],[29.668575,37.824933],[29.663605,37.825251],[29.660379,37.825262],[29.659709,37.825489],[29.658281,37.825681],[29.634415,37.828569],[29.634428,37.828868],[29.634468,37.829133],[29.634516,37.829124],[29.634704,37.829092],[29.634881,37.829059],[29.635046,37.829031],[29.63522,37.829006],[29.635339,37.828988],[29.635304,37.82916],[29.635222,37.829421],[29.635192,37.829517],[29.635288,37.829532],[29.635476,37.82956],[29.63571,37.829601],[29.635809,37.829621],[29.635755,37.829761],[29.635701,37.829884],[29.635618,37.830042],[29.635532,37.830195],[29.635537,37.830279],[29.635546,37.830332],[29.635591,37.830478],[29.635662,37.830647],[29.635769,37.830828],[29.63581,37.830893],[29.636118,37.830778],[29.636276,37.830723],[29.636555,37.830613],[29.636919,37.83047],[29.636996,37.830598],[29.637201,37.83088],[29.637335,37.831063],[29.637481,37.831252],[29.637636,37.831426],[29.637685,37.83148],[29.637811,37.831631],[29.638014,37.83189],[29.638068,37.831958],[29.638204,37.831883],[29.638357,37.831806],[29.638438,37.831763],[29.638492,37.831835],[29.63854,37.83189],[29.638718,37.832147],[29.638803,37.832266],[29.638883,37.832378],[29.638928,37.832438],[29.639064,37.83261],[29.639207,37.832783],[29.639313,37.832916],[29.63937,37.832988],[29.63949,37.833142],[29.639562,37.833219],[29.639755,37.833441],[29.639952,37.833694],[29.640065,37.833634],[29.640224,37.833538],[29.640377,37.833451],[29.640563,37.83335],[29.640618,37.833404],[29.640692,37.833483],[29.640783,37.833596],[29.640935,37.83378],[29.641008,37.833883],[29.641053,37.83393],[29.641167,37.834052],[29.641237,37.834127],[29.641375,37.834278],[29.641562,37.834455],[29.641637,37.834522],[29.641802,37.834679],[29.641946,37.834806],[29.64202,37.834885],[29.642183,37.834954],[29.642296,37.835156],[29.642375,37.835355],[29.642456,37.835548],[29.642567,37.835706],[29.642723,37.835864],[29.642877,37.836044],[29.643031,37.836268],[29.643064,37.836335],[29.642549,37.836557],[29.643062,37.836974],[29.6433,37.840242],[29.659677,37.852691],[29.657889,37.871726],[29.678369,37.881399],[29.684367,37.884232],[29.684351,37.883903],[29.684212,37.883569],[29.684146,37.883338],[29.684128,37.883154],[29.684109,37.882819],[29.683998,37.882375],[29.683964,37.882279],[29.68386,37.881992],[29.683419,37.880765],[29.683036,37.880062],[29.682815,37.879643],[29.682621,37.87917],[29.682549,37.87892],[29.682527,37.878787],[29.682527,37.878707],[29.682544,37.878456],[29.683235,37.878247],[29.683292,37.8781],[29.683619,37.877691],[29.6844,37.876887],[29.684683,37.876662],[29.684926,37.876509],[29.685123,37.876407],[29.685309,37.87636]]]]}},{"type":"Feature","properties":{"id":"TR-Y-20-010-M-0014","level":"yerlesim","type":"mahalle","parent_id":"TR-D-20-010","province_id":"TR-P-20","province_name":"Denizli","district_id":"TR-D-20-010","name":"Söğütlü","source_raw_name":"Söğütlü","source":"Kamu kaynak","source_only":false},"geometry":{"type":"MultiPolygon","coordinates":[[[[29.564355,37.697567],[29.563889,37.697282],[29.563833,37.697189],[29.563795,37.696836],[29.563201,37.696374],[29.56274,37.695728],[29.562979,37.695367],[29.563539,37.694952],[29.563618,37.694389],[29.56347,37.693903],[29.563465,37.693664],[29.563638,37.693114],[29.563711,37.692971],[29.563935,37.692829],[29.564164,37.692768],[29.564767,37.692355],[29.564867,37.692121],[29.564928,37.691924],[29.565026,37.6919],[29.565194,37.691931],[29.565317,37.691895],[29.565462,37.691619],[29.565439,37.69103],[29.565289,37.690557],[29.565339,37.690138],[29.565472,37.689895],[29.565788,37.689715],[29.565997,37.689516],[29.566352,37.689267],[29.56701,37.689014],[29.567628,37.688763],[29.568176,37.688133],[29.56856,37.687833],[29.569342,37.686746],[29.569443,37.686192],[29.569403,37.685932],[29.569418,37.684738],[29.569531,37.684379],[29.569574,37.683889],[29.569984,37.683155],[29.570233,37.682482],[29.570425,37.6821],[29.570438,37.681947],[29.570582,37.681519],[29.570536,37.681035],[29.570957,37.679195],[29.570871,37.678994],[29.570525,37.678642],[29.570392,37.678356],[29.570441,37.678056],[29.570214,37.677421],[29.570116,37.677256],[29.570035,37.67681],[29.569725,37.675898],[29.569993,37.675768],[29.569916,37.675512],[29.569983,37.675334],[29.569993,37.6752],[29.57033,37.674958],[29.570341,37.674758],[29.570504,37.674299],[29.570463,37.674011],[29.570697,37.673762],[29.57077,37.673471],[29.570777,37.673221],[29.57091,37.672983],[29.570975,37.672501],[29.571234,37.671993],[29.571257,37.67184],[29.571223,37.670974],[29.573406,37.670083],[29.575458,37.669246],[29.576119,37.668947],[29.576889,37.668724],[29.579042,37.667846],[29.579215,37.66771],[29.579705,37.666639],[29.580019,37.665344],[29.580832,37.664724],[29.581205,37.66452],[29.58233,37.663906],[29.582953,37.663474],[29.583821,37.663262],[29.584398,37.663238],[29.584702,37.663137],[29.585142,37.662744],[29.585374,37.662308],[29.587109,37.66168],[29.587331,37.661469],[29.587969,37.66067],[29.588236,37.660489],[29.58889,37.660199],[29.589501,37.660056],[29.590689,37.659511],[29.591039,37.659369],[29.591938,37.658824],[29.592367,37.658501],[29.592825,37.658309],[29.59357,37.657421],[29.593928,37.65711],[29.594622,37.656274],[29.595507,37.655673],[29.596308,37.655335],[29.596641,37.655094],[29.5973,37.654646],[29.598058,37.654034],[29.598518,37.653633],[29.598882,37.653494],[29.599323,37.653371],[29.599846,37.653106],[29.600846,37.652826],[29.601355,37.652468],[29.601794,37.652247],[29.602152,37.651967],[29.60256,37.65133],[29.602588,37.651204],[29.60273,37.650997],[29.602716,37.650679],[29.602764,37.650255],[29.602694,37.649824],[29.602693,37.649375],[29.602729,37.649074],[29.602911,37.648722],[29.603075,37.648567],[29.603257,37.648542],[29.603622,37.648636],[29.60383,37.648647],[29.603961,37.648609],[29.604226,37.648286],[29.604346,37.647731],[29.604547,37.647181],[29.605036,37.646163],[29.605109,37.645779],[29.605275,37.645467],[29.605481,37.644791],[29.605746,37.644336],[29.605932,37.643851],[29.605976,37.643618],[29.605979,37.643092],[29.606001,37.642941],[29.606137,37.64277],[29.606746,37.642206],[29.606962,37.641834],[29.60726,37.6417],[29.60745,37.641575],[29.607542,37.641449],[29.607707,37.640952],[29.607636,37.640454],[29.607548,37.640255],[29.607317,37.639946],[29.606283,37.638997],[29.606221,37.63821],[29.606226,37.637714],[29.606199,37.637734],[29.606124,37.63773],[29.606123,37.637733],[29.605417,37.637699],[29.604886,37.637657],[29.604881,37.637656],[29.604875,37.637657],[29.604704,37.637644],[29.60468,37.637646],[29.604685,37.637633],[29.604607,37.637621],[29.604803,37.637146],[29.604675,37.637098],[29.604707,37.636702],[29.604877,37.636396],[29.604687,37.63634],[29.604757,37.635966],[29.605189,37.635588],[29.605812,37.634822],[29.608354,37.633082],[29.608387,37.633091],[29.608398,37.633084],[29.608443,37.633095],[29.608432,37.633103],[29.608752,37.63319],[29.608792,37.633173],[29.608858,37.633192],[29.610864,37.632334],[29.611837,37.63265],[29.611907,37.632655],[29.612587,37.632735],[29.612484,37.632712],[29.612886,37.632758],[29.616799,37.631406],[29.616833,37.6314],[29.6156,37.629634],[29.615138,37.629343],[29.615122,37.62898],[29.615305,37.628717],[29.611608,37.627454],[29.607952,37.625985],[29.60664,37.626475],[29.604877,37.625714],[29.603349,37.624044],[29.602141,37.623415],[29.598776,37.622493],[29.597735,37.621448],[29.596892,37.620118],[29.595463,37.618032],[29.594645,37.618107],[29.592551,37.618204],[29.591538,37.618044],[29.590231,37.617649],[29.589417,37.616996],[29.587753,37.616105],[29.58549,37.617216],[29.585034,37.61685],[29.584581,37.615912],[29.5839,37.614868],[29.580207,37.614127],[29.578898,37.614304],[29.577225,37.615105],[29.576141,37.615908],[29.574334,37.617202],[29.572896,37.616885],[29.571266,37.615994],[29.569306,37.61544],[29.564802,37.613602],[29.563238,37.612556],[29.560143,37.610514],[29.558501,37.611471],[29.557476,37.612373],[29.557087,37.612715],[29.555411,37.613984],[29.552262,37.615533],[29.549277,37.616745],[29.547934,37.617104],[29.545838,37.617486],[29.545749,37.617477],[29.545848,37.617776],[29.54607,37.618253],[29.547193,37.620136],[29.549628,37.623942],[29.551523,37.62652],[29.552494,37.629391],[29.551666,37.632154],[29.551182,37.633772],[29.550286,37.636558],[29.550274,37.636597],[29.549717,37.638327],[29.549757,37.638498],[29.546634,37.641269],[29.54659,37.641315],[29.542364,37.641667],[29.538976,37.642335],[29.535677,37.64364],[29.532342,37.64455],[29.52985,37.645919],[29.52868,37.646836],[29.527883,37.647403],[29.527624,37.647597],[29.526259,37.648618],[29.521701,37.649572],[29.521606,37.649582],[29.519227,37.649823],[29.516836,37.651141],[29.514918,37.653367],[29.513848,37.656429],[29.513823,37.662905],[29.51513,37.669623],[29.516947,37.673745],[29.519157,37.675184],[29.51945,37.677617],[29.521943,37.680368],[29.521993,37.68187],[29.530308,37.685599],[29.531453,37.688126],[29.535041,37.691338],[29.544593,37.694213],[29.546163,37.697488],[29.549098,37.697356],[29.551395,37.698466],[29.554865,37.69918],[29.564692,37.699737],[29.564355,37.697567]]]]}},{"type":"Feature","properties":{"id":"TR-Y-20-010-M-0015","level":"yerlesim","type":"mahalle","parent_id":"TR-D-20-010","province_id":"TR-P-20","province_name":"Denizli","district_id":"TR-D-20-010","name":"Söğütözü","source_raw_name":"Söğütözü","source":"Kamu kaynak","source_only":false},"geometry":{"type":"MultiPolygon","coordinates":[[[[29.61583,37.628896],[29.615305,37.628717],[29.615122,37.62898],[29.615138,37.629343],[29.6156,37.629634],[29.616833,37.6314],[29.616799,37.631406],[29.618746,37.631058],[29.618616,37.629777],[29.616148,37.629005],[29.61583,37.628896]]],[[[29.580551,37.702252],[29.580551,37.702252],[29.580554,37.702254],[29.580739,37.702062],[29.581395,37.701197],[29.581287,37.701],[29.581508,37.700765],[29.581579,37.700692],[29.581724,37.700489],[29.582172,37.699872],[29.582404,37.699745],[29.584457,37.69806],[29.585674,37.698539],[29.585681,37.698541],[29.586214,37.698811],[29.586599,37.699069],[29.586599,37.699069],[29.586603,37.699071],[29.586922,37.69896],[29.587093,37.698912],[29.587218,37.698863],[29.587638,37.698976],[29.588179,37.698747],[29.588189,37.698732],[29.588189,37.698732],[29.588199,37.698715],[29.588255,37.698624],[29.588254,37.698624],[29.58826,37.698614],[29.587959,37.69862],[29.588095,37.698111],[29.587771,37.697328],[29.587768,37.697229],[29.58775,37.697019],[29.587723,37.696088],[29.588367,37.695119],[29.58777,37.695065],[29.588064,37.694819],[29.588217,37.694691],[29.588317,37.694615],[29.588314,37.694612],[29.589004,37.694073],[29.589345,37.694171],[29.590799,37.694592],[29.59173,37.695404],[29.592396,37.69544],[29.592865,37.695427],[29.594694,37.695557],[29.596618,37.69456],[29.596396,37.693795],[29.596388,37.693768],[29.596247,37.69368],[29.596214,37.693606],[29.596218,37.693544],[29.596214,37.693532],[29.596249,37.693436],[29.596289,37.693427],[29.596284,37.693411],[29.597634,37.692802],[29.598143,37.691916],[29.598141,37.6919],[29.598148,37.69187],[29.598148,37.691858],[29.598151,37.691858],[29.598165,37.691795],[29.598206,37.691809],[29.598242,37.691747],[29.601591,37.691651],[29.602332,37.691199],[29.60251,37.691123],[29.603103,37.690743],[29.603071,37.690496],[29.602805,37.688473],[29.602291,37.687054],[29.602136,37.686851],[29.601861,37.686455],[29.601566,37.686024],[29.603434,37.684681],[29.605146,37.683377],[29.605307,37.683439],[29.605412,37.683491],[29.605626,37.683714],[29.605636,37.683718],[29.605761,37.683821],[29.605986,37.683934],[29.606038,37.684021],[29.606193,37.684218],[29.606208,37.684443],[29.606304,37.684519],[29.606303,37.684558],[29.606584,37.684733],[29.607072,37.684621],[29.607823,37.684622],[29.60785,37.684922],[29.607908,37.68513],[29.607972,37.6854],[29.608437,37.685415],[29.610365,37.685531],[29.610456,37.685537],[29.611242,37.685749],[29.611468,37.68573],[29.612098,37.685443],[29.612568,37.685205],[29.613754,37.685021],[29.613851,37.684978],[29.61386,37.684977],[29.613861,37.684974],[29.613974,37.682746],[29.613848,37.682223],[29.613731,37.68165],[29.613816,37.68088],[29.614184,37.679818],[29.613565,37.679661],[29.613362,37.678262],[29.612861,37.677162],[29.612915,37.676237],[29.612976,37.675521],[29.612746,37.674749],[29.612713,37.674203],[29.612571,37.674032],[29.612432,37.673959],[29.612239,37.673874],[29.612089,37.672594],[29.612106,37.671722],[29.612198,37.671042],[29.612164,37.670972],[29.612285,37.670009],[29.6124,37.669184],[29.612463,37.668745],[29.612525,37.668311],[29.612505,37.668268],[29.612509,37.668232],[29.614046,37.666633],[29.614257,37.666452],[29.614483,37.666048],[29.615018,37.66508],[29.615102,37.664629],[29.616059,37.661621],[29.615794,37.660889],[29.615571,37.660265],[29.614709,37.660401],[29.615022,37.658152],[29.614843,37.657053],[29.614822,37.656925],[29.615377,37.654612],[29.615133,37.65368],[29.614749,37.651907],[29.614788,37.651893],[29.615327,37.650634],[29.616698,37.646864],[29.6187,37.646481],[29.619205,37.64545],[29.618867,37.644404],[29.617163,37.641347],[29.617644,37.639742],[29.617614,37.639701],[29.612451,37.638014],[29.611926,37.637993],[29.611551,37.637983],[29.610792,37.638181],[29.610359,37.63822],[29.610088,37.638218],[29.609575,37.638116],[29.609417,37.638024],[29.609108,37.638034],[29.608093,37.637986],[29.607209,37.637784],[29.606846,37.637696],[29.606577,37.637683],[29.606226,37.637714],[29.606221,37.63821],[29.606283,37.638997],[29.607317,37.639946],[29.607548,37.640255],[29.607636,37.640454],[29.607707,37.640952],[29.607542,37.641449],[29.60745,37.641575],[29.60726,37.6417],[29.606962,37.641834],[29.606746,37.642206],[29.606137,37.64277],[29.606001,37.642941],[29.605979,37.643092],[29.605976,37.643618],[29.605932,37.643851],[29.605746,37.644336],[29.605481,37.644791],[29.605275,37.645467],[29.605109,37.645779],[29.605036,37.646163],[29.604547,37.647181],[29.604346,37.647731],[29.604226,37.648286],[29.603961,37.648609],[29.60383,37.648647],[29.603622,37.648636],[29.603257,37.648542],[29.603075,37.648567],[29.602911,37.648722],[29.602729,37.649074],[29.602693,37.649375],[29.602694,37.649824],[29.602764,37.650255],[29.602716,37.650679],[29.60273,37.650997],[29.602588,37.651204],[29.60256,37.65133],[29.602152,37.651967],[29.601794,37.652247],[29.601355,37.652468],[29.600846,37.652826],[29.599846,37.653106],[29.599323,37.653371],[29.598882,37.653494],[29.598518,37.653633],[29.598058,37.654034],[29.5973,37.654646],[29.596641,37.655094],[29.596308,37.655335],[29.595507,37.655673],[29.594622,37.656274],[29.593928,37.65711],[29.59357,37.657421],[29.592825,37.658309],[29.592367,37.658501],[29.591938,37.658824],[29.591039,37.659369],[29.590689,37.659511],[29.589501,37.660056],[29.58889,37.660199],[29.588236,37.660489],[29.587969,37.66067],[29.587331,37.661469],[29.587109,37.66168],[29.585374,37.662308],[29.585142,37.662744],[29.584702,37.663137],[29.584398,37.663238],[29.583821,37.663262],[29.582953,37.663474],[29.58233,37.663906],[29.581205,37.66452],[29.580832,37.664724],[29.580019,37.665344],[29.579705,37.666639],[29.579215,37.66771],[29.579042,37.667846],[29.576889,37.668724],[29.576119,37.668947],[29.575458,37.669246],[29.573406,37.670083],[29.571223,37.670974],[29.571257,37.67184],[29.571234,37.671993],[29.570975,37.672501],[29.57091,37.672983],[29.570777,37.673221],[29.57077,37.673471],[29.570697,37.673762],[29.570463,37.674011],[29.570504,37.674299],[29.570341,37.674758],[29.57033,37.674958],[29.569993,37.6752],[29.569983,37.675334],[29.569916,37.675512],[29.569993,37.675768],[29.569725,37.675898],[29.570035,37.67681],[29.570116,37.677256],[29.570214,37.677421],[29.570441,37.678056],[29.570392,37.678356],[29.570525,37.678642],[29.570871,37.678994],[29.570957,37.679195],[29.570536,37.681035],[29.570582,37.681519],[29.570438,37.681947],[29.570425,37.6821],[29.570233,37.682482],[29.569984,37.683155],[29.569574,37.683889],[29.569531,37.684379],[29.569418,37.684738],[29.569403,37.685932],[29.569443,37.686192],[29.569342,37.686746],[29.56856,37.687833],[29.568176,37.688133],[29.567628,37.688763],[29.56701,37.689014],[29.566352,37.689267],[29.565997,37.689516],[29.565788,37.689715],[29.565472,37.689895],[29.565339,37.690138],[29.565289,37.690557],[29.565439,37.69103],[29.565462,37.691619],[29.565317,37.691895],[29.565194,37.691931],[29.565026,37.6919],[29.564928,37.691924],[29.564867,37.692121],[29.564767,37.692355],[29.564164,37.692768],[29.563935,37.692829],[29.563711,37.692971],[29.563638,37.693114],[29.563465,37.693664],[29.56347,37.693903],[29.563618,37.694389],[29.563539,37.694952],[29.562979,37.695367],[29.56274,37.695728],[29.563201,37.696374],[29.563795,37.696836],[29.563833,37.697189],[29.563889,37.697282],[29.564355,37.697567],[29.564692,37.699737],[29.565772,37.698755],[29.565922,37.698629],[29.567266,37.697813],[29.569534,37.698036],[29.571259,37.698519],[29.57162,37.698968],[29.572537,37.700111],[29.573553,37.700412],[29.57364,37.70119],[29.573628,37.701352],[29.575794,37.701879],[29.576552,37.703586],[29.577592,37.704401],[29.578689,37.704115],[29.578698,37.704107],[29.578966,37.704101],[29.579725,37.703295],[29.580319,37.702494],[29.580483,37.702334],[29.580551,37.702252]]]]}}]}