{"type":"FeatureCollection","name":"turkiye_map.dist.mahalle_geometrileri_by_district.TR-D-16-004","features":[{"type":"Feature","properties":{"id":"KK-Y-16-004-183683","level":"yerlesim","type":"yerlesim","parent_id":"TR-D-16-004","province_id":"TR-P-16","province_name":"Bursa","district_id":"TR-D-16-004","name":"Hopandanişment","source_raw_name":"Hopandanişment","source":"Kamu kaynak","source_only":true},"geometry":{"type":"MultiPolygon","coordinates":[[[[29.225608,39.722099],[29.224132,39.720152],[29.221939,39.719565],[29.221936,39.719564],[29.215803,39.719719],[29.209231,39.720402],[29.206765,39.720588],[29.202235,39.720335],[29.202235,39.720336],[29.199646,39.720593],[29.19723,39.721299],[29.196649,39.721286],[29.196026,39.720953],[29.193402,39.721214],[29.185836,39.721658],[29.183886,39.721823],[29.183446,39.723106],[29.182486,39.728867],[29.195012,39.735331],[29.193807,39.739284],[29.194329,39.73956],[29.197765,39.741379],[29.203359,39.744313],[29.203359,39.744314],[29.205517,39.745404],[29.206701,39.746002],[29.207219,39.746264],[29.209877,39.747956],[29.21222,39.745231],[29.214802,39.74277],[29.217647,39.741287],[29.2224,39.73798],[29.225548,39.736165],[29.23052,39.731438],[29.233853,39.729708],[29.233851,39.729706],[29.232746,39.728711],[29.23069,39.726997],[29.228492,39.725208],[29.227116,39.724087],[29.225608,39.722099]]]]}},{"type":"Feature","properties":{"id":"KK-Y-16-004-183689","level":"yerlesim","type":"yerlesim","parent_id":"TR-D-16-004","province_id":"TR-P-16","province_name":"Bursa","district_id":"TR-D-16-004","name":"Kışmanlar","source_raw_name":"Kışmanlar","source":"Kamu kaynak","source_only":true},"geometry":{"type":"MultiPolygon","coordinates":[[[[29.129936,39.671344],[29.13467,39.67023],[29.138587,39.668509],[29.149014,39.663924],[29.148519,39.663088],[29.146855,39.662333],[29.146323,39.662826],[29.145752,39.662052],[29.146899,39.661245],[29.145829,39.659513],[29.145809,39.658849],[29.147564,39.657487],[29.14799,39.65609],[29.148444,39.655598],[29.147578,39.652896],[29.148257,39.652098],[29.147593,39.650842],[29.147107,39.64777],[29.148266,39.647325],[29.14879,39.646591],[29.149591,39.64724],[29.150731,39.646192],[29.151172,39.645278],[29.15199,39.643966],[29.149269,39.643816],[29.146863,39.641262],[29.145718,39.641883],[29.147038,39.642758],[29.146417,39.643569],[29.143004,39.641933],[29.14157,39.641559],[29.140019,39.638383],[29.13977,39.637694],[29.136641,39.636852],[29.13553,39.638572],[29.133462,39.63861],[29.127952,39.636011],[29.123983,39.637284],[29.122561,39.63731],[29.122466,39.638411],[29.121071,39.639336],[29.118973,39.638375],[29.11641,39.639122],[29.117225,39.640406],[29.115981,39.642029],[29.122107,39.647815],[29.120315,39.648448],[29.114481,39.647954],[29.108999,39.650553],[29.10826,39.651766],[29.106078,39.652306],[29.103667,39.653849],[29.099374,39.653027],[29.096899,39.652898],[29.0951,39.652804],[29.093652,39.659965],[29.091192,39.663308],[29.091093,39.665685],[29.089827,39.669007],[29.091153,39.667664],[29.094407,39.668001],[29.098364,39.668985],[29.098601,39.669171],[29.100988,39.671049],[29.107411,39.670919],[29.112337,39.671001],[29.118778,39.671644],[29.12132,39.671898],[29.129936,39.671344]]]]}},{"type":"Feature","properties":{"id":"TR-Y-16-004-M-0001","level":"yerlesim","type":"mahalle","parent_id":"TR-D-16-004","province_id":"TR-P-16","province_name":"Bursa","district_id":"TR-D-16-004","name":"Akpınar","source_raw_name":"Akpınar","source":"Kamu kaynak","source_only":false},"geometry":{"type":"MultiPolygon","coordinates":[[[[29.108999,39.650553],[29.114481,39.647954],[29.120315,39.648448],[29.122107,39.647815],[29.115981,39.642029],[29.117225,39.640406],[29.11641,39.639122],[29.118973,39.638375],[29.121071,39.639336],[29.122466,39.638411],[29.122561,39.63731],[29.123983,39.637284],[29.127952,39.636011],[29.128398,39.633704],[29.126679,39.632436],[29.125799,39.629053],[29.122444,39.625015],[29.122503,39.622715],[29.127279,39.61403],[29.120095,39.607363],[29.115465,39.60403],[29.115237,39.604061],[29.115015,39.604045],[29.114849,39.604013],[29.114733,39.603964],[29.114675,39.603883],[29.114593,39.603789],[29.11449,39.603665],[29.11439,39.603533],[29.114284,39.603389],[29.114203,39.603221],[29.114146,39.603081],[29.114018,39.602933],[29.113891,39.60284],[29.113764,39.602806],[29.113516,39.60274],[29.113217,39.602688],[29.112915,39.604994],[29.111251,39.610077],[29.10847,39.620371],[29.101088,39.624204],[29.100623,39.625912],[29.101711,39.627692],[29.102303,39.630824],[29.102028,39.633884],[29.10107,39.636401],[29.100403,39.640012],[29.101522,39.642791],[29.098174,39.64755],[29.099374,39.653027],[29.103667,39.653849],[29.106078,39.652306],[29.10826,39.651766],[29.108999,39.650553]]]]}},{"type":"Feature","properties":{"id":"TR-Y-16-004-M-0002","level":"yerlesim","type":"mahalle","parent_id":"TR-D-16-004","province_id":"TR-P-16","province_name":"Bursa","district_id":"TR-D-16-004","name":"Alutça","source_raw_name":"Alutca","source":"Kamu kaynak","source_only":false},"geometry":{"type":"MultiPolygon","coordinates":[[[[28.997973,39.636942],[28.998119,39.635128],[28.99866,39.634602],[28.999127,39.632333],[28.996227,39.633205],[28.995011,39.632507],[28.994808,39.630373],[28.99463,39.628504],[28.992867,39.627301],[28.988456,39.626452],[28.982266,39.623782],[28.977309,39.622428],[28.977502,39.619855],[28.975064,39.618252],[28.975436,39.61732],[28.974327,39.615694],[28.973716,39.61302],[28.973607,39.612917],[28.973434,39.612565],[28.973212,39.612277],[28.97295,39.61217],[28.972765,39.611971],[28.972546,39.611745],[28.972423,39.611455],[28.97222,39.611201],[28.97183,39.610858],[28.971684,39.61075],[28.971408,39.610712],[28.970845,39.610614],[28.970224,39.610598],[28.96935,39.610647],[28.968969,39.610721],[28.96878,39.610828],[28.968559,39.610934],[28.968351,39.611047],[28.968202,39.611209],[28.96811,39.611317],[28.968066,39.611369],[28.968135,39.611881],[28.967712,39.612412],[28.967353,39.612815],[28.966947,39.613318],[28.966309,39.61401],[28.965907,39.615089],[28.965055,39.615454],[28.964912,39.615481],[28.964409,39.615562],[28.963893,39.615715],[28.963513,39.615839],[28.963208,39.615866],[28.96257,39.616018],[28.962201,39.616134],[28.96175,39.616335],[28.961464,39.616536],[28.961032,39.616802],[28.960698,39.617028],[28.960451,39.617223],[28.959869,39.617429],[28.959097,39.617438],[28.958534,39.617461],[28.957913,39.617492],[28.957533,39.617622],[28.957489,39.617638],[28.957341,39.617694],[28.956973,39.618032],[28.95642,39.618403],[28.956037,39.618984],[28.955277,39.619263],[28.954814,39.619267],[28.954351,39.61927],[28.954027,39.619238],[28.953498,39.619122],[28.952931,39.618952],[28.952554,39.618685],[28.952184,39.618433],[28.952024,39.618261],[28.950999,39.617486],[28.950496,39.617417],[28.950114,39.617488],[28.950114,39.617488],[28.949965,39.617516],[28.949369,39.617722],[28.948244,39.618003],[28.947308,39.618508],[28.946512,39.618486],[28.945275,39.618515],[28.944765,39.618595],[28.94506,39.619259],[28.945696,39.620975],[28.945442,39.621369],[28.945814,39.621293],[28.946182,39.622289],[28.94685,39.623883],[28.946277,39.625657],[28.947659,39.626838],[28.949519,39.630257],[28.951821,39.63094],[28.952369,39.631974],[28.951354,39.632794],[28.949589,39.632743],[28.950924,39.63593],[28.952583,39.635903],[28.95397,39.637243],[28.955636,39.637456],[28.95535,39.638343],[28.954225,39.638924],[28.9572,39.641361],[28.95855,39.641419],[28.959349,39.643973],[28.958763,39.645267],[28.960353,39.646444],[28.961021,39.648037],[28.962286,39.648738],[28.962548,39.650659],[28.964141,39.651916],[28.963888,39.654007],[28.964989,39.656235],[28.965158,39.656325],[28.965167,39.656388],[28.965276,39.656389],[28.967246,39.65745],[28.982424,39.662668],[28.986794,39.660036],[28.989225,39.657908],[28.990751,39.656839],[28.992451,39.650952],[28.99314,39.649657],[28.992785,39.648138],[28.994599,39.646262],[28.994754,39.644413],[28.996792,39.643094],[28.9977,39.639995],[28.997973,39.636942]]]]}},{"type":"Feature","properties":{"id":"TR-Y-16-004-M-0003","level":"yerlesim","type":"mahalle","parent_id":"TR-D-16-004","province_id":"TR-P-16","province_name":"Bursa","district_id":"TR-D-16-004","name":"Balatdanişment","source_raw_name":"Balatdanişment","source":"Kamu kaynak","source_only":false},"geometry":{"type":"MultiPolygon","coordinates":[[[[29.217386,39.650933],[29.224498,39.644756],[29.224107,39.643583],[29.222342,39.63703],[29.222071,39.636022],[29.220845,39.63134],[29.220675,39.63069],[29.218913,39.62494],[29.2178,39.620487],[29.216687,39.61891],[29.213348,39.613344],[29.212162,39.611776],[29.206932,39.615013],[29.203383,39.617209],[29.201574,39.617244],[29.200887,39.615957],[29.194627,39.618275],[29.193736,39.618204],[29.193401,39.618126],[29.193004,39.617981],[29.192508,39.617803],[29.192124,39.617705],[29.191843,39.617764],[29.19154,39.617945],[29.191169,39.618469],[29.190837,39.619023],[29.190531,39.619456],[29.190272,39.619557],[29.190003,39.619502],[29.189798,39.619336],[29.189554,39.619155],[29.189175,39.619053],[29.188962,39.619128],[29.188037,39.619877],[29.187637,39.620286],[29.187409,39.62044],[29.187196,39.620496],[29.186945,39.620498],[29.186689,39.620477],[29.186284,39.620543],[29.186154,39.620702],[29.185942,39.621052],[29.185536,39.62127],[29.184944,39.621708],[29.182969,39.622746],[29.180835,39.62329],[29.17722,39.623801],[29.175376,39.623709],[29.171393,39.62351],[29.170246,39.624032],[29.169546,39.626444],[29.170963,39.630417],[29.170102,39.631832],[29.168948,39.632154],[29.169799,39.634537],[29.168033,39.63597],[29.169441,39.639642],[29.167903,39.640071],[29.166983,39.639588],[29.164262,39.639439],[29.163644,39.64035],[29.16679,39.641691],[29.168864,39.641853],[29.169223,39.640946],[29.170654,39.641219],[29.173857,39.64026],[29.174291,39.641751],[29.176375,39.642212],[29.176277,39.643213],[29.17732,39.643494],[29.176825,39.644203],[29.180513,39.646333],[29.181796,39.646009],[29.185342,39.647742],[29.18433,39.648461],[29.184538,39.650955],[29.184538,39.650956],[29.190658,39.654007],[29.199694,39.653205],[29.202071,39.652989],[29.206175,39.652532],[29.209238,39.652117],[29.217386,39.650933]]]]}},{"type":"Feature","properties":{"id":"TR-Y-16-004-M-0004","level":"yerlesim","type":"mahalle","parent_id":"TR-D-16-004","province_id":"TR-P-16","province_name":"Bursa","district_id":"TR-D-16-004","name":"Ballısaray","source_raw_name":"Ballısaray","source":"Kamu kaynak","source_only":false},"geometry":{"type":"MultiPolygon","coordinates":[[[[29.190314,39.688885],[29.190366,39.689074],[29.190388,39.689155],[29.190937,39.690258],[29.189086,39.690293],[29.190368,39.691779],[29.191299,39.691921],[29.191146,39.693593],[29.1958,39.694301],[29.200798,39.696114],[29.2053,39.696878],[29.205739,39.696953],[29.206696,39.697115],[29.20764,39.696555],[29.209322,39.695555],[29.216,39.691929],[29.218729,39.690366],[29.222507,39.686239],[29.225455,39.681888],[29.228253,39.67929],[29.230582,39.677956],[29.237036,39.674033],[29.240804,39.672847],[29.240796,39.672787],[29.240507,39.670726],[29.240153,39.668206],[29.240154,39.668208],[29.240153,39.668206],[29.239776,39.667386],[29.238881,39.665439],[29.2383,39.664175],[29.234403,39.658889],[29.230322,39.654621],[29.227354,39.651097],[29.22685,39.650068],[29.225035,39.646366],[29.224498,39.644756],[29.217386,39.650933],[29.209238,39.652117],[29.206175,39.652532],[29.202071,39.652989],[29.203305,39.65742],[29.192664,39.664582],[29.19221,39.67643],[29.188924,39.677903],[29.18883,39.678927],[29.188233,39.679574],[29.189003,39.68115],[29.188948,39.682662],[29.190724,39.683503],[29.191752,39.683484],[29.191057,39.685386],[29.187584,39.686025],[29.186889,39.685962],[29.186595,39.686671],[29.187107,39.68681],[29.18757,39.687267],[29.188944,39.688085],[29.189617,39.688832],[29.189986,39.688649],[29.190314,39.688885]]]]}},{"type":"Feature","properties":{"id":"TR-Y-16-004-M-0005","level":"yerlesim","type":"mahalle","parent_id":"TR-D-16-004","province_id":"TR-P-16","province_name":"Bursa","district_id":"TR-D-16-004","name":"Bekdemirler","source_raw_name":"Bekdemirler","source":"Kamu kaynak","source_only":false},"geometry":{"type":"MultiPolygon","coordinates":[[[[29.162354,39.668087],[29.163888,39.667152],[29.165236,39.667182],[29.165422,39.666514],[29.165594,39.665769],[29.165638,39.665498],[29.165573,39.665003],[29.165511,39.664673],[29.165339,39.664175],[29.165185,39.663731],[29.168211,39.661194],[29.166667,39.6608],[29.166297,39.659454],[29.169332,39.658552],[29.170376,39.656925],[29.172267,39.657656],[29.173779,39.657036],[29.175222,39.657685],[29.175798,39.655137],[29.177868,39.654845],[29.180156,39.652174],[29.181661,39.650206],[29.182877,39.650606],[29.18433,39.648461],[29.185342,39.647742],[29.181796,39.646009],[29.180513,39.646333],[29.176825,39.644203],[29.17732,39.643494],[29.176277,39.643213],[29.176375,39.642212],[29.174291,39.641751],[29.173857,39.64026],[29.170654,39.641219],[29.169223,39.640946],[29.168864,39.641853],[29.16679,39.641691],[29.163644,39.64035],[29.161362,39.641793],[29.159953,39.642219],[29.159854,39.643285],[29.158181,39.643451],[29.15674,39.642878],[29.157165,39.64407],[29.155252,39.644905],[29.154033,39.643128],[29.15199,39.643966],[29.151172,39.645278],[29.150731,39.646192],[29.149591,39.64724],[29.14879,39.646591],[29.148266,39.647325],[29.147107,39.64777],[29.147593,39.650842],[29.148257,39.652098],[29.147578,39.652896],[29.148444,39.655598],[29.14799,39.65609],[29.147564,39.657487],[29.145809,39.658849],[29.145829,39.659513],[29.146899,39.661245],[29.145752,39.662052],[29.146323,39.662826],[29.146855,39.662333],[29.148519,39.663088],[29.149014,39.663924],[29.14998,39.664813],[29.149135,39.665312],[29.149396,39.666152],[29.157396,39.667031],[29.162354,39.668087]]]]}},{"type":"Feature","properties":{"id":"TR-Y-16-004-M-0006","level":"yerlesim","type":"mahalle","parent_id":"TR-D-16-004","province_id":"TR-P-16","province_name":"Bursa","district_id":"TR-D-16-004","name":"Çakmak","source_raw_name":"Çakmak","source":"Kamu kaynak","source_only":false},"geometry":{"type":"MultiPolygon","coordinates":[[[[29.142399,39.77516],[29.140096,39.772157],[29.135082,39.768851],[29.135171,39.766236],[29.136497,39.764166],[29.138783,39.760599],[29.141548,39.756842],[29.145262,39.753112],[29.144613,39.748551],[29.146691,39.744592],[29.147371,39.739221],[29.150082,39.730147],[29.152711,39.719742],[29.152221,39.715106],[29.150482,39.716143],[29.140631,39.722013],[29.137754,39.720797],[29.135216,39.720844],[29.133082,39.719498],[29.127243,39.723991],[29.125608,39.724179],[29.123669,39.724402],[29.119256,39.721448],[29.116957,39.719909],[29.114574,39.720183],[29.113504,39.719395],[29.10944,39.71843],[29.106322,39.719064],[29.102397,39.717751],[29.103959,39.715068],[29.103917,39.713684],[29.100125,39.716753],[29.09626,39.7174],[29.091905,39.716671],[29.089476,39.71659],[29.085511,39.717709],[29.085129,39.719908],[29.083673,39.72034],[29.083048,39.720032],[29.080392,39.719222],[29.079839,39.717926],[29.082972,39.717755],[29.082291,39.714997],[29.082215,39.714986],[29.079049,39.71451],[29.07469,39.714538],[29.074372,39.714761],[29.072666,39.715962],[29.072408,39.716143],[29.070878,39.717219],[29.070369,39.717495],[29.06838,39.718571],[29.065007,39.718892],[29.065005,39.718892],[29.064577,39.720339],[29.066452,39.722003],[29.067712,39.722325],[29.069306,39.722733],[29.071075,39.723185],[29.071746,39.723357],[29.073615,39.723835],[29.077052,39.725603],[29.079747,39.725163],[29.081786,39.726033],[29.081804,39.726041],[29.081801,39.726109],[29.081703,39.72825],[29.081702,39.728264],[29.079254,39.730643],[29.079235,39.730661],[29.073843,39.742227],[29.073828,39.742258],[29.073858,39.742303],[29.076817,39.746787],[29.07798,39.748549],[29.079166,39.750346],[29.079718,39.751236],[29.080551,39.752226],[29.082921,39.755039],[29.083366,39.755417],[29.085802,39.754565],[29.087466,39.753984],[29.090068,39.753074],[29.092884,39.754544],[29.093103,39.754659],[29.096709,39.756541],[29.098023,39.757227],[29.09985,39.75818],[29.101533,39.759058],[29.1043,39.760502],[29.104347,39.760527],[29.104315,39.760578],[29.103111,39.762532],[29.101947,39.764422],[29.101648,39.764907],[29.100207,39.767247],[29.099457,39.768465],[29.096077,39.77395],[29.095351,39.775129],[29.09531,39.775196],[29.095366,39.775205],[29.097522,39.775548],[29.100097,39.776677],[29.1036,39.774915],[29.106977,39.774592],[29.107795,39.774682],[29.110585,39.774989],[29.115138,39.77562],[29.11804,39.775165],[29.118627,39.775073],[29.119857,39.774881],[29.122078,39.775493],[29.125951,39.774769],[29.127829,39.775257],[29.129227,39.776669],[29.131416,39.777017],[29.13144,39.777021],[29.131431,39.777092],[29.131181,39.779315],[29.131174,39.779378],[29.131196,39.779391],[29.133934,39.781026],[29.13552,39.783933],[29.13591,39.784649],[29.1378,39.785528],[29.140212,39.788277],[29.140961,39.789129],[29.141656,39.78955],[29.141666,39.789556],[29.143895,39.790905],[29.146192,39.793337],[29.147048,39.794244],[29.14915,39.795886],[29.150389,39.796965],[29.15138,39.797934],[29.151399,39.797953],[29.152623,39.793749],[29.150098,39.78883],[29.147509,39.781821],[29.142399,39.77516]]]]}},{"type":"Feature","properties":{"id":"TR-Y-16-004-M-0007","level":"yerlesim","type":"mahalle","parent_id":"TR-D-16-004","province_id":"TR-P-16","province_name":"Bursa","district_id":"TR-D-16-004","name":"Çamoğlu","source_raw_name":"Çamoğlu","source":"Kamu kaynak","source_only":false},"geometry":{"type":"MultiPolygon","coordinates":[[[[29.127243,39.723991],[29.133082,39.719498],[29.135216,39.720844],[29.137754,39.720797],[29.140631,39.722013],[29.150482,39.716143],[29.152221,39.715106],[29.151811,39.714564],[29.141515,39.700945],[29.140782,39.699974],[29.119948,39.698704],[29.11998,39.699076],[29.120116,39.699449],[29.120039,39.699683],[29.119748,39.699858],[29.119323,39.700118],[29.119038,39.70043],[29.118795,39.70088],[29.118556,39.701248],[29.118425,39.701449],[29.118049,39.701898],[29.117742,39.702159],[29.117392,39.702316],[29.11702,39.702502],[29.116652,39.7029],[29.116339,39.703035],[29.115437,39.703485],[29.115167,39.70377],[29.114939,39.704261],[29.114609,39.704578],[29.114398,39.704828],[29.113906,39.705156],[29.113573,39.705703],[29.113358,39.706296],[29.113236,39.706535],[29.112506,39.706884],[29.111597,39.707346],[29.110743,39.708117],[29.109692,39.709196],[29.108947,39.709568],[29.108706,39.709898],[29.108214,39.710134],[29.107677,39.710473],[29.106395,39.711127],[29.105585,39.711875],[29.10546,39.712366],[29.105131,39.712661],[29.103917,39.713684],[29.103959,39.715068],[29.102397,39.717751],[29.106322,39.719064],[29.10944,39.71843],[29.113504,39.719395],[29.114574,39.720183],[29.116957,39.719909],[29.119256,39.721448],[29.123669,39.724402],[29.125608,39.724179],[29.127243,39.723991]]]]}},{"type":"Feature","properties":{"id":"TR-Y-16-004-M-0008","level":"yerlesim","type":"mahalle","parent_id":"TR-D-16-004","province_id":"TR-P-16","province_name":"Bursa","district_id":"TR-D-16-004","name":"Çatalsöğüt","source_raw_name":"Çatalsöğüt","source":"Kamu kaynak","source_only":false},"geometry":{"type":"MultiPolygon","coordinates":[[[[29.152904,39.803172],[29.154469,39.802265],[29.157418,39.802813],[29.159409,39.803982],[29.159435,39.803936],[29.160236,39.802524],[29.160264,39.802475],[29.160487,39.802081],[29.161248,39.80074],[29.162001,39.799412],[29.162139,39.797614],[29.162279,39.795789],[29.162308,39.795763],[29.163948,39.794278],[29.165509,39.792865],[29.165507,39.792851],[29.164086,39.783643],[29.163911,39.78271],[29.163552,39.780791],[29.163336,39.779641],[29.163367,39.779601],[29.164274,39.778418],[29.164275,39.778418],[29.165884,39.779895],[29.165884,39.779895],[29.167919,39.780349],[29.169622,39.780729],[29.169633,39.780711],[29.169649,39.780686],[29.170684,39.779057],[29.170829,39.77883],[29.172269,39.776564],[29.172269,39.776564],[29.169806,39.775274],[29.168865,39.774782],[29.167224,39.773923],[29.167276,39.772359],[29.169365,39.771147],[29.17032,39.769332],[29.170341,39.763549],[29.172608,39.761552],[29.17363,39.758642],[29.173669,39.757365],[29.173831,39.752151],[29.172526,39.749284],[29.176366,39.745852],[29.180325,39.742964],[29.183429,39.741889],[29.181914,39.732383],[29.182486,39.728867],[29.183446,39.723106],[29.183446,39.723106],[29.168834,39.723943],[29.163504,39.720645],[29.159445,39.718133],[29.161514,39.712264],[29.161575,39.709791],[29.15241,39.714999],[29.152221,39.715106],[29.152711,39.719742],[29.150082,39.730147],[29.147371,39.739221],[29.146691,39.744592],[29.144613,39.748551],[29.145262,39.753112],[29.141548,39.756842],[29.138783,39.760599],[29.136497,39.764166],[29.135171,39.766236],[29.135082,39.768851],[29.140096,39.772157],[29.142399,39.77516],[29.147509,39.781821],[29.150098,39.78883],[29.152623,39.793749],[29.151399,39.797953],[29.151395,39.79801],[29.151344,39.79873],[29.151132,39.801701],[29.15113,39.801724],[29.146004,39.80526],[29.145982,39.805274],[29.145965,39.805287],[29.145998,39.80535],[29.146834,39.806952],[29.147185,39.807625],[29.147212,39.807675],[29.147212,39.807675],[29.148327,39.806613],[29.148836,39.806127],[29.149879,39.805133],[29.150438,39.804601],[29.151294,39.804105],[29.152669,39.803308],[29.152904,39.803172]]]]}},{"type":"Feature","properties":{"id":"TR-Y-16-004-M-0009","level":"yerlesim","type":"mahalle","parent_id":"TR-D-16-004","province_id":"TR-P-16","province_name":"Bursa","district_id":"TR-D-16-004","name":"Dedebalı","source_raw_name":"Dedebali","source":"Kamu kaynak","source_only":false},"geometry":{"type":"MultiPolygon","coordinates":[[[[29.078468,39.671718],[29.083743,39.671096],[29.086067,39.670298],[29.086188,39.670214],[29.086318,39.670212],[29.089827,39.669007],[29.091093,39.665685],[29.091192,39.663308],[29.093652,39.659965],[29.0951,39.652804],[29.088375,39.648527],[29.085685,39.645076],[29.083473,39.644616],[29.078498,39.646904],[29.076099,39.648847],[29.073688,39.65039],[29.069363,39.648467],[29.062645,39.644271],[29.055951,39.640088],[29.053025,39.63826],[29.045717,39.63599],[29.041289,39.638464],[29.041157,39.639786],[29.042522,39.639762],[29.04125,39.642952],[29.036202,39.645416],[29.034837,39.645439],[29.035903,39.646872],[29.035081,39.647942],[29.035624,39.648989],[29.033096,39.650089],[29.033375,39.653779],[29.035988,39.65558],[29.033816,39.657202],[29.032258,39.656437],[29.030574,39.657259],[29.02729,39.655864],[29.026653,39.65684],[29.025983,39.657867],[29.026749,39.65849],[29.026794,39.658526],[29.027731,39.659288],[29.028104,39.660337],[29.029473,39.660445],[29.031062,39.662264],[29.034499,39.662996],[29.036748,39.664012],[29.040239,39.66659],[29.04383,39.666791],[29.04689,39.666341],[29.048054,39.665265],[29.049419,39.665241],[29.051924,39.663349],[29.052316,39.665058],[29.054042,39.665687],[29.056567,39.664455],[29.0578,39.665752],[29.057347,39.66774],[29.058402,39.668777],[29.060256,39.667952],[29.062808,39.667643],[29.064999,39.66668],[29.068599,39.667144],[29.069864,39.669497],[29.073678,39.671408],[29.075998,39.671192],[29.078468,39.671718]]]]}},{"type":"Feature","properties":{"id":"TR-Y-16-004-M-0010","level":"yerlesim","type":"mahalle","parent_id":"TR-D-16-004","province_id":"TR-P-16","province_name":"Bursa","district_id":"TR-D-16-004","name":"Delicegüney","source_raw_name":"Delicegüney","source":"Kamu kaynak","source_only":false},"geometry":{"type":"MultiPolygon","coordinates":[[[[29.024547,39.661091],[29.026749,39.65849],[29.025983,39.657867],[29.026653,39.65684],[29.02729,39.655864],[29.024475,39.653685],[29.024949,39.651724],[29.023566,39.649897],[29.023935,39.648863],[29.023063,39.647945],[29.022015,39.646841],[29.02176,39.646486],[29.020629,39.644912],[29.018367,39.644849],[29.01725,39.643018],[29.014055,39.642868],[29.013753,39.64164],[29.01096,39.641585],[29.010634,39.641502],[29.008683,39.641008],[29.009574,39.639656],[29.009521,39.637807],[29.008443,39.637312],[29.007008,39.638262],[29.003668,39.637702],[29.001404,39.637536],[29.000024,39.635812],[28.99866,39.634602],[28.998119,39.635128],[28.997973,39.636942],[28.9977,39.639995],[28.996792,39.643094],[28.994754,39.644413],[28.994599,39.646262],[28.992785,39.648138],[28.99314,39.649657],[28.992451,39.650952],[28.991208,39.655258],[28.991201,39.655281],[28.991365,39.655421],[28.994091,39.657762],[28.999007,39.65826],[28.999627,39.658323],[29.00435,39.660129],[29.009562,39.664141],[29.016258,39.664435],[29.02016,39.663547],[29.022671,39.662272],[29.024547,39.661091]]]]}},{"type":"Feature","properties":{"id":"TR-Y-16-004-M-0011","level":"yerlesim","type":"mahalle","parent_id":"TR-D-16-004","province_id":"TR-P-16","province_name":"Bursa","district_id":"TR-D-16-004","name":"Dutluca","source_raw_name":"Dutluca","source":"Kamu kaynak","source_only":false},"geometry":{"type":"MultiPolygon","coordinates":[[[[29.07003,39.709345],[29.072643,39.707431],[29.07733,39.703997],[29.0824,39.700283],[29.083234,39.698573],[29.086988,39.690878],[29.08758,39.689666],[29.089479,39.685772],[29.0912,39.683336],[29.094881,39.678124],[29.097504,39.674411],[29.100988,39.671049],[29.098601,39.669171],[29.098364,39.668985],[29.094407,39.668001],[29.091153,39.667664],[29.089827,39.669007],[29.086318,39.670212],[29.086188,39.670214],[29.086067,39.670298],[29.083743,39.671096],[29.078468,39.671718],[29.075998,39.671192],[29.073678,39.671408],[29.069864,39.669497],[29.068599,39.667144],[29.064999,39.66668],[29.062808,39.667643],[29.060256,39.667952],[29.058402,39.668777],[29.057347,39.66774],[29.0578,39.665752],[29.056567,39.664455],[29.054042,39.665687],[29.052316,39.665058],[29.051924,39.663349],[29.049419,39.665241],[29.048054,39.665265],[29.04689,39.666341],[29.04383,39.666791],[29.040239,39.66659],[29.041198,39.669399],[29.041139,39.669523],[29.041097,39.669709],[29.041109,39.669891],[29.041125,39.670105],[29.041011,39.670345],[29.040709,39.670531],[29.04013,39.670855],[29.040124,39.670945],[29.039996,39.6711],[29.039945,39.671214],[29.039592,39.671574],[29.03937,39.671884],[29.038928,39.674267],[29.038466,39.67599],[29.039374,39.677822],[29.038241,39.679953],[29.04067,39.683424],[29.04323,39.686991],[29.042974,39.689899],[29.038796,39.693007],[29.03717,39.695807],[29.033651,39.698112],[29.033709,39.70009],[29.031341,39.700924],[29.028475,39.700974],[29.028439,39.700974],[29.028439,39.700975],[29.030581,39.704104],[29.030581,39.704104],[29.033367,39.705903],[29.034875,39.708857],[29.037174,39.713357],[29.037174,39.713358],[29.0375,39.713534],[29.038366,39.714004],[29.03995,39.714881],[29.040667,39.715298],[29.04517,39.717967],[29.04517,39.717967],[29.046602,39.720185],[29.046602,39.720185],[29.046658,39.72018],[29.048306,39.720023],[29.05064,39.717644],[29.052784,39.715458],[29.054718,39.714491],[29.055976,39.713862],[29.056934,39.713383],[29.058803,39.712448],[29.05935,39.712174],[29.06288,39.711235],[29.062911,39.711226],[29.0652,39.710617],[29.07003,39.709345]]]]}},{"type":"Feature","properties":{"id":"TR-Y-16-004-M-0012","level":"yerlesim","type":"mahalle","parent_id":"TR-D-16-004","province_id":"TR-P-16","province_name":"Bursa","district_id":"TR-D-16-004","name":"Ece","source_raw_name":"Ece","source":"Kamu kaynak","source_only":false},"geometry":{"type":"MultiPolygon","coordinates":[[[[29.184531,39.697309],[29.18602,39.692435],[29.18858,39.693079],[29.186523,39.694156],[29.188325,39.694468],[29.191146,39.693593],[29.191299,39.691921],[29.190368,39.691779],[29.189086,39.690293],[29.190937,39.690258],[29.190388,39.689155],[29.190366,39.689074],[29.190314,39.688885],[29.189986,39.688649],[29.189617,39.688832],[29.188944,39.688085],[29.18757,39.687267],[29.187107,39.68681],[29.186595,39.686671],[29.186889,39.685962],[29.187584,39.686025],[29.191057,39.685386],[29.191752,39.683484],[29.190724,39.683503],[29.188948,39.682662],[29.189003,39.68115],[29.188233,39.679574],[29.18883,39.678927],[29.188924,39.677903],[29.188912,39.677908],[29.187923,39.678351],[29.186444,39.677419],[29.185614,39.677354],[29.184425,39.679057],[29.182785,39.679568],[29.180678,39.678407],[29.179335,39.678512],[29.178359,39.677091],[29.174518,39.676763],[29.174555,39.677962],[29.17208,39.678248],[29.170554,39.682584],[29.170338,39.683025],[29.169924,39.683872],[29.169818,39.683715],[29.169789,39.683551],[29.169745,39.683599],[29.169671,39.683638],[29.169607,39.683667],[29.169546,39.683692],[29.16947,39.683709],[29.169397,39.683714],[29.169328,39.68371],[29.169234,39.683691],[29.16912,39.683654],[29.169013,39.683613],[29.168892,39.68356],[29.168801,39.683511],[29.168744,39.683485],[29.168677,39.683462],[29.168631,39.683449],[29.168583,39.683442],[29.168535,39.683438],[29.168471,39.683441],[29.167912,39.683035],[29.167595,39.683719],[29.167221,39.685099],[29.167447,39.686845],[29.168535,39.68802],[29.169079,39.690373],[29.172488,39.69217],[29.177965,39.697043],[29.179794,39.698669],[29.181028,39.699915],[29.182528,39.700118],[29.182575,39.701617],[29.18771,39.698634],[29.184531,39.697309]]]]}},{"type":"Feature","properties":{"id":"TR-Y-16-004-M-0013","level":"yerlesim","type":"mahalle","parent_id":"TR-D-16-004","province_id":"TR-P-16","province_name":"Bursa","district_id":"TR-D-16-004","name":"Gedikören","source_raw_name":"Gedikören","source":"Kamu kaynak","source_only":false},"geometry":{"type":"MultiPolygon","coordinates":[[[[29.098174,39.64755],[29.101522,39.642791],[29.100403,39.640012],[29.10107,39.636401],[29.102028,39.633884],[29.102303,39.630824],[29.101711,39.627692],[29.100623,39.625912],[29.101088,39.624204],[29.10847,39.620371],[29.111251,39.610077],[29.112915,39.604994],[29.113217,39.602688],[29.113056,39.602684],[29.112904,39.602679],[29.112817,39.602677],[29.112742,39.602675],[29.112585,39.602657],[29.112471,39.602629],[29.112386,39.602585],[29.112328,39.60251],[29.112274,39.602427],[29.112222,39.602334],[29.112146,39.602233],[29.112071,39.602162],[29.111951,39.602083],[29.111862,39.602005],[29.111741,39.601897],[29.111739,39.601895],[29.111738,39.601894],[29.111685,39.601819],[29.11163,39.601733],[29.111561,39.601632],[29.111497,39.601496],[29.111404,39.601376],[29.111313,39.601263],[29.11127,39.601206],[29.111181,39.601124],[29.111042,39.601048],[29.110891,39.600989],[29.110718,39.600944],[29.110598,39.600893],[29.11051,39.600831],[29.110437,39.600742],[29.110373,39.600633],[29.110264,39.600518],[29.110153,39.600384],[29.110111,39.600271],[29.110098,39.600099],[29.110012,39.599857],[29.109884,39.599761],[29.1097,39.59968],[29.109523,39.599633],[29.109343,39.599606],[29.109143,39.59957],[29.109,39.59952],[29.108877,39.599448],[29.108743,39.599367],[29.108538,39.599248],[29.108269,39.599097],[29.107883,39.598896],[29.107783,39.598888],[29.10771,39.598902],[29.107591,39.598981],[29.107402,39.59911],[29.107179,39.599177],[29.106908,39.599197],[29.106661,39.599199],[29.106434,39.599213],[29.106233,39.599196],[29.106105,39.599126],[29.106047,39.599023],[29.105966,39.598855],[29.105885,39.598644],[29.105808,39.59846],[29.105788,39.59824],[29.104155,39.601282],[29.102503,39.606883],[29.102213,39.614386],[29.099098,39.618241],[29.097025,39.618079],[29.094736,39.61932],[29.087026,39.620858],[29.073249,39.625479],[29.062094,39.629474],[29.053449,39.630755],[29.047373,39.630762],[29.046098,39.631384],[29.046894,39.63207],[29.045526,39.633894],[29.045717,39.63599],[29.053025,39.63826],[29.055951,39.640088],[29.062645,39.644271],[29.069363,39.648467],[29.073688,39.65039],[29.076099,39.648847],[29.078498,39.646904],[29.083473,39.644616],[29.085685,39.645076],[29.088375,39.648527],[29.0951,39.652804],[29.096899,39.652898],[29.099374,39.653027],[29.098174,39.64755]]]]}},{"type":"Feature","properties":{"id":"TR-Y-16-004-M-0014","level":"yerlesim","type":"mahalle","parent_id":"TR-D-16-004","province_id":"TR-P-16","province_name":"Bursa","district_id":"TR-D-16-004","name":"Gökçeler","source_raw_name":"Gökçeler","source":"Kamu kaynak","source_only":false},"geometry":{"type":"MultiPolygon","coordinates":[[[[29.030574,39.657259],[29.032258,39.656437],[29.033816,39.657202],[29.035988,39.65558],[29.033375,39.653779],[29.033096,39.650089],[29.035624,39.648989],[29.035081,39.647942],[29.035903,39.646872],[29.034837,39.645439],[29.036202,39.645416],[29.04125,39.642952],[29.042522,39.639762],[29.041157,39.639786],[29.041289,39.638464],[29.045717,39.63599],[29.045526,39.633894],[29.046894,39.63207],[29.046098,39.631384],[29.047373,39.630762],[29.053449,39.630755],[29.062094,39.629474],[29.060539,39.62892],[29.060204,39.628759],[29.05993,39.62861],[29.059681,39.628443],[29.059544,39.628325],[29.059452,39.628176],[29.059324,39.628005],[29.059185,39.627865],[29.059124,39.627722],[29.059159,39.627427],[29.059083,39.627178],[29.059017,39.627099],[29.058935,39.627029],[29.058416,39.6268],[29.058346,39.626699],[29.058318,39.626591],[29.058246,39.626566],[29.058161,39.626516],[29.058134,39.626475],[29.058124,39.626395],[29.058092,39.626252],[29.057907,39.626059],[29.057667,39.625769],[29.05742,39.625648],[29.057145,39.625431],[29.056952,39.625266],[29.055965,39.624012],[29.052537,39.617626],[29.045513,39.601416],[29.042612,39.60199],[29.020506,39.604811],[29.014292,39.605275],[29.008449,39.605832],[29.004738,39.605646],[29.00279,39.605924],[28.999103,39.606614],[28.993624,39.608127],[28.992217,39.607433],[28.991565,39.60739],[28.991971,39.60762],[28.99233,39.607819],[28.992923,39.608129],[28.993697,39.608561],[28.994126,39.609004],[28.994581,39.609567],[28.994767,39.609962],[28.994898,39.610327],[28.994763,39.610659],[28.994149,39.611064],[28.993606,39.611255],[28.992856,39.611287],[28.992505,39.611264],[28.99209,39.611169],[28.991335,39.61085],[28.990692,39.610541],[28.990111,39.610173],[28.98923,39.609972],[28.98865,39.609866],[28.98783,39.609818],[28.987212,39.609852],[28.986672,39.6098],[28.986212,39.609579],[28.985745,39.609111],[28.985323,39.608796],[28.98501,39.608529],[28.984927,39.60818],[28.984888,39.608089],[28.984878,39.60806],[28.98486,39.608026],[28.984809,39.608017],[28.984611,39.607744],[28.98441,39.607556],[28.984132,39.607313],[28.983564,39.607175],[28.982814,39.607219],[28.982282,39.607353],[28.981836,39.607459],[28.981374,39.60755],[28.981128,39.60757],[28.980564,39.607827],[28.980507,39.607964],[28.980352,39.608342],[28.980264,39.608509],[28.980207,39.608719],[28.980071,39.609151],[28.979788,39.609675],[28.979656,39.609906],[28.979482,39.610105],[28.979372,39.610331],[28.979242,39.61055],[28.97912,39.610731],[28.979009,39.610852],[28.97892,39.610976],[28.978691,39.611256],[28.978555,39.611405],[28.978378,39.611641],[28.978201,39.611877],[28.978065,39.612117],[28.978069,39.612301],[28.977788,39.612667],[28.977759,39.612697],[28.977502,39.612961],[28.97739,39.613133],[28.977343,39.613205],[28.977062,39.613483],[28.976723,39.613782],[28.976515,39.613917],[28.976283,39.614012],[28.97588,39.614034],[28.975572,39.614034],[28.975429,39.614014],[28.974775,39.613748],[28.974189,39.613471],[28.973716,39.61302],[28.974327,39.615694],[28.975436,39.61732],[28.975064,39.618252],[28.977502,39.619855],[28.977309,39.622428],[28.982266,39.623782],[28.988456,39.626452],[28.992867,39.627301],[28.99463,39.628504],[28.994808,39.630373],[28.995011,39.632507],[28.996227,39.633205],[28.999127,39.632333],[28.99866,39.634602],[29.000024,39.635812],[29.001404,39.637536],[29.003668,39.637702],[29.007008,39.638262],[29.008443,39.637312],[29.009521,39.637807],[29.009574,39.639656],[29.008683,39.641008],[29.010634,39.641502],[29.01096,39.641585],[29.013753,39.64164],[29.014055,39.642868],[29.01725,39.643018],[29.018367,39.644849],[29.020629,39.644912],[29.02176,39.646486],[29.022015,39.646841],[29.023935,39.648863],[29.023566,39.649897],[29.024949,39.651724],[29.024475,39.653685],[29.02729,39.655864],[29.030574,39.657259]]]]}},{"type":"Feature","properties":{"id":"TR-Y-16-004-M-0015","level":"yerlesim","type":"mahalle","parent_id":"TR-D-16-004","province_id":"TR-P-16","province_name":"Bursa","district_id":"TR-D-16-004","name":"Gülözü","source_raw_name":"Gülözü","source":"Kamu kaynak","source_only":false},"geometry":{"type":"MultiPolygon","coordinates":[[[[29.264417,39.735825],[29.268634,39.734075],[29.272269,39.732567],[29.278558,39.728874],[29.280817,39.727547],[29.284065,39.724443],[29.284566,39.721846],[29.284683,39.719493],[29.28479,39.717367],[29.28273,39.715748],[29.277774,39.713845],[29.269558,39.709812],[29.262231,39.705174],[29.258933,39.702182],[29.250955,39.703982],[29.247166,39.704581],[29.241801,39.70689],[29.237873,39.711589],[29.237358,39.715576],[29.237213,39.716643],[29.235955,39.725321],[29.241102,39.727285],[29.245123,39.729624],[29.249111,39.735115],[29.249111,39.735115],[29.251791,39.736439],[29.252483,39.736908],[29.254445,39.738348],[29.256735,39.739209],[29.258818,39.738845],[29.260476,39.738295],[29.264417,39.735825]]]]}},{"type":"Feature","properties":{"id":"TR-Y-16-004-M-0016","level":"yerlesim","type":"mahalle","parent_id":"TR-D-16-004","province_id":"TR-P-16","province_name":"Bursa","district_id":"TR-D-16-004","name":"Harmancıkakalan","source_raw_name":"Harmancık Akalan","source":"Kamu kaynak","source_only":false},"geometry":{"type":"MultiPolygon","coordinates":[[[[29.192313,39.766652],[29.196109,39.765017],[29.198299,39.767008],[29.200938,39.767192],[29.202911,39.768718],[29.206246,39.768498],[29.206246,39.768498],[29.206246,39.768498],[29.206275,39.766231],[29.208846,39.764307],[29.20952,39.7632],[29.212218,39.763093],[29.21777,39.762945],[29.220133,39.762606],[29.219636,39.759724],[29.219488,39.753163],[29.219398,39.749178],[29.216917,39.747585],[29.209877,39.747956],[29.207219,39.746264],[29.203359,39.744314],[29.203359,39.744313],[29.197765,39.741379],[29.193807,39.739284],[29.195012,39.735331],[29.182486,39.728867],[29.181914,39.732383],[29.183429,39.741889],[29.180325,39.742964],[29.176366,39.745852],[29.172526,39.749284],[29.173831,39.752151],[29.17363,39.758642],[29.172608,39.761552],[29.170341,39.763549],[29.17032,39.769332],[29.169365,39.771147],[29.167276,39.772359],[29.167224,39.773923],[29.172269,39.776564],[29.172998,39.777175],[29.173896,39.775746],[29.174637,39.774566],[29.17487,39.774275],[29.176099,39.772741],[29.177914,39.772472],[29.178709,39.771988],[29.17766,39.770836],[29.17723,39.770062],[29.177608,39.769196],[29.179193,39.768803],[29.179808,39.768672],[29.180143,39.768603],[29.18119,39.768387],[29.182246,39.76817],[29.183215,39.76797],[29.184273,39.767753],[29.184749,39.767655],[29.185363,39.767573],[29.186401,39.767436],[29.192313,39.766652]]]]}},{"type":"Feature","properties":{"id":"TR-Y-16-004-M-0018","level":"yerlesim","type":"mahalle","parent_id":"TR-D-16-004","province_id":"TR-P-16","province_name":"Bursa","district_id":"TR-D-16-004","name":"Ilıcaksu","source_raw_name":"Ilıcaksu","source":"Kamu kaynak","source_only":false},"geometry":{"type":"MultiPolygon","coordinates":[[[[29.042974,39.689899],[29.04323,39.686991],[29.04067,39.683424],[29.038241,39.679953],[29.039374,39.677822],[29.038466,39.67599],[29.038928,39.674267],[29.03937,39.671884],[29.039592,39.671574],[29.039945,39.671214],[29.039996,39.6711],[29.040124,39.670945],[29.04013,39.670855],[29.040709,39.670531],[29.041011,39.670345],[29.041125,39.670105],[29.041109,39.669891],[29.041097,39.669709],[29.041139,39.669523],[29.041198,39.669399],[29.040239,39.66659],[29.036748,39.664012],[29.034499,39.662996],[29.031062,39.662264],[29.029473,39.660445],[29.028104,39.660337],[29.027731,39.659288],[29.026794,39.658526],[29.026749,39.65849],[29.024547,39.661091],[29.022671,39.662272],[29.02016,39.663547],[29.016258,39.664435],[29.009562,39.664141],[29.00435,39.660129],[28.999627,39.658323],[28.999007,39.65826],[28.994091,39.657762],[28.991365,39.655421],[28.991201,39.655281],[28.990751,39.656839],[28.989225,39.657908],[28.986794,39.660036],[28.982424,39.662668],[28.982424,39.662668],[28.985459,39.668536],[28.985457,39.668579],[28.985474,39.668611],[28.985472,39.668655],[28.985399,39.670875],[28.985398,39.670929],[28.985414,39.67095],[28.986629,39.672511],[28.987768,39.673976],[28.989727,39.677582],[28.992357,39.687361],[28.993547,39.691302],[28.993547,39.691302],[28.99512,39.690691],[28.995438,39.690567],[28.996034,39.690336],[28.996874,39.69001],[28.997255,39.689862],[28.997558,39.689745],[28.998305,39.689455],[28.998825,39.689253],[28.998979,39.689192],[28.999362,39.688994],[29.000459,39.688426],[29.001606,39.688627],[29.002571,39.689037],[29.003021,39.689319],[29.00353,39.689666],[29.004043,39.689977],[29.005186,39.690273],[29.005893,39.690452],[29.008156,39.691202],[29.01409,39.693182],[29.01753,39.695248],[29.01753,39.695248],[29.024335,39.699481],[29.026026,39.700097],[29.028439,39.700974],[29.028475,39.700974],[29.031341,39.700924],[29.033709,39.70009],[29.033651,39.698112],[29.03717,39.695807],[29.038796,39.693007],[29.042974,39.689899]]]]}},{"type":"Feature","properties":{"id":"TR-Y-16-004-M-0019","level":"yerlesim","type":"mahalle","parent_id":"TR-D-16-004","province_id":"TR-P-16","province_name":"Bursa","district_id":"TR-D-16-004","name":"İshaklar","source_raw_name":"İshaklar","source":"Kamu kaynak","source_only":false},"geometry":{"type":"MultiPolygon","coordinates":[[[[29.13553,39.638572],[29.136641,39.636852],[29.13977,39.637694],[29.140262,39.636885],[29.142693,39.631841],[29.145683,39.632386],[29.148384,39.631936],[29.149104,39.630123],[29.14983,39.62851],[29.149617,39.625815],[29.150241,39.620905],[29.149771,39.619895],[29.148841,39.6179],[29.148806,39.617825],[29.148196,39.616514],[29.147934,39.615951],[29.14761,39.615255],[29.147534,39.615194],[29.14735,39.615044],[29.145091,39.613202],[29.145017,39.613103],[29.144879,39.612915],[29.144072,39.61182],[29.14229,39.6094],[29.141322,39.608085],[29.140932,39.607555],[29.140369,39.606791],[29.139652,39.60368],[29.13948,39.602936],[29.139474,39.602909],[29.139441,39.602581],[29.141396,39.583401],[29.138957,39.583477],[29.135061,39.584312],[29.131133,39.585747],[29.130238,39.586074],[29.125693,39.587744],[29.122447,39.5883],[29.115955,39.590448],[29.109646,39.592567],[29.105325,39.59335],[29.105788,39.59824],[29.105808,39.59846],[29.105885,39.598644],[29.105966,39.598855],[29.106047,39.599023],[29.106105,39.599126],[29.106233,39.599196],[29.106434,39.599213],[29.106661,39.599199],[29.106908,39.599197],[29.107179,39.599177],[29.107402,39.59911],[29.107591,39.598981],[29.10771,39.598902],[29.107783,39.598888],[29.107883,39.598896],[29.108269,39.599097],[29.108538,39.599248],[29.108743,39.599367],[29.108877,39.599448],[29.109,39.59952],[29.109143,39.59957],[29.109343,39.599606],[29.109523,39.599633],[29.1097,39.59968],[29.109884,39.599761],[29.110012,39.599857],[29.110098,39.600099],[29.110111,39.600271],[29.110153,39.600384],[29.110264,39.600518],[29.110373,39.600633],[29.110437,39.600742],[29.11051,39.600831],[29.110598,39.600893],[29.110718,39.600944],[29.110891,39.600989],[29.111042,39.601048],[29.111181,39.601124],[29.11127,39.601206],[29.111313,39.601263],[29.111404,39.601376],[29.111497,39.601496],[29.111561,39.601632],[29.11163,39.601733],[29.111685,39.601819],[29.111738,39.601894],[29.111739,39.601895],[29.111741,39.601897],[29.111862,39.602005],[29.111951,39.602083],[29.112071,39.602162],[29.112146,39.602233],[29.112222,39.602334],[29.112274,39.602427],[29.112328,39.60251],[29.112386,39.602585],[29.112471,39.602629],[29.112585,39.602657],[29.112742,39.602675],[29.112817,39.602677],[29.112904,39.602679],[29.113056,39.602684],[29.113217,39.602688],[29.113516,39.60274],[29.113764,39.602806],[29.113891,39.60284],[29.114018,39.602933],[29.114146,39.603081],[29.114203,39.603221],[29.114284,39.603389],[29.11439,39.603533],[29.11449,39.603665],[29.114593,39.603789],[29.114675,39.603883],[29.114733,39.603964],[29.114849,39.604013],[29.115015,39.604045],[29.115237,39.604061],[29.115465,39.60403],[29.120095,39.607363],[29.127279,39.61403],[29.122503,39.622715],[29.122444,39.625015],[29.125799,39.629053],[29.126679,39.632436],[29.128398,39.633704],[29.127952,39.636011],[29.133462,39.63861],[29.13553,39.638572]]]]}},{"type":"Feature","properties":{"id":"TR-Y-16-004-M-0020","level":"yerlesim","type":"mahalle","parent_id":"TR-D-16-004","province_id":"TR-P-16","province_name":"Bursa","district_id":"TR-D-16-004","name":"Karaca","source_raw_name":"Karaca","source":"Kamu kaynak","source_only":false},"geometry":{"type":"MultiPolygon","coordinates":[[[[29.157165,39.64407],[29.15674,39.642878],[29.158181,39.643451],[29.159854,39.643285],[29.159953,39.642219],[29.161362,39.641793],[29.163644,39.64035],[29.164262,39.639439],[29.166983,39.639588],[29.167903,39.640071],[29.169441,39.639642],[29.168033,39.63597],[29.169799,39.634537],[29.168948,39.632154],[29.170102,39.631832],[29.170963,39.630417],[29.169546,39.626444],[29.170246,39.624032],[29.171393,39.62351],[29.175376,39.623709],[29.17722,39.623801],[29.180835,39.62329],[29.182969,39.622746],[29.184944,39.621708],[29.185536,39.62127],[29.185942,39.621052],[29.186154,39.620702],[29.186284,39.620543],[29.186689,39.620477],[29.186945,39.620498],[29.187196,39.620496],[29.187409,39.62044],[29.187637,39.620286],[29.188037,39.619877],[29.188962,39.619128],[29.189175,39.619053],[29.189554,39.619155],[29.189798,39.619336],[29.190003,39.619502],[29.190272,39.619557],[29.190531,39.619456],[29.190837,39.619023],[29.191169,39.618469],[29.19154,39.617945],[29.191843,39.617764],[29.192124,39.617705],[29.192508,39.617803],[29.193004,39.617981],[29.193401,39.618126],[29.193736,39.618204],[29.194627,39.618275],[29.200887,39.615957],[29.201574,39.617244],[29.203383,39.617209],[29.206932,39.615013],[29.212162,39.611776],[29.210194,39.60917],[29.207065,39.606196],[29.201375,39.608673],[29.197351,39.610426],[29.196948,39.610819],[29.196282,39.611469],[29.196182,39.611567],[29.194217,39.613484],[29.192323,39.613301],[29.191624,39.613233],[29.190943,39.612706],[29.189106,39.611281],[29.187846,39.610866],[29.186233,39.610336],[29.186195,39.610337],[29.182845,39.610447],[29.182035,39.610474],[29.179132,39.610569],[29.177996,39.610674],[29.177527,39.610718],[29.175592,39.610897],[29.173673,39.611609],[29.172849,39.611915],[29.170955,39.612619],[29.170724,39.612705],[29.168113,39.613674],[29.166717,39.614003],[29.166209,39.614122],[29.1633,39.614806],[29.1626,39.61497],[29.161184,39.615303],[29.160368,39.615721],[29.158208,39.616827],[29.15748,39.617199],[29.154177,39.61889],[29.150982,39.620525],[29.150241,39.620905],[29.149617,39.625815],[29.14983,39.62851],[29.149104,39.630123],[29.148384,39.631936],[29.145683,39.632386],[29.142693,39.631841],[29.140262,39.636885],[29.13977,39.637694],[29.140019,39.638383],[29.14157,39.641559],[29.143004,39.641933],[29.146417,39.643569],[29.147038,39.642758],[29.145718,39.641883],[29.146863,39.641262],[29.149269,39.643816],[29.15199,39.643966],[29.154033,39.643128],[29.155252,39.644905],[29.157165,39.64407]]]]}},{"type":"Feature","properties":{"id":"TR-Y-16-004-M-0021","level":"yerlesim","type":"mahalle","parent_id":"TR-D-16-004","province_id":"TR-P-16","province_name":"Bursa","district_id":"TR-D-16-004","name":"Kepekdere","source_raw_name":"Kepekdere","source":"Kamu kaynak","source_only":false},"geometry":{"type":"MultiPolygon","coordinates":[[[[29.184425,39.679057],[29.185614,39.677354],[29.186444,39.677419],[29.187923,39.678351],[29.188912,39.677908],[29.188924,39.677903],[29.19221,39.67643],[29.192664,39.664582],[29.203305,39.65742],[29.202071,39.652989],[29.199694,39.653205],[29.190658,39.654007],[29.184538,39.650956],[29.184538,39.650955],[29.18433,39.648461],[29.182877,39.650606],[29.181661,39.650206],[29.180156,39.652174],[29.177868,39.654845],[29.175798,39.655137],[29.175222,39.657685],[29.173779,39.657036],[29.172267,39.657656],[29.170376,39.656925],[29.169332,39.658552],[29.166297,39.659454],[29.166667,39.6608],[29.168211,39.661194],[29.165185,39.663731],[29.165339,39.664175],[29.165511,39.664673],[29.165573,39.665003],[29.165638,39.665498],[29.165594,39.665769],[29.165422,39.666514],[29.165236,39.667182],[29.164968,39.667634],[29.164167,39.668663],[29.165526,39.670611],[29.16677,39.670668],[29.16715,39.672901],[29.168858,39.674549],[29.167881,39.676407],[29.170066,39.676766],[29.170621,39.677956],[29.17154,39.677539],[29.17208,39.678248],[29.174555,39.677962],[29.174518,39.676763],[29.178359,39.677091],[29.179335,39.678512],[29.180678,39.678407],[29.182785,39.679568],[29.184425,39.679057]]]]}},{"type":"Feature","properties":{"id":"TR-Y-16-004-M-0023","level":"yerlesim","type":"mahalle","parent_id":"TR-D-16-004","province_id":"TR-P-16","province_name":"Bursa","district_id":"TR-D-16-004","name":"Kılavuzlar","source_raw_name":"Kılavuzlar","source":"Kamu kaynak","source_only":false},"geometry":{"type":"MultiPolygon","coordinates":[[[[29.187005,39.712042],[29.18485,39.708809],[29.183287,39.70756],[29.191715,39.70602],[29.18771,39.698634],[29.182575,39.701617],[29.182528,39.700118],[29.181028,39.699915],[29.179794,39.698669],[29.176152,39.701622],[29.174794,39.701186],[29.173213,39.703177],[29.161639,39.709756],[29.161575,39.709793],[29.161575,39.709791],[29.161514,39.712264],[29.159445,39.718133],[29.163504,39.720645],[29.168834,39.723943],[29.183446,39.723106],[29.183446,39.723106],[29.183886,39.721823],[29.183904,39.721772],[29.184182,39.72096],[29.184852,39.718705],[29.185519,39.716301],[29.186498,39.712768],[29.187005,39.712042]]]]}},{"type":"Feature","properties":{"id":"TR-Y-16-004-M-0024","level":"yerlesim","type":"mahalle","parent_id":"TR-D-16-004","province_id":"TR-P-16","province_name":"Bursa","district_id":"TR-D-16-004","name":"Kocapınar","source_raw_name":"Kocapınar","source":"Kamu kaynak","source_only":false},"geometry":{"type":"MultiPolygon","coordinates":[[[[29.094736,39.61932],[29.097025,39.618079],[29.099098,39.618241],[29.102213,39.614386],[29.102503,39.606883],[29.104155,39.601282],[29.105788,39.59824],[29.105325,39.59335],[29.094805,39.595257],[29.094425,39.595313],[29.077831,39.597761],[29.069018,39.598782],[29.068511,39.598821],[29.052374,39.600057],[29.045513,39.601416],[29.049294,39.610142],[29.052537,39.617626],[29.055965,39.624012],[29.056952,39.625266],[29.057145,39.625431],[29.05742,39.625648],[29.057667,39.625769],[29.057907,39.626059],[29.058092,39.626252],[29.058124,39.626395],[29.058134,39.626475],[29.058161,39.626516],[29.058246,39.626566],[29.058318,39.626591],[29.058346,39.626699],[29.058416,39.6268],[29.058935,39.627029],[29.059017,39.627099],[29.059083,39.627178],[29.059159,39.627427],[29.059124,39.627722],[29.059185,39.627865],[29.059324,39.628005],[29.059452,39.628176],[29.059544,39.628325],[29.059681,39.628443],[29.05993,39.62861],[29.060204,39.628759],[29.060539,39.62892],[29.062094,39.629474],[29.073249,39.625479],[29.087026,39.620858],[29.094736,39.61932]]]]}},{"type":"Feature","properties":{"id":"TR-Y-16-004-M-0025","level":"yerlesim","type":"mahalle","parent_id":"TR-D-16-004","province_id":"TR-P-16","province_name":"Bursa","district_id":"TR-D-16-004","name":"Kozluca","source_raw_name":"Kozluca","source":"Kamu kaynak","source_only":false},"geometry":{"type":"MultiPolygon","coordinates":[[[[29.186195,39.610337],[29.186233,39.610336],[29.187846,39.610866],[29.189106,39.611281],[29.190943,39.612706],[29.191624,39.613233],[29.192323,39.613301],[29.194217,39.613484],[29.196182,39.611567],[29.196282,39.611469],[29.196948,39.610819],[29.197351,39.610426],[29.201375,39.608673],[29.207065,39.606196],[29.204564,39.603818],[29.204536,39.603791],[29.198228,39.59906],[29.193176,39.595937],[29.193127,39.595906],[29.187469,39.59099],[29.180571,39.585545],[29.180419,39.585425],[29.177173,39.583753],[29.174298,39.582271],[29.167711,39.581714],[29.155822,39.582535],[29.154262,39.582642],[29.15083,39.583106],[29.141396,39.583401],[29.139441,39.602581],[29.139474,39.602909],[29.13948,39.602936],[29.139652,39.60368],[29.140369,39.606791],[29.140932,39.607555],[29.141322,39.608085],[29.14229,39.6094],[29.144072,39.61182],[29.144879,39.612915],[29.145017,39.613103],[29.145091,39.613202],[29.14735,39.615044],[29.147534,39.615194],[29.14761,39.615255],[29.147934,39.615951],[29.148196,39.616514],[29.148806,39.617825],[29.148841,39.6179],[29.149771,39.619895],[29.150241,39.620905],[29.150982,39.620525],[29.154177,39.61889],[29.15748,39.617199],[29.158208,39.616827],[29.160368,39.615721],[29.161184,39.615303],[29.1626,39.61497],[29.1633,39.614806],[29.166209,39.614122],[29.166717,39.614003],[29.168113,39.613674],[29.170724,39.612705],[29.170955,39.612619],[29.172849,39.611915],[29.173673,39.611609],[29.175592,39.610897],[29.177527,39.610718],[29.177996,39.610674],[29.179132,39.610569],[29.182035,39.610474],[29.182845,39.610447],[29.186195,39.610337]]]]}},{"type":"Feature","properties":{"id":"TR-Y-16-004-M-0026","level":"yerlesim","type":"mahalle","parent_id":"TR-D-16-004","province_id":"TR-P-16","province_name":"Bursa","district_id":"TR-D-16-004","name":"Merkez","source_raw_name":"Merkez","source":"Kamu kaynak","source_only":false},"geometry":{"type":"MultiPolygon","coordinates":[[[[29.085511,39.717709],[29.089476,39.71659],[29.091905,39.716671],[29.09626,39.7174],[29.100125,39.716753],[29.103917,39.713684],[29.105131,39.712661],[29.10546,39.712366],[29.105585,39.711875],[29.106395,39.711127],[29.107677,39.710473],[29.108214,39.710134],[29.108706,39.709898],[29.108947,39.709568],[29.109692,39.709196],[29.110743,39.708117],[29.111597,39.707346],[29.112506,39.706884],[29.113236,39.706535],[29.113358,39.706296],[29.113573,39.705703],[29.113906,39.705156],[29.114398,39.704828],[29.114609,39.704578],[29.114939,39.704261],[29.115167,39.70377],[29.115437,39.703485],[29.116339,39.703035],[29.116652,39.7029],[29.11702,39.702502],[29.117392,39.702316],[29.117742,39.702159],[29.118049,39.701898],[29.118425,39.701449],[29.118556,39.701248],[29.118795,39.70088],[29.119038,39.70043],[29.119323,39.700118],[29.119748,39.699858],[29.120039,39.699683],[29.120116,39.699449],[29.11998,39.699076],[29.119948,39.698704],[29.140782,39.699974],[29.141515,39.700945],[29.151811,39.714564],[29.152221,39.715106],[29.15241,39.714999],[29.161575,39.709791],[29.161575,39.709793],[29.161639,39.709756],[29.173213,39.703177],[29.174794,39.701186],[29.176152,39.701622],[29.179794,39.698669],[29.177965,39.697043],[29.172488,39.69217],[29.169079,39.690373],[29.168535,39.68802],[29.167447,39.686845],[29.167221,39.685099],[29.167595,39.683719],[29.167912,39.683035],[29.168471,39.683441],[29.168535,39.683438],[29.168583,39.683442],[29.168631,39.683449],[29.168677,39.683462],[29.168744,39.683485],[29.168801,39.683511],[29.168892,39.68356],[29.169013,39.683613],[29.16912,39.683654],[29.169234,39.683691],[29.169328,39.68371],[29.169397,39.683714],[29.16947,39.683709],[29.169546,39.683692],[29.169607,39.683667],[29.169671,39.683638],[29.169745,39.683599],[29.169789,39.683551],[29.169818,39.683715],[29.169924,39.683872],[29.170338,39.683025],[29.170554,39.682584],[29.17208,39.678248],[29.17154,39.677539],[29.170621,39.677956],[29.170066,39.676766],[29.167881,39.676407],[29.168858,39.674549],[29.16715,39.672901],[29.16677,39.670668],[29.165526,39.670611],[29.164167,39.668663],[29.164968,39.667634],[29.165236,39.667182],[29.163888,39.667152],[29.162354,39.668087],[29.157396,39.667031],[29.149396,39.666152],[29.149135,39.665312],[29.14998,39.664813],[29.149014,39.663924],[29.138587,39.668509],[29.13467,39.67023],[29.129936,39.671344],[29.12132,39.671898],[29.118778,39.671644],[29.112337,39.671001],[29.111813,39.679746],[29.107899,39.688676],[29.089479,39.685772],[29.08758,39.689666],[29.086988,39.690878],[29.083234,39.698573],[29.0824,39.700283],[29.07733,39.703997],[29.072643,39.707431],[29.07003,39.709345],[29.073051,39.710778],[29.079062,39.71194],[29.082199,39.71491],[29.082231,39.714941],[29.082291,39.714997],[29.082972,39.717755],[29.079839,39.717926],[29.080392,39.719222],[29.083048,39.720032],[29.083673,39.72034],[29.085129,39.719908],[29.085511,39.717709]]]]}},{"type":"Feature","properties":{"id":"TR-Y-16-004-M-0027","level":"yerlesim","type":"mahalle","parent_id":"TR-D-16-004","province_id":"TR-P-16","province_name":"Bursa","district_id":"TR-D-16-004","name":"Nalbant","source_raw_name":"Nalbant","source":"Kamu kaynak","source_only":false},"geometry":{"type":"MultiPolygon","coordinates":[[[[29.243132,39.73544],[29.247192,39.734836],[29.247196,39.734837],[29.249106,39.735114],[29.249106,39.735114],[29.249111,39.735115],[29.245123,39.729624],[29.241102,39.727285],[29.235955,39.725321],[29.237213,39.716643],[29.237208,39.71664],[29.226778,39.710894],[29.218456,39.708599],[29.210763,39.706121],[29.21076,39.70612],[29.204853,39.708844],[29.204853,39.708847],[29.203409,39.714893],[29.202235,39.720335],[29.206765,39.720588],[29.209231,39.720402],[29.215803,39.719719],[29.221936,39.719564],[29.221939,39.719565],[29.224132,39.720152],[29.225608,39.722099],[29.227116,39.724087],[29.228492,39.725208],[29.23069,39.726997],[29.232746,39.728711],[29.233851,39.729706],[29.233853,39.729708],[29.235368,39.731072],[29.237244,39.73245],[29.238992,39.733734],[29.243129,39.73544],[29.243132,39.73544]]]]}},{"type":"Feature","properties":{"id":"TR-Y-16-004-M-0028","level":"yerlesim","type":"mahalle","parent_id":"TR-D-16-004","province_id":"TR-P-16","province_name":"Bursa","district_id":"TR-D-16-004","name":"Okçular","source_raw_name":"Okçular","source":"Kamu kaynak","source_only":false},"geometry":{"type":"MultiPolygon","coordinates":[[[[29.241801,39.70689],[29.247166,39.704581],[29.250955,39.703982],[29.258933,39.702182],[29.257221,39.700629],[29.256387,39.699145],[29.25329,39.692564],[29.25326,39.692486],[29.253259,39.692486],[29.252027,39.689313],[29.24878,39.684397],[29.242565,39.673451],[29.240153,39.668206],[29.240804,39.672847],[29.237036,39.674033],[29.230582,39.677956],[29.228253,39.67929],[29.225455,39.681888],[29.222507,39.686239],[29.218729,39.690366],[29.216,39.691929],[29.209322,39.695555],[29.206696,39.697115],[29.205739,39.696953],[29.205675,39.698041],[29.204827,39.706466],[29.204853,39.708844],[29.21076,39.70612],[29.218456,39.708599],[29.226778,39.710894],[29.237213,39.716643],[29.237358,39.715576],[29.237873,39.711589],[29.241801,39.70689]]]]}},{"type":"Feature","properties":{"id":"TR-Y-16-004-M-0029","level":"yerlesim","type":"mahalle","parent_id":"TR-D-16-004","province_id":"TR-P-16","province_name":"Bursa","district_id":"TR-D-16-004","name":"Saçaklı","source_raw_name":"Saçaklı","source":"Kamu kaynak","source_only":false},"geometry":{"type":"MultiPolygon","coordinates":[[[[29.112337,39.671001],[29.107411,39.670919],[29.100988,39.671049],[29.097504,39.674411],[29.094881,39.678124],[29.0912,39.683336],[29.089479,39.685772],[29.107899,39.688676],[29.111813,39.679746],[29.112337,39.671001]]]]}},{"type":"Feature","properties":{"id":"TR-Y-16-004-M-0030","level":"yerlesim","type":"mahalle","parent_id":"TR-D-16-004","province_id":"TR-P-16","province_name":"Bursa","district_id":"TR-D-16-004","name":"Yayabaşı","source_raw_name":"Yayabaşı","source":"Kamu kaynak","source_only":false},"geometry":{"type":"MultiPolygon","coordinates":[[[[29.193402,39.721214],[29.196026,39.720953],[29.196649,39.721286],[29.19723,39.721299],[29.199646,39.720593],[29.202235,39.720336],[29.202235,39.720335],[29.203409,39.714893],[29.204853,39.708847],[29.204853,39.708844],[29.204827,39.706466],[29.205675,39.698041],[29.205739,39.696953],[29.205739,39.696953],[29.2053,39.696878],[29.200798,39.696114],[29.1958,39.694301],[29.191146,39.693593],[29.188325,39.694468],[29.186523,39.694156],[29.18858,39.693079],[29.18602,39.692435],[29.184531,39.697309],[29.18771,39.698634],[29.191715,39.70602],[29.183287,39.70756],[29.18485,39.708809],[29.187005,39.712042],[29.186498,39.712768],[29.185519,39.716301],[29.184852,39.718705],[29.184182,39.72096],[29.183904,39.721772],[29.183886,39.721823],[29.185836,39.721658],[29.193402,39.721214]]]]}},{"type":"Feature","properties":{"id":"TR-Y-16-004-M-0031","level":"yerlesim","type":"mahalle","parent_id":"TR-D-16-004","province_id":"TR-P-16","province_name":"Bursa","district_id":"TR-D-16-004","name":"Yeşilyurt","source_raw_name":"Yeşilyurt","source":"Kamu kaynak","source_only":false},"geometry":{"type":"MultiPolygon","coordinates":[[[[29.241193,39.747828],[29.240376,39.745874],[29.240348,39.745806],[29.24036,39.745798],[29.240386,39.745782],[29.241432,39.745109],[29.242728,39.744275],[29.242728,39.744275],[29.243538,39.744944],[29.24356,39.744963],[29.243554,39.74502],[29.24333,39.74703],[29.243325,39.747077],[29.243346,39.747106],[29.244279,39.748387],[29.244279,39.748387],[29.247005,39.748178],[29.24809,39.747378],[29.248093,39.747376],[29.248088,39.747358],[29.248075,39.747302],[29.247529,39.745115],[29.247511,39.745042],[29.247514,39.74504],[29.247544,39.745011],[29.247898,39.744676],[29.249279,39.743367],[29.249279,39.743352],[29.249383,39.740423],[29.249384,39.740395],[29.249368,39.740347],[29.24897,39.739188],[29.248287,39.737196],[29.248266,39.737134],[29.248272,39.737121],[29.248501,39.736574],[29.249111,39.735115],[29.249111,39.735115],[29.249106,39.735114],[29.249106,39.735114],[29.247196,39.734837],[29.247192,39.734836],[29.243132,39.73544],[29.243129,39.73544],[29.238992,39.733734],[29.237244,39.73245],[29.235368,39.731072],[29.233853,39.729708],[29.23052,39.731438],[29.225548,39.736165],[29.2224,39.73798],[29.217647,39.741287],[29.214802,39.74277],[29.21222,39.745231],[29.209877,39.747956],[29.21638,39.747613],[29.216917,39.747585],[29.219398,39.749178],[29.219488,39.753163],[29.219632,39.759578],[29.219636,39.759724],[29.219957,39.761585],[29.220133,39.762606],[29.220133,39.762606],[29.221097,39.762147],[29.221913,39.761759],[29.222011,39.761712],[29.222298,39.761575],[29.224101,39.760717],[29.224921,39.760326],[29.225735,39.76014],[29.227102,39.759826],[29.227205,39.759803],[29.22864,39.759474],[29.230011,39.758583],[29.230121,39.758511],[29.230825,39.758054],[29.231187,39.757819],[29.231303,39.757744],[29.231303,39.757743],[29.231431,39.75766],[29.232111,39.757219],[29.233017,39.756181],[29.2334,39.755742],[29.234098,39.754942],[29.234747,39.754198],[29.235165,39.753961],[29.236721,39.753081],[29.23812,39.752537],[29.239738,39.751992],[29.240712,39.750665],[29.241253,39.749928],[29.241764,39.749231],[29.241774,39.749217],[29.241774,39.749216],[29.241749,39.749156],[29.241193,39.747828]]]]}}]}