{"type":"FeatureCollection","name":"turkiye_map.dist.mahalle_geometrileri_by_district.TR-D-42-030","features":[{"type":"Feature","properties":{"id":"TR-Y-42-030-M-0001","level":"yerlesim","type":"mahalle","parent_id":"TR-D-42-030","province_id":"TR-P-42","district_id":"TR-D-42-030","name":"Arasöğüt","source_raw_name":"ARASÖĞÜT","source":"Kamuya açık veri ve kent rehberi servisleri","source_label":"Kamuya açık veri ve kent rehberi servisleri","source_name":"Konya Büyükşehir Belediyesi Açık Veri Platformu - Mahalleler"},"geometry":{"type":"MultiPolygon","coordinates":[[[[32.090129,37.276134],[32.090272,37.276355],[32.090467,37.276657],[32.090554,37.276834],[32.09071,37.27711],[32.090844,37.277389],[32.090951,37.277657],[32.091038,37.277875],[32.091093,37.278023],[32.091244,37.278031],[32.091465,37.278063],[32.091725,37.278142],[32.092017,37.278267],[32.092325,37.278401],[32.092623,37.278499],[32.093022,37.278588],[32.093605,37.27866],[32.094377,37.278765],[32.094536,37.278792],[32.094536,37.278817],[32.094534,37.278987],[32.09455,37.279146],[32.094571,37.279231],[32.09464,37.279416],[32.094702,37.27957],[32.094849,37.27992],[32.094567,37.279997],[32.094276,37.280081],[32.094372,37.280346],[32.094433,37.280509],[32.094459,37.28057],[32.09454,37.280784],[32.09459,37.280924],[32.094618,37.281012],[32.094711,37.281221],[32.094816,37.281445],[32.095018,37.28141],[32.095424,37.281332],[32.095496,37.281532],[32.095567,37.281741],[32.095575,37.281763],[32.095643,37.281985],[32.095703,37.282142],[32.095388,37.282251],[32.095065,37.282331],[32.094778,37.282408],[32.094717,37.282426],[32.094791,37.282604],[32.094894,37.282884],[32.094978,37.28286],[32.095103,37.283223],[32.095196,37.28349],[32.09488,37.283561],[32.094953,37.283756],[32.094995,37.283889],[32.095044,37.284081],[32.095045,37.284107],[32.09557,37.283997],[32.096477,37.283794],[32.097022,37.283675],[32.097857,37.283511],[32.097914,37.283544],[32.097765,37.283661],[32.097505,37.283826],[32.097204,37.284051],[32.097015,37.284269],[32.096755,37.284624],[32.096484,37.285071],[32.096154,37.285625],[32.096181,37.285634],[32.096341,37.285671],[32.096424,37.285687],[32.09653,37.285698],[32.096656,37.285704],[32.096758,37.285704],[32.096926,37.285697],[32.097109,37.285683],[32.097282,37.285667],[32.097535,37.285633],[32.097712,37.285614],[32.097839,37.285594],[32.097976,37.285566],[32.098072,37.285541],[32.098196,37.2855],[32.098317,37.285454],[32.098515,37.285381],[32.098595,37.285352],[32.098696,37.285318],[32.098751,37.285301],[32.098814,37.285425],[32.098888,37.28562],[32.099132,37.285536],[32.099318,37.285477],[32.099375,37.285462],[32.099493,37.285438],[32.099663,37.285395],[32.099818,37.285359],[32.099884,37.28534],[32.099941,37.285322],[32.100267,37.285227],[32.10051,37.285148],[32.100785,37.285065],[32.100808,37.285058],[32.10105,37.285518],[32.10123,37.285813],[32.10154,37.286279],[32.101711,37.286614],[32.101786,37.286801],[32.101791,37.286838],[32.101812,37.286867],[32.102505,37.286975],[32.102784,37.286983],[32.102978,37.285887],[32.103129,37.285216],[32.103186,37.285223],[32.103468,37.285247],[32.103875,37.285269],[32.104217,37.285277],[32.10459,37.28529],[32.104764,37.285287],[32.104918,37.285291],[32.10549,37.285318],[32.105708,37.285332],[32.105734,37.285003],[32.105756,37.284863],[32.105792,37.284639],[32.105822,37.284644],[32.105851,37.284419],[32.105901,37.28418],[32.105951,37.28393],[32.105953,37.283914],[32.106251,37.283982],[32.106686,37.284139],[32.107139,37.284327],[32.107237,37.284384],[32.107219,37.284551],[32.107143,37.284942],[32.107171,37.284949],[32.107209,37.284966],[32.107355,37.285033],[32.107494,37.285088],[32.107724,37.285167],[32.108013,37.285253],[32.108317,37.285343],[32.108483,37.285383],[32.108763,37.285441],[32.108979,37.285481],[32.109042,37.285321],[32.109076,37.285214],[32.109136,37.285034],[32.109149,37.285014],[32.109398,37.285032],[32.109596,37.285015],[32.109885,37.284915],[32.110185,37.28484],[32.110424,37.284811],[32.111166,37.284859],[32.111478,37.284898],[32.111891,37.285017],[32.112157,37.285035],[32.112395,37.28508],[32.112389,37.285096],[32.112528,37.285124],[32.112711,37.285155],[32.112981,37.285217],[32.11323,37.285285],[32.113338,37.285311],[32.113545,37.285353],[32.113719,37.285389],[32.113897,37.285434],[32.11406,37.285483],[32.114251,37.285535],[32.114427,37.28558],[32.114635,37.285629],[32.114759,37.285656],[32.114849,37.285669],[32.114913,37.285673],[32.115178,37.28571],[32.115462,37.285745],[32.115623,37.285764],[32.115789,37.285781],[32.11593,37.285791],[32.116089,37.285789],[32.116235,37.285788],[32.116307,37.285795],[32.116388,37.285811],[32.116494,37.285836],[32.11662,37.285854],[32.116737,37.285859],[32.116859,37.285861],[32.116946,37.285855],[32.117047,37.285835],[32.117088,37.285836],[32.117186,37.285872],[32.117292,37.285915],[32.117355,37.285928],[32.117455,37.285932],[32.117701,37.286004],[32.117855,37.28606],[32.117928,37.28608],[32.118036,37.286098],[32.118195,37.286123],[32.118352,37.286148],[32.118482,37.286182],[32.118694,37.286241],[32.118796,37.286261],[32.119342,37.286374],[32.119548,37.286419],[32.119519,37.28664],[32.119518,37.286725],[32.119506,37.286817],[32.11949,37.286905],[32.119523,37.286934],[32.119543,37.286962],[32.119554,37.286998],[32.119667,37.286999],[32.119763,37.286998],[32.119774,37.287131],[32.119771,37.287212],[32.119771,37.287267],[32.11984,37.287266],[32.119867,37.287257],[32.119948,37.287223],[32.120002,37.287222],[32.120057,37.287228],[32.120188,37.287246],[32.12038,37.287279],[32.120411,37.287174],[32.120443,37.287108],[32.120641,37.28713],[32.120848,37.287163],[32.121071,37.287207],[32.121074,37.287228],[32.121059,37.287284],[32.121016,37.287401],[32.120979,37.287518],[32.120998,37.287531],[32.12103,37.287551],[32.121046,37.287524],[32.121069,37.287488],[32.121125,37.287404],[32.121157,37.287348],[32.121198,37.287246],[32.121226,37.287193],[32.121271,37.287139],[32.121304,37.287109],[32.121367,37.287068],[32.121416,37.287038],[32.121548,37.286949],[32.121717,37.286841],[32.121806,37.286789],[32.121927,37.286707],[32.122045,37.286616],[32.122134,37.286498],[32.122221,37.286397],[32.122281,37.286299],[32.122359,37.286121],[32.122437,37.285912],[32.122472,37.28583],[32.122509,37.285768],[32.122555,37.285709],[32.122677,37.285588],[32.122918,37.285372],[32.123123,37.285163],[32.123234,37.285056],[32.123015,37.28487],[32.122972,37.284826],[32.123044,37.284728],[32.123186,37.284587],[32.123246,37.284529],[32.123422,37.28437],[32.123601,37.284229],[32.123703,37.284138],[32.123758,37.283861],[32.123792,37.283657],[32.123803,37.28358],[32.123811,37.283456],[32.123807,37.283053],[32.123792,37.282757],[32.123778,37.28255],[32.123749,37.282384],[32.12373,37.282282],[32.123718,37.282232],[32.123668,37.282148],[32.123595,37.281943],[32.123502,37.281746],[32.123325,37.281396],[32.122821,37.280775],[32.121616,37.279295],[32.121222,37.278816],[32.120893,37.278403],[32.120822,37.278316],[32.12077,37.278265],[32.12064,37.278107],[32.120581,37.278034],[32.120498,37.277933],[32.120448,37.277877],[32.120399,37.277846],[32.120333,37.277822],[32.12023,37.277746],[32.119982,37.277482],[32.119859,37.27734],[32.119701,37.277157],[32.119773,37.277083],[32.119841,37.27704],[32.119789,37.27699],[32.11966,37.276899],[32.119488,37.276735],[32.119332,37.276576],[32.119218,37.276414],[32.119223,37.276344],[32.118931,37.276099],[32.118645,37.275849],[32.118377,37.275567],[32.118162,37.275352],[32.117974,37.275196],[32.117719,37.275008],[32.117393,37.274788],[32.117277,37.27473],[32.117218,37.274782],[32.116821,37.274544],[32.116552,37.274388],[32.116348,37.274271],[32.116147,37.274173],[32.1162,37.274123],[32.115762,37.273928],[32.115432,37.27379],[32.11491,37.273573],[32.114819,37.273517],[32.114717,37.273419],[32.114595,37.273311],[32.114405,37.273122],[32.114203,37.272902],[32.114033,37.272671],[32.114264,37.272581],[32.114245,37.272553],[32.114062,37.272226],[32.113729,37.271613],[32.113718,37.271599],[32.113258,37.271702],[32.11284,37.271841],[32.112479,37.271989],[32.112464,37.271976],[32.11223,37.2718],[32.111978,37.271659],[32.111816,37.271538],[32.112004,37.27118],[32.112131,37.270871],[32.112206,37.270626],[32.112361,37.270239],[32.112586,37.269811],[32.112161,37.269758],[32.111554,37.269564],[32.110959,37.269725],[32.110545,37.269767],[32.110316,37.269767],[32.110081,37.269741],[32.1099,37.269681],[32.109861,37.269703],[32.109647,37.269819],[32.109592,37.269852],[32.109383,37.269966],[32.109264,37.270034],[32.109219,37.270055],[32.109184,37.270086],[32.109134,37.270143],[32.109033,37.270263],[32.109001,37.270296],[32.108939,37.270349],[32.108876,37.270404],[32.108837,37.270444],[32.108769,37.270446],[32.108674,37.270457],[32.108464,37.270497],[32.108291,37.270532],[32.108162,37.270565],[32.107972,37.270659],[32.107178,37.271254],[32.106889,37.27145],[32.106516,37.271779],[32.105991,37.272292],[32.105953,37.272274],[32.105672,37.272165],[32.105592,37.272136],[32.105087,37.272059],[32.104973,37.272041],[32.104639,37.272003],[32.104453,37.271998],[32.104191,37.271994],[32.104023,37.272],[32.103936,37.272002],[32.103866,37.272006],[32.10383,37.272296],[32.10381,37.272491],[32.10352,37.272489],[32.103393,37.272485],[32.103281,37.272476],[32.103191,37.272469],[32.103091,37.272459],[32.102851,37.272434],[32.102725,37.272426],[32.10227,37.272401],[32.101761,37.272372],[32.101761,37.272504],[32.101759,37.27262],[32.101751,37.272729],[32.101742,37.27278],[32.101721,37.272966],[32.101712,37.273098],[32.101453,37.273104],[32.101185,37.273115],[32.101204,37.273387],[32.101221,37.273596],[32.101026,37.273604],[32.100834,37.273612],[32.100748,37.273618],[32.100634,37.27363],[32.100541,37.273636],[32.100383,37.273655],[32.10017,37.273685],[32.099695,37.273765],[32.099504,37.27379],[32.099355,37.273813],[32.099137,37.273844],[32.098978,37.273867],[32.098798,37.273888],[32.098642,37.273903],[32.09855,37.273909],[32.098293,37.273935],[32.098038,37.273962],[32.098085,37.274149],[32.098129,37.274317],[32.098025,37.274332],[32.097914,37.274355],[32.097688,37.274401],[32.097496,37.274439],[32.097472,37.274262],[32.097442,37.274113],[32.097396,37.273914],[32.097367,37.273821],[32.097324,37.273626],[32.09725,37.27331],[32.096657,37.273346],[32.096634,37.273349],[32.096705,37.273698],[32.09679,37.274215],[32.096895,37.274666],[32.096865,37.274671],[32.096683,37.274699],[32.096457,37.274741],[32.096156,37.274793],[32.09595,37.274826],[32.095639,37.274894],[32.095385,37.274952],[32.095363,37.274863],[32.095328,37.274703],[32.095292,37.274494],[32.095242,37.274256],[32.095049,37.274295],[32.094897,37.274329],[32.09467,37.274382],[32.094644,37.274388],[32.094359,37.27445],[32.094212,37.274499],[32.094076,37.274544],[32.094046,37.274555],[32.094272,37.274827],[32.094242,37.274836],[32.094012,37.274895],[32.093803,37.274955],[32.093345,37.275103],[32.093155,37.275158],[32.092972,37.275211],[32.092671,37.275296],[32.09256,37.275317],[32.09245,37.275331],[32.09253,37.275599],[32.091961,37.275621],[32.092029,37.275897],[32.092084,37.276113],[32.091918,37.276138],[32.091654,37.276189],[32.091345,37.276236],[32.091009,37.276296],[32.090984,37.276185],[32.090956,37.276092],[32.090912,37.275979],[32.090882,37.275907],[32.090696,37.275947],[32.090442,37.276023],[32.090324,37.276064],[32.090183,37.276123],[32.090129,37.276134]]]]}},{"type":"Feature","properties":{"id":"TR-Y-42-030-M-0003","level":"yerlesim","type":"mahalle","parent_id":"TR-D-42-030","province_id":"TR-P-42","district_id":"TR-D-42-030","name":"Sarayköy","source_raw_name":"SARAYKÖY","source":"Kamuya açık veri ve kent rehberi servisleri","source_label":"Kamuya açık veri ve kent rehberi servisleri","source_name":"Konya Büyükşehir Belediyesi Açık Veri Platformu - Mahalleler"},"geometry":{"type":"MultiPolygon","coordinates":[[[[32.120231,37.32459],[32.120337,37.324706],[32.120838,37.325365],[32.120987,37.325627],[32.121169,37.326028],[32.121247,37.32613],[32.121374,37.326315],[32.121393,37.326307],[32.12154,37.326281],[32.121491,37.326252],[32.121662,37.326155],[32.121837,37.326083],[32.12199,37.326014],[32.122138,37.326152],[32.122332,37.326353],[32.1224,37.326427],[32.122513,37.326535],[32.122591,37.326606],[32.122693,37.326701],[32.12271,37.326715],[32.122924,37.326834],[32.123238,37.326971],[32.12338,37.327061],[32.123501,37.327139],[32.123646,37.327224],[32.123718,37.327277],[32.123897,37.327436],[32.123977,37.327499],[32.124175,37.327644],[32.124334,37.327741],[32.124469,37.327795],[32.124557,37.327824],[32.124671,37.327853],[32.124736,37.327877],[32.124883,37.327944],[32.124954,37.327979],[32.125004,37.32801],[32.125046,37.328045],[32.12511,37.328095],[32.125201,37.328184],[32.12525,37.328232],[32.125305,37.328277],[32.125333,37.328314],[32.125371,37.328346],[32.125393,37.328358],[32.125421,37.328391],[32.125432,37.328415],[32.12544,37.328457],[32.125455,37.328483],[32.125478,37.328513],[32.125515,37.328552],[32.125599,37.328621],[32.12573,37.328711],[32.125906,37.328825],[32.12597,37.328876],[32.126066,37.328964],[32.126172,37.329085],[32.126213,37.329148],[32.126246,37.329255],[32.12628,37.329308],[32.126357,37.329385],[32.12656,37.329554],[32.126674,37.329653],[32.126721,37.329703],[32.126743,37.329733],[32.126767,37.329754],[32.126854,37.329846],[32.126904,37.329958],[32.12724,37.329867],[32.127546,37.329785],[32.127427,37.329689],[32.127381,37.329636],[32.12735,37.329578],[32.127307,37.3294],[32.127296,37.329269],[32.127378,37.329233],[32.127435,37.329195],[32.127603,37.329069],[32.127778,37.328946],[32.127758,37.328923],[32.127704,37.328913],[32.127591,37.328883],[32.12725,37.328748],[32.127207,37.328714],[32.127238,37.328685],[32.12725,37.328664],[32.12725,37.32864],[32.127243,37.328616],[32.127223,37.328586],[32.127178,37.328538],[32.127134,37.328477],[32.127114,37.328418],[32.127112,37.328379],[32.127128,37.328349],[32.127143,37.328321],[32.127146,37.328283],[32.127167,37.328239],[32.12717,37.32821],[32.127184,37.328185],[32.127269,37.328096],[32.127381,37.328004],[32.127404,37.327978],[32.127416,37.327952],[32.12742,37.327918],[32.127432,37.327881],[32.12746,37.32783],[32.127472,37.327796],[32.127473,37.32775],[32.127454,37.327695],[32.127471,37.327639],[32.127472,37.327557],[32.127453,37.327469],[32.127418,37.327339],[32.127414,37.327293],[32.127438,37.327277],[32.127484,37.327268],[32.127512,37.327265],[32.127544,37.327257],[32.127577,37.327244],[32.127576,37.327124],[32.127559,37.326983],[32.127537,37.32686],[32.127518,37.326791],[32.127498,37.326692],[32.127483,37.326564],[32.127469,37.326485],[32.127449,37.326418],[32.127415,37.32629],[32.127396,37.3262],[32.127391,37.326177],[32.127374,37.326127],[32.127352,37.326081],[32.127308,37.326002],[32.127283,37.325955],[32.127271,37.325911],[32.12727,37.325861],[32.127278,37.325832],[32.127296,37.325809],[32.127338,37.32578],[32.127418,37.325742],[32.127515,37.325703],[32.12761,37.325669],[32.127679,37.325649],[32.127735,37.325632],[32.127778,37.325615],[32.127821,37.325594],[32.127858,37.325568],[32.128014,37.325418],[32.128024,37.325396],[32.128024,37.325374],[32.128018,37.325357],[32.127963,37.325294],[32.128025,37.325271],[32.128079,37.325246],[32.128164,37.325201],[32.128245,37.325171],[32.128292,37.325153],[32.128331,37.325141],[32.128374,37.325139],[32.128425,37.325147],[32.128507,37.325172],[32.128598,37.325185],[32.128691,37.325177],[32.128795,37.325163],[32.128854,37.325164],[32.128894,37.325172],[32.128957,37.325201],[32.129013,37.325226],[32.129079,37.325246],[32.129164,37.32527],[32.129192,37.325275],[32.129249,37.325278],[32.129282,37.325273],[32.129328,37.325269],[32.129356,37.325272],[32.129386,37.325282],[32.1294,37.325299],[32.129522,37.325299],[32.129641,37.325293],[32.129752,37.325283],[32.129795,37.325276],[32.129854,37.325251],[32.129925,37.325206],[32.129991,37.325158],[32.130039,37.325114],[32.130127,37.325001],[32.130182,37.324919],[32.130218,37.324854],[32.130268,37.324729],[32.130334,37.324636],[32.13043,37.324494],[32.130533,37.324364],[32.130562,37.323855],[32.130523,37.323399],[32.130431,37.322972],[32.130297,37.322651],[32.130132,37.322553],[32.129955,37.322507],[32.129925,37.322275],[32.130219,37.322209],[32.130489,37.322147],[32.130496,37.322122],[32.130635,37.322098],[32.130871,37.322039],[32.131225,37.321945],[32.131363,37.321929],[32.131604,37.321919],[32.131843,37.321906],[32.132486,37.321811],[32.132578,37.32145],[32.132603,37.321313],[32.132656,37.321192],[32.132735,37.32107],[32.132854,37.320918],[32.133159,37.320951],[32.133352,37.321013],[32.133425,37.32087],[32.133504,37.320772],[32.133656,37.320674],[32.133795,37.320595],[32.134091,37.320454],[32.134336,37.320313],[32.134146,37.320123],[32.134021,37.319924],[32.133873,37.319742],[32.133771,37.31965],[32.133662,37.31949],[32.133581,37.319383],[32.133354,37.319015],[32.133301,37.318884],[32.133352,37.31884],[32.133448,37.318741],[32.133623,37.318512],[32.133813,37.318296],[32.133987,37.317993],[32.134224,37.31812],[32.134264,37.318022],[32.134304,37.317966],[32.134361,37.317848],[32.134468,37.317666],[32.134581,37.31752],[32.134701,37.317402],[32.134896,37.317161],[32.135117,37.317256],[32.135352,37.317024],[32.135025,37.316877],[32.134536,37.316673],[32.134754,37.316419],[32.134855,37.316311],[32.135383,37.316548],[32.135507,37.316622],[32.135691,37.316711],[32.135872,37.316773],[32.136246,37.316828],[32.136518,37.316859],[32.13665,37.316861],[32.136424,37.316807],[32.136229,37.316753],[32.136134,37.316706],[32.13604,37.316644],[32.135698,37.316363],[32.1359,37.316184],[32.13565,37.315468],[32.135801,37.315295],[32.135955,37.315134],[32.136106,37.315007],[32.136282,37.314883],[32.136493,37.31474],[32.136761,37.314589],[32.136724,37.314371],[32.137182,37.314339],[32.137432,37.314043],[32.137329,37.313958],[32.137243,37.313871],[32.13718,37.313816],[32.137136,37.313805],[32.137036,37.313727],[32.13716,37.313607],[32.137277,37.313415],[32.13736,37.313166],[32.137447,37.313012],[32.137317,37.312936],[32.137392,37.31282],[32.137534,37.312517],[32.137519,37.312512],[32.137609,37.312342],[32.137713,37.312176],[32.137621,37.312096],[32.137731,37.31194],[32.137838,37.311803],[32.137356,37.311495],[32.136995,37.311269],[32.137131,37.311166],[32.137256,37.311093],[32.13745,37.31098],[32.136974,37.310421],[32.136629,37.309888],[32.136174,37.309541],[32.135709,37.309183],[32.135095,37.308504],[32.13519,37.308399],[32.135232,37.308345],[32.135421,37.308118],[32.13555,37.30797],[32.135634,37.307892],[32.134798,37.30738],[32.134138,37.307001],[32.133842,37.306802],[32.133456,37.30731],[32.132896,37.308237],[32.13232,37.30923],[32.132087,37.309121],[32.131125,37.308654],[32.131012,37.308763],[32.130963,37.308913],[32.13106,37.308944],[32.131023,37.309145],[32.131302,37.309215],[32.131226,37.309333],[32.13111,37.309567],[32.130943,37.309843],[32.130759,37.310208],[32.130487,37.310573],[32.130376,37.310728],[32.13017,37.311014],[32.130077,37.311187],[32.129989,37.31132],[32.129838,37.31153],[32.129582,37.311748],[32.129338,37.311912],[32.129239,37.311917],[32.129024,37.311986],[32.128775,37.312077],[32.127943,37.312399],[32.127563,37.312537],[32.12728,37.312785],[32.127072,37.312978],[32.126759,37.313208],[32.126593,37.313365],[32.126282,37.313541],[32.126126,37.313594],[32.125869,37.313087],[32.125764,37.313219],[32.125575,37.313432],[32.125055,37.313639],[32.125093,37.313685],[32.124724,37.313806],[32.124692,37.313817],[32.124336,37.314053],[32.123935,37.313601],[32.123629,37.313199],[32.123531,37.313184],[32.123281,37.31274],[32.122788,37.313019],[32.122942,37.313197],[32.121876,37.313654],[32.12147,37.313403],[32.121294,37.313198],[32.121054,37.312874],[32.120823,37.31289],[32.120653,37.312937],[32.120539,37.313022],[32.120539,37.313225],[32.120522,37.313278],[32.120456,37.31356],[32.120415,37.313772],[32.120355,37.313967],[32.120221,37.314233],[32.120111,37.314475],[32.120016,37.314637],[32.119887,37.314826],[32.119753,37.315082],[32.11964,37.315333],[32.119547,37.315532],[32.119388,37.315778],[32.11929,37.315957],[32.119245,37.316068],[32.119104,37.316339],[32.118938,37.31669],[32.118761,37.317042],[32.118576,37.317426],[32.11837,37.317874],[32.118232,37.318241],[32.118049,37.318651],[32.11787,37.319099],[32.117776,37.319416],[32.117621,37.319805],[32.11759,37.320068],[32.117552,37.320267],[32.117578,37.320446],[32.117725,37.320765],[32.117883,37.321042],[32.118104,37.321189],[32.118106,37.321219],[32.118,37.321414],[32.117919,37.321525],[32.117808,37.321636],[32.117858,37.321765],[32.118081,37.322185],[32.118228,37.322344],[32.118618,37.322738],[32.118828,37.32294],[32.119167,37.323307],[32.119586,37.323771],[32.119866,37.324078],[32.120091,37.324368],[32.120231,37.32459]]]]}},{"type":"Feature","properties":{"id":"TR-Y-42-030-M-0004","level":"yerlesim","type":"mahalle","parent_id":"TR-D-42-030","province_id":"TR-P-42","district_id":"TR-D-42-030","name":"Yukarı","source_raw_name":"YUKARI","source":"Kamuya açık veri ve kent rehberi servisleri","source_label":"Kamuya açık veri ve kent rehberi servisleri","source_name":"Konya Büyükşehir Belediyesi Açık Veri Platformu - Mahalleler"},"geometry":{"type":"MultiPolygon","coordinates":[[[[32.076085,37.311706],[32.08571,37.314543],[32.104273,37.3198],[32.106182,37.32041],[32.106078,37.32062],[32.105727,37.321197],[32.10544,37.321536],[32.105061,37.321909],[32.104505,37.322357],[32.103996,37.322714],[32.103413,37.323042],[32.103088,37.323214],[32.102806,37.323333],[32.101909,37.323612],[32.100391,37.324192],[32.099633,37.324523],[32.099211,37.324725],[32.098817,37.324944],[32.098492,37.325172],[32.098258,37.325374],[32.097672,37.32588],[32.097215,37.32633],[32.096845,37.326747],[32.096349,37.327408],[32.095914,37.328022],[32.095652,37.328508],[32.095509,37.32885],[32.095312,37.329368],[32.095039,37.330031],[32.094439,37.330993],[32.094218,37.331455],[32.094367,37.331502],[32.094955,37.331644],[32.09535,37.331615],[32.095895,37.331842],[32.096271,37.332151],[32.096777,37.332533],[32.09714,37.332739],[32.097321,37.332867],[32.097402,37.332891],[32.097457,37.332902],[32.097575,37.332916],[32.097654,37.332924],[32.097737,37.332935],[32.097799,37.332946],[32.097855,37.332958],[32.097881,37.332968],[32.097897,37.332978],[32.097926,37.33302],[32.097945,37.333063],[32.09796,37.333141],[32.097971,37.333176],[32.097982,37.333194],[32.098002,37.333216],[32.098499,37.333421],[32.098561,37.333431],[32.098623,37.333439],[32.098695,37.333455],[32.098764,37.333482],[32.098834,37.333495],[32.098876,37.333494],[32.098942,37.333479],[32.098982,37.333475],[32.099003,37.333478],[32.099047,37.333496],[32.099112,37.333535],[32.099142,37.333547],[32.09923,37.333306],[32.099315,37.333],[32.099385,37.33284],[32.09942,37.332765],[32.099458,37.332679],[32.0995,37.332539],[32.099513,37.332461],[32.09951,37.332389],[32.099756,37.332473],[32.099984,37.332543],[32.100009,37.332552],[32.100176,37.332263],[32.100284,37.332088],[32.100385,37.331936],[32.100416,37.332016],[32.100448,37.332079],[32.100547,37.332245],[32.100639,37.332416],[32.100722,37.332561],[32.10081,37.332725],[32.100913,37.332899],[32.101035,37.333113],[32.101074,37.333219],[32.101147,37.333365],[32.101212,37.333481],[32.101262,37.333544],[32.101332,37.333637],[32.10144,37.333754],[32.101536,37.333848],[32.10156,37.333841],[32.101703,37.333779],[32.101895,37.333685],[32.102095,37.333585],[32.102135,37.333565],[32.102272,37.333501],[32.10247,37.333441],[32.102611,37.333413],[32.102764,37.333387],[32.102695,37.333236],[32.102653,37.333074],[32.10264,37.333012],[32.102602,37.33283],[32.102574,37.332716],[32.102518,37.332473],[32.102501,37.332378],[32.102422,37.332232],[32.102421,37.332011],[32.102438,37.331925],[32.102473,37.33183],[32.102606,37.331614],[32.102652,37.331556],[32.102971,37.331262],[32.103263,37.331404],[32.103344,37.33128],[32.103541,37.330976],[32.1038,37.330663],[32.103951,37.3305],[32.103979,37.330473],[32.104033,37.33042],[32.104174,37.330311],[32.104264,37.330235],[32.104315,37.330187],[32.10442,37.330081],[32.104459,37.330037],[32.104525,37.32996],[32.104593,37.32989],[32.104678,37.329803],[32.104772,37.329732],[32.10503,37.329472],[32.105091,37.32942],[32.105239,37.329302],[32.105311,37.329231],[32.105416,37.329116],[32.105458,37.329064],[32.105517,37.328986],[32.105689,37.328747],[32.105782,37.328791],[32.10588,37.328832],[32.106011,37.32869],[32.106143,37.328564],[32.106414,37.328319],[32.106504,37.328236],[32.106566,37.328196],[32.10692,37.328063],[32.10645,37.327702],[32.106477,37.327588],[32.10651,37.327506],[32.106538,37.327454],[32.10657,37.327433],[32.106655,37.3274],[32.106772,37.327353],[32.106889,37.327317],[32.107075,37.327268],[32.107245,37.327214],[32.107365,37.327409],[32.107416,37.327519],[32.107435,37.327599],[32.107463,37.327889],[32.10747,37.327915],[32.107488,37.327939],[32.107531,37.327979],[32.107593,37.328066],[32.107639,37.328044],[32.107736,37.328013],[32.107872,37.327966],[32.107903,37.32796],[32.108049,37.327967],[32.108268,37.327984],[32.108315,37.327983],[32.108424,37.327976],[32.108495,37.327957],[32.108547,37.327937],[32.108725,37.327889],[32.108822,37.327872],[32.108886,37.327866],[32.108944,37.327876],[32.109095,37.327947],[32.109172,37.327976],[32.10922,37.327985],[32.109321,37.327984],[32.109601,37.327944],[32.109909,37.32788],[32.109919,37.327925],[32.109918,37.327983],[32.109924,37.328018],[32.110187,37.32793],[32.110286,37.327888],[32.110413,37.327828],[32.110625,37.327747],[32.110626,37.327699],[32.110642,37.327698],[32.11085,37.327722],[32.110938,37.327727],[32.111102,37.327755],[32.111146,37.327767],[32.111171,37.327774],[32.111396,37.327792],[32.111436,37.327798],[32.111489,37.327813],[32.111545,37.327836],[32.111649,37.327893],[32.111611,37.328092],[32.1116,37.328194],[32.111703,37.328238],[32.111826,37.328296],[32.111938,37.328351],[32.112014,37.328378],[32.112103,37.3284],[32.112135,37.328403],[32.112194,37.328412],[32.112467,37.32841],[32.112549,37.328418],[32.112601,37.328428],[32.112699,37.328457],[32.112766,37.328467],[32.112907,37.328483],[32.113015,37.328496],[32.113108,37.328511],[32.11319,37.328537],[32.113362,37.328276],[32.11356,37.328001],[32.113628,37.327918],[32.11379,37.327765],[32.113835,37.327718],[32.113966,37.3276],[32.114093,37.327699],[32.114161,37.327747],[32.114177,37.327753],[32.114193,37.327753],[32.114349,37.327643],[32.114401,37.327607],[32.114255,37.327454],[32.114373,37.327439],[32.114501,37.327428],[32.114599,37.327412],[32.114591,37.32737],[32.114578,37.327088],[32.114578,37.327019],[32.114567,37.326872],[32.114962,37.326822],[32.114986,37.327005],[32.115087,37.326994],[32.115205,37.32697],[32.1152,37.326872],[32.115201,37.326767],[32.115226,37.326601],[32.115242,37.326546],[32.115253,37.326537],[32.115321,37.326488],[32.115356,37.326478],[32.115459,37.326475],[32.115498,37.326481],[32.115526,37.326488],[32.115605,37.326525],[32.115707,37.326594],[32.115758,37.326627],[32.115877,37.326672],[32.115986,37.3267],[32.116069,37.326711],[32.116142,37.326705],[32.116193,37.326695],[32.116311,37.326649],[32.116357,37.326634],[32.116417,37.326623],[32.116475,37.32662],[32.116542,37.326624],[32.116607,37.32664],[32.116828,37.326702],[32.116907,37.32672],[32.116978,37.326734],[32.117038,37.326741],[32.117209,37.326754],[32.117325,37.326768],[32.117455,37.326773],[32.117535,37.326791],[32.117616,37.326793],[32.117755,37.326793],[32.117846,37.326799],[32.117973,37.326817],[32.118079,37.326832],[32.118178,37.326862],[32.118246,37.326892],[32.118333,37.326942],[32.118478,37.32704],[32.118563,37.327083],[32.118622,37.327102],[32.118624,37.327135],[32.118736,37.32713],[32.118959,37.327086],[32.119045,37.327076],[32.119344,37.327067],[32.119492,37.327072],[32.119616,37.32709],[32.119661,37.327106],[32.119653,37.326882],[32.119661,37.326845],[32.119718,37.326785],[32.119777,37.326731],[32.119807,37.326699],[32.119782,37.326673],[32.119839,37.326659],[32.119917,37.326656],[32.120004,37.326653],[32.120055,37.326645],[32.12011,37.326651],[32.120145,37.326658],[32.120511,37.326468],[32.120193,37.326263],[32.12027,37.326186],[32.120294,37.326108],[32.120294,37.325982],[32.120279,37.325842],[32.120243,37.32552],[32.120238,37.32543],[32.120226,37.32528],[32.120216,37.325175],[32.120209,37.325129],[32.120135,37.324823],[32.1201,37.324682],[32.1201,37.324594],[32.120231,37.32459],[32.120091,37.324368],[32.119866,37.324078],[32.119586,37.323771],[32.119167,37.323307],[32.118828,37.32294],[32.118618,37.322738],[32.118228,37.322344],[32.118081,37.322185],[32.117858,37.321765],[32.117808,37.321636],[32.117919,37.321525],[32.118,37.321414],[32.118106,37.321219],[32.118104,37.321189],[32.117883,37.321042],[32.117725,37.320765],[32.117578,37.320446],[32.117552,37.320267],[32.11759,37.320068],[32.117621,37.319805],[32.117776,37.319416],[32.11787,37.319099],[32.118049,37.318651],[32.118232,37.318241],[32.11837,37.317874],[32.118576,37.317426],[32.118761,37.317042],[32.118938,37.31669],[32.119104,37.316339],[32.119245,37.316068],[32.11929,37.315957],[32.119388,37.315778],[32.119547,37.315532],[32.11964,37.315333],[32.119753,37.315082],[32.119887,37.314826],[32.120016,37.314637],[32.120111,37.314475],[32.120221,37.314233],[32.120355,37.313967],[32.120415,37.313772],[32.120456,37.31356],[32.120522,37.313278],[32.120539,37.313225],[32.120539,37.313022],[32.120653,37.312937],[32.120823,37.31289],[32.121054,37.312874],[32.121294,37.313198],[32.12147,37.313403],[32.121876,37.313654],[32.122942,37.313197],[32.122788,37.313019],[32.123281,37.31274],[32.123531,37.313184],[32.123629,37.313199],[32.123935,37.313601],[32.124336,37.314053],[32.124692,37.313817],[32.124724,37.313806],[32.125093,37.313685],[32.125055,37.313639],[32.125575,37.313432],[32.125764,37.313219],[32.125869,37.313087],[32.126126,37.313594],[32.126282,37.313541],[32.126593,37.313365],[32.126759,37.313208],[32.127072,37.312978],[32.12728,37.312785],[32.127563,37.312537],[32.127943,37.312399],[32.128775,37.312077],[32.129024,37.311986],[32.129239,37.311917],[32.129338,37.311912],[32.129582,37.311748],[32.129838,37.31153],[32.129989,37.31132],[32.130077,37.311187],[32.13017,37.311014],[32.130376,37.310728],[32.130487,37.310573],[32.130759,37.310208],[32.130943,37.309843],[32.13111,37.309567],[32.131226,37.309333],[32.131302,37.309215],[32.131023,37.309145],[32.13106,37.308944],[32.130963,37.308913],[32.131012,37.308763],[32.131125,37.308654],[32.132087,37.309121],[32.13232,37.30923],[32.132896,37.308237],[32.133456,37.30731],[32.133842,37.306802],[32.134618,37.306145],[32.135578,37.305592],[32.137347,37.304314],[32.137226,37.304202],[32.136866,37.304006],[32.136362,37.303743],[32.13611,37.30362],[32.135865,37.303502],[32.135745,37.303449],[32.135594,37.303382],[32.135368,37.303274],[32.13521,37.303205],[32.135309,37.302971],[32.135363,37.302812],[32.135469,37.302497],[32.135531,37.302295],[32.135566,37.302181],[32.13559,37.302055],[32.13562,37.301867],[32.135651,37.301652],[32.13566,37.301584],[32.135663,37.30154],[32.135682,37.301277],[32.135686,37.301141],[32.135661,37.300861],[32.135558,37.300841],[32.13545,37.300803],[32.135268,37.300675],[32.135142,37.300618],[32.134944,37.300552],[32.134851,37.300549],[32.134645,37.30059],[32.13444,37.300617],[32.134331,37.300619],[32.134055,37.300593],[32.133672,37.300561],[32.133527,37.300568],[32.133316,37.300623],[32.133219,37.300644],[32.133133,37.300642],[32.132947,37.30059],[32.132613,37.300453],[32.132345,37.300413],[32.132076,37.300365],[32.131783,37.30033],[32.131925,37.300189],[32.131972,37.300135],[32.132036,37.30003],[32.132093,37.299854],[32.132109,37.299587],[32.132087,37.299249],[32.132135,37.299175],[32.132252,37.299033],[32.132314,37.29897],[32.132447,37.298739],[32.132498,37.298658],[32.132612,37.298457],[32.132789,37.298229],[32.132846,37.298169],[32.132977,37.298041],[32.133318,37.297742],[32.133618,37.297429],[32.133721,37.297288],[32.133816,37.297171],[32.133893,37.29705],[32.13392,37.296977],[32.133928,37.296883],[32.133923,37.296804],[32.133871,37.296589],[32.133858,37.296586],[32.133756,37.296549],[32.133672,37.296534],[32.133592,37.296528],[32.133488,37.296535],[32.133392,37.296543],[32.133263,37.296537],[32.133176,37.296519],[32.133102,37.296488],[32.133029,37.296434],[32.132941,37.29632],[32.132912,37.296267],[32.132847,37.296201],[32.132783,37.296158],[32.13259,37.296037],[32.132413,37.295947],[32.132436,37.295906],[32.132218,37.295821],[32.132067,37.295753],[32.131775,37.295635],[32.131612,37.295561],[32.131525,37.295524],[32.131396,37.295486],[32.131276,37.295453],[32.131164,37.29541],[32.131065,37.295368],[32.130984,37.29533],[32.130937,37.295303],[32.130897,37.295278],[32.130846,37.29526],[32.130765,37.295235],[32.130717,37.295209],[32.130677,37.295196],[32.130633,37.295185],[32.130443,37.295187],[32.13035,37.29514],[32.130219,37.295091],[32.130063,37.295041],[32.129873,37.294985],[32.129599,37.294906],[32.129371,37.294846],[32.129285,37.294889],[32.129106,37.294801],[32.128946,37.294735],[32.128714,37.294637],[32.128603,37.294595],[32.128539,37.294724],[32.128487,37.294824],[32.12843,37.294941],[32.128083,37.294829],[32.127875,37.29476],[32.127785,37.294735],[32.127647,37.294706],[32.1275,37.294679],[32.127317,37.29465],[32.127185,37.294631],[32.127013,37.294596],[32.127004,37.29461],[32.126894,37.294576],[32.126775,37.294545],[32.126628,37.294511],[32.126431,37.29447],[32.126319,37.294448],[32.126213,37.294433],[32.125946,37.294397],[32.125736,37.294354],[32.125623,37.294338],[32.12542,37.294306],[32.125284,37.294291],[32.125065,37.294264],[32.125089,37.294207],[32.125119,37.294122],[32.125151,37.293991],[32.125159,37.293887],[32.125034,37.293721],[32.124871,37.293497],[32.124813,37.293385],[32.124686,37.293369],[32.124521,37.293347],[32.124348,37.293316],[32.124151,37.293277],[32.123989,37.29324],[32.123813,37.293209],[32.123661,37.293184],[32.123526,37.293165],[32.123456,37.293155],[32.123237,37.293107],[32.123138,37.293085],[32.122968,37.293045],[32.122848,37.293015],[32.122697,37.292968],[32.122531,37.292921],[32.122366,37.292882],[32.122269,37.292875],[32.122177,37.292868],[32.122088,37.292854],[32.121978,37.292844],[32.121814,37.292824],[32.121822,37.29263],[32.12183,37.292542],[32.121832,37.29238],[32.121844,37.292264],[32.121855,37.292122],[32.121857,37.292021],[32.12185,37.291987],[32.121844,37.291983],[32.121755,37.291916],[32.121662,37.291847],[32.121603,37.291803],[32.121521,37.291758],[32.121466,37.291728],[32.121392,37.291697],[32.121331,37.291673],[32.121165,37.29159],[32.120993,37.291513],[32.120999,37.291441],[32.121031,37.291332],[32.121058,37.291261],[32.12109,37.291172],[32.121129,37.291057],[32.121166,37.290932],[32.12121,37.290822],[32.121184,37.290816],[32.121272,37.290506],[32.121289,37.290434],[32.121334,37.290276],[32.121383,37.290124],[32.121118,37.290075],[32.120932,37.290042],[32.120777,37.290024],[32.120682,37.290017],[32.120379,37.290055],[32.119991,37.2901],[32.120004,37.29016],[32.119524,37.290278],[32.118943,37.290418],[32.118847,37.290433],[32.118692,37.290461],[32.11842,37.290509],[32.118262,37.290534],[32.11807,37.290557],[32.117869,37.290579],[32.117249,37.290577],[32.117079,37.290576],[32.116894,37.290577],[32.116881,37.290544],[32.11669,37.290561],[32.116431,37.290574],[32.116175,37.290598],[32.116205,37.290692],[32.116225,37.290764],[32.116241,37.290828],[32.116254,37.29088],[32.115981,37.290967],[32.115534,37.291107],[32.115166,37.291223],[32.115073,37.291261],[32.114969,37.291293],[32.114753,37.29135],[32.114692,37.291368],[32.114502,37.291441],[32.114383,37.291482],[32.114163,37.291537],[32.114072,37.291556],[32.114018,37.291576],[32.113955,37.291603],[32.113857,37.291632],[32.113747,37.291662],[32.113587,37.291684],[32.113508,37.291705],[32.113425,37.291732],[32.113385,37.291745],[32.113279,37.291769],[32.113222,37.291777],[32.113068,37.291822],[32.112876,37.291889],[32.112664,37.291974],[32.111456,37.292285],[32.111135,37.292387],[32.110597,37.292503],[32.110131,37.292585],[32.108425,37.292929],[32.108147,37.292934],[32.106032,37.293257],[32.105476,37.29331],[32.104794,37.293343],[32.10434,37.293364],[32.103771,37.293411],[32.102945,37.293448],[32.102749,37.293449],[32.102315,37.293444],[32.102045,37.29347],[32.101801,37.293494],[32.101441,37.293501],[32.0999,37.293518],[32.098342,37.293556],[32.097029,37.293607],[32.096758,37.293659],[32.096239,37.293773],[32.095975,37.293834],[32.095647,37.293941],[32.095366,37.294055],[32.094629,37.294397],[32.09384,37.294892],[32.092898,37.295483],[32.092381,37.295791],[32.091492,37.296243],[32.090866,37.296586],[32.090203,37.296927],[32.089761,37.297156],[32.089259,37.297449],[32.089001,37.297593],[32.088527,37.297845],[32.086852,37.298796],[32.086444,37.299185],[32.086319,37.299395],[32.085566,37.300508],[32.085423,37.300681],[32.085358,37.300559],[32.085094,37.300662],[32.084962,37.300722],[32.084829,37.300763],[32.084599,37.300785],[32.08448,37.300881],[32.084355,37.300974],[32.084014,37.301088],[32.083437,37.301246],[32.083151,37.301331],[32.082999,37.301364],[32.082778,37.301395],[32.082569,37.301398],[32.082439,37.301389],[32.082192,37.301337],[32.081928,37.301295],[32.081567,37.301333],[32.081283,37.301359],[32.080712,37.301451],[32.079972,37.301455],[32.079188,37.301468],[32.078325,37.301442],[32.077414,37.301277],[32.07682,37.30143],[32.076423,37.301624],[32.076517,37.30401],[32.076358,37.306906],[32.076272,37.309882],[32.076085,37.311706]]]]}},{"type":"Feature","properties":{"id":"TR-Y-42-030-M-SRC-HENGEME","level":"yerlesim","type":"mahalle","parent_id":"TR-D-42-030","province_id":"TR-P-42","district_id":"TR-D-42-030","name":"Hengeme","source_raw_name":"HENGEME","source":"Kamuya açık veri ve kent rehberi servisleri","source_label":"Kamuya açık veri ve kent rehberi servisleri","source_name":"Konya Büyükşehir Belediyesi Açık Veri Platformu - Mahalleler","source_only":true},"geometry":{"type":"MultiPolygon","coordinates":[[[[32.092178,37.356019],[32.092757,37.356081],[32.092691,37.356526],[32.092164,37.356469],[32.092082,37.357073],[32.091535,37.357013],[32.091446,37.357371],[32.09173,37.357404],[32.091732,37.357641],[32.091733,37.357839],[32.091731,37.358045],[32.093022,37.35802],[32.093005,37.357881],[32.092987,37.357727],[32.092982,37.357567],[32.092979,37.357162],[32.093498,37.357162],[32.094086,37.357193],[32.094134,37.35751],[32.094676,37.357531],[32.094712,37.357808],[32.095236,37.357759],[32.09524,37.358246],[32.095244,37.358264],[32.095719,37.358226],[32.096765,37.358134],[32.096788,37.358134],[32.096701,37.358627],[32.096597,37.359372],[32.096554,37.359537],[32.096511,37.359903],[32.096495,37.360088],[32.096473,37.360305],[32.096459,37.360465],[32.096418,37.360856],[32.096405,37.360955],[32.096396,37.361027],[32.096388,37.361261],[32.096376,37.361571],[32.096395,37.361604],[32.09636,37.361859],[32.096309,37.362201],[32.096268,37.362414],[32.09611,37.362755],[32.095797,37.363339],[32.095513,37.363883],[32.095428,37.364073],[32.094969,37.365008],[32.095609,37.365128],[32.095851,37.365163],[32.095836,37.365556],[32.095817,37.365897],[32.095793,37.366333],[32.095575,37.366381],[32.095604,37.366639],[32.095837,37.366634],[32.095791,37.366921],[32.096569,37.366885],[32.096586,37.367252],[32.096556,37.367253],[32.096577,37.367603],[32.096687,37.367607],[32.096737,37.367898],[32.096843,37.367895],[32.09694,37.368081],[32.097013,37.368279],[32.097107,37.368332],[32.097429,37.368196],[32.097731,37.368057],[32.097757,37.368143],[32.097788,37.368158],[32.098413,37.368053],[32.09872,37.368032],[32.099448,37.367975],[32.100573,37.368055],[32.101084,37.368105],[32.100986,37.368431],[32.101638,37.368582],[32.101611,37.368708],[32.101601,37.368876],[32.101628,37.369043],[32.101682,37.369246],[32.101754,37.36945],[32.102423,37.369338],[32.102794,37.369297],[32.103488,37.369131],[32.104044,37.369031],[32.104448,37.369],[32.104594,37.368998],[32.104831,37.368942],[32.10522,37.368813],[32.105553,37.368633],[32.105774,37.368538],[32.106308,37.368387],[32.106556,37.3683],[32.107105,37.36807],[32.10774,37.367861],[32.108287,37.367694],[32.108812,37.367543],[32.109628,37.367418],[32.111199,37.367516],[32.112686,37.367518],[32.112911,37.367447],[32.113264,37.367371],[32.113607,37.367365],[32.113952,37.36735],[32.114412,37.367287],[32.11515,37.367161],[32.115736,37.367107],[32.116134,37.367132],[32.116401,37.36714],[32.116714,37.367115],[32.116943,37.367082],[32.117273,37.36697],[32.117655,37.366816],[32.118187,37.366553],[32.118622,37.36631],[32.119078,37.366048],[32.119482,37.365877],[32.11991,37.36574],[32.120568,37.36553],[32.1208,37.36541],[32.121046,37.365322],[32.12269,37.364975],[32.123123,37.364769],[32.123629,37.364562],[32.123933,37.364447],[32.124518,37.364372],[32.124727,37.364361],[32.126151,37.364338],[32.126556,37.364384],[32.126881,37.364458],[32.128145,37.364746],[32.128723,37.364929],[32.129258,37.365165],[32.129706,37.365366],[32.129908,37.365486],[32.130104,37.365659],[32.130291,37.365854],[32.130606,37.366122],[32.130759,37.366218],[32.131314,37.366368],[32.13145,37.366279],[32.131618,37.366178],[32.131821,37.366058],[32.132125,37.36585],[32.132141,37.365768],[32.132246,37.365314],[32.132539,37.365326],[32.13279,37.365469],[32.133056,37.365336],[32.133297,37.365196],[32.133767,37.365219],[32.133839,37.365013],[32.133989,37.364792],[32.134049,37.364645],[32.13454,37.364955],[32.134865,37.365105],[32.135191,37.365263],[32.135342,37.365039],[32.135489,37.364894],[32.135581,37.364803],[32.135668,37.364746],[32.135912,37.364827],[32.136437,37.364918],[32.136656,37.364931],[32.136892,37.364978],[32.137349,37.365097],[32.137853,37.365267],[32.138359,37.365438],[32.138581,37.365515],[32.139063,37.365622],[32.139234,37.365673],[32.139393,37.365644],[32.139963,37.365621],[32.140224,37.365708],[32.140451,37.365805],[32.141493,37.365344],[32.142419,37.364884],[32.143293,37.364536],[32.14367,37.364389],[32.144064,37.364229],[32.144458,37.364055],[32.145041,37.363759],[32.145242,37.363692],[32.145526,37.363544],[32.145782,37.363445],[32.146072,37.363367],[32.146527,37.363299],[32.14689,37.363257],[32.147136,37.363225],[32.147448,37.363141],[32.147596,37.363061],[32.14776,37.362913],[32.147894,37.362752],[32.148011,37.362485],[32.148066,37.362209],[32.148142,37.362043],[32.148207,37.361979],[32.148254,37.361895],[32.15816,37.35844],[32.173943,37.352947],[32.174141,37.352912],[32.1744,37.3528],[32.174579,37.352697],[32.174726,37.352629],[32.174833,37.352597],[32.174959,37.352614],[32.175065,37.352668],[32.175165,37.352757],[32.175455,37.352621],[32.175841,37.352557],[32.17627,37.352657],[32.176709,37.352467],[32.177215,37.352435],[32.177765,37.352511],[32.181938,37.351559],[32.182056,37.351532],[32.182775,37.35129],[32.183767,37.350869],[32.184456,37.350657],[32.18495,37.350317],[32.185547,37.349485],[32.186083,37.34879],[32.186425,37.348533],[32.187282,37.348118],[32.187577,37.347975],[32.188422,37.347289],[32.188834,37.346888],[32.189145,37.346709],[32.189561,37.34661],[32.189984,37.346462],[32.190265,37.34629],[32.190776,37.345793],[32.191004,37.345662],[32.191238,37.34564],[32.191387,37.345743],[32.191543,37.345967],[32.191762,37.346023],[32.192153,37.34611],[32.192393,37.346232],[32.19261,37.34642],[32.192781,37.346596],[32.193158,37.346629],[32.193052,37.345349],[32.192205,37.342088],[32.191245,37.341476],[32.191188,37.341505],[32.189443,37.341629],[32.18905,37.341723],[32.189022,37.341089],[32.188919,37.341035],[32.187779,37.341044],[32.187166,37.340983],[32.186937,37.340916],[32.186615,37.340898],[32.186655,37.340637],[32.186692,37.340456],[32.186362,37.340293],[32.185907,37.340082],[32.185431,37.339901],[32.184921,37.339683],[32.18427,37.339327],[32.183549,37.338881],[32.182781,37.338448],[32.18236,37.338098],[32.181968,37.337755],[32.18174,37.3375],[32.181372,37.33723],[32.180914,37.336828],[32.180389,37.336482],[32.179938,37.336093],[32.179598,37.335935],[32.179151,37.335822],[32.17889,37.335737],[32.178738,37.335626],[32.178539,37.335885],[32.178002,37.335676],[32.177672,37.335476],[32.177374,37.335337],[32.176616,37.334824],[32.176507,37.334771],[32.176237,37.334893],[32.175773,37.335293],[32.175373,37.334991],[32.175166,37.334797],[32.174856,37.334471],[32.174707,37.334328],[32.174367,37.334472],[32.173712,37.334782],[32.173349,37.334291],[32.172996,37.334477],[32.172664,37.334707],[32.172428,37.334488],[32.172291,37.334291],[32.171765,37.334379],[32.170581,37.334755],[32.170626,37.33496],[32.169874,37.334888],[32.169343,37.334854],[32.168707,37.334946],[32.167781,37.335257],[32.167747,37.334791],[32.167693,37.334433],[32.167466,37.334119],[32.167107,37.333855],[32.166702,37.333668],[32.166518,37.333529],[32.165988,37.333289],[32.165585,37.333256],[32.165451,37.333147],[32.165474,37.332851],[32.165285,37.332563],[32.16541,37.332262],[32.165363,37.331857],[32.165142,37.331569],[32.164582,37.33116],[32.164148,37.330993],[32.16389,37.330582],[32.163948,37.329405],[32.163332,37.327732],[32.162678,37.32719],[32.1622,37.326347],[32.1622,37.325784],[32.162372,37.325284],[32.162381,37.324506],[32.162147,37.324182],[32.161708,37.323344],[32.161189,37.322752],[32.161006,37.322428],[32.160587,37.322072],[32.160188,37.322264],[32.159845,37.322445],[32.159041,37.322798],[32.158609,37.323046],[32.15806,37.323426],[32.157823,37.323649],[32.157627,37.323776],[32.157448,37.323949],[32.157263,37.324178],[32.156617,37.32403],[32.156027,37.324006],[32.155209,37.324005],[32.154298,37.324252],[32.154037,37.323784],[32.153637,37.323615],[32.153409,37.323686],[32.153111,37.3237],[32.153,37.323751],[32.152867,37.324004],[32.152691,37.324075],[32.152406,37.324068],[32.152119,37.324206],[32.151584,37.32445],[32.151435,37.324434],[32.151212,37.324645],[32.151024,37.324591],[32.150687,37.324615],[32.150537,37.324686],[32.15033,37.324623],[32.15003,37.324729],[32.149789,37.324839],[32.149553,37.32477],[32.149423,37.324795],[32.149386,37.324911],[32.149264,37.325079],[32.14915,37.325075],[32.149015,37.324945],[32.14882,37.325001],[32.148548,37.324924],[32.148298,37.324986],[32.148199,37.324828],[32.147833,37.324817],[32.147652,37.32499],[32.147535,37.325038],[32.147384,37.324905],[32.146941,37.324751],[32.146304,37.324283],[32.145973,37.324042],[32.145237,37.323656],[32.144567,37.322975],[32.143946,37.322854],[32.143377,37.32263],[32.142693,37.322562],[32.142271,37.322449],[32.142561,37.322159],[32.142828,37.321957],[32.14311,37.321617],[32.142516,37.32122],[32.142283,37.321039],[32.141654,37.320712],[32.141769,37.320574],[32.14208,37.320352],[32.14232,37.320164],[32.142398,37.320014],[32.142362,37.319749],[32.142276,37.31947],[32.142623,37.319443],[32.142657,37.319563],[32.14272,37.319624],[32.14277,37.319863],[32.142997,37.320064],[32.143144,37.320352],[32.143156,37.320534],[32.143597,37.320567],[32.143595,37.320258],[32.143746,37.319564],[32.143721,37.319414],[32.143596,37.319277],[32.143526,37.318994],[32.14335,37.318709],[32.142636,37.317997],[32.142086,37.317187],[32.141888,37.317038],[32.141807,37.316978],[32.141686,37.316879],[32.141481,37.316725],[32.141396,37.316679],[32.14132,37.316647],[32.141131,37.316587],[32.141332,37.316409],[32.141525,37.31627],[32.141148,37.316002],[32.141041,37.316091],[32.14095,37.316172],[32.140771,37.316331],[32.140727,37.316376],[32.140652,37.316441],[32.140625,37.316416],[32.140567,37.316338],[32.140511,37.316293],[32.14045,37.316251],[32.140384,37.316214],[32.140323,37.316188],[32.140236,37.316158],[32.140178,37.316136],[32.140094,37.316087],[32.139964,37.316023],[32.139876,37.315978],[32.139798,37.315931],[32.139716,37.315876],[32.139619,37.315799],[32.139571,37.31577],[32.139473,37.315725],[32.139398,37.315694],[32.13933,37.315662],[32.139265,37.315619],[32.139186,37.315547],[32.139095,37.315466],[32.138996,37.315394],[32.138864,37.315314],[32.138734,37.315237],[32.138536,37.315116],[32.138341,37.314988],[32.138242,37.314909],[32.138155,37.314839],[32.138085,37.31478],[32.138023,37.314709],[32.137896,37.314529],[32.137803,37.314418],[32.137667,37.314245],[32.137634,37.31421],[32.13756,37.314148],[32.137432,37.314043],[32.137182,37.314339],[32.136724,37.314371],[32.136761,37.314589],[32.136493,37.31474],[32.136282,37.314883],[32.136106,37.315007],[32.135955,37.315134],[32.135801,37.315295],[32.13565,37.315468],[32.1359,37.316184],[32.135698,37.316363],[32.13604,37.316644],[32.136134,37.316706],[32.136229,37.316753],[32.136424,37.316807],[32.13665,37.316861],[32.136518,37.316859],[32.136246,37.316828],[32.135872,37.316773],[32.135691,37.316711],[32.135507,37.316622],[32.135383,37.316548],[32.134855,37.316311],[32.134754,37.316419],[32.134536,37.316673],[32.135025,37.316877],[32.135352,37.317024],[32.135117,37.317256],[32.134896,37.317161],[32.134701,37.317402],[32.134581,37.31752],[32.134468,37.317666],[32.134361,37.317848],[32.134304,37.317966],[32.134264,37.318022],[32.134224,37.31812],[32.133987,37.317993],[32.133813,37.318296],[32.133623,37.318512],[32.133448,37.318741],[32.133352,37.31884],[32.133301,37.318884],[32.133354,37.319015],[32.133581,37.319383],[32.133662,37.31949],[32.133771,37.31965],[32.133873,37.319742],[32.134021,37.319924],[32.134146,37.320123],[32.134336,37.320313],[32.134091,37.320454],[32.133795,37.320595],[32.133656,37.320674],[32.133504,37.320772],[32.133425,37.32087],[32.133352,37.321013],[32.133159,37.320951],[32.132854,37.320918],[32.132735,37.32107],[32.132656,37.321192],[32.132603,37.321313],[32.132578,37.32145],[32.132486,37.321811],[32.131843,37.321906],[32.131604,37.321919],[32.131363,37.321929],[32.131225,37.321945],[32.130871,37.322039],[32.130635,37.322098],[32.130496,37.322122],[32.130489,37.322147],[32.130219,37.322209],[32.129925,37.322275],[32.129955,37.322507],[32.130132,37.322553],[32.130297,37.322651],[32.130431,37.322972],[32.130523,37.323399],[32.130562,37.323855],[32.130533,37.324364],[32.13043,37.324494],[32.130334,37.324636],[32.130268,37.324729],[32.130218,37.324854],[32.130182,37.324919],[32.130127,37.325001],[32.130039,37.325114],[32.129991,37.325158],[32.129925,37.325206],[32.129854,37.325251],[32.129795,37.325276],[32.129752,37.325283],[32.129641,37.325293],[32.129522,37.325299],[32.1294,37.325299],[32.129386,37.325282],[32.129356,37.325272],[32.129328,37.325269],[32.129282,37.325273],[32.129249,37.325278],[32.129192,37.325275],[32.129164,37.32527],[32.129079,37.325246],[32.129013,37.325226],[32.128957,37.325201],[32.128894,37.325172],[32.128854,37.325164],[32.128795,37.325163],[32.128691,37.325177],[32.128598,37.325185],[32.128507,37.325172],[32.128425,37.325147],[32.128374,37.325139],[32.128331,37.325141],[32.128292,37.325153],[32.128245,37.325171],[32.128164,37.325201],[32.128079,37.325246],[32.128025,37.325271],[32.127963,37.325294],[32.128018,37.325357],[32.128024,37.325374],[32.128024,37.325396],[32.128014,37.325418],[32.127858,37.325568],[32.127821,37.325594],[32.127778,37.325615],[32.127735,37.325632],[32.127679,37.325649],[32.12761,37.325669],[32.127515,37.325703],[32.127418,37.325742],[32.127338,37.32578],[32.127296,37.325809],[32.127278,37.325832],[32.12727,37.325861],[32.127271,37.325911],[32.127283,37.325955],[32.127308,37.326002],[32.127352,37.326081],[32.127374,37.326127],[32.127391,37.326177],[32.127396,37.3262],[32.127415,37.32629],[32.127449,37.326418],[32.127469,37.326485],[32.127483,37.326564],[32.127498,37.326692],[32.127518,37.326791],[32.127537,37.32686],[32.127559,37.326983],[32.127576,37.327124],[32.127577,37.327244],[32.127544,37.327257],[32.127512,37.327265],[32.127484,37.327268],[32.127438,37.327277],[32.127414,37.327293],[32.127418,37.327339],[32.127453,37.327469],[32.127472,37.327557],[32.127471,37.327639],[32.127454,37.327695],[32.127473,37.32775],[32.127472,37.327796],[32.12746,37.32783],[32.127432,37.327881],[32.12742,37.327918],[32.127416,37.327952],[32.127404,37.327978],[32.127381,37.328004],[32.127269,37.328096],[32.127184,37.328185],[32.12717,37.32821],[32.127167,37.328239],[32.127146,37.328283],[32.127143,37.328321],[32.127128,37.328349],[32.127112,37.328379],[32.127114,37.328418],[32.127134,37.328477],[32.127178,37.328538],[32.127223,37.328586],[32.127243,37.328616],[32.12725,37.32864],[32.12725,37.328664],[32.127238,37.328685],[32.127207,37.328714],[32.12725,37.328748],[32.127591,37.328883],[32.127704,37.328913],[32.127758,37.328923],[32.127778,37.328946],[32.127603,37.329069],[32.127435,37.329195],[32.127378,37.329233],[32.127296,37.329269],[32.127307,37.3294],[32.12735,37.329578],[32.127381,37.329636],[32.127427,37.329689],[32.127546,37.329785],[32.12724,37.329867],[32.126904,37.329958],[32.126854,37.329846],[32.126767,37.329754],[32.126743,37.329733],[32.126721,37.329703],[32.126674,37.329653],[32.12656,37.329554],[32.126357,37.329385],[32.12628,37.329308],[32.126246,37.329255],[32.126213,37.329148],[32.126172,37.329085],[32.126066,37.328964],[32.12597,37.328876],[32.125906,37.328825],[32.12573,37.328711],[32.125599,37.328621],[32.125515,37.328552],[32.125478,37.328513],[32.125455,37.328483],[32.12544,37.328457],[32.125432,37.328415],[32.125421,37.328391],[32.125393,37.328358],[32.125371,37.328346],[32.125333,37.328314],[32.125305,37.328277],[32.12525,37.328232],[32.125201,37.328184],[32.12511,37.328095],[32.125046,37.328045],[32.125004,37.32801],[32.124954,37.327979],[32.124883,37.327944],[32.124736,37.327877],[32.124671,37.327853],[32.124557,37.327824],[32.124469,37.327795],[32.124334,37.327741],[32.124175,37.327644],[32.123977,37.327499],[32.123897,37.327436],[32.123718,37.327277],[32.123646,37.327224],[32.123501,37.327139],[32.12338,37.327061],[32.123238,37.326971],[32.122924,37.326834],[32.12271,37.326715],[32.122693,37.326701],[32.122591,37.326606],[32.122513,37.326535],[32.1224,37.326427],[32.122332,37.326353],[32.122138,37.326152],[32.12199,37.326014],[32.121837,37.326083],[32.121662,37.326155],[32.121491,37.326252],[32.12154,37.326281],[32.121393,37.326307],[32.121374,37.326315],[32.121247,37.32613],[32.121169,37.326028],[32.120987,37.325627],[32.120838,37.325365],[32.120337,37.324706],[32.120231,37.32459],[32.1201,37.324594],[32.1201,37.324682],[32.120135,37.324823],[32.120209,37.325129],[32.120216,37.325175],[32.120226,37.32528],[32.120238,37.32543],[32.120243,37.32552],[32.120279,37.325842],[32.120294,37.325982],[32.120294,37.326108],[32.12027,37.326186],[32.120193,37.326263],[32.120511,37.326468],[32.120145,37.326658],[32.12011,37.326651],[32.120055,37.326645],[32.120004,37.326653],[32.119917,37.326656],[32.119839,37.326659],[32.119782,37.326673],[32.119807,37.326699],[32.119777,37.326731],[32.119718,37.326785],[32.119661,37.326845],[32.119653,37.326882],[32.119661,37.327106],[32.119616,37.32709],[32.119492,37.327072],[32.119344,37.327067],[32.119045,37.327076],[32.118959,37.327086],[32.118736,37.32713],[32.118624,37.327135],[32.118622,37.327102],[32.118563,37.327083],[32.118478,37.32704],[32.118333,37.326942],[32.118246,37.326892],[32.118178,37.326862],[32.118079,37.326832],[32.117973,37.326817],[32.117846,37.326799],[32.117755,37.326793],[32.117616,37.326793],[32.117535,37.326791],[32.117455,37.326773],[32.117325,37.326768],[32.117209,37.326754],[32.117038,37.326741],[32.116978,37.326734],[32.116907,37.32672],[32.116828,37.326702],[32.116607,37.32664],[32.116542,37.326624],[32.116475,37.32662],[32.116417,37.326623],[32.116357,37.326634],[32.116311,37.326649],[32.116193,37.326695],[32.116142,37.326705],[32.116069,37.326711],[32.115986,37.3267],[32.115877,37.326672],[32.115758,37.326627],[32.115707,37.326594],[32.115605,37.326525],[32.115526,37.326488],[32.115498,37.326481],[32.115459,37.326475],[32.115356,37.326478],[32.115321,37.326488],[32.115253,37.326537],[32.115242,37.326546],[32.115226,37.326601],[32.115201,37.326767],[32.1152,37.326872],[32.115205,37.32697],[32.115087,37.326994],[32.114986,37.327005],[32.114962,37.326822],[32.114567,37.326872],[32.114578,37.327019],[32.114578,37.327088],[32.114591,37.32737],[32.114599,37.327412],[32.114501,37.327428],[32.114373,37.327439],[32.114255,37.327454],[32.114401,37.327607],[32.114349,37.327643],[32.114193,37.327753],[32.114177,37.327753],[32.114161,37.327747],[32.114093,37.327699],[32.113966,37.3276],[32.113835,37.327718],[32.11379,37.327765],[32.113628,37.327918],[32.11356,37.328001],[32.113362,37.328276],[32.11319,37.328537],[32.113108,37.328511],[32.113015,37.328496],[32.112907,37.328483],[32.112766,37.328467],[32.112699,37.328457],[32.112601,37.328428],[32.112549,37.328418],[32.112467,37.32841],[32.112194,37.328412],[32.112135,37.328403],[32.112103,37.3284],[32.112014,37.328378],[32.111938,37.328351],[32.111826,37.328296],[32.111703,37.328238],[32.1116,37.328194],[32.111611,37.328092],[32.111649,37.327893],[32.111545,37.327836],[32.111489,37.327813],[32.111436,37.327798],[32.111396,37.327792],[32.111171,37.327774],[32.111146,37.327767],[32.111102,37.327755],[32.110938,37.327727],[32.11085,37.327722],[32.110642,37.327698],[32.110626,37.327699],[32.110625,37.327747],[32.110413,37.327828],[32.110286,37.327888],[32.110187,37.32793],[32.109924,37.328018],[32.109918,37.327983],[32.109919,37.327925],[32.109909,37.32788],[32.109601,37.327944],[32.109321,37.327984],[32.10922,37.327985],[32.109172,37.327976],[32.109095,37.327947],[32.108944,37.327876],[32.108886,37.327866],[32.108822,37.327872],[32.108725,37.327889],[32.108547,37.327937],[32.108495,37.327957],[32.108424,37.327976],[32.108315,37.327983],[32.108268,37.327984],[32.108049,37.327967],[32.107903,37.32796],[32.107872,37.327966],[32.107736,37.328013],[32.107639,37.328044],[32.107593,37.328066],[32.107531,37.327979],[32.107488,37.327939],[32.10747,37.327915],[32.107463,37.327889],[32.107435,37.327599],[32.107416,37.327519],[32.107365,37.327409],[32.107245,37.327214],[32.107075,37.327268],[32.106889,37.327317],[32.106772,37.327353],[32.106655,37.3274],[32.10657,37.327433],[32.106538,37.327454],[32.10651,37.327506],[32.106477,37.327588],[32.10645,37.327702],[32.10692,37.328063],[32.106566,37.328196],[32.106504,37.328236],[32.106414,37.328319],[32.106143,37.328564],[32.106011,37.32869],[32.10588,37.328832],[32.105782,37.328791],[32.105689,37.328747],[32.105517,37.328986],[32.105458,37.329064],[32.105416,37.329116],[32.105311,37.329231],[32.105239,37.329302],[32.105091,37.32942],[32.10503,37.329472],[32.104772,37.329732],[32.104678,37.329803],[32.104593,37.32989],[32.104525,37.32996],[32.104459,37.330037],[32.10442,37.330081],[32.104315,37.330187],[32.104264,37.330235],[32.104174,37.330311],[32.104033,37.33042],[32.103979,37.330473],[32.103951,37.3305],[32.1038,37.330663],[32.103541,37.330976],[32.103344,37.33128],[32.103263,37.331404],[32.102971,37.331262],[32.102652,37.331556],[32.102606,37.331614],[32.102473,37.33183],[32.102438,37.331925],[32.102421,37.332011],[32.102422,37.332232],[32.102501,37.332378],[32.102518,37.332473],[32.102574,37.332716],[32.102602,37.33283],[32.10264,37.333012],[32.102653,37.333074],[32.102695,37.333236],[32.102764,37.333387],[32.102611,37.333413],[32.10247,37.333441],[32.102272,37.333501],[32.102135,37.333565],[32.102095,37.333585],[32.101895,37.333685],[32.101703,37.333779],[32.10156,37.333841],[32.101536,37.333848],[32.10144,37.333754],[32.101332,37.333637],[32.101262,37.333544],[32.101212,37.333481],[32.101147,37.333365],[32.101074,37.333219],[32.101035,37.333113],[32.100913,37.332899],[32.10081,37.332725],[32.100722,37.332561],[32.100639,37.332416],[32.100547,37.332245],[32.100448,37.332079],[32.100416,37.332016],[32.100385,37.331936],[32.100284,37.332088],[32.100176,37.332263],[32.100009,37.332552],[32.099984,37.332543],[32.099756,37.332473],[32.09951,37.332389],[32.099513,37.332461],[32.0995,37.332539],[32.099458,37.332679],[32.09942,37.332765],[32.099385,37.33284],[32.099315,37.333],[32.09923,37.333306],[32.099142,37.333547],[32.099112,37.333535],[32.099047,37.333496],[32.099003,37.333478],[32.098982,37.333475],[32.098942,37.333479],[32.098876,37.333494],[32.098834,37.333495],[32.098764,37.333482],[32.098695,37.333455],[32.098623,37.333439],[32.098561,37.333431],[32.098499,37.333421],[32.098002,37.333216],[32.097982,37.333194],[32.097971,37.333176],[32.09796,37.333141],[32.097945,37.333063],[32.097926,37.33302],[32.097897,37.332978],[32.097881,37.332968],[32.097855,37.332958],[32.097799,37.332946],[32.097737,37.332935],[32.097654,37.332924],[32.097575,37.332916],[32.097457,37.332902],[32.097402,37.332891],[32.097321,37.332867],[32.09714,37.332739],[32.096777,37.332533],[32.096271,37.332151],[32.095895,37.331842],[32.09535,37.331615],[32.094955,37.331644],[32.094367,37.331502],[32.094218,37.331455],[32.094439,37.330993],[32.095039,37.330031],[32.095312,37.329368],[32.095509,37.32885],[32.095652,37.328508],[32.095914,37.328022],[32.096349,37.327408],[32.096845,37.326747],[32.097215,37.32633],[32.097672,37.32588],[32.098258,37.325374],[32.098492,37.325172],[32.098817,37.324944],[32.099211,37.324725],[32.099633,37.324523],[32.100391,37.324192],[32.101909,37.323612],[32.102806,37.323333],[32.103088,37.323214],[32.103413,37.323042],[32.103996,37.322714],[32.104505,37.322357],[32.105061,37.321909],[32.10544,37.321536],[32.105727,37.321197],[32.106078,37.32062],[32.106182,37.32041],[32.104273,37.3198],[32.08571,37.314543],[32.076085,37.311706],[32.065458,37.308394],[32.047703,37.303157],[32.017302,37.311574],[31.994581,37.321666],[32.039314,37.334243],[32.050047,37.337386],[32.068977,37.342864],[32.078713,37.345711],[32.090383,37.349018],[32.090754,37.349074],[32.090453,37.349856],[32.090169,37.350531],[32.09,37.350844],[32.089821,37.351077],[32.089558,37.351444],[32.089251,37.351844],[32.088991,37.352154],[32.088887,37.352238],[32.089129,37.352299],[32.089213,37.352321],[32.089329,37.352351],[32.089545,37.352404],[32.089622,37.352423],[32.089731,37.352449],[32.090455,37.352635],[32.090953,37.352762],[32.091007,37.352773],[32.090466,37.354125],[32.090506,37.354127],[32.091296,37.354209],[32.091599,37.354233],[32.091558,37.354754],[32.092299,37.354787],[32.09226,37.355175],[32.092221,37.355609],[32.092178,37.356019]]]]}}]}