{"type":"FeatureCollection","name":"turkiye_map.dist.mahalle_geometrileri_by_district.TR-D-41-003","features":[{"type":"Feature","properties":{"id":"TR-Y-41-003-M-0001","level":"yerlesim","type":"mahalle","parent_id":"TR-D-41-003","province_id":"TR-P-41","district_id":"TR-D-41-003","name":"Abdi İpekçi","source_raw_name":"Abdi İpekçi","source":"Kullanıcı tarafından sağlanan KML","source_label":"Kullanıcı tarafından sağlanan KML","source_name":"Kocaeli Mahalle KML - kullanıcı tarafından sağlandı"},"geometry":{"type":"Polygon","coordinates":[[[29.403059,40.786363],[29.409858,40.784147],[29.415264,40.782472],[29.416462,40.78218],[29.416337,40.780873],[29.416573,40.780045],[29.417136,40.779307],[29.419166,40.777878],[29.419829,40.777244],[29.420857,40.77559],[29.421561,40.774949],[29.421356,40.774643],[29.421424,40.774564],[29.420951,40.774277],[29.419747,40.77397],[29.419155,40.773334],[29.418617,40.773358],[29.418533,40.772596],[29.418005,40.772562],[29.417317,40.772162],[29.417226,40.772267],[29.416713,40.772006],[29.41597,40.771332],[29.41578,40.77128],[29.41526,40.772207],[29.414898,40.77215],[29.414844,40.772215],[29.414504,40.773108],[29.41414,40.773125],[29.41395,40.773606],[29.414167,40.773656],[29.414133,40.773994],[29.413682,40.774391],[29.413829,40.774617],[29.413299,40.774838],[29.412938,40.775383],[29.412436,40.776504],[29.412705,40.777507],[29.412799,40.779095],[29.413179,40.779655],[29.410981,40.781554],[29.410785,40.781686],[29.408998,40.780647],[29.405483,40.78204],[29.403956,40.782888],[29.402628,40.783296],[29.401867,40.783397],[29.401499,40.782799],[29.400575,40.782899],[29.400077,40.782795],[29.399699,40.783609],[29.399992,40.783937],[29.399413,40.784346],[29.399522,40.78607],[29.39963,40.78637],[29.400414,40.787186],[29.403059,40.786363]]]}},{"type":"Feature","properties":{"id":"TR-Y-41-003-M-0002","level":"yerlesim","type":"mahalle","parent_id":"TR-D-41-003","province_id":"TR-P-41","district_id":"TR-D-41-003","name":"Bağlarbaşı","source_raw_name":"Bağlarbaşı","source":"Kullanıcı tarafından sağlanan KML","source_label":"Kullanıcı tarafından sağlanan KML","source_name":"Kocaeli Mahalle KML - kullanıcı tarafından sağlandı"},"geometry":{"type":"Polygon","coordinates":[[[29.390241,40.774198],[29.390947,40.773996],[29.393163,40.772186],[29.39295,40.772022],[29.393364,40.771471],[29.393653,40.771377],[29.394122,40.770697],[29.394758,40.770798],[29.396484,40.770006],[29.3978,40.769613],[29.397409,40.768973],[29.395601,40.767052],[29.392778,40.76463],[29.394034,40.764364],[29.394383,40.764441],[29.395042,40.764798],[29.396069,40.764941],[29.400021,40.767462],[29.401843,40.76796],[29.402518,40.768105],[29.404019,40.768227],[29.404639,40.768475],[29.405448,40.768361],[29.407074,40.768821],[29.408855,40.768882],[29.409827,40.769124],[29.411914,40.769175],[29.414648,40.768398],[29.414521,40.767936],[29.414371,40.767784],[29.414443,40.767545],[29.41456,40.767455],[29.415506,40.767542],[29.415625,40.767451],[29.415426,40.7671],[29.415217,40.767132],[29.415031,40.766672],[29.414609,40.766198],[29.414575,40.765977],[29.414666,40.765916],[29.41435,40.765312],[29.414529,40.765006],[29.413794,40.764558],[29.412089,40.764081],[29.411278,40.76361],[29.4106,40.763033],[29.409788,40.762878],[29.407723,40.762158],[29.407188,40.761794],[29.407297,40.761641],[29.407054,40.761653],[29.405506,40.760923],[29.404734,40.760699],[29.404494,40.760423],[29.404546,40.760243],[29.40434,40.760297],[29.40392,40.760163],[29.40277,40.759336],[29.402271,40.758792],[29.401977,40.758608],[29.401592,40.75848],[29.400812,40.758463],[29.400377,40.758301],[29.399312,40.757741],[29.398283,40.756789],[29.397647,40.75645],[29.396841,40.756171],[29.396471,40.755843],[29.39628,40.755543],[29.396269,40.755254],[29.396166,40.755206],[29.395832,40.755499],[29.395097,40.755745],[29.394698,40.755687],[29.394068,40.755809],[29.393331,40.755606],[29.393063,40.755444],[29.393639,40.756316],[29.39145,40.756928],[29.39101,40.756916],[29.389389,40.756567],[29.389468,40.75698],[29.388852,40.757286],[29.388645,40.757638],[29.388427,40.757561],[29.388156,40.758178],[29.387739,40.758165],[29.387066,40.757858],[29.387071,40.757447],[29.386775,40.757124],[29.386349,40.757219],[29.386104,40.757393],[29.385912,40.757346],[29.386684,40.75876],[29.386457,40.759749],[29.38524,40.75992],[29.384254,40.758945],[29.383844,40.758826],[29.383778,40.760033],[29.384096,40.761747],[29.384221,40.761774],[29.384756,40.763317],[29.3848,40.763985],[29.383884,40.765718],[29.383755,40.766345],[29.384152,40.768474],[29.383847,40.769179],[29.384016,40.769766],[29.385121,40.770115],[29.385955,40.769389],[29.386276,40.768971],[29.387422,40.7698],[29.388418,40.769159],[29.388482,40.771685],[29.388372,40.77206],[29.38848,40.772116],[29.388477,40.772548],[29.389019,40.772789],[29.388877,40.773209],[29.389122,40.773833],[29.389731,40.774186],[29.390241,40.774198]]]}},{"type":"Feature","properties":{"id":"TR-Y-41-003-M-0003","level":"yerlesim","type":"mahalle","parent_id":"TR-D-41-003","province_id":"TR-P-41","district_id":"TR-D-41-003","name":"Bayramoğlu","source_raw_name":"Bayramoğlu","source":"Kullanıcı tarafından sağlanan KML","source_label":"Kullanıcı tarafından sağlanan KML","source_name":"Kocaeli Mahalle KML - kullanıcı tarafından sağlandı"},"geometry":{"type":"Polygon","coordinates":[[[29.35636,40.799801],[29.356704,40.799992],[29.358011,40.799112],[29.358998,40.798111],[29.359614,40.797138],[29.360849,40.794506],[29.36113,40.794184],[29.36257,40.793645],[29.364133,40.792801],[29.36457,40.792699],[29.366624,40.792794],[29.36773,40.792295],[29.366914,40.790052],[29.365448,40.787984],[29.36494,40.788047],[29.361468,40.787771],[29.358508,40.787124],[29.356649,40.786563],[29.352094,40.786021],[29.350127,40.785886],[29.349548,40.786083],[29.349095,40.785773],[29.348501,40.785846],[29.347319,40.785613],[29.346984,40.78587],[29.346769,40.785845],[29.346559,40.786031],[29.346825,40.786219],[29.346682,40.786217],[29.345812,40.786869],[29.344457,40.787389],[29.343763,40.787503],[29.342855,40.787493],[29.342462,40.787219],[29.342148,40.787188],[29.341878,40.786892],[29.34206,40.786175],[29.341819,40.785876],[29.341716,40.785495],[29.341273,40.785935],[29.341015,40.785872],[29.340832,40.785745],[29.340859,40.785589],[29.340655,40.785353],[29.34107,40.785459],[29.3411,40.785348],[29.340584,40.784915],[29.340292,40.784884],[29.339268,40.785346],[29.339212,40.785446],[29.33835,40.785473],[29.338226,40.785405],[29.338353,40.785175],[29.339107,40.785091],[29.339137,40.784868],[29.338307,40.784964],[29.337995,40.785326],[29.336925,40.785536],[29.336609,40.785433],[29.336643,40.785546],[29.336426,40.785643],[29.336285,40.7856],[29.336166,40.785697],[29.336225,40.785804],[29.335976,40.785943],[29.335391,40.786077],[29.334392,40.785709],[29.334154,40.785718],[29.334147,40.785807],[29.333797,40.785929],[29.333711,40.786423],[29.333887,40.786889],[29.334118,40.786925],[29.334157,40.786786],[29.334416,40.786811],[29.335023,40.787068],[29.335083,40.786994],[29.335245,40.787044],[29.335017,40.787145],[29.33498,40.787349],[29.335186,40.787559],[29.335162,40.787236],[29.33543,40.787033],[29.33572,40.787251],[29.335899,40.787221],[29.336145,40.787646],[29.336217,40.788073],[29.335932,40.788513],[29.335734,40.788629],[29.33586,40.788692],[29.335831,40.788812],[29.335577,40.789078],[29.335141,40.78917],[29.334438,40.78917],[29.33466,40.788728],[29.334776,40.788677],[29.334625,40.788678],[29.334343,40.789089],[29.334109,40.789196],[29.334261,40.7892],[29.334177,40.789432],[29.333977,40.789475],[29.333691,40.789289],[29.333866,40.78952],[29.333986,40.789533],[29.333947,40.78969],[29.333523,40.789563],[29.333494,40.789618],[29.333969,40.78974],[29.333956,40.789856],[29.333794,40.789849],[29.333877,40.789957],[29.333703,40.790126],[29.333303,40.790243],[29.333139,40.790414],[29.333707,40.790651],[29.334002,40.790669],[29.33476,40.790468],[29.335006,40.790122],[29.335031,40.790261],[29.335204,40.790091],[29.335122,40.790033],[29.335499,40.789842],[29.336874,40.790032],[29.336911,40.790265],[29.33699,40.79002],[29.337338,40.790144],[29.337856,40.790899],[29.337712,40.791061],[29.337247,40.79103],[29.337237,40.791095],[29.337712,40.791086],[29.336748,40.792141],[29.336684,40.792584],[29.336991,40.792855],[29.339981,40.79279],[29.342385,40.791978],[29.342605,40.791852],[29.343185,40.790822],[29.344613,40.789975],[29.345699,40.79],[29.346776,40.790177],[29.348175,40.791154],[29.349133,40.793092],[29.349787,40.793993],[29.349793,40.794142],[29.349643,40.794218],[29.349485,40.795104],[29.349248,40.795511],[29.348304,40.79642],[29.347973,40.796579],[29.347513,40.795739],[29.347342,40.795774],[29.347161,40.795489],[29.347083,40.795542],[29.347738,40.796671],[29.347393,40.796722],[29.346955,40.796506],[29.345568,40.796446],[29.344623,40.796865],[29.344649,40.796952],[29.345095,40.797033],[29.345669,40.797494],[29.346022,40.79809],[29.345857,40.79831],[29.346208,40.79832],[29.346449,40.79869],[29.346699,40.798812],[29.347949,40.798324],[29.349039,40.799297],[29.349541,40.7993],[29.349772,40.799567],[29.350435,40.799819],[29.350584,40.800069],[29.350482,40.800452],[29.35065,40.800549],[29.35192,40.800558],[29.352065,40.800174],[29.353971,40.799857],[29.354379,40.79985],[29.355731,40.800124],[29.355826,40.799965],[29.356187,40.80002],[29.35636,40.799801]]]}},{"type":"Feature","properties":{"id":"TR-Y-41-003-M-0004","level":"yerlesim","type":"mahalle","parent_id":"TR-D-41-003","province_id":"TR-P-41","district_id":"TR-D-41-003","name":"Cami","source_raw_name":"Cami","source":"Kullanıcı tarafından sağlanan KML","source_label":"Kullanıcı tarafından sağlanan KML","source_name":"Kocaeli Mahalle KML - kullanıcı tarafından sağlandı"},"geometry":{"type":"Polygon","coordinates":[[[29.374773,40.775185],[29.3754,40.775084],[29.37659,40.774725],[29.377793,40.774958],[29.378419,40.774911],[29.379514,40.773752],[29.380692,40.771479],[29.382112,40.770207],[29.383847,40.769179],[29.384146,40.768657],[29.383755,40.766345],[29.383884,40.765718],[29.3848,40.763985],[29.384756,40.763317],[29.384221,40.761774],[29.384096,40.761747],[29.383778,40.760033],[29.383844,40.758826],[29.384053,40.757823],[29.38248,40.757621],[29.38246,40.757228],[29.382082,40.757225],[29.38166,40.756355],[29.381226,40.756362],[29.381134,40.7554],[29.380518,40.755501],[29.380252,40.755392],[29.379659,40.755407],[29.379258,40.75564],[29.379214,40.75578],[29.37777,40.755883],[29.374569,40.756406],[29.372987,40.757217],[29.372624,40.757266],[29.372052,40.757219],[29.371976,40.756342],[29.370895,40.755984],[29.370825,40.756075],[29.3712,40.756144],[29.371141,40.756261],[29.371755,40.756465],[29.371815,40.757168],[29.371533,40.757108],[29.371601,40.756919],[29.371396,40.756929],[29.371373,40.757095],[29.370921,40.757078],[29.367744,40.756351],[29.367105,40.756512],[29.36657,40.756988],[29.365064,40.757321],[29.364398,40.757608],[29.364163,40.757611],[29.363822,40.757288],[29.365077,40.756556],[29.364938,40.756399],[29.363481,40.75725],[29.363953,40.757716],[29.36381,40.757872],[29.362958,40.758124],[29.362936,40.757843],[29.362765,40.75785],[29.362776,40.758126],[29.362467,40.758093],[29.361338,40.757701],[29.361459,40.757464],[29.361664,40.75758],[29.361758,40.757468],[29.36084,40.75696],[29.360735,40.757058],[29.361169,40.757301],[29.361115,40.757486],[29.360927,40.7575],[29.360153,40.757234],[29.360041,40.756991],[29.359894,40.756967],[29.359862,40.757312],[29.359697,40.757371],[29.359618,40.757305],[29.359631,40.757381],[29.359437,40.757443],[29.359053,40.757448],[29.358736,40.757375],[29.358092,40.756816],[29.358055,40.756394],[29.358185,40.756202],[29.358032,40.756319],[29.357652,40.756346],[29.35754,40.756255],[29.35721,40.75624],[29.35626,40.755833],[29.354733,40.755362],[29.35431,40.755398],[29.353831,40.755685],[29.353511,40.756031],[29.353371,40.756402],[29.353025,40.756366],[29.353358,40.756514],[29.353003,40.758473],[29.352503,40.75864],[29.35214,40.761168],[29.352166,40.76364],[29.351805,40.765326],[29.352002,40.765333],[29.351993,40.765502],[29.352712,40.765457],[29.352881,40.765274],[29.354765,40.765219],[29.356067,40.765292],[29.35615,40.765372],[29.355796,40.765742],[29.357696,40.76627],[29.358185,40.766325],[29.35822,40.766418],[29.358607,40.76636],[29.358543,40.766282],[29.358646,40.766157],[29.358827,40.766207],[29.358851,40.766296],[29.359568,40.766511],[29.359664,40.766454],[29.359612,40.766537],[29.359865,40.766696],[29.360249,40.766729],[29.360161,40.766939],[29.360764,40.767164],[29.360777,40.767286],[29.360891,40.767238],[29.361219,40.7675],[29.362864,40.767804],[29.363634,40.768095],[29.361771,40.771485],[29.363071,40.772006],[29.364001,40.772269],[29.364672,40.772684],[29.366289,40.772765],[29.366443,40.772813],[29.36632,40.773045],[29.367306,40.773133],[29.369215,40.773504],[29.36939,40.773985],[29.371936,40.774466],[29.373628,40.774907],[29.374189,40.775174],[29.374773,40.775185]]]}},{"type":"Feature","properties":{"id":"TR-Y-41-003-M-0005","level":"yerlesim","type":"mahalle","parent_id":"TR-D-41-003","province_id":"TR-P-41","district_id":"TR-D-41-003","name":"Emek","source_raw_name":"Emek","source":"Kullanıcı tarafından sağlanan KML","source_label":"Kullanıcı tarafından sağlanan KML","source_name":"Kocaeli Mahalle KML - kullanıcı tarafından sağlandı"},"geometry":{"type":"Polygon","coordinates":[[[29.356704,40.799992],[29.358105,40.800652],[29.360923,40.801265],[29.361692,40.80151],[29.363043,40.802365],[29.364004,40.802746],[29.365406,40.803042],[29.366139,40.803351],[29.366653,40.803325],[29.366752,40.803953],[29.367689,40.805466],[29.368432,40.806451],[29.370785,40.805321],[29.3791,40.799815],[29.37764,40.796818],[29.376283,40.795305],[29.37579,40.795728],[29.372835,40.795618],[29.36945,40.796171],[29.368476,40.796231],[29.368514,40.794139],[29.36773,40.792295],[29.366624,40.792794],[29.36457,40.792699],[29.364133,40.792801],[29.36257,40.793645],[29.36113,40.794184],[29.360849,40.794506],[29.359614,40.797138],[29.358998,40.798111],[29.358011,40.799112],[29.356704,40.799992]]]}},{"type":"Feature","properties":{"id":"TR-Y-41-003-M-0006","level":"yerlesim","type":"mahalle","parent_id":"TR-D-41-003","province_id":"TR-P-41","district_id":"TR-D-41-003","name":"Fevzi Çakmak","source_raw_name":"Fevziçakmak","source":"Kullanıcı tarafından sağlanan KML","source_label":"Kullanıcı tarafından sağlanan KML","source_name":"Kocaeli Mahalle KML - kullanıcı tarafından sağlandı"},"geometry":{"type":"Polygon","coordinates":[[[29.410981,40.781554],[29.413179,40.779655],[29.412799,40.779095],[29.412705,40.777507],[29.412436,40.776504],[29.412938,40.775383],[29.413299,40.774838],[29.413829,40.774617],[29.413682,40.774391],[29.414133,40.773994],[29.414167,40.773656],[29.41395,40.773606],[29.41414,40.773125],[29.414504,40.773108],[29.414898,40.77215],[29.41526,40.772207],[29.41578,40.77128],[29.416103,40.771259],[29.415708,40.770279],[29.415855,40.769378],[29.416155,40.768746],[29.416109,40.76862],[29.415721,40.768417],[29.414459,40.768413],[29.411914,40.769175],[29.409827,40.769124],[29.408855,40.768882],[29.407074,40.768821],[29.405448,40.768361],[29.404639,40.768475],[29.404256,40.768274],[29.402518,40.768105],[29.400021,40.767462],[29.396069,40.764941],[29.395042,40.764798],[29.394383,40.764441],[29.394034,40.764364],[29.392778,40.76463],[29.394938,40.76641],[29.397409,40.768973],[29.398525,40.771166],[29.399457,40.772221],[29.399901,40.77313],[29.40229,40.774729],[29.403753,40.776245],[29.404487,40.776811],[29.405743,40.77878],[29.40638,40.779532],[29.407646,40.780172],[29.409115,40.780699],[29.410785,40.781686],[29.410981,40.781554]]]}},{"type":"Feature","properties":{"id":"TR-Y-41-003-M-0007","level":"yerlesim","type":"mahalle","parent_id":"TR-D-41-003","province_id":"TR-P-41","district_id":"TR-D-41-003","name":"Kazım Karabekir","source_raw_name":"Kazımkarabekir","source":"Kullanıcı tarafından sağlanan KML","source_label":"Kullanıcı tarafından sağlanan KML","source_name":"Kocaeli Mahalle KML - kullanıcı tarafından sağlandı"},"geometry":{"type":"Polygon","coordinates":[[[29.400077,40.782795],[29.400575,40.782899],[29.401499,40.782799],[29.401867,40.783397],[29.402628,40.783296],[29.403956,40.782888],[29.405483,40.78204],[29.408998,40.780647],[29.407646,40.780172],[29.40638,40.779532],[29.405743,40.77878],[29.404487,40.776811],[29.403753,40.776245],[29.40229,40.774729],[29.399901,40.77313],[29.399457,40.772221],[29.398525,40.771166],[29.3978,40.769613],[29.396484,40.770006],[29.394758,40.770798],[29.394122,40.770697],[29.393653,40.771377],[29.393364,40.771471],[29.39295,40.772022],[29.393163,40.772186],[29.390947,40.773996],[29.390241,40.774198],[29.389731,40.774186],[29.389122,40.773833],[29.388877,40.773209],[29.389019,40.772789],[29.388477,40.772548],[29.38848,40.772116],[29.388372,40.77206],[29.388482,40.771685],[29.388418,40.769159],[29.387422,40.7698],[29.386276,40.768971],[29.385955,40.769389],[29.385121,40.770115],[29.384016,40.769766],[29.383847,40.769179],[29.383755,40.76919],[29.382112,40.770207],[29.380692,40.771479],[29.379514,40.773752],[29.378419,40.774911],[29.379263,40.775365],[29.38085,40.775706],[29.381573,40.776032],[29.383809,40.777352],[29.385229,40.77796],[29.385954,40.778212],[29.391467,40.779542],[29.392609,40.780429],[29.394115,40.781213],[29.396358,40.78214],[29.39779,40.782563],[29.399699,40.783609],[29.400077,40.782795]]]}},{"type":"Feature","properties":{"id":"TR-Y-41-003-M-0008","level":"yerlesim","type":"mahalle","parent_id":"TR-D-41-003","province_id":"TR-P-41","district_id":"TR-D-41-003","name":"Nenehatun","source_raw_name":"Nenehatun","source":"Kullanıcı tarafından sağlanan KML","source_label":"Kullanıcı tarafından sağlanan KML","source_name":"Kocaeli Mahalle KML - kullanıcı tarafından sağlandı"},"geometry":{"type":"Polygon","coordinates":[[[29.382749,40.788006],[29.383895,40.787815],[29.384336,40.787627],[29.38594,40.786627],[29.386445,40.786529],[29.387326,40.78618],[29.38758,40.785968],[29.389128,40.785306],[29.389887,40.784709],[29.391137,40.78454],[29.392363,40.784552],[29.392637,40.784479],[29.392758,40.784405],[29.392717,40.784298],[29.392964,40.784212],[29.393864,40.784526],[29.394094,40.784495],[29.394296,40.784116],[29.394785,40.783972],[29.394706,40.783535],[29.395336,40.78328],[29.396875,40.782284],[29.395347,40.781765],[29.394115,40.781213],[29.392609,40.780429],[29.391467,40.779542],[29.385954,40.778212],[29.385229,40.77796],[29.383809,40.777352],[29.381573,40.776032],[29.38085,40.775706],[29.379263,40.775365],[29.378419,40.774911],[29.377662,40.775728],[29.375956,40.778756],[29.376134,40.778905],[29.376632,40.779852],[29.377303,40.78227],[29.378499,40.783942],[29.379022,40.785093],[29.380224,40.786282],[29.381378,40.786618],[29.381169,40.787624],[29.380973,40.787916],[29.381609,40.788407],[29.382302,40.788715],[29.382749,40.788006]]]}},{"type":"Feature","properties":{"id":"TR-Y-41-003-M-0009","level":"yerlesim","type":"mahalle","parent_id":"TR-D-41-003","province_id":"TR-P-41","district_id":"TR-D-41-003","name":"Osman Gazi","source_raw_name":"Osmangazi","source":"Kullanıcı tarafından sağlanan KML","source_label":"Kullanıcı tarafından sağlanan KML","source_name":"Kocaeli Mahalle KML - kullanıcı tarafından sağlandı"},"geometry":{"type":"Polygon","coordinates":[[[29.36945,40.796171],[29.372835,40.795618],[29.37579,40.795728],[29.376283,40.795305],[29.377006,40.794948],[29.379393,40.795211],[29.379957,40.795026],[29.380899,40.795207],[29.38095,40.795136],[29.381641,40.795057],[29.383373,40.794573],[29.384879,40.794406],[29.384069,40.79338],[29.383647,40.792098],[29.383336,40.791649],[29.383283,40.791058],[29.383385,40.79027],[29.383016,40.789032],[29.381609,40.788407],[29.380973,40.787916],[29.381169,40.787624],[29.381378,40.786618],[29.380224,40.786282],[29.379022,40.785093],[29.378499,40.783942],[29.377303,40.78227],[29.376632,40.779852],[29.376134,40.778905],[29.375956,40.778756],[29.37416,40.781247],[29.370535,40.785534],[29.369736,40.786124],[29.367959,40.787038],[29.365448,40.787984],[29.366914,40.790052],[29.367393,40.791499],[29.368514,40.794139],[29.368476,40.796231],[29.36945,40.796171]]]}},{"type":"Feature","properties":{"id":"TR-Y-41-003-M-0010","level":"yerlesim","type":"mahalle","parent_id":"TR-D-41-003","province_id":"TR-P-41","district_id":"TR-D-41-003","name":"Pirireis","source_raw_name":"Piri Reis","source":"Kullanıcı tarafından sağlanan KML","source_label":"Kullanıcı tarafından sağlanan KML","source_name":"Kocaeli Mahalle KML - kullanıcı tarafından sağlandı"},"geometry":{"type":"Polygon","coordinates":[[[29.365448,40.787984],[29.367959,40.787038],[29.369736,40.786124],[29.370535,40.785534],[29.37416,40.781247],[29.37522,40.779854],[29.375956,40.778756],[29.377662,40.775728],[29.378419,40.774911],[29.377793,40.774958],[29.37659,40.774725],[29.3754,40.775084],[29.374773,40.775185],[29.374189,40.775174],[29.373628,40.774907],[29.371936,40.774466],[29.36939,40.773985],[29.369215,40.773504],[29.367306,40.773133],[29.36632,40.773045],[29.366443,40.772813],[29.366289,40.772765],[29.364672,40.772684],[29.364001,40.772269],[29.363071,40.772006],[29.361771,40.771485],[29.363634,40.768095],[29.362864,40.767804],[29.361219,40.7675],[29.360891,40.767238],[29.360777,40.767286],[29.360764,40.767164],[29.360161,40.766939],[29.360249,40.766729],[29.359865,40.766696],[29.359612,40.766537],[29.359664,40.766454],[29.359568,40.766511],[29.358851,40.766296],[29.358827,40.766207],[29.358646,40.766157],[29.358543,40.766282],[29.358607,40.76636],[29.35822,40.766418],[29.358185,40.766325],[29.357696,40.76627],[29.355796,40.765742],[29.35615,40.765372],[29.356067,40.765292],[29.354765,40.765219],[29.352881,40.765274],[29.352712,40.765457],[29.352266,40.765503],[29.351993,40.765502],[29.352002,40.765333],[29.351805,40.765326],[29.351569,40.766135],[29.351188,40.766694],[29.35059,40.766759],[29.350092,40.767087],[29.349902,40.76711],[29.349692,40.767353],[29.349518,40.767361],[29.349569,40.76743],[29.34931,40.767424],[29.349311,40.767537],[29.349864,40.768137],[29.35022,40.768201],[29.350493,40.768522],[29.350662,40.768929],[29.353043,40.769804],[29.353429,40.770155],[29.353347,40.770693],[29.353139,40.770723],[29.352838,40.770567],[29.352927,40.770692],[29.352459,40.770795],[29.352384,40.77059],[29.352319,40.770963],[29.352547,40.771568],[29.352555,40.772535],[29.352852,40.773097],[29.353134,40.773307],[29.353186,40.773553],[29.352916,40.773659],[29.353201,40.77358],[29.353198,40.773839],[29.352829,40.77388],[29.35326,40.773867],[29.353014,40.774626],[29.352844,40.774607],[29.352288,40.776173],[29.352434,40.776415],[29.352021,40.777592],[29.3518,40.777635],[29.351034,40.77943],[29.350888,40.780725],[29.350592,40.780823],[29.35039,40.781073],[29.349018,40.783382],[29.348692,40.783995],[29.348896,40.784114],[29.347568,40.785659],[29.348501,40.785846],[29.349095,40.785773],[29.349548,40.786083],[29.350127,40.785886],[29.352094,40.786021],[29.356649,40.786563],[29.358508,40.787124],[29.361468,40.787771],[29.36494,40.788047],[29.365448,40.787984]]]}},{"type":"Feature","properties":{"id":"TR-Y-41-003-M-0011","level":"yerlesim","type":"mahalle","parent_id":"TR-D-41-003","province_id":"TR-P-41","district_id":"TR-D-41-003","name":"Sırasöğütler","source_raw_name":"Sırasöğütler","source":"Kullanıcı tarafından sağlanan KML","source_label":"Kullanıcı tarafından sağlanan KML","source_name":"Kocaeli Mahalle KML - kullanıcı tarafından sağlandı"},"geometry":{"type":"Polygon","coordinates":[[[29.385012,40.794393],[29.386766,40.794013],[29.387293,40.793767],[29.387915,40.793962],[29.39547,40.788988],[29.397151,40.788232],[29.400414,40.787186],[29.39963,40.78637],[29.399522,40.78607],[29.399413,40.784346],[29.399992,40.783937],[29.399699,40.783609],[29.39779,40.782563],[29.396875,40.782284],[29.395336,40.78328],[29.394706,40.783535],[29.394785,40.783972],[29.394296,40.784116],[29.394094,40.784495],[29.393864,40.784526],[29.392964,40.784212],[29.392717,40.784298],[29.392758,40.784405],[29.392637,40.784479],[29.392363,40.784552],[29.391137,40.78454],[29.389887,40.784709],[29.389128,40.785306],[29.38758,40.785968],[29.387326,40.78618],[29.386445,40.786529],[29.38594,40.786627],[29.384336,40.787627],[29.383895,40.787815],[29.382749,40.788006],[29.382302,40.788715],[29.383016,40.789032],[29.383385,40.79027],[29.383283,40.791058],[29.383336,40.791649],[29.383647,40.792098],[29.384069,40.79338],[29.384879,40.794406],[29.385012,40.794393]]]}},{"type":"Feature","properties":{"id":"TR-Y-41-003-M-0012","level":"yerlesim","type":"mahalle","parent_id":"TR-D-41-003","province_id":"TR-P-41","district_id":"TR-D-41-003","name":"Yalı","source_raw_name":"Yalı","source":"Kullanıcı tarafından sağlanan KML","source_label":"Kullanıcı tarafından sağlanan KML","source_name":"Kocaeli Mahalle KML - kullanıcı tarafından sağlandı"},"geometry":{"type":"Polygon","coordinates":[[[29.388427,40.757561],[29.388645,40.757638],[29.388852,40.757286],[29.389468,40.75698],[29.389389,40.756567],[29.39101,40.756916],[29.39145,40.756928],[29.393639,40.756316],[29.393063,40.755444],[29.392811,40.755291],[29.393001,40.755137],[29.392913,40.755073],[29.392723,40.755239],[29.392369,40.755107],[29.391487,40.754121],[29.391619,40.754069],[29.391505,40.75391],[29.391732,40.753821],[29.391652,40.753725],[29.391426,40.753804],[29.390903,40.753262],[29.390697,40.753229],[29.390035,40.753641],[29.389779,40.75366],[29.389449,40.75359],[29.388997,40.753163],[29.388605,40.75309],[29.388088,40.752674],[29.387775,40.752648],[29.387766,40.752791],[29.388203,40.75296],[29.38847,40.753319],[29.386502,40.754324],[29.385836,40.753549],[29.387008,40.75251],[29.387654,40.752174],[29.388341,40.752416],[29.388412,40.752351],[29.388311,40.752216],[29.387651,40.752004],[29.387451,40.752039],[29.386778,40.752464],[29.385569,40.753578],[29.386442,40.754511],[29.386403,40.754611],[29.385977,40.754789],[29.38637,40.755191],[29.386171,40.755232],[29.386333,40.755797],[29.386294,40.756169],[29.386948,40.75607],[29.38602,40.756821],[29.385912,40.757346],[29.386104,40.757393],[29.386349,40.757219],[29.386775,40.757124],[29.387071,40.757447],[29.387066,40.757858],[29.387739,40.758165],[29.388156,40.758178],[29.388427,40.757561]]]}},{"type":"Feature","properties":{"id":"TR-Y-41-003-M-0013","level":"yerlesim","type":"mahalle","parent_id":"TR-D-41-003","province_id":"TR-P-41","district_id":"TR-D-41-003","name":"Yeni","source_raw_name":"Yeni","source":"Kullanıcı tarafından sağlanan KML","source_label":"Kullanıcı tarafından sağlanan KML","source_name":"Kocaeli Mahalle KML - kullanıcı tarafından sağlandı"},"geometry":{"type":"Polygon","coordinates":[[[29.382676,40.757462],[29.383181,40.7572],[29.383468,40.757151],[29.3853,40.757281],[29.385491,40.757048],[29.385909,40.75727],[29.38602,40.756821],[29.386948,40.75607],[29.386294,40.756169],[29.386333,40.755797],[29.386171,40.755232],[29.38637,40.755191],[29.385977,40.754789],[29.38534,40.754787],[29.38469,40.754349],[29.381134,40.7554],[29.381226,40.756362],[29.38166,40.756355],[29.382082,40.757225],[29.38246,40.757228],[29.38248,40.757621],[29.382676,40.757462]]]}},{"type":"Feature","properties":{"id":"TR-Y-41-003-M-0014","level":"yerlesim","type":"mahalle","parent_id":"TR-D-41-003","province_id":"TR-P-41","district_id":"TR-D-41-003","name":"Zincirlikuyu","source_raw_name":"Zincirlikuyu","source":"Kullanıcı tarafından sağlanan KML","source_label":"Kullanıcı tarafından sağlanan KML","source_name":"Kocaeli Mahalle KML - kullanıcı tarafından sağlandı"},"geometry":{"type":"Polygon","coordinates":[[[29.385433,40.759908],[29.38623,40.759824],[29.386542,40.759678],[29.386684,40.75876],[29.385931,40.757481],[29.385909,40.75727],[29.385491,40.757048],[29.3853,40.757281],[29.383468,40.757151],[29.383181,40.7572],[29.382676,40.757462],[29.38248,40.757621],[29.384053,40.757823],[29.383844,40.758826],[29.384254,40.758945],[29.385106,40.759857],[29.385433,40.759908]]]}}]}