{"type":"FeatureCollection","name":"turkiye_map.dist.mahalle_geometrileri_by_district.TR-D-59-006","features":[{"type":"Feature","properties":{"id":"TR-Y-59-006-M-0001","level":"yerlesim","type":"mahalle","parent_id":"TR-D-59-006","province_id":"TR-P-59","district_id":"TR-D-59-006","name":"Ahievren","source_raw_name":"Ahievren Mah.","source":"Kullanıcı tarafından sağlanan KML","source_label":"Kullanıcı tarafından sağlanan KML","source_name":"Tekirdağ Mahalle KML"},"geometry":{"type":"Polygon","coordinates":[[[27.06459,40.90409],[27.07317,40.90074],[27.07901,40.90169],[27.08095,40.88421],[27.08397,40.88514],[27.08934,40.87653],[27.09778,40.87242],[27.102,40.86209],[27.0983,40.86253],[27.09331,40.85868],[27.08621,40.85888],[27.08153,40.8558],[27.07773,40.8553],[27.07729,40.85702],[27.07536,40.8546],[27.07267,40.8543],[27.07058,40.85618],[27.06779,40.85481],[27.05747,40.85908],[27.05717,40.86077],[27.05329,40.86142],[27.05274,40.86438],[27.0509,40.86178],[27.05704,40.87905],[27.05585,40.88132],[27.05961,40.88451],[27.05896,40.89406],[27.05646,40.89438],[27.05856,40.90015],[27.05747,40.90224],[27.05853,40.90423],[27.06459,40.90409]]]}},{"type":"Feature","properties":{"id":"TR-Y-59-006-M-0003","level":"yerlesim","type":"mahalle","parent_id":"TR-D-59-006","province_id":"TR-P-59","district_id":"TR-D-59-006","name":"Aksakal","source_raw_name":"Aksakal Mah.","source":"Kullanıcı tarafından sağlanan KML","source_label":"Kullanıcı tarafından sağlanan KML","source_name":"Tekirdağ Mahalle KML"},"geometry":{"type":"Polygon","coordinates":[[[27.07205,40.81663],[27.08341,40.81003],[27.09081,40.80919],[27.09635,40.81069],[27.09677,40.80365],[27.08695,40.80192],[27.08351,40.78863],[27.08081,40.78502],[27.07778,40.78487],[27.07531,40.78161],[27.07174,40.78465],[27.064,40.78608],[27.06361,40.78763],[27.06194,40.78668],[27.0597,40.79038],[27.05001,40.79119],[27.04899,40.78914],[27.03601,40.79278],[27.04164,40.79753],[27.04121,40.80172],[27.04531,40.80871],[27.04525,40.81152],[27.05561,40.81352],[27.05763,40.81247],[27.05968,40.8142],[27.05881,40.81529],[27.07205,40.81663]]]}},{"type":"Feature","properties":{"id":"TR-Y-59-006-M-0004","level":"yerlesim","type":"mahalle","parent_id":"TR-D-59-006","province_id":"TR-P-59","district_id":"TR-D-59-006","name":"Alaybey","source_raw_name":"Alaybey Mah.","source":"Kullanıcı tarafından sağlanan KML","source_label":"Kullanıcı tarafından sağlanan KML","source_name":"Tekirdağ Mahalle KML"},"geometry":{"type":"Polygon","coordinates":[[[27.00557,40.87805],[27.01869,40.87263],[27.02349,40.8671],[27.02294,40.86124],[27.01793,40.85739],[27.01576,40.85052],[27.02123,40.84711],[27.02052,40.84147],[27.01297,40.84464],[27.00403,40.84402],[26.9951,40.83673],[26.99218,40.83178],[26.98894,40.83182],[26.98538,40.82892],[26.98378,40.8306],[26.97616,40.82992],[26.96941,40.83876],[26.97695,40.8481],[26.97598,40.85019],[26.97964,40.85195],[26.98023,40.86026],[26.98312,40.8644],[26.98515,40.87394],[26.99005,40.87313],[26.98908,40.87618],[26.99074,40.87835],[27.00557,40.87805]]]}},{"type":"Feature","properties":{"id":"TR-Y-59-006-M-0011","level":"yerlesim","type":"mahalle","parent_id":"TR-D-59-006","province_id":"TR-P-59","district_id":"TR-D-59-006","name":"Bayramtepe","source_raw_name":"Bayramtepe Mah.","source":"Kullanıcı tarafından sağlanan KML","source_label":"Kullanıcı tarafından sağlanan KML","source_name":"Tekirdağ Mahalle KML"},"geometry":{"type":"Polygon","coordinates":[[[26.70756,41.07487],[26.71092,41.07369],[26.71534,41.06683],[26.72147,41.06469],[26.72712,41.05048],[26.72634,41.04713],[26.72809,41.04431],[26.72676,41.0408],[26.71879,41.03557],[26.71839,41.03234],[26.72154,41.0309],[26.72482,41.02629],[26.73195,41.02454],[26.7363,41.02577],[26.73994,41.02307],[26.73846,41.02014],[26.74257,41.01994],[26.74541,41.01764],[26.74048,41.00382],[26.73049,41.01224],[26.73052,41.01484],[26.72797,41.01438],[26.71328,41.02677],[26.69293,41.03632],[26.69146,41.03864],[26.69797,41.04168],[26.69747,41.0444],[26.69341,41.04794],[26.69647,41.05218],[26.70101,41.0648],[26.70512,41.06807],[26.70479,41.06965],[26.7069,41.06982],[26.70756,41.07487]]]}},{"type":"Feature","properties":{"id":"TR-Y-59-006-M-0012","level":"yerlesim","type":"mahalle","parent_id":"TR-D-59-006","province_id":"TR-P-59","district_id":"TR-D-59-006","name":"Camiatik","source_raw_name":"Cami Atik Mah.","source":"Kullanıcı tarafından sağlanan KML","source_label":"Kullanıcı tarafından sağlanan KML","source_name":"Tekirdağ Mahalle KML"},"geometry":{"type":"Polygon","coordinates":[[[26.95435,40.89399],[26.95532,40.88798],[26.95297,40.88447],[26.94994,40.87295],[26.95282,40.86795],[26.94605,40.8663],[26.94548,40.85996],[26.95053,40.85665],[26.95187,40.85112],[26.94833,40.84976],[26.94447,40.85047],[26.94232,40.84669],[26.9389,40.84648],[26.93811,40.84855],[26.93384,40.84756],[26.93225,40.84523],[26.92768,40.84601],[26.92259,40.84407],[26.92251,40.8457],[26.91518,40.8453],[26.91256,40.84351],[26.90807,40.84434],[26.90725,40.84191],[26.8977,40.84263],[26.89715,40.83689],[26.88722,40.83688],[26.88215,40.8338],[26.86428,40.83744],[26.86842,40.84074],[26.86566,40.84162],[26.86815,40.84313],[26.86634,40.84439],[26.86902,40.85221],[26.86606,40.85007],[26.86495,40.85138],[26.86705,40.8543],[26.8646,40.85529],[26.86787,40.85747],[26.87523,40.87672],[26.86652,40.87538],[26.86437,40.87691],[26.89034,40.88991],[26.89963,40.89058],[26.90379,40.89376],[26.9123,40.89128],[26.93074,40.88923],[26.95435,40.89399]]]}},{"type":"Feature","properties":{"id":"TR-Y-59-006-M-0018","level":"yerlesim","type":"mahalle","parent_id":"TR-D-59-006","province_id":"TR-P-59","district_id":"TR-D-59-006","name":"Davuteli","source_raw_name":"Davuteli Mah.","source":"Kullanıcı tarafından sağlanan KML","source_label":"Kullanıcı tarafından sağlanan KML","source_name":"Tekirdağ Mahalle KML"},"geometry":{"type":"Polygon","coordinates":[[[26.74533,41.07441],[26.7503,41.07027],[26.75554,41.07033],[26.75746,41.065],[26.76442,41.05883],[26.76045,41.05603],[26.76413,41.04902],[26.74869,41.03362],[26.74115,41.03015],[26.73769,41.02577],[26.73195,41.02454],[26.72482,41.02629],[26.72154,41.0309],[26.71857,41.03208],[26.7186,41.03501],[26.72676,41.0408],[26.72809,41.04431],[26.72634,41.04713],[26.72712,41.05048],[26.72147,41.06469],[26.71534,41.06683],[26.71092,41.07369],[26.70756,41.07487],[26.72385,41.07643],[26.74533,41.07441]]]}},{"type":"Feature","properties":{"id":"TR-Y-59-006-M-0019","level":"yerlesim","type":"mahalle","parent_id":"TR-D-59-006","province_id":"TR-P-59","district_id":"TR-D-59-006","name":"Deliller","source_raw_name":"Deliller Mah.","source":"Kullanıcı tarafından sağlanan KML","source_label":"Kullanıcı tarafından sağlanan KML","source_name":"Tekirdağ Mahalle KML"},"geometry":{"type":"Polygon","coordinates":[[[27.12456,40.86376],[27.13769,40.85908],[27.13753,40.86201],[27.13974,40.86285],[27.14265,40.86129],[27.14473,40.85712],[27.14849,40.8614],[27.15425,40.86339],[27.15729,40.84944],[27.16157,40.84482],[27.15129,40.83853],[27.14805,40.83994],[27.14472,40.8382],[27.14317,40.83982],[27.13974,40.83951],[27.13583,40.84485],[27.13267,40.84272],[27.13043,40.84284],[27.12941,40.84459],[27.12718,40.8428],[27.12529,40.84411],[27.1105,40.84405],[27.09989,40.84634],[27.10898,40.85946],[27.11378,40.86062],[27.11687,40.86362],[27.11904,40.86264],[27.12456,40.86376]]]}},{"type":"Feature","properties":{"id":"TR-Y-59-006-M-0020","level":"yerlesim","type":"mahalle","parent_id":"TR-D-59-006","province_id":"TR-P-59","district_id":"TR-D-59-006","name":"Demircili","source_raw_name":"Demircili Mah.","source":"Kullanıcı tarafından sağlanan KML","source_label":"Kullanıcı tarafından sağlanan KML","source_name":"Tekirdağ Mahalle KML"},"geometry":{"type":"Polygon","coordinates":[[[26.74456,41.0184],[26.75623,41.01343],[26.76312,41.01284],[26.76942,41.00834],[26.77625,40.99975],[26.78725,40.99218],[26.77748,40.98888],[26.77617,40.98647],[26.77843,40.98382],[26.76705,40.9795],[26.75658,40.97918],[26.75337,40.98043],[26.75091,40.98204],[26.75444,40.9867],[26.75503,40.98954],[26.75339,40.99292],[26.74048,41.00382],[26.74541,41.01764],[26.74456,41.0184]]]}},{"type":"Feature","properties":{"id":"TR-Y-59-006-M-0022","level":"yerlesim","type":"mahalle","parent_id":"TR-D-59-006","province_id":"TR-P-59","district_id":"TR-D-59-006","name":"Deveci","source_raw_name":"Deveci Mah.","source":"Kullanıcı tarafından sağlanan KML","source_label":"Kullanıcı tarafından sağlanan KML","source_name":"Tekirdağ Mahalle KML"},"geometry":{"type":"Polygon","coordinates":[[[26.86634,40.84439],[26.86815,40.84313],[26.86566,40.84162],[26.86842,40.84074],[26.86428,40.83744],[26.86954,40.83514],[26.86815,40.83206],[26.87188,40.83138],[26.8665,40.82163],[26.8664,40.81871],[26.86938,40.81699],[26.86894,40.81304],[26.87079,40.81322],[26.86524,40.80564],[26.86461,40.80134],[26.86049,40.80196],[26.8525,40.79817],[26.84979,40.80121],[26.8472,40.80133],[26.84723,40.79872],[26.84626,40.80022],[26.84237,40.79866],[26.83964,40.80013],[26.83422,40.79531],[26.83359,40.79692],[26.83295,40.79396],[26.82655,40.79362],[26.82556,40.79138],[26.82298,40.7912],[26.82404,40.79485],[26.82125,40.79924],[26.81499,40.79729],[26.81391,40.79408],[26.81022,40.79442],[26.80894,40.79685],[26.80998,40.79846],[26.8051,40.80185],[26.80528,40.80844],[26.80006,40.81046],[26.8002,40.81281],[26.7961,40.81428],[26.80511,40.81578],[26.80465,40.81719],[26.80645,40.81795],[26.8055,40.81924],[26.80813,40.82022],[26.81576,40.83024],[26.82376,40.83183],[26.8281,40.83527],[26.83067,40.84047],[26.84746,40.84121],[26.85291,40.84484],[26.85145,40.84849],[26.85902,40.84879],[26.86495,40.85138],[26.86606,40.85007],[26.86902,40.85221],[26.86634,40.84439]]]}},{"type":"Feature","properties":{"id":"TR-Y-59-006-M-0023","level":"yerlesim","type":"mahalle","parent_id":"TR-D-59-006","province_id":"TR-P-59","district_id":"TR-D-59-006","name":"Develi","source_raw_name":"Develi Mah.","source":"Kullanıcı tarafından sağlanan KML","source_label":"Kullanıcı tarafından sağlanan KML","source_name":"Tekirdağ Mahalle KML"},"geometry":{"type":"Polygon","coordinates":[[[27.13462,40.95491],[27.13957,40.95586],[27.13642,40.95066],[27.13875,40.94788],[27.14077,40.94756],[27.1408,40.9492],[27.14544,40.94849],[27.14495,40.9406],[27.14118,40.93305],[27.14241,40.9321],[27.13723,40.92469],[27.14001,40.92294],[27.13892,40.91959],[27.13549,40.91577],[27.13217,40.91762],[27.11338,40.9164],[27.11155,40.91849],[27.11219,40.92156],[27.11852,40.92718],[27.1262,40.93127],[27.12828,40.93475],[27.12509,40.94677],[27.12734,40.94849],[27.12789,40.95359],[27.13239,40.95799],[27.13462,40.95491]]]}},{"type":"Feature","properties":{"id":"TR-Y-59-006-M-0025","level":"yerlesim","type":"mahalle","parent_id":"TR-D-59-006","province_id":"TR-P-59","district_id":"TR-D-59-006","name":"Dolu","source_raw_name":"Dolu Mah.","source":"Kullanıcı tarafından sağlanan KML","source_label":"Kullanıcı tarafından sağlanan KML","source_name":"Tekirdağ Mahalle KML"},"geometry":{"type":"Polygon","coordinates":[[[26.79653,41.07261],[26.79714,41.06904],[26.79422,41.06484],[26.79435,41.06356],[26.798,41.06434],[26.79783,41.06294],[26.79383,41.06091],[26.79999,41.05852],[26.81551,41.04147],[26.81636,41.03934],[26.81256,41.03638],[26.8128,41.0312],[26.81106,41.02683],[26.81216,41.02468],[26.80493,41.02107],[26.79432,41.02045],[26.78573,41.01587],[26.77931,41.01598],[26.76991,41.01198],[26.76152,41.01216],[26.75986,41.01396],[26.75745,41.0131],[26.74257,41.01994],[26.73846,41.02014],[26.73994,41.02307],[26.7363,41.02577],[26.74115,41.03015],[26.74869,41.03362],[26.76413,41.04902],[26.76045,41.05603],[26.76442,41.05883],[26.75746,41.065],[26.75554,41.07033],[26.7503,41.07027],[26.74492,41.07506],[26.77599,41.07431],[26.79487,41.07749],[26.80636,41.08226],[26.80218,41.0761],[26.79653,41.07261]],[[26.76543,41.0208],[26.76848,41.02077],[26.76972,41.02194],[26.76599,41.02289],[26.76543,41.0208]]]}},{"type":"Feature","properties":{"id":"TR-Y-59-006-M-0027","level":"yerlesim","type":"mahalle","parent_id":"TR-D-59-006","province_id":"TR-P-59","district_id":"TR-D-59-006","name":"Emirali","source_raw_name":"Emirali Mah.","source":"Kullanıcı tarafından sağlanan KML","source_label":"Kullanıcı tarafından sağlanan KML","source_name":"Tekirdağ Mahalle KML"},"geometry":{"type":"Polygon","coordinates":[[[27.04899,40.78914],[27.05001,40.79119],[27.0597,40.79038],[27.06194,40.78668],[27.06361,40.78763],[27.064,40.78608],[27.07174,40.78465],[27.07531,40.78161],[27.06821,40.7776],[27.06263,40.77092],[27.05801,40.77112],[27.05881,40.76876],[27.05554,40.76367],[27.05094,40.76195],[27.04965,40.75869],[27.04165,40.75599],[27.04621,40.75943],[27.04006,40.76492],[27.04068,40.76364],[27.04137,40.76279],[27.04502,40.76034],[27.04086,40.75701],[27.04114,40.75537],[27.04337,40.75517],[27.04759,40.75766],[27.05057,40.75547],[27.03527,40.75187],[27.03648,40.77411],[27.04053,40.77695],[27.04052,40.77948],[27.03276,40.78969],[27.03478,40.79267],[27.04899,40.78914]]]}},{"type":"Feature","properties":{"id":"TR-Y-59-006-M-0028","level":"yerlesim","type":"mahalle","parent_id":"TR-D-59-006","province_id":"TR-P-59","district_id":"TR-D-59-006","name":"Esendik","source_raw_name":"Esendik Mah.","source":"Kullanıcı tarafından sağlanan KML","source_label":"Kullanıcı tarafından sağlanan KML","source_name":"Tekirdağ Mahalle KML"},"geometry":{"type":"Polygon","coordinates":[[[27.16774,40.79233],[27.17026,40.7891],[27.17507,40.78924],[27.17488,40.78751],[27.18207,40.78332],[27.18526,40.77828],[27.19398,40.77472],[27.19746,40.77124],[27.20107,40.77153],[27.20818,40.76315],[27.20736,40.76173],[27.201,40.761],[27.19246,40.75622],[27.18364,40.75381],[27.17672,40.75998],[27.17555,40.76484],[27.16542,40.7715],[27.15524,40.77481],[27.15183,40.77964],[27.15099,40.7824],[27.15331,40.78361],[27.15183,40.78402],[27.16057,40.78822],[27.16239,40.79091],[27.16774,40.79233]]]}},{"type":"Feature","properties":{"id":"TR-Y-59-006-M-0029","level":"yerlesim","type":"mahalle","parent_id":"TR-D-59-006","province_id":"TR-P-59","district_id":"TR-D-59-006","name":"Evrenbey","source_raw_name":"Evrenbey Mah.","source":"Kullanıcı tarafından sağlanan KML","source_label":"Kullanıcı tarafından sağlanan KML","source_name":"Tekirdağ Mahalle KML"},"geometry":{"type":"Polygon","coordinates":[[[27.04676,40.98766],[27.05091,40.98252],[27.05032,40.97958],[27.04764,40.9772],[27.05297,40.97307],[27.05161,40.97182],[27.0519,40.96864],[27.04822,40.96664],[27.04818,40.9644],[27.04971,40.96357],[27.04861,40.96104],[27.05164,40.95614],[27.04703,40.95659],[27.04423,40.95193],[27.0402,40.95036],[27.03256,40.9539],[27.02327,40.95292],[27.0209,40.95538],[27.01314,40.95083],[27.00759,40.95136],[27.00677,40.95327],[27.01081,40.95574],[27.00994,40.95806],[27.0125,40.95918],[27.01351,40.96397],[27.00984,40.96003],[27.00181,40.9634],[27.00108,40.96614],[27.00441,40.96869],[27.00126,40.96805],[27.00068,40.97138],[27.00246,40.97271],[27.00125,40.97273],[26.99855,40.98009],[26.99727,40.97102],[26.99847,40.96718],[26.99564,40.96637],[26.99595,40.97206],[26.995,40.97097],[26.99414,40.96645],[26.99462,40.96313],[26.99195,40.96423],[26.99286,40.96824],[26.99102,40.97192],[26.99451,40.97283],[26.99556,40.98013],[26.99815,40.98032],[26.9958,40.98154],[26.99515,40.9843],[26.99809,40.98553],[27.00313,40.9835],[27.00638,40.9868],[27.0172,40.98272],[27.02524,40.98494],[27.02649,40.98385],[27.02934,40.98602],[27.03221,40.9854],[27.03146,40.9868],[27.03879,40.98524],[27.04012,40.98767],[27.04723,40.98889],[27.04676,40.98766]]]}},{"type":"Feature","properties":{"id":"TR-Y-59-006-M-0030","level":"yerlesim","type":"mahalle","parent_id":"TR-D-59-006","province_id":"TR-P-59","district_id":"TR-D-59-006","name":"Gazibey","source_raw_name":"Gazibey Mah.","source":"Kullanıcı tarafından sağlanan KML","source_label":"Kullanıcı tarafından sağlanan KML","source_name":"Tekirdağ Mahalle KML"},"geometry":{"type":"Polygon","coordinates":[[[26.92625,40.91014],[26.93062,40.91117],[26.9362,40.90721],[26.93555,40.90277],[26.93706,40.89853],[26.93338,40.88981],[26.9123,40.89128],[26.90379,40.89376],[26.90533,40.89671],[26.91293,40.90102],[26.92315,40.91225],[26.92494,40.9167],[26.92625,40.91014]]]}},{"type":"Feature","properties":{"id":"TR-Y-59-006-M-0038","level":"yerlesim","type":"mahalle","parent_id":"TR-D-59-006","province_id":"TR-P-59","district_id":"TR-D-59-006","name":"Hemit","source_raw_name":"Hemit Mah.","source":"Kullanıcı tarafından sağlanan KML","source_label":"Kullanıcı tarafından sağlanan KML","source_name":"Tekirdağ Mahalle KML"},"geometry":{"type":"Polygon","coordinates":[[[26.81155,41.02458],[26.82084,41.01291],[26.8225,41.00745],[26.82137,41.00044],[26.81855,40.99711],[26.82052,40.99363],[26.81409,40.99353],[26.80068,40.98422],[26.80123,40.97975],[26.7985,40.97004],[26.78908,40.97603],[26.78617,40.95808],[26.78233,40.94766],[26.77415,40.94952],[26.7736,40.95234],[26.75963,40.95515],[26.76066,40.9576],[26.7648,40.96009],[26.76346,40.96066],[26.77082,40.96563],[26.77235,40.97302],[26.77879,40.98187],[26.77645,40.98798],[26.78725,40.99218],[26.77625,40.99975],[26.76859,41.00916],[26.76372,41.01216],[26.77181,41.01218],[26.77931,41.01598],[26.78573,41.01587],[26.79135,41.01955],[26.80493,41.02107],[26.81155,41.02458]]]}},{"type":"Feature","properties":{"id":"TR-Y-59-006-M-0039","level":"yerlesim","type":"mahalle","parent_id":"TR-D-59-006","province_id":"TR-P-59","district_id":"TR-D-59-006","name":"Hereke","source_raw_name":"Hereke Mah.","source":"Kullanıcı tarafından sağlanan KML","source_label":"Kullanıcı tarafından sağlanan KML","source_name":"Tekirdağ Mahalle KML"},"geometry":{"type":"Polygon","coordinates":[[[27.09193,40.92239],[27.10468,40.92237],[27.11267,40.91807],[27.11528,40.91181],[27.1124,40.89808],[27.1103,40.89672],[27.1138,40.89716],[27.11831,40.89509],[27.12715,40.88635],[27.1173,40.88289],[27.11498,40.88421],[27.11265,40.878],[27.10942,40.87455],[27.10712,40.86681],[27.09963,40.86706],[27.09778,40.87242],[27.08934,40.87653],[27.08397,40.88514],[27.08095,40.88421],[27.07901,40.90169],[27.0696,40.90151],[27.06828,40.90503],[27.05752,40.90712],[27.05905,40.90848],[27.05512,40.90881],[27.05425,40.91057],[27.0611,40.91428],[27.06671,40.91984],[27.08058,40.92548],[27.09193,40.92239]]]}},{"type":"Feature","properties":{"id":"TR-Y-59-006-M-0043","level":"yerlesim","type":"mahalle","parent_id":"TR-D-59-006","province_id":"TR-P-59","district_id":"TR-D-59-006","name":"Izgar","source_raw_name":"Izgar Mah.","source":"Kullanıcı tarafından sağlanan KML","source_label":"Kullanıcı tarafından sağlanan KML","source_name":"Tekirdağ Mahalle KML"},"geometry":{"type":"Polygon","coordinates":[[[26.81094,40.88777],[26.82283,40.883],[26.82151,40.87646],[26.82352,40.87363],[26.82129,40.87229],[26.82144,40.86572],[26.82796,40.85974],[26.82625,40.84932],[26.83671,40.84575],[26.83706,40.8415],[26.83044,40.84035],[26.8281,40.83527],[26.8224,40.831],[26.81499,40.83961],[26.79927,40.84462],[26.78646,40.85634],[26.7942,40.85878],[26.79474,40.86234],[26.79805,40.86539],[26.79709,40.86795],[26.79893,40.86822],[26.79945,40.86686],[26.8033,40.86983],[26.80331,40.87419],[26.80665,40.87331],[26.80496,40.88254],[26.80841,40.88568],[26.8081,40.888],[26.8102,40.89107],[26.81094,40.88777]]]}},{"type":"Feature","properties":{"id":"TR-Y-59-006-M-0047","level":"yerlesim","type":"mahalle","parent_id":"TR-D-59-006","province_id":"TR-P-59","district_id":"TR-D-59-006","name":"Karacahalil","source_raw_name":"Karacahalil Mah.","source":"Kullanıcı tarafından sağlanan KML","source_label":"Kullanıcı tarafından sağlanan KML","source_name":"Tekirdağ Mahalle KML"},"geometry":{"type":"Polygon","coordinates":[[[26.97483,40.82193],[26.98091,40.82031],[26.97521,40.81519],[26.96212,40.81416],[26.95771,40.80844],[26.95525,40.80681],[26.95214,40.80751],[26.9493,40.80221],[26.93989,40.79187],[26.94156,40.79242],[26.935,40.78778],[26.93075,40.77702],[26.9174,40.77047],[26.9085,40.75966],[26.90675,40.7534],[26.89454,40.74715],[26.89066,40.74675],[26.89614,40.76219],[26.89944,40.76452],[26.90314,40.77116],[26.91258,40.77604],[26.919,40.78558],[26.91743,40.79675],[26.92069,40.80491],[26.92094,40.80804],[26.91988,40.8068],[26.91963,40.80818],[26.9221,40.81058],[26.92226,40.81572],[26.94311,40.83237],[26.94278,40.83455],[26.94606,40.83822],[26.94677,40.84368],[26.95131,40.84485],[26.95284,40.84704],[26.95187,40.85112],[26.95983,40.84344],[26.97124,40.83591],[26.97041,40.83312],[26.97408,40.82823],[26.97301,40.82673],[26.97483,40.82193]],[[26.92942,40.796],[26.93163,40.79751],[26.93463,40.80165],[26.93154,40.80132],[26.92942,40.796]]]}},{"type":"Feature","properties":{"id":"TR-Y-59-006-M-0049","level":"yerlesim","type":"mahalle","parent_id":"TR-D-59-006","province_id":"TR-P-59","district_id":"TR-D-59-006","name":"Karamurat","source_raw_name":"Karamurat Mah.","source":"Kullanıcı tarafından sağlanan KML","source_label":"Kullanıcı tarafından sağlanan KML","source_name":"Tekirdağ Mahalle KML"},"geometry":{"type":"Polygon","coordinates":[[[27.08303,40.97532],[27.0835,40.96968],[27.09533,40.96504],[27.09725,40.96117],[27.0966,40.95472],[27.1026,40.95142],[27.1035,40.94904],[27.09665,40.94822],[27.09179,40.94537],[27.0934,40.94138],[27.08526,40.93623],[27.08458,40.93148],[27.08161,40.92635],[27.07287,40.93098],[27.07235,40.94049],[27.07743,40.94342],[27.07926,40.94779],[27.0714,40.95475],[27.06347,40.96556],[27.05861,40.97769],[27.05898,40.98169],[27.05674,40.98427],[27.06546,40.98568],[27.06577,40.98156],[27.07057,40.97441],[27.07402,40.97603],[27.0758,40.9736],[27.08303,40.97532]]]}},{"type":"Feature","properties":{"id":"TR-Y-59-006-M-0051","level":"yerlesim","type":"mahalle","parent_id":"TR-D-59-006","province_id":"TR-P-59","district_id":"TR-D-59-006","name":"Kermeyan","source_raw_name":"Kermeyan Mah.","source":"Kullanıcı tarafından sağlanan KML","source_label":"Kullanıcı tarafından sağlanan KML","source_name":"Tekirdağ Mahalle KML"},"geometry":{"type":"Polygon","coordinates":[[[27.09966,40.94907],[27.11307,40.94551],[27.12509,40.94677],[27.12837,40.93655],[27.12659,40.93176],[27.11521,40.92466],[27.11219,40.92156],[27.11169,40.91828],[27.10468,40.92237],[27.09193,40.92239],[27.08209,40.9258],[27.08526,40.93623],[27.0934,40.94138],[27.09179,40.94537],[27.09966,40.94907]]]}},{"type":"Feature","properties":{"id":"TR-Y-59-006-M-0052","level":"yerlesim","type":"mahalle","parent_id":"TR-D-59-006","province_id":"TR-P-59","district_id":"TR-D-59-006","name":"Kiremitlik","source_raw_name":"Kiremitlik Mah.","source":"Kullanıcı tarafından sağlanan KML","source_label":"Kullanıcı tarafından sağlanan KML","source_name":"Tekirdağ Mahalle KML"},"geometry":{"type":"Polygon","coordinates":[[[26.94248,40.99258],[26.94393,40.98701],[26.93662,40.98458],[26.93344,40.98106],[26.92874,40.97899],[26.92682,40.9753],[26.92148,40.97107],[26.91811,40.96388],[26.91508,40.96178],[26.91245,40.96955],[26.90114,40.978],[26.89752,40.98594],[26.89927,40.98649],[26.90143,40.98319],[26.90184,40.98675],[26.90422,40.98467],[26.90554,40.98685],[26.91075,40.98868],[26.91188,40.98725],[26.91485,40.98807],[26.91783,40.99454],[26.92676,41.00112],[26.93178,40.99601],[26.94248,40.99258]]]}},{"type":"Feature","properties":{"id":"TR-Y-59-006-M-0057","level":"yerlesim","type":"mahalle","parent_id":"TR-D-59-006","province_id":"TR-P-59","district_id":"TR-D-59-006","name":"Kuyucu","source_raw_name":"Kuyucu Mah.","source":"Kullanıcı tarafından sağlanan KML","source_label":"Kullanıcı tarafından sağlanan KML","source_name":"Tekirdağ Mahalle KML"},"geometry":{"type":"Polygon","coordinates":[[[27.01207,40.91386],[27.01672,40.9132],[27.01988,40.9107],[27.02177,40.90506],[27.0242,40.90379],[27.0224,40.90089],[27.0248,40.90029],[27.02348,40.89804],[27.02765,40.89805],[27.02658,40.89369],[27.02936,40.89055],[27.03281,40.8894],[27.0321,40.88776],[27.03703,40.88347],[27.02835,40.87669],[27.02766,40.87347],[27.02395,40.87406],[27.01923,40.87212],[27.00952,40.87685],[27.01684,40.88856],[27.00939,40.88824],[27.00914,40.88946],[27.01067,40.89283],[27.00863,40.89666],[27.01417,40.90066],[27.0089,40.90592],[27.0089,40.90918],[27.00639,40.91034],[27.00659,40.91276],[27.00684,40.91392],[27.01078,40.9127],[27.01207,40.91386]]]}},{"type":"Feature","properties":{"id":"TR-Y-59-006-M-0058","level":"yerlesim","type":"mahalle","parent_id":"TR-D-59-006","province_id":"TR-P-59","district_id":"TR-D-59-006","name":"Mestanlar","source_raw_name":"Mestanlar Mah.","source":"Kullanıcı tarafından sağlanan KML","source_label":"Kullanıcı tarafından sağlanan KML","source_name":"Tekirdağ Mahalle KML"},"geometry":{"type":"Polygon","coordinates":[[[26.85524,41.11418],[26.86774,41.11198],[26.86477,41.10598],[26.86508,41.10054],[26.86231,41.10045],[26.85492,41.09575],[26.85241,41.09047],[26.84731,41.0873],[26.84793,41.08503],[26.84286,41.08831],[26.83872,41.09499],[26.83234,41.09856],[26.84189,41.11035],[26.85524,41.11418]]]}},{"type":"Feature","properties":{"id":"TR-Y-59-006-M-0072","level":"yerlesim","type":"mahalle","parent_id":"TR-D-59-006","province_id":"TR-P-59","district_id":"TR-D-59-006","name":"Yeni","source_raw_name":"Yeni Mah.","source":"Kullanıcı tarafından sağlanan KML","source_label":"Kullanıcı tarafından sağlanan KML","source_name":"Tekirdağ Mahalle KML"},"geometry":{"type":"Polygon","coordinates":[[[26.88078,40.94562],[26.88632,40.93713],[26.88812,40.92911],[26.89863,40.92294],[26.89528,40.91637],[26.90288,40.92019],[26.916,40.9181],[26.92083,40.91536],[26.92494,40.9167],[26.92315,40.91225],[26.91293,40.90102],[26.90533,40.89671],[26.90363,40.89365],[26.90048,40.89472],[26.90129,40.89585],[26.89912,40.89767],[26.89376,40.89387],[26.89107,40.89615],[26.88469,40.91612],[26.88308,40.92841],[26.87151,40.94215],[26.87559,40.94125],[26.88078,40.94562]]]}},{"type":"Feature","properties":{"id":"TR-Y-59-006-M-0073","level":"yerlesim","type":"mahalle","parent_id":"TR-D-59-006","province_id":"TR-P-59","district_id":"TR-D-59-006","name":"Yenice","source_raw_name":"Yenice Mah.","source":"Kullanıcı tarafından sağlanan KML","source_label":"Kullanıcı tarafından sağlanan KML","source_name":"Tekirdağ Mahalle KML"},"geometry":{"type":"Polygon","coordinates":[[[27.13866,40.92382],[27.1502,40.92761],[27.15473,40.92414],[27.15529,40.92059],[27.15939,40.91559],[27.15969,40.9142],[27.15815,40.91447],[27.15448,40.9112],[27.16503,40.90695],[27.16197,40.90233],[27.15804,40.90433],[27.14692,40.9035],[27.13891,40.89868],[27.13933,40.89771],[27.13161,40.89667],[27.13103,40.89427],[27.12525,40.89563],[27.11996,40.8932],[27.11555,40.89664],[27.1103,40.89672],[27.1124,40.89808],[27.11528,40.91181],[27.11338,40.9164],[27.13217,40.91762],[27.13549,40.91577],[27.13948,40.92071],[27.14001,40.92294],[27.13866,40.92382]]]}},{"type":"Feature","properties":{"id":"TR-Y-59-006-M-0074","level":"yerlesim","type":"mahalle","parent_id":"TR-D-59-006","province_id":"TR-P-59","district_id":"TR-D-59-006","name":"Yenidibek","source_raw_name":"Yenidibek Mah.","source":"Kullanıcı tarafından sağlanan KML","source_label":"Kullanıcı tarafından sağlanan KML","source_name":"Tekirdağ Mahalle KML"},"geometry":{"type":"Polygon","coordinates":[[[26.8525,40.79817],[26.85575,40.79955],[26.85991,40.79834],[26.85891,40.7973],[26.86038,40.79607],[26.86427,40.79656],[26.86357,40.7952],[26.86094,40.79561],[26.86643,40.79111],[26.87117,40.77771],[26.86843,40.77268],[26.86857,40.7673],[26.87162,40.76365],[26.87032,40.75952],[26.8666,40.75428],[26.85672,40.74683],[26.85573,40.7429],[26.85681,40.73984],[26.85532,40.73713],[26.85636,40.72937],[26.84627,40.72562],[26.83154,40.7244],[26.82853,40.72564],[26.82391,40.72301],[26.81763,40.7251],[26.81132,40.72331],[26.80888,40.72832],[26.80483,40.72643],[26.80782,40.7302],[26.80994,40.73869],[26.81006,40.75125],[26.81134,40.75225],[26.80671,40.77163],[26.81304,40.77419],[26.81248,40.77546],[26.81507,40.77862],[26.8145,40.78088],[26.81586,40.78148],[26.81533,40.78332],[26.81178,40.78364],[26.814,40.78569],[26.81631,40.78513],[26.82267,40.78819],[26.82285,40.79082],[26.82556,40.79138],[26.82594,40.79337],[26.83295,40.79396],[26.83359,40.79692],[26.83422,40.79531],[26.83861,40.79979],[26.84237,40.79866],[26.84626,40.80022],[26.84723,40.79872],[26.8472,40.80133],[26.8525,40.79817]],[[26.83297,40.75266],[26.83436,40.75911],[26.83543,40.76022],[26.83157,40.75962],[26.83297,40.75266]]]}}]}