{"type":"FeatureCollection","name":"turkiye_map.dist.mahalle_geometrileri_by_district.TR-D-06-022","features":[{"type":"Feature","properties":{"id":"TR-Y-06-022-M-0001","level":"yerlesim","type":"mahalle","parent_id":"TR-D-06-022","province_id":"TR-P-06","district_id":"TR-D-06-022","name":"Abadan","source_raw_name":"ABADAN","source":"Kamuya açık veri ve kent rehberi servisleri","source_label":"Kamuya açık veri ve kent rehberi servisleri","source_name":"Ankara Büyükşehir Belediyesi Seffaf Ankara Açık Veri Platformu - MAKS Mahalle"},"geometry":{"type":"MultiPolygon","coordinates":[[[[32.887758,40.125443],[32.888148,40.123739],[32.888732,40.122345],[32.888643,40.121773],[32.888447,40.121573],[32.885185,40.121838],[32.884335,40.121992],[32.885726,40.118007],[32.885294,40.117969],[32.884194,40.117809],[32.884007,40.117773],[32.883211,40.117555],[32.882696,40.117396],[32.881952,40.117098],[32.880593,40.116438],[32.878911,40.11552],[32.876164,40.114051],[32.875301,40.112304],[32.870116,40.109046],[32.868621,40.108917],[32.864438,40.103108],[32.86469,40.101706],[32.864815,40.101626],[32.858647,40.099967],[32.855374,40.099819],[32.854067,40.098812],[32.850793,40.099454],[32.842851,40.097074],[32.831356,40.094832],[32.827569,40.093648],[32.8278,40.093893],[32.827822,40.094028],[32.827697,40.094411],[32.827716,40.094584],[32.827784,40.094856],[32.827868,40.095089],[32.82789,40.095307],[32.82774,40.095701],[32.827526,40.096664],[32.827343,40.097281],[32.827216,40.098002],[32.827605,40.098703],[32.827557,40.098752],[32.830398,40.10069],[32.831426,40.103108],[32.832959,40.106965],[32.837424,40.112179],[32.838117,40.113196],[32.838184,40.113385],[32.838283,40.113438],[32.838312,40.113482],[32.843263,40.115842],[32.843827,40.116259],[32.844739,40.116611],[32.848237,40.1174],[32.852971,40.119426],[32.856098,40.121399],[32.856944,40.122134],[32.857334,40.122602],[32.857877,40.12292],[32.860853,40.124108],[32.864677,40.125264],[32.866742,40.125433],[32.869133,40.125403],[32.872981,40.125524],[32.875352,40.124692],[32.875914,40.124354],[32.878104,40.124406],[32.878225,40.124548],[32.87876,40.124542],[32.882784,40.12418],[32.884183,40.124753],[32.884674,40.125509],[32.885984,40.126174],[32.88716,40.126403],[32.88769,40.126396],[32.887758,40.125443]]]]}},{"type":"Feature","properties":{"id":"TR-Y-06-022-M-0002","level":"yerlesim","type":"mahalle","parent_id":"TR-D-06-022","province_id":"TR-P-06","district_id":"TR-D-06-022","name":"Altınova","source_raw_name":"ALTINOVA","source":"Kamuya açık veri ve kent rehberi servisleri","source_label":"Kamuya açık veri ve kent rehberi servisleri","source_name":"Ankara Büyükşehir Belediyesi Seffaf Ankara Açık Veri Platformu - MAKS Mahalle"},"geometry":{"type":"MultiPolygon","coordinates":[[[[32.978787,40.072476],[32.980461,40.072397],[32.98091,40.072415],[32.981946,40.07259],[32.982795,40.072789],[32.984032,40.073555],[32.987555,40.075913],[32.987838,40.075782],[32.986605,40.07],[32.986358,40.0697],[32.985341,40.067753],[32.984803,40.067076],[32.984415,40.066945],[32.983698,40.066772],[32.983464,40.066729],[32.982455,40.066611],[32.981955,40.066597],[32.981319,40.066609],[32.980274,40.066657],[32.979257,40.066753],[32.978637,40.066849],[32.978291,40.066918],[32.978324,40.066804],[32.978332,40.066678],[32.978526,40.065969],[32.979571,40.062774],[32.979587,40.062668],[32.97927,40.06047],[32.979089,40.059741],[32.976805,40.057237],[32.976342,40.056758],[32.981241,40.056772],[32.984902,40.05638],[32.985433,40.056288],[32.984864,40.0548],[32.984306,40.054418],[32.984104,40.053205],[32.98387,40.052674],[32.98356,40.052115],[32.983246,40.049986],[32.983681,40.04981],[32.983611,40.047605],[32.984453,40.047646],[32.984248,40.047054],[32.982726,40.045771],[32.982173,40.045935],[32.981801,40.045792],[32.982308,40.044369],[32.982238,40.043669],[32.981406,40.042929],[32.98129,40.042543],[32.981751,40.041134],[32.981431,40.039873],[32.979338,40.041184],[32.979301,40.041734],[32.978482,40.042537],[32.977383,40.041873],[32.976518,40.041531],[32.97602,40.042534],[32.975609,40.042638],[32.975542,40.042766],[32.975279,40.043124],[32.974953,40.043354],[32.974372,40.043864],[32.97411,40.044275],[32.97277,40.043906],[32.971637,40.043322],[32.971036,40.042774],[32.970628,40.042239],[32.969983,40.040518],[32.96834,40.040332],[32.967425,40.041561],[32.966832,40.042519],[32.965818,40.043669],[32.964829,40.044165],[32.963342,40.044499],[32.962608,40.044483],[32.96143,40.044116],[32.960934,40.044175],[32.96017,40.044667],[32.957926,40.050662],[32.958618,40.050785],[32.959331,40.05089],[32.959699,40.050983],[32.959888,40.05105],[32.96002,40.051059],[32.960232,40.05138],[32.960425,40.051785],[32.960502,40.052017],[32.960569,40.052571],[32.960594,40.053013],[32.960636,40.053262],[32.961046,40.054866],[32.961146,40.055503],[32.961164,40.055853],[32.961386,40.057471],[32.962015,40.060676],[32.962365,40.060661],[32.962626,40.060703],[32.963736,40.061139],[32.965352,40.062328],[32.967879,40.063983],[32.968025,40.064148],[32.968186,40.064742],[32.96856,40.067203],[32.969409,40.069275],[32.969574,40.069536],[32.96647,40.070561],[32.966224,40.070662],[32.967725,40.07192],[32.970919,40.074929],[32.972172,40.076239],[32.974447,40.074405],[32.975426,40.073653],[32.977181,40.07276],[32.978787,40.072476]]]]}},{"type":"Feature","properties":{"id":"TR-Y-06-022-M-0003","level":"yerlesim","type":"mahalle","parent_id":"TR-D-06-022","province_id":"TR-P-06","district_id":"TR-D-06-022","name":"Ayyıldız","source_raw_name":"AYYILDIZ","source":"Kamuya açık veri ve kent rehberi servisleri","source_label":"Kamuya açık veri ve kent rehberi servisleri","source_name":"Ankara Büyükşehir Belediyesi Seffaf Ankara Açık Veri Platformu - MAKS Mahalle"},"geometry":{"type":"MultiPolygon","coordinates":[[[[32.892861,40.024145],[32.892854,40.023938],[32.89277,40.023961],[32.88818,40.023709],[32.888015,40.023983],[32.888029,40.024203],[32.88705,40.024242],[32.887146,40.024945],[32.888078,40.024987],[32.888345,40.026305],[32.888926,40.027459],[32.889454,40.028137],[32.891318,40.02926],[32.891963,40.029068],[32.892099,40.02888],[32.892134,40.027614],[32.892151,40.025892],[32.89323,40.025882],[32.893092,40.025118],[32.892861,40.024145]]]]}},{"type":"Feature","properties":{"id":"TR-Y-06-022-M-0004","level":"yerlesim","type":"mahalle","parent_id":"TR-D-06-022","province_id":"TR-P-06","district_id":"TR-D-06-022","name":"Fatih","source_raw_name":"FATİH","source":"Kamuya açık veri ve kent rehberi servisleri","source_label":"Kamuya açık veri ve kent rehberi servisleri","source_name":"Ankara Büyükşehir Belediyesi Seffaf Ankara Açık Veri Platformu - MAKS Mahalle"},"geometry":{"type":"MultiPolygon","coordinates":[[[[32.91892,40.056871],[32.918741,40.056051],[32.917658,40.052863],[32.916485,40.048661],[32.916291,40.047775],[32.914948,40.047787],[32.91411,40.047231],[32.913914,40.047134],[32.913722,40.046963],[32.913542,40.046845],[32.912384,40.046157],[32.910857,40.045074],[32.910455,40.044637],[32.905627,40.037815],[32.904567,40.038153],[32.902005,40.038785],[32.900965,40.03895],[32.899444,40.038866],[32.899052,40.038767],[32.89864,40.038488],[32.897021,40.038222],[32.897039,40.039586],[32.897432,40.039589],[32.897408,40.039877],[32.897046,40.03987],[32.897057,40.040372],[32.897418,40.041858],[32.897937,40.042424],[32.899781,40.04324],[32.899024,40.044069],[32.897667,40.044986],[32.89924,40.046463],[32.901462,40.048385],[32.901549,40.048875],[32.901569,40.052924],[32.901551,40.053706],[32.903583,40.054573],[32.902665,40.055625],[32.903093,40.055802],[32.903341,40.055838],[32.905443,40.055849],[32.905631,40.056056],[32.906117,40.056706],[32.908024,40.056823],[32.908176,40.055749],[32.908205,40.055267],[32.908208,40.054854],[32.912174,40.054844],[32.912804,40.054226],[32.913827,40.053178],[32.914036,40.053322],[32.915669,40.05466],[32.916546,40.055341],[32.916981,40.055747],[32.917232,40.056078],[32.917309,40.056248],[32.917401,40.056537],[32.917415,40.056669],[32.917347,40.056979],[32.91892,40.056871]]]]}},{"type":"Feature","properties":{"id":"TR-Y-06-022-M-0005","level":"yerlesim","type":"mahalle","parent_id":"TR-D-06-022","province_id":"TR-P-06","district_id":"TR-D-06-022","name":"Karaköy","source_raw_name":"KARAKÖY","source":"Kamuya açık veri ve kent rehberi servisleri","source_label":"Kamuya açık veri ve kent rehberi servisleri","source_name":"Ankara Büyükşehir Belediyesi Seffaf Ankara Açık Veri Platformu - MAKS Mahalle"},"geometry":{"type":"MultiPolygon","coordinates":[[[[32.894917,40.163322],[32.894878,40.163284],[32.892753,40.162098],[32.893121,40.161319],[32.893316,40.160969],[32.893864,40.160138],[32.893614,40.159879],[32.891513,40.159723],[32.890226,40.159185],[32.889714,40.158723],[32.890052,40.15811],[32.89119,40.158178],[32.891429,40.157641],[32.891154,40.157266],[32.89138,40.157027],[32.891605,40.156854],[32.890805,40.156489],[32.888605,40.155844],[32.888945,40.154376],[32.888424,40.154318],[32.888447,40.154198],[32.888634,40.153669],[32.887459,40.153415],[32.887335,40.152829],[32.887373,40.152465],[32.8879,40.151266],[32.888076,40.150431],[32.88783,40.149849],[32.88739,40.149614],[32.886703,40.148875],[32.88628,40.148078],[32.886505,40.147829],[32.886631,40.147023],[32.886256,40.146994],[32.885031,40.146522],[32.884846,40.146676],[32.884562,40.146837],[32.88356,40.147467],[32.883517,40.147442],[32.880155,40.146623],[32.877254,40.145957],[32.877567,40.145121],[32.874712,40.14464],[32.8744,40.145237],[32.874398,40.146353],[32.872885,40.150176],[32.871896,40.150933],[32.870594,40.152964],[32.870694,40.155036],[32.870258,40.155175],[32.870441,40.155227],[32.870563,40.155398],[32.870714,40.155872],[32.870713,40.156635],[32.871083,40.15816],[32.871204,40.159952],[32.871772,40.161421],[32.871072,40.163803],[32.869457,40.166049],[32.869813,40.167147],[32.86995,40.168341],[32.869808,40.170004],[32.869803,40.1722],[32.872225,40.172822],[32.873013,40.173041],[32.87338,40.173175],[32.874647,40.173585],[32.874866,40.173632],[32.875267,40.173624],[32.877048,40.173876],[32.877363,40.172755],[32.879766,40.171876],[32.881126,40.170436],[32.884992,40.168358],[32.888021,40.16748],[32.89096,40.166865],[32.891035,40.166577],[32.891196,40.166088],[32.891379,40.165656],[32.891468,40.165495],[32.894917,40.163322]]]]}},{"type":"Feature","properties":{"id":"TR-Y-06-022-M-0006","level":"yerlesim","type":"mahalle","parent_id":"TR-D-06-022","province_id":"TR-P-06","district_id":"TR-D-06-022","name":"Karşıyaka","source_raw_name":"KARŞIYAKA","source":"Kamuya açık veri ve kent rehberi servisleri","source_label":"Kamuya açık veri ve kent rehberi servisleri","source_name":"Ankara Büyükşehir Belediyesi Seffaf Ankara Açık Veri Platformu - MAKS Mahalle"},"geometry":{"type":"MultiPolygon","coordinates":[[[[32.895545,40.162521],[32.903694,40.157083],[32.907141,40.155163],[32.909342,40.152837],[32.908398,40.152361],[32.909444,40.1506],[32.910489,40.14964],[32.912471,40.150442],[32.913515,40.149482],[32.914036,40.150123],[32.914663,40.150044],[32.914458,40.14692],[32.91331,40.146999],[32.912333,40.146918],[32.912334,40.146118],[32.910247,40.145876],[32.910353,40.144995],[32.911502,40.144115],[32.912339,40.142433],[32.911713,40.142113],[32.912237,40.140752],[32.912758,40.140752],[32.912447,40.13955],[32.911613,40.138909],[32.910048,40.138828],[32.910154,40.137306],[32.908799,40.136264],[32.90874,40.136059],[32.912235,40.135668],[32.912243,40.135626],[32.911514,40.134825],[32.912559,40.133864],[32.913188,40.131462],[32.912145,40.130901],[32.91152,40.130099],[32.911682,40.129922],[32.91086,40.130162],[32.91019,40.130005],[32.909243,40.130602],[32.909108,40.13061],[32.906979,40.129699],[32.906824,40.129598],[32.906776,40.129478],[32.906753,40.128899],[32.906669,40.128633],[32.906598,40.128311],[32.907389,40.127567],[32.90786,40.1268],[32.907845,40.126579],[32.907876,40.126282],[32.907838,40.12616],[32.907535,40.125821],[32.907429,40.124976],[32.907227,40.12379],[32.905444,40.124423],[32.905471,40.124262],[32.906044,40.123271],[32.906585,40.122565],[32.907303,40.121465],[32.90775,40.121003],[32.907834,40.120893],[32.907895,40.120716],[32.90791,40.120445],[32.907952,40.120298],[32.904204,40.12081],[32.902245,40.121471],[32.901716,40.120607],[32.900778,40.120529],[32.900548,40.121988],[32.899762,40.12191],[32.898671,40.122317],[32.89819,40.122298],[32.897987,40.122083],[32.896973,40.121946],[32.896619,40.121284],[32.895731,40.121789],[32.895123,40.121847],[32.893754,40.121593],[32.892259,40.121183],[32.892208,40.121553],[32.89056,40.121765],[32.889951,40.121628],[32.888447,40.121573],[32.888643,40.121773],[32.888732,40.122345],[32.888148,40.123739],[32.887758,40.125443],[32.88769,40.126396],[32.88716,40.126403],[32.885984,40.126174],[32.884674,40.125509],[32.884183,40.124753],[32.882784,40.12418],[32.87876,40.124542],[32.878225,40.124548],[32.87847,40.124808],[32.87884,40.125252],[32.877769,40.126272],[32.876822,40.12748],[32.876516,40.128397],[32.876936,40.128599],[32.877197,40.128889],[32.878152,40.129204],[32.878886,40.129181],[32.879452,40.1296],[32.880029,40.129915],[32.880656,40.13081],[32.880697,40.131696],[32.880392,40.132155],[32.880651,40.132327],[32.880394,40.132761],[32.880631,40.132859],[32.88105,40.133714],[32.881031,40.134008],[32.880866,40.134246],[32.880921,40.134373],[32.88092,40.134611],[32.88061,40.134891],[32.880482,40.135129],[32.879622,40.135996],[32.87911,40.136332],[32.879821,40.136907],[32.880369,40.137146],[32.88055,40.137875],[32.879799,40.139135],[32.880875,40.13957],[32.881038,40.140229],[32.88133,40.140607],[32.880635,40.141559],[32.880798,40.141994],[32.881145,40.142176],[32.881178,40.143689],[32.881435,40.143947],[32.880155,40.146623],[32.883517,40.147442],[32.88356,40.147467],[32.884562,40.146837],[32.884846,40.146676],[32.885031,40.146522],[32.886256,40.146994],[32.886631,40.147023],[32.886505,40.147829],[32.88628,40.148078],[32.886703,40.148875],[32.88739,40.149614],[32.88783,40.149849],[32.888076,40.150431],[32.8879,40.151266],[32.887373,40.152465],[32.887335,40.152829],[32.887459,40.153415],[32.888634,40.153669],[32.888447,40.154198],[32.888424,40.154318],[32.888945,40.154376],[32.888605,40.155844],[32.890805,40.156489],[32.891605,40.156854],[32.89138,40.157027],[32.891154,40.157266],[32.891429,40.157641],[32.89119,40.158178],[32.890052,40.15811],[32.889714,40.158723],[32.890226,40.159185],[32.891513,40.159723],[32.893614,40.159879],[32.893864,40.160138],[32.893316,40.160969],[32.893121,40.161319],[32.892753,40.162098],[32.894878,40.163284],[32.894917,40.163322],[32.895545,40.162521]]]]}},{"type":"Feature","properties":{"id":"TR-Y-06-022-M-0007","level":"yerlesim","type":"mahalle","parent_id":"TR-D-06-022","province_id":"TR-P-06","district_id":"TR-D-06-022","name":"Kösrelikkızığı","source_raw_name":"KÖSRELİKKIZIĞI","source":"Kamuya açık veri ve kent rehberi servisleri","source_label":"Kamuya açık veri ve kent rehberi servisleri","source_name":"Ankara Büyükşehir Belediyesi Seffaf Ankara Açık Veri Platformu - MAKS Mahalle"},"geometry":{"type":"MultiPolygon","coordinates":[[[[32.911682,40.129922],[32.912983,40.128499],[32.913008,40.12848],[32.913629,40.128719],[32.914782,40.12752],[32.919558,40.127551],[32.919559,40.126671],[32.920466,40.124874],[32.920202,40.123566],[32.92196,40.121525],[32.922653,40.121525],[32.925366,40.122262],[32.926114,40.119484],[32.927124,40.12067],[32.928082,40.120752],[32.929998,40.12153],[32.930425,40.120386],[32.930426,40.118977],[32.930132,40.118865],[32.930306,40.115496],[32.930368,40.114677],[32.928836,40.112948],[32.927984,40.112743],[32.927345,40.112988],[32.926918,40.113124],[32.926076,40.113032],[32.923886,40.113108],[32.921546,40.112045],[32.923194,40.108646],[32.921756,40.10893],[32.920735,40.108858],[32.918011,40.106913],[32.913425,40.106261],[32.912313,40.105832],[32.912027,40.10519],[32.911378,40.105189],[32.910632,40.103609],[32.907363,40.100591],[32.902038,40.09678],[32.90073,40.096492],[32.896235,40.094474],[32.892224,40.092278],[32.892756,40.088942],[32.891674,40.087059],[32.890497,40.085818],[32.888884,40.085347],[32.88795,40.084769],[32.884897,40.084785],[32.883706,40.084669],[32.882375,40.084445],[32.880542,40.091518],[32.878953,40.091588],[32.877271,40.09094],[32.874931,40.092446],[32.873898,40.094455],[32.87128,40.094883],[32.870998,40.095673],[32.869126,40.096389],[32.867627,40.097967],[32.868468,40.098327],[32.868372,40.099835],[32.867997,40.100337],[32.8665,40.100622],[32.865845,40.100837],[32.864815,40.101626],[32.86469,40.101706],[32.864438,40.103108],[32.868621,40.108917],[32.870116,40.109046],[32.875301,40.112304],[32.876164,40.114051],[32.878911,40.11552],[32.880593,40.116438],[32.881952,40.117098],[32.882696,40.117396],[32.883211,40.117555],[32.884007,40.117773],[32.884194,40.117809],[32.885294,40.117969],[32.885726,40.118007],[32.884335,40.121992],[32.885185,40.121838],[32.888507,40.121569],[32.889951,40.121628],[32.89056,40.121765],[32.892208,40.121553],[32.892259,40.121183],[32.893754,40.121593],[32.895123,40.121847],[32.895731,40.121789],[32.896619,40.121284],[32.896973,40.121946],[32.897987,40.122083],[32.89819,40.122298],[32.898671,40.122317],[32.899762,40.12191],[32.900548,40.121988],[32.900778,40.120529],[32.901716,40.120607],[32.902245,40.121471],[32.904204,40.12081],[32.907952,40.120298],[32.90791,40.120445],[32.907895,40.120716],[32.907834,40.120893],[32.90775,40.121003],[32.907303,40.121465],[32.906585,40.122565],[32.906044,40.123271],[32.905471,40.124262],[32.905444,40.124423],[32.907227,40.12379],[32.907429,40.124976],[32.907535,40.125821],[32.907838,40.12616],[32.907876,40.126282],[32.907845,40.126579],[32.90786,40.1268],[32.907389,40.127567],[32.906598,40.128311],[32.906669,40.128633],[32.906753,40.128899],[32.906776,40.129478],[32.906824,40.129598],[32.906979,40.129699],[32.909108,40.13061],[32.909243,40.130602],[32.91019,40.130005],[32.91086,40.130162],[32.911682,40.129922]]]]}},{"type":"Feature","properties":{"id":"TR-Y-06-022-M-0008","level":"yerlesim","type":"mahalle","parent_id":"TR-D-06-022","province_id":"TR-P-06","district_id":"TR-D-06-022","name":"Merkez","source_raw_name":"MERKEZ","source":"Kamuya açık veri ve kent rehberi servisleri","source_label":"Kamuya açık veri ve kent rehberi servisleri","source_name":"Ankara Büyükşehir Belediyesi Seffaf Ankara Açık Veri Platformu - MAKS Mahalle"},"geometry":{"type":"MultiPolygon","coordinates":[[[[32.897667,40.044986],[32.899024,40.044069],[32.899781,40.04324],[32.897937,40.042424],[32.897418,40.041858],[32.897057,40.040372],[32.897046,40.03987],[32.897408,40.039877],[32.897432,40.039589],[32.897039,40.039586],[32.897021,40.038222],[32.89864,40.038488],[32.899052,40.038767],[32.899444,40.038866],[32.900965,40.03895],[32.902005,40.038785],[32.904567,40.038153],[32.905627,40.037815],[32.90515,40.037206],[32.903737,40.035803],[32.903067,40.035094],[32.902858,40.034737],[32.902628,40.034194],[32.902555,40.033835],[32.902447,40.033085],[32.901519,40.033254],[32.900503,40.033393],[32.898534,40.034081],[32.898185,40.034264],[32.897613,40.034434],[32.896589,40.034616],[32.895733,40.034048],[32.895503,40.034029],[32.894249,40.034095],[32.894051,40.034126],[32.893808,40.034505],[32.89358,40.034655],[32.89353,40.034722],[32.89334,40.034793],[32.892788,40.034869],[32.891318,40.034097],[32.89127,40.034111],[32.891713,40.034695],[32.890379,40.035114],[32.890089,40.035225],[32.889846,40.035344],[32.888906,40.035966],[32.888291,40.036214],[32.886683,40.036719],[32.886234,40.036898],[32.885735,40.037152],[32.885347,40.037473],[32.885264,40.037601],[32.885005,40.038875],[32.884641,40.04053],[32.884622,40.040529],[32.88464,40.040534],[32.884493,40.041198],[32.885212,40.041551],[32.885677,40.041816],[32.88597,40.042016],[32.887511,40.04318],[32.892451,40.046817],[32.893022,40.047384],[32.8934,40.047394],[32.897283,40.045185],[32.897667,40.044986]]]]}},{"type":"Feature","properties":{"id":"TR-Y-06-022-M-0009","level":"yerlesim","type":"mahalle","parent_id":"TR-D-06-022","province_id":"TR-P-06","district_id":"TR-D-06-022","name":"Mimar Sinan","source_raw_name":"MİMAR SİNAN","source":"Kamuya açık veri ve kent rehberi servisleri","source_label":"Kamuya açık veri ve kent rehberi servisleri","source_name":"Ankara Büyükşehir Belediyesi Seffaf Ankara Açık Veri Platformu - MAKS Mahalle"},"geometry":{"type":"MultiPolygon","coordinates":[[[[32.893648,40.059457],[32.896836,40.057226],[32.897809,40.056528],[32.898331,40.056199],[32.902048,40.05639],[32.902648,40.055644],[32.903583,40.054573],[32.901551,40.053706],[32.901569,40.052924],[32.901549,40.048875],[32.901462,40.048385],[32.89924,40.046463],[32.897667,40.044986],[32.897283,40.045185],[32.8934,40.047394],[32.893022,40.047384],[32.892451,40.046817],[32.887511,40.04318],[32.88597,40.042016],[32.885677,40.041816],[32.885212,40.041551],[32.884493,40.041198],[32.88464,40.040534],[32.884622,40.040529],[32.884641,40.04053],[32.885005,40.038875],[32.885264,40.037601],[32.885347,40.037473],[32.885735,40.037152],[32.886234,40.036898],[32.886683,40.036719],[32.888291,40.036214],[32.888906,40.035966],[32.889846,40.035344],[32.890089,40.035225],[32.890379,40.035114],[32.891713,40.034695],[32.89127,40.034111],[32.891318,40.034097],[32.89102,40.03394],[32.889966,40.03303],[32.887502,40.031779],[32.886422,40.031398],[32.885748,40.031105],[32.885146,40.030683],[32.88498,40.030104],[32.884727,40.029573],[32.884426,40.029207],[32.884077,40.029023],[32.883523,40.028602],[32.882862,40.027917],[32.882359,40.028642],[32.874768,40.030367],[32.874927,40.03082],[32.873322,40.033454],[32.872994,40.033838],[32.873301,40.034064],[32.874093,40.034501],[32.875854,40.036367],[32.876614,40.036735],[32.876717,40.038537],[32.876691,40.038646],[32.876612,40.039583],[32.876432,40.039907],[32.876394,40.040269],[32.876387,40.041117],[32.876423,40.0414],[32.876611,40.041676],[32.877506,40.04248],[32.877497,40.042551],[32.87746,40.042599],[32.876923,40.042996],[32.876747,40.043184],[32.876384,40.043525],[32.877175,40.043861],[32.876393,40.044784],[32.875729,40.045282],[32.875501,40.04548],[32.875523,40.047822],[32.87849,40.048231],[32.879111,40.048328],[32.879918,40.048494],[32.88049,40.048594],[32.880243,40.049428],[32.88357,40.05],[32.88389,40.05],[32.883877,40.050347],[32.883695,40.050844],[32.884308,40.05095],[32.885343,40.051351],[32.885331,40.051778],[32.886712,40.051795],[32.886714,40.053105],[32.886078,40.053893],[32.885879,40.054072],[32.885879,40.054716],[32.885962,40.055333],[32.886102,40.055854],[32.88631,40.055879],[32.886642,40.055949],[32.887928,40.056457],[32.888253,40.056615],[32.888619,40.056842],[32.888888,40.057056],[32.889461,40.057572],[32.889768,40.057973],[32.88983,40.058108],[32.889911,40.059632],[32.890845,40.059532],[32.891048,40.059671],[32.89212,40.059652],[32.892826,40.059217],[32.893293,40.059701],[32.893648,40.059457]]]]}},{"type":"Feature","properties":{"id":"TR-Y-06-022-M-0010","level":"yerlesim","type":"mahalle","parent_id":"TR-D-06-022","province_id":"TR-P-06","district_id":"TR-D-06-022","name":"Peçenek","source_raw_name":"PEÇENEK","source":"Kamuya açık veri ve kent rehberi servisleri","source_label":"Kamuya açık veri ve kent rehberi servisleri","source_name":"Ankara Büyükşehir Belediyesi Seffaf Ankara Açık Veri Platformu - MAKS Mahalle"},"geometry":{"type":"MultiPolygon","coordinates":[[[[32.984516,40.066651],[32.983874,40.065398],[32.984023,40.065352],[32.985096,40.065173],[32.984435,40.061965],[32.984342,40.061355],[32.984284,40.061123],[32.984071,40.060839],[32.983768,40.060565],[32.983368,40.060331],[32.983309,40.059777],[32.98599,40.05967],[32.986085,40.059317],[32.985892,40.058663],[32.984902,40.05638],[32.981241,40.056772],[32.976342,40.056758],[32.976805,40.057237],[32.979089,40.059741],[32.97927,40.06047],[32.979587,40.062668],[32.979571,40.062774],[32.978526,40.065969],[32.978332,40.066678],[32.978324,40.066804],[32.978291,40.066918],[32.978637,40.066849],[32.979257,40.066753],[32.980274,40.066657],[32.981319,40.066609],[32.981955,40.066597],[32.982455,40.066611],[32.983464,40.066729],[32.983698,40.066772],[32.984415,40.066945],[32.984803,40.067076],[32.984605,40.066825],[32.984516,40.066651]]]]}},{"type":"Feature","properties":{"id":"TR-Y-06-022-M-0011","level":"yerlesim","type":"mahalle","parent_id":"TR-D-06-022","province_id":"TR-P-06","district_id":"TR-D-06-022","name":"Saray Cumhuriyet","source_raw_name":"SARAY CUMHURİYET","source":"Kamuya açık veri ve kent rehberi servisleri","source_label":"Kamuya açık veri ve kent rehberi servisleri","source_name":"Ankara Büyükşehir Belediyesi Seffaf Ankara Açık Veri Platformu - MAKS Mahalle"},"geometry":{"type":"MultiPolygon","coordinates":[[[[32.95708,40.082925],[32.957094,40.082925],[32.956941,40.082454],[32.957098,40.079412],[32.954615,40.077682],[32.954411,40.076016],[32.937434,40.070976],[32.925599,40.067433],[32.924133,40.066857],[32.922853,40.066193],[32.921706,40.065291],[32.921416,40.06545],[32.920685,40.065762],[32.92037,40.065927],[32.920138,40.066204],[32.920199,40.066374],[32.920482,40.066921],[32.920704,40.069196],[32.920721,40.069503],[32.92064,40.069945],[32.920391,40.070599],[32.920396,40.070661],[32.92087,40.070681],[32.921248,40.070667],[32.921323,40.071559],[32.921354,40.071628],[32.921679,40.072013],[32.922118,40.072275],[32.922371,40.072455],[32.922462,40.072575],[32.922618,40.072677],[32.922679,40.072796],[32.922617,40.073368],[32.922616,40.073964],[32.923208,40.075339],[32.923355,40.076037],[32.923863,40.0779],[32.925174,40.081429],[32.926666,40.080885],[32.92703,40.080739],[32.927237,40.080633],[32.927646,40.080352],[32.927858,40.0802],[32.928054,40.080014],[32.929139,40.080452],[32.929653,40.080436],[32.930586,40.080563],[32.930485,40.080992],[32.931875,40.081161],[32.932362,40.080944],[32.932604,40.080903],[32.935374,40.081284],[32.935405,40.081264],[32.935692,40.080694],[32.942558,40.080748],[32.954605,40.083071],[32.956102,40.083443],[32.95708,40.082925]]]]}},{"type":"Feature","properties":{"id":"TR-Y-06-022-M-0012","level":"yerlesim","type":"mahalle","parent_id":"TR-D-06-022","province_id":"TR-P-06","district_id":"TR-D-06-022","name":"Saray Fatih","source_raw_name":"SARAY FATİH","source":"Kamuya açık veri ve kent rehberi servisleri","source_label":"Kamuya açık veri ve kent rehberi servisleri","source_name":"Ankara Büyükşehir Belediyesi Seffaf Ankara Açık Veri Platformu - MAKS Mahalle"},"geometry":{"type":"MultiPolygon","coordinates":[[[[32.913073,40.082762],[32.914136,40.082399],[32.915055,40.082683],[32.917216,40.083494],[32.918547,40.081882],[32.918727,40.081944],[32.91905,40.082016],[32.919422,40.08204],[32.922808,40.081931],[32.923331,40.081895],[32.92395,40.081818],[32.924179,40.081772],[32.924485,40.081697],[32.925174,40.081429],[32.923863,40.0779],[32.923355,40.076037],[32.923208,40.075339],[32.922616,40.073964],[32.922617,40.073368],[32.922679,40.072796],[32.922618,40.072677],[32.922462,40.072575],[32.922371,40.072455],[32.922118,40.072275],[32.921679,40.072013],[32.921354,40.071628],[32.921323,40.071559],[32.921248,40.070667],[32.92087,40.070681],[32.920396,40.070661],[32.920391,40.070599],[32.92064,40.069945],[32.920721,40.069503],[32.920704,40.069196],[32.920482,40.066921],[32.920199,40.066374],[32.920138,40.066204],[32.92037,40.065927],[32.920685,40.065762],[32.921416,40.06545],[32.921706,40.065291],[32.921247,40.064928],[32.920385,40.063852],[32.91984,40.062404],[32.919394,40.059151],[32.919122,40.057756],[32.91892,40.056871],[32.917347,40.056979],[32.917415,40.056669],[32.917401,40.056537],[32.917309,40.056248],[32.917232,40.056078],[32.916981,40.055747],[32.916546,40.055341],[32.915669,40.05466],[32.914036,40.053322],[32.913827,40.053178],[32.912804,40.054226],[32.912174,40.054844],[32.908208,40.054854],[32.908205,40.055267],[32.908176,40.055749],[32.908024,40.056823],[32.906117,40.056706],[32.905631,40.056056],[32.905443,40.055849],[32.903341,40.055838],[32.903093,40.055802],[32.902665,40.055625],[32.902048,40.05639],[32.898331,40.056199],[32.897809,40.056528],[32.896836,40.057226],[32.893293,40.059701],[32.892826,40.059217],[32.89212,40.059652],[32.891048,40.059671],[32.890845,40.059532],[32.889911,40.059632],[32.888587,40.059716],[32.888469,40.060166],[32.881568,40.060138],[32.878146,40.059896],[32.878123,40.060295],[32.87791,40.061244],[32.880089,40.062347],[32.880294,40.062901],[32.879905,40.063205],[32.879818,40.063293],[32.880172,40.063744],[32.880753,40.064349],[32.880628,40.064513],[32.881524,40.066073],[32.881563,40.066245],[32.881316,40.067101],[32.882473,40.068473],[32.884153,40.069217],[32.8842,40.069434],[32.884798,40.070704],[32.883192,40.073499],[32.882423,40.074173],[32.881408,40.074645],[32.880347,40.075945],[32.88115,40.079311],[32.882295,40.079205],[32.884363,40.079149],[32.884728,40.078994],[32.884969,40.078952],[32.885303,40.079179],[32.885885,40.079431],[32.886608,40.079581],[32.887921,40.079632],[32.888564,40.079816],[32.889443,40.080103],[32.889879,40.080158],[32.890494,40.079869],[32.890924,40.079723],[32.891223,40.079681],[32.891637,40.079646],[32.891981,40.079671],[32.892341,40.079744],[32.895549,40.080861],[32.896208,40.081079],[32.897042,40.08133],[32.901905,40.082634],[32.904197,40.083211],[32.90639,40.083793],[32.907281,40.08398],[32.907946,40.084052],[32.908356,40.084059],[32.908885,40.083991],[32.910377,40.083595],[32.911405,40.083302],[32.913073,40.082762]]]]}},{"type":"Feature","properties":{"id":"TR-Y-06-022-M-0013","level":"yerlesim","type":"mahalle","parent_id":"TR-D-06-022","province_id":"TR-P-06","district_id":"TR-D-06-022","name":"Saray Gümüşoluk","source_raw_name":"SARAY GÜMÜŞOLUK","source":"Kamuya açık veri ve kent rehberi servisleri","source_label":"Kamuya açık veri ve kent rehberi servisleri","source_name":"Ankara Büyükşehir Belediyesi Seffaf Ankara Açık Veri Platformu - MAKS Mahalle"},"geometry":{"type":"MultiPolygon","coordinates":[[[[32.923122,40.108652],[32.923194,40.108646],[32.924844,40.108852],[32.926623,40.107786],[32.927193,40.108776],[32.927215,40.108791],[32.928493,40.108527],[32.928855,40.108164],[32.929318,40.108221],[32.929647,40.108146],[32.93395,40.107861],[32.936911,40.107224],[32.937014,40.107486],[32.937029,40.107483],[32.937036,40.107504],[32.937691,40.107361],[32.937785,40.106499],[32.939375,40.106356],[32.939189,40.105495],[32.940966,40.104634],[32.945269,40.103559],[32.944802,40.102984],[32.946672,40.10277],[32.949448,40.10135],[32.951535,40.102125],[32.953968,40.099829],[32.954623,40.098752],[32.958051,40.096975],[32.958339,40.098143],[32.958355,40.098141],[32.958359,40.098159],[32.959747,40.097937],[32.963569,40.098932],[32.9638,40.098257],[32.964881,40.094306],[32.96697,40.09287],[32.966949,40.092864],[32.966992,40.092676],[32.967003,40.091395],[32.966348,40.09022],[32.966269,40.089869],[32.966135,40.089465],[32.965399,40.088658],[32.96571,40.087287],[32.963846,40.086392],[32.963441,40.086384],[32.962433,40.08537],[32.963209,40.084774],[32.961355,40.08323],[32.957081,40.082925],[32.956102,40.083443],[32.954605,40.083071],[32.942558,40.080748],[32.935692,40.080694],[32.935405,40.081264],[32.935374,40.081284],[32.932604,40.080903],[32.932362,40.080944],[32.931875,40.081161],[32.930485,40.080992],[32.930586,40.080563],[32.929653,40.080436],[32.929139,40.080452],[32.928054,40.080014],[32.927858,40.0802],[32.927646,40.080352],[32.927237,40.080633],[32.92703,40.080739],[32.924485,40.081697],[32.92395,40.081818],[32.923331,40.081895],[32.922807,40.081931],[32.919422,40.08204],[32.91905,40.082016],[32.918727,40.081944],[32.918547,40.081882],[32.917216,40.083494],[32.915055,40.082683],[32.914136,40.082399],[32.912799,40.082856],[32.911405,40.083302],[32.910377,40.083595],[32.908885,40.083991],[32.908607,40.084035],[32.908172,40.084063],[32.907946,40.084052],[32.907281,40.08398],[32.90639,40.083793],[32.904197,40.083211],[32.901905,40.082634],[32.897042,40.08133],[32.896208,40.081079],[32.895549,40.080861],[32.892341,40.079744],[32.891981,40.079671],[32.891637,40.079646],[32.891223,40.079681],[32.890924,40.079723],[32.890494,40.079869],[32.889879,40.080158],[32.889443,40.080103],[32.888564,40.079816],[32.887921,40.079632],[32.886608,40.079581],[32.885885,40.079431],[32.885303,40.079179],[32.884969,40.078952],[32.884728,40.078994],[32.884363,40.079149],[32.882295,40.079205],[32.88115,40.079311],[32.882375,40.084445],[32.883706,40.084669],[32.884897,40.084785],[32.88795,40.084769],[32.888884,40.085347],[32.890497,40.085818],[32.891674,40.087059],[32.892756,40.088942],[32.892224,40.092278],[32.896235,40.094474],[32.90073,40.096492],[32.902038,40.09678],[32.907363,40.100591],[32.910632,40.103609],[32.911378,40.105189],[32.912027,40.10519],[32.912313,40.105832],[32.913425,40.106261],[32.918011,40.106913],[32.920735,40.108858],[32.921756,40.10893],[32.923122,40.108652]]]]}},{"type":"Feature","properties":{"id":"TR-Y-06-022-M-0014","level":"yerlesim","type":"mahalle","parent_id":"TR-D-06-022","province_id":"TR-P-06","district_id":"TR-D-06-022","name":"Saray Osmangazi","source_raw_name":"SARAY OSMANGAZİ","source":"Kamuya açık veri ve kent rehberi servisleri","source_label":"Kamuya açık veri ve kent rehberi servisleri","source_name":"Ankara Büyükşehir Belediyesi Seffaf Ankara Açık Veri Platformu - MAKS Mahalle"},"geometry":{"type":"MultiPolygon","coordinates":[[[[32.954152,40.073866],[32.95749,40.072853],[32.963062,40.07296],[32.963682,40.072162],[32.964257,40.071659],[32.964864,40.071207],[32.966224,40.070662],[32.96535,40.06918],[32.964527,40.066842],[32.96415,40.066142],[32.963246,40.063724],[32.962077,40.061],[32.961386,40.057471],[32.960985,40.057471],[32.959208,40.057846],[32.957854,40.057555],[32.957387,40.057828],[32.956697,40.059006],[32.955897,40.059961],[32.955786,40.060627],[32.955563,40.060883],[32.955507,40.061169],[32.951416,40.060983],[32.946548,40.059919],[32.945304,40.057119],[32.943512,40.055346],[32.942116,40.051442],[32.941058,40.051687],[32.940249,40.055201],[32.939814,40.055653],[32.938913,40.056108],[32.936399,40.056891],[32.934979,40.056918],[32.933766,40.05612],[32.929913,40.05576],[32.93016,40.05503],[32.931023,40.052796],[32.931122,40.052493],[32.930527,40.052288],[32.930109,40.051843],[32.929915,40.051543],[32.92901,40.052902],[32.92831,40.0529],[32.92821,40.054094],[32.927843,40.05437],[32.927002,40.053961],[32.925798,40.054082],[32.925307,40.055587],[32.925201,40.056118],[32.923821,40.056187],[32.923585,40.056218],[32.922916,40.056471],[32.921506,40.056854],[32.920944,40.056122],[32.92063,40.055629],[32.918741,40.056051],[32.919122,40.057756],[32.919394,40.059151],[32.91984,40.062404],[32.920385,40.063852],[32.921247,40.064928],[32.922853,40.066193],[32.924133,40.066857],[32.925599,40.067433],[32.937434,40.070976],[32.954413,40.076021],[32.954152,40.073866]]]]}},{"type":"Feature","properties":{"id":"TR-Y-06-022-M-0015","level":"yerlesim","type":"mahalle","parent_id":"TR-D-06-022","province_id":"TR-P-06","district_id":"TR-D-06-022","name":"Sirkeli Yeşilova","source_raw_name":"SİRKELİ YEŞİLOVA","source":"Kamuya açık veri ve kent rehberi servisleri","source_label":"Kamuya açık veri ve kent rehberi servisleri","source_name":"Ankara Büyükşehir Belediyesi Seffaf Ankara Açık Veri Platformu - MAKS Mahalle"},"geometry":{"type":"MultiPolygon","coordinates":[[[[32.8744,40.145237],[32.874712,40.14464],[32.877567,40.145121],[32.877254,40.145957],[32.880155,40.146623],[32.881435,40.143947],[32.881178,40.143689],[32.881145,40.142176],[32.880798,40.141994],[32.880635,40.141559],[32.88133,40.140607],[32.881038,40.140229],[32.880875,40.13957],[32.879799,40.139135],[32.88055,40.137875],[32.880369,40.137146],[32.879821,40.136907],[32.87911,40.136332],[32.879622,40.135996],[32.880482,40.135129],[32.88061,40.134891],[32.88092,40.134611],[32.880921,40.134373],[32.880866,40.134246],[32.881031,40.134008],[32.88105,40.133714],[32.880631,40.132859],[32.880394,40.132761],[32.880651,40.132327],[32.880392,40.132155],[32.880697,40.131696],[32.880656,40.13081],[32.880029,40.129915],[32.879452,40.1296],[32.878886,40.129181],[32.878152,40.129204],[32.877197,40.128889],[32.876936,40.128599],[32.876516,40.128397],[32.876822,40.12748],[32.877769,40.126272],[32.87884,40.125252],[32.87847,40.124808],[32.878104,40.124406],[32.875914,40.124354],[32.875352,40.124692],[32.872981,40.125524],[32.869133,40.125403],[32.866742,40.125433],[32.864677,40.125264],[32.860853,40.124108],[32.857877,40.12292],[32.857334,40.122602],[32.856944,40.122134],[32.856098,40.121399],[32.852971,40.119426],[32.848237,40.1174],[32.844739,40.116611],[32.843827,40.116259],[32.843263,40.115842],[32.838312,40.113482],[32.838283,40.113438],[32.838184,40.113385],[32.838117,40.113196],[32.837424,40.112179],[32.832959,40.106965],[32.831426,40.103108],[32.830398,40.10069],[32.827557,40.098752],[32.827605,40.098703],[32.826205,40.09784],[32.82359,40.096616],[32.820879,40.096683],[32.8191,40.097614],[32.816938,40.101704],[32.811313,40.107152],[32.809068,40.107364],[32.808691,40.108368],[32.809718,40.108729],[32.806531,40.111524],[32.803814,40.113243],[32.803809,40.114966],[32.80455,40.117481],[32.802584,40.11798],[32.800996,40.117403],[32.798276,40.11984],[32.799672,40.122427],[32.802377,40.124802],[32.80553,40.134429],[32.810296,40.136447],[32.812442,40.138533],[32.812718,40.140185],[32.811595,40.140255],[32.811681,40.143199],[32.812144,40.144924],[32.811582,40.144995],[32.814288,40.147799],[32.816156,40.148879],[32.817372,40.14924],[32.819525,40.148741],[32.8283,40.146436],[32.828537,40.146548],[32.829333,40.146488],[32.830057,40.146786],[32.830375,40.14684],[32.830455,40.146921],[32.831488,40.146926],[32.833068,40.146776],[32.833029,40.146501],[32.833138,40.146372],[32.83307,40.1458],[32.835148,40.145505],[32.835019,40.1452],[32.835596,40.144759],[32.835807,40.144103],[32.835797,40.143951],[32.837382,40.144048],[32.837593,40.143993],[32.840785,40.143543],[32.842309,40.143264],[32.844097,40.142796],[32.845,40.142449],[32.846827,40.140904],[32.847352,40.140622],[32.848009,40.140409],[32.848016,40.14038],[32.848398,40.13986],[32.848579,40.139379],[32.848729,40.139276],[32.849615,40.139339],[32.850139,40.139574],[32.850287,40.139658],[32.85032,40.139691],[32.851422,40.140311],[32.851802,40.140555],[32.851992,40.140655],[32.852713,40.140997],[32.853431,40.141288],[32.853729,40.1414],[32.854951,40.141807],[32.855459,40.141997],[32.856619,40.142377],[32.857476,40.142683],[32.857666,40.142734],[32.858143,40.142896],[32.859578,40.143459],[32.860502,40.143849],[32.861006,40.144038],[32.86227,40.14444],[32.862734,40.144653],[32.863112,40.144743],[32.862398,40.144955],[32.862447,40.144965],[32.872889,40.150164],[32.874398,40.146353],[32.8744,40.145237]]]]}},{"type":"Feature","properties":{"id":"TR-Y-06-022-M-0016","level":"yerlesim","type":"mahalle","parent_id":"TR-D-06-022","province_id":"TR-P-06","district_id":"TR-D-06-022","name":"Sirkeli Yeşilyurt","source_raw_name":"SİRKELİ YEŞİLYURT","source":"Kamuya açık veri ve kent rehberi servisleri","source_label":"Kamuya açık veri ve kent rehberi servisleri","source_name":"Ankara Büyükşehir Belediyesi Seffaf Ankara Açık Veri Platformu - MAKS Mahalle"},"geometry":{"type":"MultiPolygon","coordinates":[[[[32.852243,40.166872],[32.852512,40.166441],[32.852628,40.16622],[32.852801,40.165769],[32.852918,40.16555],[32.853031,40.165383],[32.85319,40.165234],[32.853723,40.164816],[32.85525,40.163691],[32.856445,40.162829],[32.857384,40.162123],[32.857816,40.161826],[32.858081,40.16167],[32.858526,40.161464],[32.859144,40.161201],[32.85943,40.16112],[32.859783,40.160893],[32.86019,40.160675],[32.860467,40.160495],[32.860638,40.160362],[32.860719,40.160278],[32.860876,40.160011],[32.861063,40.159606],[32.861309,40.159341],[32.861571,40.159172],[32.861946,40.158979],[32.862029,40.158976],[32.862418,40.158634],[32.8629,40.158278],[32.864316,40.157374],[32.865445,40.158441],[32.870049,40.155088],[32.870258,40.155175],[32.870694,40.155036],[32.870594,40.152964],[32.871896,40.150933],[32.872889,40.150164],[32.862447,40.144965],[32.862398,40.144955],[32.863112,40.144743],[32.862734,40.144653],[32.86227,40.14444],[32.861006,40.144038],[32.860502,40.143849],[32.859578,40.143459],[32.858143,40.142896],[32.857666,40.142734],[32.857476,40.142683],[32.856619,40.142377],[32.855459,40.141997],[32.854951,40.141807],[32.853729,40.1414],[32.853431,40.141288],[32.852713,40.140997],[32.851992,40.140655],[32.851802,40.140555],[32.851422,40.140311],[32.85032,40.139691],[32.850287,40.139658],[32.850139,40.139574],[32.849615,40.139339],[32.848729,40.139276],[32.848579,40.139379],[32.848398,40.13986],[32.848016,40.14038],[32.848009,40.140409],[32.847352,40.140622],[32.846827,40.140904],[32.845,40.142449],[32.844097,40.142796],[32.842309,40.143264],[32.840785,40.143543],[32.837593,40.143993],[32.837382,40.144048],[32.835797,40.143951],[32.835807,40.144103],[32.835596,40.144759],[32.835019,40.1452],[32.835148,40.145505],[32.83307,40.1458],[32.833138,40.146372],[32.833029,40.146501],[32.833068,40.146776],[32.831488,40.146926],[32.830455,40.146921],[32.830375,40.14684],[32.830057,40.146786],[32.829333,40.146488],[32.828537,40.146548],[32.8283,40.146436],[32.819525,40.148741],[32.82055,40.150538],[32.821484,40.151401],[32.818953,40.152833],[32.817248,40.156079],[32.818391,40.157835],[32.819615,40.158171],[32.820534,40.158365],[32.82175,40.158582],[32.825581,40.160958],[32.825391,40.161963],[32.834459,40.166284],[32.838013,40.167223],[32.841757,40.166725],[32.843536,40.167087],[32.844514,40.167581],[32.844685,40.167709],[32.845598,40.168262],[32.84601,40.168467],[32.846761,40.168683],[32.847582,40.169016],[32.849001,40.169309],[32.849467,40.169466],[32.849749,40.169491],[32.849898,40.169388],[32.851119,40.168308],[32.851577,40.167786],[32.852243,40.166872]]]]}},{"type":"Feature","properties":{"id":"TR-Y-06-022-M-0017","level":"yerlesim","type":"mahalle","parent_id":"TR-D-06-022","province_id":"TR-P-06","district_id":"TR-D-06-022","name":"Tevfik İleri","source_raw_name":"TEVFİK İLERİ","source":"Kamuya açık veri ve kent rehberi servisleri","source_label":"Kamuya açık veri ve kent rehberi servisleri","source_name":"Ankara Büyükşehir Belediyesi Seffaf Ankara Açık Veri Platformu - MAKS Mahalle"},"geometry":{"type":"MultiPolygon","coordinates":[[[[32.941058,40.051687],[32.942116,40.051442],[32.941304,40.049173],[32.937009,40.050984],[32.9327,40.050052],[32.931491,40.049575],[32.928887,40.049145],[32.927864,40.049132],[32.927151,40.048691],[32.926171,40.046365],[32.925704,40.045975],[32.926346,40.044994],[32.92433,40.04423],[32.922359,40.043517],[32.920615,40.042921],[32.920209,40.042812],[32.920602,40.042223],[32.922945,40.041678],[32.921356,40.040204],[32.920972,40.040247],[32.918291,40.041775],[32.916754,40.041531],[32.91669,40.04113],[32.916188,40.040939],[32.915592,40.041478],[32.914999,40.042064],[32.914263,40.041529],[32.913713,40.041224],[32.912236,40.040342],[32.911661,40.040065],[32.911284,40.039927],[32.910567,40.039751],[32.910406,40.039666],[32.908322,40.039256],[32.907604,40.038292],[32.906712,40.037871],[32.906347,40.03739],[32.907819,40.036512],[32.907974,40.036463],[32.908952,40.035827],[32.90925,40.035527],[32.909585,40.035113],[32.909772,40.034656],[32.910005,40.033948],[32.910474,40.033305],[32.910107,40.033086],[32.909908,40.032933],[32.909701,40.032716],[32.909439,40.032229],[32.909249,40.031701],[32.908971,40.031034],[32.909197,40.030831],[32.909584,40.030408],[32.90972,40.030232],[32.910078,40.029867],[32.910472,40.0294],[32.911523,40.028303],[32.911547,40.02823],[32.91151,40.028152],[32.911303,40.027853],[32.910926,40.02743],[32.91056,40.027051],[32.910394,40.026917],[32.910794,40.026336],[32.912262,40.025827],[32.912145,40.024483],[32.910983,40.024535],[32.909123,40.024293],[32.908157,40.0234],[32.908071,40.021284],[32.910655,40.018142],[32.913027,40.017679],[32.914708,40.015611],[32.913855,40.015833],[32.912813,40.016077],[32.910809,40.016472],[32.908577,40.016706],[32.907477,40.016759],[32.906782,40.016827],[32.904739,40.016955],[32.902934,40.017037],[32.897747,40.017338],[32.897374,40.017333],[32.897235,40.017674],[32.896725,40.019138],[32.896316,40.020486],[32.896257,40.02092],[32.896223,40.021744],[32.89618,40.024585],[32.896078,40.026583],[32.896423,40.02767],[32.896701,40.02822],[32.896962,40.028619],[32.897378,40.029095],[32.897566,40.029266],[32.898055,40.029656],[32.89864,40.030016],[32.898924,40.030161],[32.899497,40.030404],[32.900443,40.030759],[32.901245,40.031164],[32.901687,40.031533],[32.901816,40.031678],[32.901986,40.031881],[32.902096,40.032049],[32.902315,40.032519],[32.902447,40.033085],[32.902555,40.033835],[32.902628,40.034194],[32.902858,40.034737],[32.903067,40.035094],[32.903737,40.035803],[32.90515,40.037206],[32.905627,40.037815],[32.910455,40.044637],[32.910857,40.045074],[32.912384,40.046157],[32.913542,40.046845],[32.913722,40.046963],[32.913914,40.047134],[32.91411,40.047231],[32.914948,40.047787],[32.916291,40.047775],[32.916485,40.048661],[32.917658,40.052863],[32.918741,40.056051],[32.92063,40.055629],[32.920944,40.056122],[32.921506,40.056854],[32.922916,40.056471],[32.923585,40.056218],[32.923821,40.056187],[32.925201,40.056118],[32.925307,40.055587],[32.925798,40.054082],[32.927002,40.053961],[32.927843,40.05437],[32.92821,40.054094],[32.92831,40.0529],[32.92901,40.052902],[32.929915,40.051543],[32.930109,40.051843],[32.930527,40.052288],[32.931122,40.052493],[32.931023,40.052796],[32.93016,40.05503],[32.929913,40.05576],[32.933766,40.05612],[32.934979,40.056918],[32.936399,40.056891],[32.938913,40.056108],[32.939814,40.055653],[32.940249,40.055201],[32.941058,40.051687]]]]}},{"type":"Feature","properties":{"id":"TR-Y-06-022-M-0018","level":"yerlesim","type":"mahalle","parent_id":"TR-D-06-022","province_id":"TR-P-06","district_id":"TR-D-06-022","name":"Yeni Karaköy","source_raw_name":"YENİ KARAKÖY","source":"Kamuya açık veri ve kent rehberi servisleri","source_label":"Kamuya açık veri ve kent rehberi servisleri","source_name":"Ankara Büyükşehir Belediyesi Seffaf Ankara Açık Veri Platformu - MAKS Mahalle"},"geometry":{"type":"MultiPolygon","coordinates":[[[[32.957387,40.057828],[32.957854,40.057555],[32.959208,40.057846],[32.960985,40.057471],[32.961386,40.057471],[32.961164,40.055853],[32.961146,40.055503],[32.961046,40.054866],[32.960636,40.053262],[32.960594,40.053013],[32.960569,40.052571],[32.960502,40.052017],[32.960425,40.051785],[32.960232,40.05138],[32.96002,40.051059],[32.959888,40.05105],[32.959699,40.050983],[32.959331,40.05089],[32.958618,40.050785],[32.957926,40.050662],[32.956154,40.050417],[32.953417,40.050075],[32.953049,40.050048],[32.952587,40.050051],[32.952121,40.050095],[32.950755,40.05031],[32.950581,40.050298],[32.950395,40.050266],[32.95029,40.0502],[32.941304,40.049173],[32.943512,40.055346],[32.945304,40.057119],[32.946548,40.059919],[32.951416,40.060983],[32.955507,40.061169],[32.955563,40.060883],[32.955786,40.060627],[32.955897,40.059961],[32.956697,40.059006],[32.957387,40.057828]]]]}},{"type":"Feature","properties":{"id":"TR-Y-06-022-M-0019","level":"yerlesim","type":"mahalle","parent_id":"TR-D-06-022","province_id":"TR-P-06","district_id":"TR-D-06-022","name":"Yıldırımbeyazıt","source_raw_name":"YILDIRIM BEYAZIT","source":"Kamuya açık veri ve kent rehberi servisleri","source_label":"Kamuya açık veri ve kent rehberi servisleri","source_name":"Ankara Büyükşehir Belediyesi Seffaf Ankara Açık Veri Platformu - MAKS Mahalle"},"geometry":{"type":"MultiPolygon","coordinates":[[[[32.968972,40.068208],[32.96856,40.067203],[32.968186,40.064742],[32.968025,40.064148],[32.967879,40.063983],[32.965352,40.062328],[32.963736,40.061139],[32.962626,40.060703],[32.962365,40.060661],[32.962015,40.060676],[32.962077,40.061],[32.963246,40.063724],[32.96415,40.066142],[32.964527,40.066842],[32.96535,40.06918],[32.966224,40.070662],[32.96647,40.070561],[32.969574,40.069536],[32.969409,40.069275],[32.968972,40.068208]]]]}},{"type":"Feature","properties":{"id":"TR-Y-06-022-M-0020","level":"yerlesim","type":"mahalle","parent_id":"TR-D-06-022","province_id":"TR-P-06","district_id":"TR-D-06-022","name":"Yunus Emre","source_raw_name":"YUNUS EMRE","source":"Kamuya açık veri ve kent rehberi servisleri","source_label":"Kamuya açık veri ve kent rehberi servisleri","source_name":"Ankara Büyükşehir Belediyesi Seffaf Ankara Açık Veri Platformu - MAKS Mahalle"},"geometry":{"type":"MultiPolygon","coordinates":[[[[32.895322,40.034039],[32.895503,40.034029],[32.895733,40.034048],[32.896589,40.034616],[32.897613,40.034434],[32.898185,40.034264],[32.898534,40.034081],[32.900503,40.033393],[32.901519,40.033254],[32.902447,40.033085],[32.902315,40.032519],[32.902096,40.032049],[32.901986,40.031881],[32.901687,40.031533],[32.901328,40.031222],[32.901245,40.031164],[32.900443,40.030759],[32.899497,40.030404],[32.898924,40.030161],[32.89864,40.030016],[32.898055,40.029656],[32.897566,40.029266],[32.897378,40.029095],[32.896962,40.028619],[32.896831,40.028436],[32.89658,40.028001],[32.896423,40.02767],[32.896078,40.026583],[32.89618,40.024585],[32.896204,40.022797],[32.896087,40.022844],[32.896085,40.022947],[32.894684,40.023422],[32.893908,40.02364],[32.893098,40.023745],[32.892852,40.023891],[32.892861,40.024145],[32.893092,40.025118],[32.89323,40.025882],[32.892151,40.025892],[32.892134,40.027614],[32.892099,40.02888],[32.891963,40.029068],[32.891318,40.02926],[32.889454,40.028137],[32.888926,40.027459],[32.888345,40.026305],[32.888078,40.024987],[32.887146,40.024945],[32.88705,40.024242],[32.888029,40.024203],[32.888015,40.023983],[32.8891,40.022299],[32.887735,40.021258],[32.887732,40.021309],[32.887669,40.021409],[32.887393,40.021658],[32.886928,40.022023],[32.886328,40.022386],[32.885252,40.022931],[32.884474,40.023479],[32.884023,40.024074],[32.883963,40.024234],[32.88394,40.024831],[32.884092,40.025369],[32.884152,40.025883],[32.884058,40.026271],[32.882862,40.027917],[32.883523,40.028602],[32.884077,40.029023],[32.884426,40.029207],[32.884727,40.029573],[32.88498,40.030104],[32.885146,40.030683],[32.885748,40.031105],[32.886422,40.031398],[32.887502,40.031779],[32.889966,40.03303],[32.89102,40.03394],[32.892788,40.034869],[32.89334,40.034793],[32.89353,40.034722],[32.89358,40.034655],[32.893808,40.034505],[32.894051,40.034126],[32.894249,40.034095],[32.895322,40.034039]]]]}},{"type":"Feature","properties":{"id":"TR-Y-06-022-M-0021","level":"yerlesim","type":"mahalle","parent_id":"TR-D-06-022","province_id":"TR-P-06","district_id":"TR-D-06-022","name":"Yuva","source_raw_name":"YUVA","source":"Kamuya açık veri ve kent rehberi servisleri","source_label":"Kamuya açık veri ve kent rehberi servisleri","source_name":"Ankara Büyükşehir Belediyesi Seffaf Ankara Açık Veri Platformu - MAKS Mahalle"},"geometry":{"type":"MultiPolygon","coordinates":[[[[32.850331,40.196622],[32.850352,40.196616],[32.852011,40.196994],[32.854518,40.198482],[32.859931,40.198819],[32.866214,40.196835],[32.867411,40.197709],[32.868683,40.194772],[32.87007,40.19301],[32.871186,40.192102],[32.87793,40.184768],[32.877968,40.184768],[32.876093,40.182204],[32.875478,40.176276],[32.877048,40.173876],[32.875267,40.173624],[32.874866,40.173632],[32.874647,40.173585],[32.87338,40.173175],[32.873013,40.173041],[32.872225,40.172822],[32.869803,40.1722],[32.869808,40.170004],[32.86995,40.168341],[32.869813,40.167147],[32.869457,40.166049],[32.871072,40.163803],[32.871772,40.161421],[32.871204,40.159952],[32.871083,40.15816],[32.870713,40.156635],[32.870714,40.155872],[32.870563,40.155398],[32.870441,40.155227],[32.870258,40.155175],[32.870049,40.155088],[32.865445,40.158441],[32.864316,40.157374],[32.8629,40.158278],[32.862418,40.158634],[32.862029,40.158976],[32.861946,40.158979],[32.861571,40.159172],[32.861309,40.159341],[32.861063,40.159606],[32.860876,40.160011],[32.860719,40.160278],[32.860638,40.160362],[32.860467,40.160495],[32.86019,40.160675],[32.859783,40.160893],[32.85943,40.16112],[32.859144,40.161201],[32.858526,40.161464],[32.858081,40.16167],[32.857816,40.161826],[32.857384,40.162123],[32.856445,40.162829],[32.853723,40.164816],[32.85319,40.165234],[32.853031,40.165383],[32.852918,40.16555],[32.852801,40.165769],[32.852628,40.16622],[32.852512,40.166441],[32.852243,40.166872],[32.851577,40.167786],[32.851119,40.168308],[32.849898,40.169388],[32.849749,40.169491],[32.849467,40.169466],[32.849001,40.169309],[32.847582,40.169016],[32.846761,40.168683],[32.84601,40.168467],[32.845598,40.168262],[32.844685,40.167709],[32.844514,40.167581],[32.843532,40.167087],[32.842123,40.169311],[32.839871,40.171462],[32.839513,40.188918],[32.839627,40.189109],[32.839696,40.189566],[32.840079,40.190602],[32.84006,40.191395],[32.839989,40.191852],[32.839708,40.192187],[32.839286,40.192415],[32.839216,40.192644],[32.839338,40.193007],[32.839352,40.194539],[32.839525,40.195225],[32.839453,40.196206],[32.839539,40.196636],[32.839463,40.197292],[32.84416,40.200231],[32.849509,40.196839],[32.850331,40.196622]]]]}}]}