{"type":"FeatureCollection","name":"turkiye_map.dist.mahalle_geometrileri_by_district.TR-D-16-003","features":[{"type":"Feature","properties":{"id":"TR-Y-16-003-M-0001","level":"yerlesim","type":"mahalle","parent_id":"TR-D-16-003","province_id":"TR-P-16","province_name":"Bursa","district_id":"TR-D-16-003","name":"Adaköy","source_raw_name":"Adaköy","source":"Kamu kaynak","source_only":false},"geometry":{"type":"MultiPolygon","coordinates":[[[[29.223895,40.245391],[29.238447,40.231001],[29.240372,40.229428],[29.241954,40.227278],[29.243694,40.220387],[29.243145,40.218337],[29.243203,40.216909],[29.244716,40.214223],[29.244209,40.214073],[29.243841,40.214769],[29.240133,40.212099],[29.239929,40.212147],[29.237375,40.213792],[29.225055,40.216047],[29.218252,40.217626],[29.216097,40.217687],[29.212134,40.218764],[29.211228,40.223713],[29.211121,40.224898],[29.211025,40.22515],[29.211132,40.225948],[29.211038,40.2268],[29.210446,40.226925],[29.210396,40.226887],[29.209659,40.227035],[29.209727,40.227688],[29.209726,40.227689],[29.209696,40.227709],[29.209425,40.227873],[29.210155,40.230736],[29.210667,40.230622],[29.211468,40.232836],[29.211459,40.232841],[29.210591,40.233364],[29.210425,40.233464],[29.209441,40.234057],[29.20941,40.235085],[29.209407,40.235226],[29.211649,40.237352],[29.21396,40.237254],[29.215071,40.239178],[29.215443,40.245498],[29.219994,40.245493],[29.223895,40.245391]]]]}},{"type":"Feature","properties":{"id":"TR-Y-16-003-M-0002","level":"yerlesim","type":"mahalle","parent_id":"TR-D-16-003","province_id":"TR-P-16","province_name":"Bursa","district_id":"TR-D-16-003","name":"Ağaköy","source_raw_name":"Ağaköy","source":"Kamu kaynak","source_only":false},"geometry":{"type":"MultiPolygon","coordinates":[[[[29.178136,40.25219],[29.177454,40.249035],[29.179186,40.248641],[29.178811,40.246332],[29.177538,40.246437],[29.177636,40.242475],[29.177648,40.242195],[29.177995,40.239327],[29.179054,40.239383],[29.178958,40.238538],[29.17793,40.238563],[29.177709,40.237603],[29.175117,40.2372],[29.175221,40.237056],[29.175284,40.236968],[29.175357,40.236828],[29.175399,40.236747],[29.175474,40.236539],[29.175572,40.236274],[29.17562,40.236176],[29.175665,40.236108],[29.175838,40.235912],[29.175927,40.235809],[29.176073,40.235631],[29.176126,40.235551],[29.176174,40.2354],[29.17635,40.234788],[29.176441,40.234493],[29.176508,40.234326],[29.176614,40.234153],[29.176794,40.233576],[29.170319,40.232837],[29.169552,40.229713],[29.168224,40.229736],[29.168016,40.229213],[29.167379,40.22945],[29.166587,40.229594],[29.167627,40.232189],[29.167619,40.234347],[29.167771,40.235234],[29.166544,40.235509],[29.164429,40.236907],[29.164421,40.239311],[29.163212,40.239334],[29.163099,40.239951],[29.161633,40.240281],[29.163865,40.241637],[29.164441,40.24308],[29.161771,40.243],[29.16172,40.246202],[29.161603,40.246824],[29.162882,40.24684],[29.162329,40.247851],[29.162144,40.248627],[29.161808,40.249466],[29.161131,40.249364],[29.160587,40.250464],[29.162224,40.25081],[29.162288,40.250976],[29.161181,40.253879],[29.163145,40.254462],[29.164702,40.255415],[29.166319,40.256629],[29.16804,40.257177],[29.169883,40.257304],[29.171637,40.257012],[29.178819,40.255362],[29.177435,40.25238],[29.178136,40.25219]]]]}},{"type":"Feature","properties":{"id":"TR-Y-16-003-M-0003","level":"yerlesim","type":"mahalle","parent_id":"TR-D-16-003","province_id":"TR-P-16","province_name":"Bursa","district_id":"TR-D-16-003","name":"Canbazlarköyü","source_raw_name":"Canbazlarköyü","source":"Kamu kaynak","source_only":false},"geometry":{"type":"MultiPolygon","coordinates":[[[[29.178819,40.255362],[29.186699,40.253437],[29.186705,40.253457],[29.187614,40.253244],[29.187891,40.253187],[29.188944,40.252924],[29.189301,40.252846],[29.189457,40.252801],[29.189949,40.252655],[29.190172,40.252572],[29.190539,40.252394],[29.190883,40.25219],[29.191134,40.251977],[29.191381,40.251777],[29.191738,40.251507],[29.191968,40.251375],[29.192303,40.251273],[29.192812,40.251165],[29.192897,40.251153],[29.193427,40.251042],[29.19413,40.250894],[29.194131,40.250894],[29.194255,40.250867],[29.194717,40.25076],[29.193542,40.247069],[29.192906,40.240544],[29.192889,40.24033],[29.192367,40.238524],[29.192239,40.23852],[29.191845,40.238541],[29.1915,40.238544],[29.191354,40.238536],[29.191243,40.238523],[29.19119,40.238504],[29.191118,40.238487],[29.191027,40.238436],[29.190922,40.23838],[29.190807,40.238313],[29.190689,40.238244],[29.19062,40.238198],[29.190558,40.23816],[29.190475,40.238098],[29.190368,40.238002],[29.190247,40.2379],[29.190142,40.237819],[29.190024,40.237754],[29.189942,40.237699],[29.189861,40.237654],[29.191026,40.23702],[29.191035,40.237015],[29.19004,40.23428],[29.188578,40.23427],[29.188912,40.232891],[29.188306,40.230386],[29.187394,40.230445],[29.187068,40.22851],[29.182747,40.228248],[29.182775,40.229417],[29.178114,40.229384],[29.178072,40.229394],[29.177949,40.229686],[29.177877,40.229925],[29.177894,40.230127],[29.178015,40.230414],[29.178126,40.230716],[29.178153,40.230872],[29.178127,40.231077],[29.178088,40.231183],[29.178009,40.23132],[29.177886,40.231449],[29.177599,40.231629],[29.177357,40.231789],[29.177253,40.231902],[29.177211,40.232034],[29.177177,40.232241],[29.177145,40.232453],[29.177088,40.232749],[29.176862,40.23336],[29.176614,40.234153],[29.176508,40.234326],[29.176441,40.234493],[29.17635,40.234788],[29.176174,40.2354],[29.176126,40.235551],[29.176073,40.235631],[29.175927,40.235809],[29.175838,40.235912],[29.175665,40.236108],[29.17562,40.236176],[29.175572,40.236274],[29.175474,40.236539],[29.175399,40.236747],[29.175357,40.236828],[29.175284,40.236968],[29.175221,40.237056],[29.175117,40.2372],[29.177709,40.237603],[29.17793,40.238563],[29.178958,40.238538],[29.179054,40.239383],[29.177995,40.239327],[29.177648,40.242195],[29.177636,40.242475],[29.177538,40.246437],[29.178811,40.246332],[29.179186,40.248641],[29.177454,40.249035],[29.178136,40.25219],[29.177435,40.25238],[29.178819,40.255362]]]]}},{"type":"Feature","properties":{"id":"TR-Y-16-003-M-0004","level":"yerlesim","type":"mahalle","parent_id":"TR-D-16-003","province_id":"TR-P-16","province_name":"Bursa","district_id":"TR-D-16-003","name":"Dışkayaköyü","source_raw_name":"Dışkayaköyü","source":"Kamu kaynak","source_only":false},"geometry":{"type":"MultiPolygon","coordinates":[[[[29.234263,40.329312],[29.244058,40.326396],[29.244058,40.326396],[29.258337,40.320739],[29.259326,40.319576],[29.256642,40.316668],[29.256989,40.315923],[29.25758,40.316187],[29.259112,40.31584],[29.258154,40.314209],[29.259843,40.314902],[29.262986,40.31463],[29.262913,40.313558],[29.261424,40.312022],[29.262365,40.311281],[29.263789,40.313011],[29.264397,40.311716],[29.26579,40.312342],[29.269425,40.309734],[29.272111,40.312512],[29.273772,40.311937],[29.275873,40.313769],[29.276229,40.312245],[29.278566,40.31285],[29.280888,40.311722],[29.285015,40.311975],[29.284905,40.31035],[29.285895,40.30896],[29.286431,40.306429],[29.285588,40.303891],[29.286031,40.302107],[29.287102,40.301139],[29.287585,40.299616],[29.289917,40.299727],[29.292431,40.298671],[29.291456,40.296885],[29.289266,40.295442],[29.281491,40.292536],[29.276543,40.28721],[29.27491,40.279242],[29.275005,40.274306],[29.275651,40.273433],[29.27478,40.271576],[29.275814,40.270278],[29.277507,40.270359],[29.281685,40.266227],[29.281525,40.265349],[29.278948,40.264424],[29.277763,40.261986],[29.272089,40.265045],[29.271643,40.265852],[29.271145,40.265833],[29.270686,40.266027],[29.270187,40.266493],[29.269171,40.266266],[29.269383,40.26664],[29.268956,40.267114],[29.268559,40.267551],[29.268771,40.267875],[29.268814,40.268314],[29.268667,40.269273],[29.268138,40.269842],[29.267822,40.270444],[29.267547,40.270964],[29.266659,40.271127],[29.265814,40.271892],[29.266259,40.272931],[29.265863,40.274322],[29.265872,40.274621],[29.265622,40.274923],[29.265202,40.274892],[29.265404,40.274505],[29.26537,40.274154],[29.265175,40.273964],[29.265002,40.273944],[29.26474,40.274131],[29.264526,40.274518],[29.264302,40.274611],[29.263944,40.274638],[29.264108,40.274288],[29.264173,40.274014],[29.264001,40.27389],[29.263409,40.273792],[29.263634,40.273547],[29.264087,40.272821],[29.264226,40.272519],[29.264081,40.272243],[29.263874,40.271967],[29.263781,40.271437],[29.263836,40.270878],[29.263888,40.270661],[29.263803,40.2705],[29.263055,40.271091],[29.262741,40.271553],[29.262635,40.271609],[29.262091,40.271891],[29.261561,40.272095],[29.261203,40.272064],[29.260895,40.271967],[29.261037,40.271419],[29.26088,40.271096],[29.260911,40.270743],[29.261014,40.270443],[29.261003,40.270339],[29.260879,40.270146],[29.260516,40.269683],[29.260311,40.26918],[29.260181,40.269166],[29.259858,40.269587],[29.25985,40.269775],[29.259838,40.270023],[29.259756,40.270127],[29.259613,40.270171],[29.25946,40.270178],[29.25902,40.27007],[29.258705,40.270123],[29.258221,40.270305],[29.257829,40.270608],[29.257653,40.27069],[29.257467,40.270715],[29.257308,40.270719],[29.257097,40.270668],[29.256529,40.270559],[29.256377,40.270503],[29.256217,40.270359],[29.256093,40.270287],[29.255994,40.270263],[29.255832,40.270285],[29.255713,40.270337],[29.255528,40.270498],[29.255236,40.270977],[29.255013,40.271176],[29.254823,40.271241],[29.25438,40.27132],[29.254143,40.271359],[29.25389,40.271526],[29.253603,40.271829],[29.253296,40.272333],[29.253288,40.27234],[29.25312,40.272453],[29.252849,40.272501],[29.252413,40.272575],[29.25168,40.272777],[29.251179,40.273031],[29.250801,40.273184],[29.250575,40.273401],[29.250358,40.27355],[29.250088,40.27357],[29.249871,40.273483],[29.249213,40.272728],[29.248951,40.272509],[29.24851,40.272194],[29.248064,40.271996],[29.247935,40.271907],[29.24764,40.271507],[29.247512,40.271301],[29.24733,40.271145],[29.246944,40.270909],[29.246226,40.270612],[29.24608,40.270539],[29.246016,40.270474],[29.246032,40.270374],[29.246086,40.270332],[29.246186,40.270294],[29.246272,40.270279],[29.246839,40.270382],[29.247482,40.270572],[29.246863,40.27024],[29.246534,40.270152],[29.246004,40.270057],[29.245966,40.270044],[29.245948,40.270052],[29.245727,40.270042],[29.245443,40.27011],[29.245236,40.270223],[29.24496,40.270423],[29.244573,40.270809],[29.244271,40.271179],[29.244197,40.271398],[29.244189,40.27155],[29.244256,40.271653],[29.244372,40.271864],[29.244444,40.272138],[29.244494,40.272346],[29.244599,40.272678],[29.244634,40.272875],[29.244628,40.273199],[29.244624,40.273248],[29.244582,40.273397],[29.244481,40.273539],[29.244343,40.273638],[29.244124,40.273697],[29.243993,40.273729],[29.2438,40.273816],[29.243693,40.273892],[29.243452,40.274021],[29.24333,40.274118],[29.242961,40.274854],[29.242997,40.274959],[29.243067,40.275048],[29.243437,40.275329],[29.243579,40.275478],[29.243611,40.275571],[29.243618,40.275592],[29.243601,40.275742],[29.24349,40.275873],[29.243334,40.275976],[29.243146,40.276066],[29.243049,40.276134],[29.243017,40.276248],[29.243045,40.276456],[29.243122,40.276804],[29.243161,40.276967],[29.243343,40.277356],[29.243431,40.277612],[29.243451,40.277729],[29.243386,40.27799],[29.243371,40.278118],[29.243356,40.278316],[29.243388,40.278638],[29.24353,40.278908],[29.243541,40.279088],[29.243323,40.279448],[29.243048,40.279842],[29.242863,40.280031],[29.242814,40.2801],[29.24243,40.28064],[29.242288,40.280839],[29.241647,40.280525],[29.240903,40.280547],[29.240178,40.280927],[29.241914,40.281913],[29.242093,40.283099],[29.241844,40.283939],[29.239081,40.284914],[29.234877,40.284459],[29.231614,40.283134],[29.229215,40.281734],[29.226604,40.280718],[29.225155,40.280015],[29.222535,40.278523],[29.222227,40.278324],[29.222041,40.278164],[29.222585,40.277294],[29.220913,40.275006],[29.220416,40.272741],[29.221058,40.26989],[29.225894,40.26774],[29.232814,40.265968],[29.236504,40.264802],[29.236705,40.263423],[29.237123,40.262444],[29.237726,40.261633],[29.236882,40.258934],[29.236568,40.257834],[29.235344,40.25683],[29.235117,40.256626],[29.22913,40.25936],[29.22593,40.264893],[29.225637,40.264885],[29.224202,40.264847],[29.216869,40.268371],[29.215481,40.272876],[29.218752,40.276081],[29.21784,40.277927],[29.215539,40.278821],[29.216059,40.281585],[29.21257,40.284355],[29.210026,40.284305],[29.206284,40.285156],[29.196254,40.285119],[29.194546,40.286017],[29.196561,40.287204],[29.196971,40.287864],[29.194628,40.292586],[29.205574,40.298819],[29.204651,40.303466],[29.203381,40.304549],[29.201026,40.306221],[29.200203,40.307362],[29.200315,40.307996],[29.200314,40.307996],[29.200325,40.308057],[29.200326,40.308057],[29.200328,40.308071],[29.201828,40.308407],[29.203087,40.308437],[29.203616,40.308643],[29.203618,40.308642],[29.203618,40.308643],[29.204575,40.308502],[29.205954,40.309045],[29.207308,40.309054],[29.210236,40.309836],[29.211118,40.309845],[29.211118,40.309845],[29.21112,40.309845],[29.214493,40.309775],[29.216673,40.310172],[29.218775,40.310214],[29.219913,40.309806],[29.22124,40.309857],[29.222421,40.310302],[29.222778,40.310305],[29.223375,40.31049],[29.22407,40.311305],[29.22458,40.311346],[29.224659,40.312304],[29.220841,40.314085],[29.221838,40.315327],[29.225057,40.317094],[29.231309,40.323346],[29.231294,40.324717],[29.228798,40.330939],[29.234263,40.329312]]]]}},{"type":"Feature","properties":{"id":"TR-Y-16-003-M-0005","level":"yerlesim","type":"mahalle","parent_id":"TR-D-16-003","province_id":"TR-P-16","province_name":"Bursa","district_id":"TR-D-16-003","name":"Ericekköyü","source_raw_name":"Ericekköyü","source":"Kamu kaynak","source_only":false},"geometry":{"type":"MultiPolygon","coordinates":[[[[29.299985,40.337402],[29.303169,40.329568],[29.303185,40.329528],[29.301759,40.327948],[29.299912,40.325903],[29.299935,40.32587],[29.299935,40.32587],[29.305621,40.317525],[29.305652,40.317433],[29.306497,40.314867],[29.304363,40.311963],[29.29882,40.310468],[29.296099,40.308957],[29.294395,40.305601],[29.295297,40.30447],[29.294452,40.300112],[29.292431,40.298671],[29.289917,40.299727],[29.287585,40.299616],[29.287102,40.301139],[29.286031,40.302107],[29.285588,40.303891],[29.286431,40.306429],[29.285895,40.30896],[29.284905,40.31035],[29.285015,40.311975],[29.280888,40.311722],[29.278566,40.31285],[29.276229,40.312245],[29.275873,40.313769],[29.273772,40.311937],[29.272111,40.312512],[29.269425,40.309734],[29.26579,40.312342],[29.264397,40.311716],[29.263789,40.313011],[29.262365,40.311281],[29.261424,40.312022],[29.262913,40.313558],[29.262986,40.31463],[29.259843,40.314902],[29.258154,40.314209],[29.259112,40.31584],[29.25758,40.316187],[29.256989,40.315923],[29.256642,40.316668],[29.259326,40.319576],[29.258337,40.320739],[29.244058,40.326396],[29.26145,40.326151],[29.262848,40.326419],[29.277417,40.329208],[29.275452,40.330397],[29.275553,40.330421],[29.278722,40.331165],[29.278914,40.330999],[29.280179,40.329907],[29.281524,40.331117],[29.279941,40.332276],[29.28087,40.332704],[29.28087,40.332704],[29.283218,40.331485],[29.283447,40.33201],[29.284212,40.333765],[29.28698,40.332937],[29.288205,40.333432],[29.29107,40.331996],[29.294221,40.330416],[29.295093,40.331464],[29.295526,40.331985],[29.298539,40.335606],[29.295695,40.335485],[29.28965,40.335228],[29.289629,40.335227],[29.289665,40.335304],[29.290235,40.336516],[29.290501,40.337084],[29.297159,40.338816],[29.300343,40.339645],[29.300343,40.339645],[29.299985,40.337402]]]]}},{"type":"Feature","properties":{"id":"TR-Y-16-003-M-0006","level":"yerlesim","type":"mahalle","parent_id":"TR-D-16-003","province_id":"TR-P-16","province_name":"Bursa","district_id":"TR-D-16-003","name":"Hasanköy","source_raw_name":"Hasanköy","source":"Kamu kaynak","source_only":false},"geometry":{"type":"MultiPolygon","coordinates":[[[[29.215071,40.239178],[29.21396,40.237254],[29.211649,40.237352],[29.209407,40.235226],[29.20941,40.235085],[29.209441,40.234057],[29.210425,40.233464],[29.210591,40.233364],[29.211459,40.232841],[29.211468,40.232836],[29.210667,40.230622],[29.210155,40.230736],[29.210155,40.230736],[29.207582,40.231498],[29.204993,40.228167],[29.203334,40.228773],[29.202245,40.228497],[29.200035,40.227702],[29.198665,40.227588],[29.193804,40.229243],[29.194092,40.229943],[29.190911,40.230165],[29.188823,40.228908],[29.187282,40.228558],[29.187068,40.22851],[29.187394,40.230445],[29.188306,40.230386],[29.188912,40.232891],[29.188578,40.23427],[29.19004,40.23428],[29.191035,40.237015],[29.191026,40.23702],[29.189861,40.237654],[29.189942,40.237699],[29.190024,40.237754],[29.190142,40.237819],[29.190247,40.2379],[29.190368,40.238002],[29.190475,40.238098],[29.190558,40.23816],[29.19062,40.238198],[29.190689,40.238244],[29.190807,40.238313],[29.190922,40.23838],[29.191027,40.238436],[29.191118,40.238487],[29.19119,40.238504],[29.191243,40.238523],[29.191354,40.238536],[29.1915,40.238544],[29.191845,40.238541],[29.192239,40.23852],[29.192367,40.238524],[29.192889,40.24033],[29.192906,40.240544],[29.193542,40.247069],[29.199897,40.247357],[29.200602,40.248176],[29.203261,40.247835],[29.205629,40.246568],[29.207554,40.245964],[29.215443,40.245498],[29.215071,40.239178]]]]}},{"type":"Feature","properties":{"id":"TR-Y-16-003-M-0007","level":"yerlesim","type":"mahalle","parent_id":"TR-D-16-003","province_id":"TR-P-16","province_name":"Bursa","district_id":"TR-D-16-003","name":"İğdirköyü","source_raw_name":"İğdirköyü","source":"Kamu kaynak","source_only":false},"geometry":{"type":"MultiPolygon","coordinates":[[[[29.206284,40.285156],[29.210026,40.284305],[29.21257,40.284355],[29.216059,40.281585],[29.215539,40.278821],[29.21784,40.277927],[29.218752,40.276081],[29.215481,40.272876],[29.216869,40.268371],[29.224202,40.264847],[29.219608,40.258742],[29.211326,40.250858],[29.210653,40.246761],[29.212736,40.246256],[29.214406,40.247682],[29.217696,40.247176],[29.22002,40.24689],[29.219994,40.245493],[29.215443,40.245498],[29.207554,40.245964],[29.205629,40.246568],[29.203261,40.247835],[29.200602,40.248176],[29.199897,40.247357],[29.193542,40.247069],[29.194717,40.25076],[29.194255,40.250867],[29.194131,40.250894],[29.19413,40.250894],[29.193427,40.251042],[29.192897,40.251153],[29.192812,40.251165],[29.192303,40.251273],[29.191968,40.251375],[29.191738,40.251507],[29.191381,40.251777],[29.191134,40.251977],[29.190883,40.25219],[29.190539,40.252394],[29.190172,40.252572],[29.189949,40.252655],[29.189457,40.252801],[29.189301,40.252846],[29.188944,40.252924],[29.187891,40.253187],[29.187614,40.253244],[29.186705,40.253457],[29.186699,40.253437],[29.178819,40.255362],[29.171637,40.257012],[29.171546,40.257515],[29.170483,40.257735],[29.170364,40.258773],[29.171699,40.25888],[29.172915,40.259977],[29.174384,40.260329],[29.175116,40.26113],[29.174675,40.2634],[29.173121,40.265663],[29.175544,40.268668],[29.177256,40.281348],[29.179407,40.282723],[29.179451,40.282767],[29.183275,40.282535],[29.190973,40.28531],[29.194898,40.285832],[29.196254,40.285119],[29.206284,40.285156]]]]}},{"type":"Feature","properties":{"id":"TR-Y-16-003-M-0008","level":"yerlesim","type":"mahalle","parent_id":"TR-D-16-003","province_id":"TR-P-16","province_name":"Bursa","district_id":"TR-D-16-003","name":"İpekyolu","source_raw_name":"İpekyolu","source":"Kamu kaynak","source_only":false},"geometry":{"type":"MultiPolygon","coordinates":[[[[29.240903,40.280547],[29.241647,40.280525],[29.242288,40.280839],[29.24243,40.28064],[29.242814,40.2801],[29.242863,40.280031],[29.243048,40.279842],[29.243323,40.279448],[29.243541,40.279088],[29.24353,40.278908],[29.243388,40.278638],[29.243356,40.278316],[29.243371,40.278118],[29.243386,40.27799],[29.243451,40.277729],[29.243431,40.277612],[29.243343,40.277356],[29.243161,40.276967],[29.243122,40.276804],[29.243045,40.276456],[29.243017,40.276248],[29.243049,40.276134],[29.243146,40.276066],[29.243334,40.275976],[29.24349,40.275873],[29.243601,40.275742],[29.243618,40.275592],[29.243611,40.275571],[29.243579,40.275478],[29.243437,40.275329],[29.243067,40.275048],[29.242997,40.274959],[29.242961,40.274854],[29.24333,40.274118],[29.243452,40.274021],[29.243693,40.273892],[29.2438,40.273816],[29.243993,40.273729],[29.244124,40.273697],[29.244343,40.273638],[29.244481,40.273539],[29.244582,40.273397],[29.244624,40.273248],[29.244628,40.273199],[29.244634,40.272875],[29.244599,40.272678],[29.244494,40.272346],[29.244444,40.272138],[29.244372,40.271864],[29.244256,40.271653],[29.244189,40.27155],[29.244197,40.271398],[29.244271,40.271179],[29.244573,40.270809],[29.24496,40.270423],[29.245236,40.270223],[29.245443,40.27011],[29.245727,40.270042],[29.245948,40.270052],[29.245966,40.270044],[29.246004,40.270057],[29.246534,40.270152],[29.246863,40.27024],[29.247482,40.270572],[29.246839,40.270382],[29.246272,40.270279],[29.246186,40.270294],[29.246086,40.270332],[29.246032,40.270374],[29.246016,40.270474],[29.24608,40.270539],[29.246226,40.270612],[29.246944,40.270909],[29.24733,40.271145],[29.247512,40.271301],[29.24764,40.271507],[29.247935,40.271907],[29.248064,40.271996],[29.24851,40.272194],[29.248951,40.272509],[29.249213,40.272728],[29.249871,40.273483],[29.250088,40.27357],[29.250358,40.27355],[29.250575,40.273401],[29.250801,40.273184],[29.251179,40.273031],[29.25168,40.272777],[29.252413,40.272575],[29.252849,40.272501],[29.25312,40.272453],[29.253288,40.27234],[29.253296,40.272333],[29.253603,40.271829],[29.25389,40.271526],[29.254143,40.271359],[29.25438,40.27132],[29.254823,40.271241],[29.255013,40.271176],[29.255236,40.270977],[29.255528,40.270498],[29.255713,40.270337],[29.255832,40.270285],[29.255994,40.270263],[29.256093,40.270287],[29.256217,40.270359],[29.256377,40.270503],[29.256529,40.270559],[29.257097,40.270668],[29.257308,40.270719],[29.257467,40.270715],[29.257653,40.27069],[29.257829,40.270608],[29.258221,40.270305],[29.258705,40.270123],[29.25902,40.27007],[29.25946,40.270178],[29.259613,40.270171],[29.259756,40.270127],[29.259838,40.270023],[29.25985,40.269775],[29.259858,40.269587],[29.260181,40.269166],[29.260311,40.26918],[29.260516,40.269683],[29.260879,40.270146],[29.261003,40.270339],[29.261014,40.270443],[29.260911,40.270743],[29.26088,40.271096],[29.261037,40.271419],[29.260895,40.271967],[29.261203,40.272064],[29.261561,40.272095],[29.262091,40.271891],[29.262635,40.271609],[29.262741,40.271553],[29.263055,40.271091],[29.263803,40.2705],[29.263888,40.270661],[29.263836,40.270878],[29.263781,40.271437],[29.263874,40.271967],[29.264081,40.272243],[29.264226,40.272519],[29.264087,40.272821],[29.263634,40.273547],[29.263409,40.273792],[29.264001,40.27389],[29.264173,40.274014],[29.264108,40.274288],[29.263944,40.274638],[29.264302,40.274611],[29.264526,40.274518],[29.26474,40.274131],[29.265002,40.273944],[29.265175,40.273964],[29.26537,40.274154],[29.265404,40.274505],[29.265202,40.274892],[29.265622,40.274923],[29.265872,40.274621],[29.265863,40.274322],[29.266259,40.272931],[29.265814,40.271892],[29.266659,40.271127],[29.267547,40.270964],[29.267822,40.270444],[29.268138,40.269842],[29.268667,40.269273],[29.268814,40.268314],[29.268771,40.267875],[29.268559,40.267551],[29.268956,40.267114],[29.269383,40.26664],[29.269171,40.266266],[29.270187,40.266493],[29.270686,40.266027],[29.271145,40.265833],[29.271643,40.265852],[29.272089,40.265045],[29.277763,40.261986],[29.277745,40.261948],[29.281289,40.259598],[29.283028,40.259512],[29.284151,40.257505],[29.285092,40.256764],[29.281333,40.255409],[29.281377,40.255355],[29.282657,40.254473],[29.28078,40.253606],[29.280345,40.252933],[29.278958,40.252536],[29.279215,40.252261],[29.278078,40.251491],[29.276344,40.251123],[29.274751,40.251502],[29.27306,40.251005],[29.272449,40.25039],[29.270491,40.248422],[29.270286,40.24782],[29.265583,40.247612],[29.265408,40.248147],[29.260842,40.248913],[29.260042,40.248421],[29.260029,40.247722],[29.258909,40.248187],[29.2576,40.247723],[29.254999,40.249103],[29.252707,40.249413],[29.249828,40.250986],[29.248911,40.253352],[29.245489,40.252355],[29.24315,40.252957],[29.235117,40.256626],[29.235344,40.25683],[29.236568,40.257834],[29.236882,40.258934],[29.237726,40.261633],[29.237123,40.262444],[29.236705,40.263423],[29.236504,40.264802],[29.232814,40.265968],[29.225894,40.26774],[29.221058,40.26989],[29.220416,40.272741],[29.220913,40.275006],[29.222585,40.277294],[29.222041,40.278164],[29.222227,40.278324],[29.222535,40.278523],[29.225155,40.280015],[29.226604,40.280718],[29.229215,40.281734],[29.231614,40.283134],[29.234877,40.284459],[29.239081,40.284914],[29.241844,40.283939],[29.242093,40.283099],[29.241914,40.281913],[29.240178,40.280927],[29.240903,40.280547]]]]}},{"type":"Feature","properties":{"id":"TR-Y-16-003-M-0009","level":"yerlesim","type":"mahalle","parent_id":"TR-D-16-003","province_id":"TR-P-16","province_name":"Bursa","district_id":"TR-D-16-003","name":"İstiklal","source_raw_name":"İstiklal","source":"Kamu kaynak","source_only":false},"geometry":{"type":"MultiPolygon","coordinates":[[[[29.209659,40.227035],[29.210396,40.226887],[29.210446,40.226925],[29.211038,40.2268],[29.211132,40.225948],[29.211025,40.22515],[29.211121,40.224898],[29.211228,40.223713],[29.212134,40.218764],[29.216097,40.217687],[29.218252,40.217626],[29.225055,40.216047],[29.237375,40.213792],[29.239929,40.212147],[29.240133,40.212099],[29.238865,40.212094],[29.237844,40.212025],[29.236444,40.211804],[29.233277,40.211257],[29.230269,40.210751],[29.227716,40.210291],[29.227101,40.210231],[29.226985,40.21018],[29.226948,40.210174],[29.226323,40.210243],[29.226025,40.210298],[29.22591,40.210325],[29.225802,40.210346],[29.225657,40.210392],[29.224703,40.210553],[29.221148,40.211222],[29.220864,40.211283],[29.220214,40.21125],[29.219782,40.211213],[29.219181,40.21119],[29.218955,40.211227],[29.21863,40.2113],[29.218362,40.211345],[29.218041,40.211417],[29.217717,40.211529],[29.21708,40.211568],[29.216485,40.211643],[29.215853,40.211747],[29.215582,40.21177],[29.215301,40.211738],[29.214941,40.211659],[29.214594,40.211562],[29.214532,40.211552],[29.214551,40.211492],[29.214562,40.211433],[29.214638,40.211061],[29.214663,40.21098],[29.214685,40.21085],[29.214733,40.210527],[29.214775,40.210256],[29.21479,40.210019],[29.21478,40.209625],[29.212492,40.20975],[29.212443,40.209358],[29.211081,40.209389],[29.210889,40.209156],[29.210174,40.209022],[29.208993,40.208912],[29.208508,40.208449],[29.207827,40.207783],[29.206856,40.206873],[29.206383,40.207021],[29.205928,40.206627],[29.205174,40.205152],[29.20459,40.205305],[29.204296,40.204848],[29.203361,40.204945],[29.202543,40.204991],[29.201637,40.205952],[29.201648,40.205984],[29.20171,40.206056],[29.201876,40.206231],[29.202045,40.206419],[29.202233,40.206653],[29.202361,40.206846],[29.202403,40.206932],[29.202439,40.207059],[29.202442,40.207117],[29.202443,40.207147],[29.202437,40.207212],[29.202418,40.207268],[29.202402,40.207306],[29.202379,40.207337],[29.202285,40.207425],[29.202249,40.207461],[29.202186,40.207537],[29.202131,40.207612],[29.202097,40.207663],[29.202077,40.207695],[29.20204,40.207746],[29.201969,40.207825],[29.201885,40.207918],[29.201854,40.207957],[29.201841,40.207975],[29.201818,40.208016],[29.201804,40.208053],[29.201775,40.208166],[29.201752,40.208281],[29.201687,40.208429],[29.201601,40.208512],[29.201525,40.208575],[29.20146,40.208612],[29.201315,40.208686],[29.200965,40.208879],[29.200648,40.209071],[29.200533,40.209133],[29.200377,40.20924],[29.200272,40.209334],[29.200271,40.209335],[29.200059,40.209393],[29.199942,40.209426],[29.199797,40.209461],[29.199435,40.209534],[29.199223,40.209588],[29.199138,40.209609],[29.199062,40.20963],[29.198931,40.209673],[29.198841,40.20971],[29.198701,40.209775],[29.198591,40.209824],[29.198425,40.209893],[29.198179,40.209985],[29.19788,40.210089],[29.197694,40.210146],[29.197308,40.210272],[29.197106,40.210338],[29.19706,40.210356],[29.196969,40.210394],[29.196801,40.210478],[29.195349,40.211412],[29.194509,40.211952],[29.194267,40.212108],[29.194075,40.212201],[29.193774,40.212346],[29.19325,40.212595],[29.193167,40.212924],[29.193043,40.212989],[29.192881,40.213093],[29.19286,40.213282],[29.19286,40.213283],[29.192827,40.213412],[29.192724,40.21382],[29.192649,40.21408],[29.192627,40.214306],[29.192648,40.214425],[29.192672,40.214498],[29.19296,40.214921],[29.19316,40.215194],[29.193208,40.215314],[29.193255,40.215459],[29.193266,40.215757],[29.193227,40.216119],[29.193256,40.216461],[29.193261,40.216515],[29.193447,40.217108],[29.193491,40.21736],[29.19353,40.217429],[29.193554,40.217461],[29.193575,40.217485],[29.193625,40.217531],[29.193693,40.217569],[29.193748,40.217528],[29.194198,40.217992],[29.194837,40.218311],[29.195055,40.21852],[29.195205,40.218573],[29.195938,40.21889],[29.195993,40.218977],[29.196078,40.219083],[29.196249,40.2193],[29.196394,40.219418],[29.196473,40.2195],[29.19665,40.219609],[29.197023,40.219814],[29.197072,40.219876],[29.197216,40.220082],[29.197285,40.220296],[29.197389,40.220597],[29.197464,40.220807],[29.197497,40.220921],[29.197579,40.221105],[29.197655,40.221205],[29.197735,40.221282],[29.197828,40.221345],[29.198013,40.221437],[29.198085,40.221465],[29.198586,40.221858],[29.198814,40.222051],[29.198922,40.222089],[29.199063,40.222173],[29.200232,40.222814],[29.200692,40.223051],[29.200848,40.223216],[29.201194,40.223752],[29.201359,40.223983],[29.20146,40.224061],[29.201682,40.224186],[29.201789,40.224232],[29.201969,40.224273],[29.202158,40.224306],[29.202403,40.224337],[29.202529,40.224362],[29.20264,40.224392],[29.202731,40.224431],[29.203013,40.224571],[29.20343,40.224798],[29.203692,40.224943],[29.203956,40.22509],[29.204611,40.225412],[29.205056,40.225643],[29.205907,40.226041],[29.206409,40.226252],[29.206822,40.226384],[29.207077,40.226449],[29.207541,40.226542],[29.207721,40.226574],[29.207968,40.226643],[29.208102,40.226712],[29.208155,40.226738],[29.209676,40.227659],[29.209726,40.227689],[29.209727,40.227688],[29.209659,40.227035]]]]}},{"type":"Feature","properties":{"id":"TR-Y-16-003-M-0010","level":"yerlesim","type":"mahalle","parent_id":"TR-D-16-003","province_id":"TR-P-16","province_name":"Bursa","district_id":"TR-D-16-003","name":"Karahıdırköyü","source_raw_name":"Karahıdırköyü","source":"Kamu kaynak","source_only":false},"geometry":{"type":"MultiPolygon","coordinates":[[[[29.24315,40.252957],[29.245489,40.252355],[29.248911,40.253352],[29.249828,40.250986],[29.252707,40.249413],[29.254999,40.249103],[29.2576,40.247723],[29.258909,40.248187],[29.259907,40.242216],[29.260427,40.241148],[29.262257,40.240477],[29.261336,40.239367],[29.262276,40.238691],[29.261518,40.238264],[29.260962,40.238715],[29.25928,40.236528],[29.25975,40.23619],[29.259441,40.235851],[29.258543,40.234872],[29.259846,40.234053],[29.260731,40.233563],[29.261091,40.233393],[29.260182,40.233448],[29.260083,40.232798],[29.261005,40.231862],[29.259404,40.229951],[29.260276,40.22973],[29.260054,40.22864],[29.258204,40.229294],[29.258139,40.23134],[29.253587,40.231018],[29.25055,40.232574],[29.248487,40.231327],[29.243311,40.235678],[29.238447,40.231001],[29.223895,40.245391],[29.219994,40.245493],[29.22002,40.24689],[29.217696,40.247176],[29.214406,40.247682],[29.212736,40.246256],[29.210653,40.246761],[29.211326,40.250858],[29.219608,40.258742],[29.224202,40.264847],[29.225637,40.264885],[29.22593,40.264893],[29.22913,40.25936],[29.24315,40.252957]]]]}},{"type":"Feature","properties":{"id":"TR-Y-16-003-M-0011","level":"yerlesim","type":"mahalle","parent_id":"TR-D-16-003","province_id":"TR-P-16","province_name":"Bursa","district_id":"TR-D-16-003","name":"Kazıklıköyü","source_raw_name":"Kazıklıköyü","source":"Kamu kaynak","source_only":false},"geometry":{"type":"MultiPolygon","coordinates":[[[[29.158076,40.284652],[29.161589,40.280556],[29.169666,40.283359],[29.179451,40.282767],[29.179407,40.282723],[29.177256,40.281348],[29.175544,40.268668],[29.173121,40.265663],[29.174675,40.2634],[29.175116,40.26113],[29.174384,40.260329],[29.172915,40.259977],[29.171699,40.25888],[29.170364,40.258773],[29.170483,40.257735],[29.171546,40.257515],[29.171637,40.257012],[29.169883,40.257304],[29.16804,40.257177],[29.166319,40.256629],[29.164702,40.255415],[29.163145,40.254462],[29.161181,40.253879],[29.162288,40.250976],[29.162224,40.25081],[29.160587,40.250464],[29.161131,40.249364],[29.161808,40.249466],[29.162144,40.248627],[29.162329,40.247851],[29.162882,40.24684],[29.161603,40.246824],[29.16172,40.246202],[29.161771,40.243],[29.164441,40.24308],[29.163865,40.241637],[29.161633,40.240281],[29.159596,40.238723],[29.162003,40.237766],[29.162159,40.237102],[29.161074,40.237435],[29.160912,40.236865],[29.1574,40.237197],[29.157385,40.238431],[29.154608,40.238541],[29.154508,40.238069],[29.152682,40.238316],[29.152635,40.237],[29.151884,40.237741],[29.150112,40.237282],[29.149285,40.239062],[29.149203,40.238954],[29.149165,40.238859],[29.149142,40.238768],[29.149114,40.238628],[29.148979,40.238063],[29.148893,40.237755],[29.14887,40.237636],[29.148849,40.237546],[29.14877,40.237279],[29.148632,40.236927],[29.148554,40.236798],[29.148482,40.236693],[29.148341,40.236508],[29.148241,40.236407],[29.148068,40.236276],[29.147919,40.236168],[29.147798,40.236091],[29.14762,40.236007],[29.147486,40.235959],[29.14738,40.235923],[29.147271,40.235901],[29.147068,40.235856],[29.146919,40.235815],[29.146819,40.235784],[29.146453,40.2357],[29.145472,40.235477],[29.145374,40.235828],[29.145373,40.235834],[29.145369,40.235844],[29.145556,40.236372],[29.145344,40.236452],[29.145332,40.236456],[29.145332,40.236456],[29.14533,40.236457],[29.144947,40.236641],[29.144617,40.236853],[29.144855,40.237424],[29.14472,40.23895],[29.14467,40.238937],[29.142192,40.238294],[29.141494,40.238162],[29.141563,40.239191],[29.141232,40.239235],[29.141099,40.239252],[29.141293,40.239801],[29.141505,40.241316],[29.14255,40.241399],[29.142866,40.243011],[29.143408,40.244675],[29.14296,40.245026],[29.141805,40.245497],[29.139907,40.246271],[29.140397,40.248159],[29.140393,40.248161],[29.140412,40.248235],[29.140372,40.248256],[29.140425,40.248285],[29.140451,40.248383],[29.141342,40.248789],[29.141352,40.248794],[29.141131,40.24909],[29.141743,40.249472],[29.140864,40.250006],[29.141248,40.251223],[29.141261,40.251221],[29.142997,40.250993],[29.143754,40.25143],[29.143369,40.253399],[29.143202,40.254205],[29.138966,40.25377],[29.137517,40.253381],[29.135073,40.251719],[29.134946,40.251884],[29.134612,40.252319],[29.134689,40.252439],[29.134783,40.252588],[29.134441,40.253613],[29.134402,40.25369],[29.134329,40.253874],[29.134219,40.254266],[29.134204,40.254324],[29.133745,40.255703],[29.1339,40.257581],[29.13387,40.257629],[29.133801,40.257834],[29.133853,40.257891],[29.133879,40.257955],[29.133869,40.257999],[29.13382,40.258095],[29.133858,40.258217],[29.133857,40.258307],[29.133876,40.258525],[29.133969,40.258884],[29.134017,40.258993],[29.134056,40.259473],[29.134204,40.259824],[29.134101,40.260109],[29.134369,40.260299],[29.134448,40.260405],[29.134692,40.260987],[29.134785,40.261395],[29.134862,40.262083],[29.135128,40.262452],[29.135465,40.262829],[29.135466,40.262832],[29.135295,40.26299],[29.13122,40.266726],[29.131192,40.266751],[29.131192,40.266751],[29.131191,40.266752],[29.132788,40.270016],[29.132793,40.270073],[29.133096,40.270405],[29.133461,40.27069],[29.133651,40.270788],[29.134087,40.271145],[29.134492,40.27128],[29.134597,40.271349],[29.134805,40.271416],[29.134939,40.271429],[29.135713,40.271688],[29.13626,40.272018],[29.137259,40.273084],[29.137363,40.273281],[29.137557,40.27349],[29.137766,40.273625],[29.13801,40.273885],[29.138253,40.273909],[29.138607,40.274082],[29.138927,40.273975],[29.140844,40.274162],[29.140966,40.274203],[29.141106,40.274188],[29.142082,40.274283],[29.143334,40.2751],[29.143522,40.275314],[29.146621,40.277305],[29.147157,40.277594],[29.147168,40.277601],[29.14717,40.277611],[29.147188,40.277823],[29.14765,40.278402],[29.14751,40.278788],[29.147986,40.279863],[29.148719,40.280511],[29.148963,40.281053],[29.149772,40.281951],[29.157938,40.284814],[29.158076,40.284652]]]]}},{"type":"Feature","properties":{"id":"TR-Y-16-003-M-0012","level":"yerlesim","type":"mahalle","parent_id":"TR-D-16-003","province_id":"TR-P-16","province_name":"Bursa","district_id":"TR-D-16-003","name":"Kumlukalan","source_raw_name":"Kumlukalan","source":"Kamu kaynak","source_only":false},"geometry":{"type":"MultiPolygon","coordinates":[[[[29.164421,40.239311],[29.164429,40.236907],[29.166544,40.235509],[29.167771,40.235234],[29.167619,40.234347],[29.167627,40.232189],[29.166587,40.229594],[29.166448,40.227458],[29.166447,40.227445],[29.166313,40.227459],[29.165693,40.227584],[29.165033,40.22771],[29.16472,40.227812],[29.164483,40.227846],[29.163635,40.228237],[29.163613,40.227192],[29.163561,40.225838],[29.163553,40.225066],[29.16303,40.225111],[29.162878,40.22514],[29.162463,40.225162],[29.161453,40.225088],[29.161375,40.225019],[29.160603,40.224909],[29.160824,40.224281],[29.160846,40.224182],[29.160871,40.224051],[29.16,40.224031],[29.159999,40.224046],[29.15998,40.224046],[29.159965,40.224303],[29.159906,40.224591],[29.159822,40.224775],[29.159758,40.224759],[29.159745,40.224776],[29.159738,40.224774],[29.159645,40.224904],[29.159424,40.225083],[29.159657,40.225358],[29.1591,40.225547],[29.158783,40.225554],[29.157724,40.225622],[29.157263,40.225579],[29.15667,40.225624],[29.155707,40.225671],[29.155517,40.224165],[29.154839,40.224052],[29.153945,40.224105],[29.151209,40.224643],[29.150631,40.224833],[29.149452,40.225751],[29.148603,40.226067],[29.147046,40.226342],[29.146428,40.226542],[29.14563,40.227012],[29.143573,40.228639],[29.143345,40.228581],[29.14248,40.228725],[29.142304,40.228666],[29.141843,40.228737],[29.141422,40.228967],[29.141167,40.228831],[29.141112,40.228887],[29.140424,40.229057],[29.140246,40.229151],[29.140175,40.229461],[29.140132,40.229567],[29.14004,40.229655],[29.13985,40.229738],[29.139543,40.229775],[29.138993,40.229933],[29.138797,40.230022],[29.139103,40.230706],[29.139265,40.231109],[29.139272,40.231234],[29.139271,40.231262],[29.13909,40.231344],[29.13893,40.231435],[29.138612,40.23155],[29.138547,40.23164],[29.138533,40.231692],[29.138667,40.23183],[29.138748,40.231938],[29.138755,40.23195],[29.138855,40.232082],[29.138936,40.232183],[29.139025,40.232253],[29.139129,40.232298],[29.139073,40.232487],[29.139056,40.232514],[29.140466,40.234578],[29.140681,40.234604],[29.141097,40.234678],[29.142009,40.234872],[29.142862,40.235032],[29.143311,40.235144],[29.143994,40.235118],[29.144159,40.235156],[29.144471,40.235236],[29.144871,40.235336],[29.145156,40.235405],[29.145472,40.235477],[29.146453,40.2357],[29.146819,40.235784],[29.146919,40.235815],[29.147068,40.235856],[29.147271,40.235901],[29.14738,40.235923],[29.147486,40.235959],[29.14762,40.236007],[29.147798,40.236091],[29.147919,40.236168],[29.148068,40.236276],[29.148241,40.236407],[29.148341,40.236508],[29.148482,40.236693],[29.148554,40.236798],[29.148632,40.236927],[29.14877,40.237279],[29.148849,40.237546],[29.14887,40.237636],[29.148893,40.237755],[29.148979,40.238063],[29.149114,40.238628],[29.149142,40.238768],[29.149165,40.238859],[29.149203,40.238954],[29.149285,40.239062],[29.150112,40.237282],[29.151884,40.237741],[29.152635,40.237],[29.152682,40.238316],[29.154508,40.238069],[29.154608,40.238541],[29.157385,40.238431],[29.1574,40.237197],[29.160912,40.236865],[29.161074,40.237435],[29.162159,40.237102],[29.162003,40.237766],[29.159596,40.238723],[29.161633,40.240281],[29.163099,40.239951],[29.163212,40.239334],[29.164421,40.239311]]]]}},{"type":"Feature","properties":{"id":"TR-Y-16-003-M-0013","level":"yerlesim","type":"mahalle","parent_id":"TR-D-16-003","province_id":"TR-P-16","province_name":"Bursa","district_id":"TR-D-16-003","name":"Kurtuluş","source_raw_name":"Kurtuluş | Kurtuluşosb","source":"Kamu kaynak","source_only":false,"source_only_duplicate_ids":["TR-Y-16-003-M-0013"]},"geometry":{"type":"MultiPolygon","coordinates":[[[[29.186644,40.21726],[29.187919,40.217202],[29.187938,40.217279],[29.187967,40.21728],[29.187967,40.21728],[29.188085,40.217368],[29.18879,40.217341],[29.188932,40.21733],[29.189248,40.217289],[29.189321,40.217274],[29.189613,40.217197],[29.189624,40.217194],[29.189873,40.217113],[29.189961,40.217081],[29.190128,40.217001],[29.190323,40.21693],[29.190409,40.216893],[29.190552,40.216832],[29.19073,40.216702],[29.190898,40.216562],[29.19111,40.216343],[29.191338,40.2163],[29.191654,40.21622],[29.191802,40.216194],[29.191864,40.216342],[29.191944,40.216621],[29.192338,40.216591],[29.192587,40.216564],[29.193059,40.216488],[29.193256,40.216461],[29.193227,40.216119],[29.193266,40.215757],[29.193255,40.215459],[29.193208,40.215314],[29.19316,40.215194],[29.19296,40.214921],[29.192672,40.214498],[29.192648,40.214425],[29.192627,40.214306],[29.192649,40.21408],[29.192724,40.21382],[29.192827,40.213412],[29.19286,40.213283],[29.19286,40.213282],[29.192881,40.213093],[29.193043,40.212989],[29.193167,40.212924],[29.19325,40.212595],[29.193774,40.212346],[29.194075,40.212201],[29.194267,40.212108],[29.194509,40.211952],[29.195349,40.211412],[29.19566,40.211212],[29.196275,40.210816],[29.196801,40.210478],[29.196969,40.210394],[29.19706,40.210356],[29.197106,40.210338],[29.197308,40.210272],[29.197694,40.210146],[29.19788,40.210089],[29.198179,40.209985],[29.198425,40.209893],[29.198591,40.209824],[29.198701,40.209775],[29.198841,40.20971],[29.198931,40.209673],[29.199062,40.20963],[29.199138,40.209609],[29.199223,40.209588],[29.199435,40.209534],[29.199797,40.209461],[29.199942,40.209426],[29.200059,40.209393],[29.200271,40.209335],[29.200272,40.209334],[29.200377,40.20924],[29.200533,40.209133],[29.200648,40.209071],[29.200965,40.208879],[29.201315,40.208686],[29.20146,40.208612],[29.201525,40.208575],[29.201601,40.208512],[29.201687,40.208429],[29.201752,40.208281],[29.201775,40.208166],[29.201804,40.208053],[29.201818,40.208016],[29.201841,40.207975],[29.201854,40.207957],[29.201885,40.207918],[29.201969,40.207825],[29.20204,40.207746],[29.202077,40.207695],[29.202097,40.207663],[29.202131,40.207612],[29.202186,40.207537],[29.202249,40.207461],[29.202285,40.207425],[29.202379,40.207337],[29.202402,40.207306],[29.202418,40.207268],[29.202437,40.207212],[29.202443,40.207147],[29.202442,40.207117],[29.202439,40.207059],[29.202403,40.206932],[29.202361,40.206846],[29.202233,40.206653],[29.202045,40.206419],[29.201876,40.206231],[29.20171,40.206056],[29.201648,40.205984],[29.201637,40.205952],[29.200779,40.206215],[29.200391,40.20632],[29.200333,40.206352],[29.200029,40.20647],[29.198742,40.20643],[29.196732,40.206405],[29.196016,40.206409],[29.195668,40.206409],[29.194788,40.206418],[29.194774,40.206418],[29.194756,40.206374],[29.194568,40.206112],[29.194388,40.205846],[29.194198,40.205554],[29.194032,40.205291],[29.193038,40.205306],[29.191227,40.205318],[29.191272,40.205593],[29.191333,40.205856],[29.191403,40.206131],[29.19142,40.206238],[29.191431,40.206406],[29.191439,40.206447],[29.190659,40.206437],[29.190222,40.206433],[29.189921,40.206433],[29.18963,40.206426],[29.189023,40.206388],[29.188648,40.206373],[29.187938,40.206362],[29.18749,40.206353],[29.186477,40.206343],[29.185633,40.206331],[29.184912,40.206326],[29.184771,40.206325],[29.183863,40.206318],[29.183868,40.206393],[29.183738,40.206388],[29.183744,40.206441],[29.183754,40.206677],[29.183779,40.206871],[29.183788,40.206871],[29.184079,40.20683],[29.184348,40.206808],[29.184348,40.206808],[29.18435,40.206838],[29.184373,40.20714],[29.184365,40.207425],[29.184387,40.207426],[29.184402,40.2075],[29.184434,40.207745],[29.184298,40.207747],[29.184306,40.207943],[29.183488,40.208285],[29.183486,40.208367],[29.183372,40.208366],[29.183359,40.208366],[29.183347,40.208803],[29.18376,40.20881],[29.183938,40.209478],[29.182968,40.209577],[29.182769,40.21001],[29.182779,40.210268],[29.182859,40.210458],[29.181783,40.210662],[29.181768,40.211222],[29.18218,40.21123],[29.181962,40.21196],[29.181476,40.211931],[29.1814,40.212166],[29.18131,40.212171],[29.181092,40.212383],[29.180997,40.212634],[29.181045,40.212688],[29.181246,40.213011],[29.181378,40.213157],[29.181475,40.213232],[29.1818,40.213507],[29.182117,40.213751],[29.181877,40.214187],[29.181944,40.214439],[29.182245,40.214639],[29.182494,40.214603],[29.182953,40.214026],[29.183344,40.214086],[29.183904,40.214235],[29.184071,40.214322],[29.184574,40.214555],[29.18458,40.215522],[29.184646,40.215801],[29.184775,40.216625],[29.184974,40.217549],[29.185304,40.217504],[29.185905,40.217399],[29.186644,40.21726]]],[[[29.19305,40.205306],[29.194032,40.205291],[29.194198,40.205554],[29.194388,40.205846],[29.194568,40.206112],[29.194756,40.206374],[29.194774,40.206418],[29.194788,40.206418],[29.195668,40.206409],[29.196016,40.206409],[29.196732,40.206405],[29.198742,40.20643],[29.200029,40.20647],[29.200333,40.206352],[29.200391,40.20632],[29.200779,40.206215],[29.201637,40.205952],[29.201637,40.205952],[29.201576,40.205921],[29.201035,40.205643],[29.200876,40.205497],[29.200704,40.205368],[29.200532,40.205275],[29.200055,40.20474],[29.199122,40.203619],[29.198601,40.202735],[29.198303,40.201735],[29.197776,40.200545],[29.197684,40.200052],[29.197682,40.20005],[29.197668,40.199976],[29.197167,40.199496],[29.197096,40.198936],[29.197076,40.198596],[29.197076,40.198596],[29.197071,40.19852],[29.197056,40.198521],[29.196534,40.19855],[29.196003,40.198602],[29.195596,40.198651],[29.193931,40.198841],[29.192313,40.199027],[29.19138,40.199129],[29.191218,40.199146],[29.190168,40.199261],[29.189411,40.19936],[29.188796,40.199412],[29.188435,40.199421],[29.188451,40.200184],[29.188576,40.202158],[29.18863,40.203561],[29.188798,40.204027],[29.188841,40.204253],[29.188912,40.204298],[29.189013,40.204342],[29.189234,40.204656],[29.190257,40.206176],[29.190222,40.206433],[29.190659,40.206437],[29.191439,40.206447],[29.191431,40.206406],[29.19142,40.206238],[29.191403,40.206131],[29.191333,40.205856],[29.191272,40.205593],[29.191227,40.205318],[29.193038,40.205306],[29.19305,40.205306]]]]}},{"type":"Feature","properties":{"id":"TR-Y-16-003-M-0014","level":"yerlesim","type":"mahalle","parent_id":"TR-D-16-003","province_id":"TR-P-16","province_name":"Bursa","district_id":"TR-D-16-003","name":"Yenidoğan","source_raw_name":"Yenidoğan | Yenidoğanosb","source":"Kamu kaynak","source_only":false,"source_only_duplicate_ids":["TR-Y-16-003-M-0014"]},"geometry":{"type":"MultiPolygon","coordinates":[[[[29.178518,40.218257],[29.178608,40.217964],[29.180079,40.218101],[29.182008,40.217803],[29.184502,40.217658],[29.184974,40.217549],[29.184775,40.216625],[29.184646,40.215801],[29.18458,40.215522],[29.184574,40.214555],[29.184071,40.214322],[29.183904,40.214235],[29.183344,40.214086],[29.182953,40.214026],[29.182494,40.214603],[29.182245,40.214639],[29.181944,40.214439],[29.181877,40.214187],[29.182117,40.213751],[29.1818,40.213507],[29.181475,40.213232],[29.181378,40.213157],[29.181246,40.213011],[29.181045,40.212688],[29.180997,40.212634],[29.181092,40.212383],[29.18131,40.212171],[29.1814,40.212166],[29.181476,40.211931],[29.181962,40.21196],[29.18218,40.21123],[29.181768,40.211222],[29.181783,40.210662],[29.182859,40.210458],[29.182779,40.210268],[29.182769,40.21001],[29.182968,40.209577],[29.183938,40.209478],[29.18376,40.20881],[29.183347,40.208803],[29.183359,40.208366],[29.183372,40.208366],[29.183486,40.208367],[29.183488,40.208285],[29.184306,40.207943],[29.184298,40.207747],[29.184434,40.207745],[29.184402,40.2075],[29.184387,40.207426],[29.184365,40.207425],[29.184373,40.20714],[29.18435,40.206838],[29.184348,40.206808],[29.184348,40.206808],[29.184079,40.20683],[29.183788,40.206871],[29.183779,40.206871],[29.183754,40.206677],[29.183744,40.206441],[29.183738,40.206388],[29.183868,40.206393],[29.183863,40.206318],[29.183852,40.206318],[29.183814,40.205634],[29.184217,40.205677],[29.184138,40.204833],[29.183959,40.204747],[29.184231,40.204716],[29.184003,40.203968],[29.183918,40.203959],[29.183847,40.203966],[29.183597,40.203983],[29.183199,40.20399],[29.183205,40.203558],[29.182216,40.203469],[29.182306,40.203299],[29.182334,40.203061],[29.182357,40.202685],[29.182411,40.202259],[29.182383,40.201887],[29.182338,40.201663],[29.1823,40.201205],[29.182306,40.201124],[29.18284,40.201141],[29.183607,40.201179],[29.18368,40.201187],[29.183544,40.200748],[29.18352,40.200669],[29.183583,40.200668],[29.183946,40.200691],[29.184345,40.200764],[29.184422,40.20079],[29.184559,40.200833],[29.184658,40.200887],[29.184676,40.200895],[29.18477,40.200938],[29.184823,40.200594],[29.18483,40.200341],[29.18479,40.200057],[29.184696,40.199252],[29.184709,40.199101],[29.184487,40.199072],[29.18364,40.198944],[29.182938,40.198872],[29.180392,40.198551],[29.179855,40.198497],[29.178806,40.198367],[29.178739,40.198503],[29.178416,40.19928],[29.17818,40.199908],[29.178002,40.20044],[29.177957,40.200636],[29.177934,40.200772],[29.177943,40.200913],[29.177978,40.20113],[29.178099,40.201543],[29.178118,40.20185],[29.178104,40.202028],[29.178123,40.202485],[29.178146,40.202937],[29.178146,40.202944],[29.178198,40.203308],[29.178293,40.203525],[29.178368,40.203681],[29.178428,40.203803],[29.178444,40.204043],[29.178448,40.204293],[29.178437,40.204383],[29.178394,40.204569],[29.17832,40.204727],[29.178144,40.205032],[29.178042,40.205278],[29.178006,40.205371],[29.178,40.205457],[29.177993,40.205578],[29.178004,40.205827],[29.17799,40.205974],[29.177957,40.206103],[29.177878,40.206214],[29.17767,40.206427],[29.177522,40.206527],[29.177332,40.20662],[29.177125,40.206757],[29.176781,40.207],[29.176652,40.207103],[29.176485,40.207308],[29.176375,40.207616],[29.176306,40.207836],[29.176166,40.208089],[29.175982,40.20838],[29.175758,40.208736],[29.175743,40.208783],[29.175763,40.209106],[29.175802,40.209341],[29.17579,40.209404],[29.175746,40.209453],[29.175673,40.209517],[29.175592,40.209575],[29.175593,40.209579],[29.17561,40.209746],[29.175655,40.210024],[29.175784,40.210387],[29.175793,40.210408],[29.1758,40.210428],[29.17581,40.210444],[29.17584,40.210509],[29.175913,40.210593],[29.176134,40.210733],[29.177225,40.211227],[29.177387,40.211285],[29.177546,40.211336],[29.178022,40.211505],[29.178212,40.211581],[29.17839,40.21166],[29.17858,40.211737],[29.178887,40.211865],[29.178919,40.211883],[29.17901,40.211929],[29.179105,40.211966],[29.179193,40.21203],[29.179354,40.212313],[29.179394,40.212389],[29.179419,40.212474],[29.179511,40.213208],[29.179442,40.213241],[29.179341,40.213255],[29.178773,40.213253],[29.178658,40.21332],[29.178259,40.213505],[29.178068,40.213592],[29.17795,40.213658],[29.177903,40.213762],[29.177848,40.213926],[29.177803,40.214014],[29.177701,40.214416],[29.177645,40.214528],[29.177464,40.214839],[29.177417,40.214894],[29.177127,40.215031],[29.177097,40.215498],[29.17706,40.216073],[29.17695,40.216069],[29.176941,40.216192],[29.177038,40.216194],[29.177047,40.216266],[29.177046,40.216279],[29.176958,40.216287],[29.177057,40.216476],[29.177109,40.216719],[29.177204,40.216725],[29.177223,40.216939],[29.177239,40.217118],[29.177249,40.217237],[29.177253,40.217282],[29.177263,40.217392],[29.17727,40.217468],[29.177287,40.217618],[29.177288,40.217627],[29.177292,40.217656],[29.177308,40.217809],[29.177326,40.217794],[29.177347,40.217846],[29.177453,40.217869],[29.177419,40.218229],[29.177756,40.218238],[29.178518,40.218257],[29.178518,40.218257]]],[[[29.190257,40.206176],[29.189234,40.204656],[29.189013,40.204342],[29.188912,40.204298],[29.188841,40.204253],[29.188798,40.204027],[29.18863,40.203561],[29.188576,40.202158],[29.188451,40.200184],[29.188435,40.199421],[29.188211,40.199427],[29.187559,40.199413],[29.187215,40.199392],[29.186908,40.199366],[29.186526,40.199323],[29.185623,40.199209],[29.184812,40.199115],[29.184709,40.199101],[29.184696,40.199252],[29.18479,40.200057],[29.18483,40.200341],[29.184823,40.200594],[29.18477,40.200938],[29.184676,40.200895],[29.184658,40.200887],[29.184559,40.200833],[29.184422,40.20079],[29.184345,40.200764],[29.183946,40.200691],[29.183583,40.200668],[29.18352,40.200669],[29.183544,40.200748],[29.18368,40.201187],[29.183607,40.201179],[29.18284,40.201141],[29.182306,40.201124],[29.1823,40.201205],[29.182338,40.201663],[29.182383,40.201887],[29.182411,40.202259],[29.182357,40.202685],[29.182334,40.203061],[29.182306,40.203299],[29.182216,40.203469],[29.183205,40.203558],[29.183199,40.20399],[29.183597,40.203983],[29.183847,40.203966],[29.183918,40.203959],[29.184003,40.203968],[29.184231,40.204716],[29.183959,40.204747],[29.184138,40.204833],[29.184217,40.205677],[29.183814,40.205634],[29.183852,40.206318],[29.184771,40.206325],[29.184912,40.206326],[29.185633,40.206331],[29.186477,40.206343],[29.18749,40.206353],[29.187938,40.206362],[29.188648,40.206373],[29.189023,40.206388],[29.18963,40.206426],[29.189921,40.206433],[29.190222,40.206433],[29.190257,40.206176]]]]}},{"type":"Feature","properties":{"id":"TR-Y-16-003-M-0015","level":"yerlesim","type":"mahalle","parent_id":"TR-D-16-003","province_id":"TR-P-16","province_name":"Bursa","district_id":"TR-D-16-003","name":"Zafer","source_raw_name":"Zafer","source":"Kamu kaynak","source_only":false},"geometry":{"type":"MultiPolygon","coordinates":[[[[29.177877,40.229925],[29.177949,40.229686],[29.178072,40.229394],[29.178114,40.229384],[29.182775,40.229417],[29.182747,40.228248],[29.187068,40.22851],[29.187282,40.228558],[29.188823,40.228908],[29.190911,40.230165],[29.194092,40.229943],[29.193804,40.229243],[29.198665,40.227588],[29.200035,40.227702],[29.202245,40.228497],[29.203334,40.228773],[29.204993,40.228167],[29.207582,40.231498],[29.210155,40.230736],[29.209425,40.227873],[29.209696,40.227709],[29.209726,40.227689],[29.209676,40.227659],[29.208155,40.226738],[29.208102,40.226712],[29.207968,40.226643],[29.207721,40.226574],[29.207541,40.226542],[29.207077,40.226449],[29.206822,40.226384],[29.206409,40.226252],[29.205907,40.226041],[29.205056,40.225643],[29.204611,40.225412],[29.203956,40.22509],[29.203692,40.224943],[29.20343,40.224798],[29.203013,40.224571],[29.202731,40.224431],[29.20264,40.224392],[29.202529,40.224362],[29.202403,40.224337],[29.202158,40.224306],[29.201969,40.224273],[29.201789,40.224232],[29.201682,40.224186],[29.20146,40.224061],[29.201359,40.223983],[29.201194,40.223752],[29.200848,40.223216],[29.200692,40.223051],[29.200232,40.222814],[29.199063,40.222173],[29.198922,40.222089],[29.198814,40.222051],[29.198586,40.221858],[29.198085,40.221465],[29.198013,40.221437],[29.197828,40.221345],[29.197735,40.221282],[29.197655,40.221205],[29.197579,40.221105],[29.197497,40.220921],[29.197464,40.220807],[29.197389,40.220597],[29.197285,40.220296],[29.197216,40.220082],[29.197072,40.219876],[29.197023,40.219814],[29.19665,40.219609],[29.196473,40.2195],[29.196394,40.219418],[29.196249,40.2193],[29.196078,40.219083],[29.195993,40.218977],[29.195938,40.21889],[29.195205,40.218573],[29.195055,40.21852],[29.194837,40.218311],[29.194198,40.217992],[29.193748,40.217528],[29.193693,40.217569],[29.193625,40.217531],[29.193575,40.217485],[29.193554,40.217461],[29.19353,40.217429],[29.193491,40.21736],[29.193447,40.217108],[29.193261,40.216515],[29.193256,40.216461],[29.193059,40.216488],[29.192587,40.216564],[29.192338,40.216591],[29.191944,40.216621],[29.191864,40.216342],[29.191802,40.216194],[29.191654,40.21622],[29.191338,40.2163],[29.19111,40.216343],[29.190898,40.216562],[29.19073,40.216702],[29.190552,40.216832],[29.190409,40.216893],[29.190323,40.21693],[29.190128,40.217001],[29.189961,40.217081],[29.189873,40.217113],[29.189624,40.217194],[29.189613,40.217197],[29.189321,40.217274],[29.189248,40.217289],[29.188932,40.21733],[29.18879,40.217341],[29.188085,40.217368],[29.187967,40.21728],[29.187967,40.21728],[29.187938,40.217279],[29.187919,40.217202],[29.186644,40.21726],[29.185905,40.217399],[29.185304,40.217504],[29.184974,40.217549],[29.184502,40.217658],[29.182008,40.217803],[29.180079,40.218101],[29.178608,40.217964],[29.178518,40.218257],[29.177756,40.218238],[29.177419,40.218229],[29.177453,40.217869],[29.177347,40.217846],[29.177326,40.217794],[29.177308,40.217809],[29.177279,40.217861],[29.177082,40.218216],[29.176165,40.219424],[29.17575,40.219303],[29.175597,40.219651],[29.175595,40.219651],[29.175595,40.219651],[29.175556,40.219633],[29.175515,40.219628],[29.175487,40.219646],[29.175429,40.219737],[29.1753,40.219967],[29.175298,40.219966],[29.175297,40.219967],[29.174758,40.219788],[29.174651,40.219994],[29.174578,40.220073],[29.174381,40.220137],[29.173741,40.220612],[29.173663,40.220624],[29.173662,40.220624],[29.173661,40.220624],[29.173589,40.220607],[29.173285,40.22089],[29.173162,40.220953],[29.172922,40.220923],[29.171946,40.220987],[29.171246,40.22102],[29.170963,40.221111],[29.170527,40.221194],[29.169832,40.221236],[29.169796,40.221283],[29.169744,40.221572],[29.169516,40.222392],[29.169514,40.222392],[29.169514,40.222392],[29.169298,40.222387],[29.169298,40.222387],[29.168482,40.222383],[29.16769,40.222417],[29.167341,40.222448],[29.167325,40.22258],[29.167288,40.223251],[29.167285,40.223362],[29.167284,40.223899],[29.167281,40.223898],[29.167281,40.223965],[29.167527,40.224098],[29.167527,40.224097],[29.167547,40.224108],[29.167517,40.225367],[29.167288,40.225372],[29.167246,40.225373],[29.167245,40.225373],[29.167236,40.225374],[29.167137,40.225864],[29.167166,40.226326],[29.167146,40.227182],[29.167131,40.227224],[29.1671,40.227261],[29.167036,40.227308],[29.167034,40.227309],[29.166965,40.227335],[29.166842,40.227383],[29.166793,40.227394],[29.166644,40.227416],[29.166498,40.227453],[29.166448,40.227458],[29.166587,40.229594],[29.167379,40.22945],[29.168016,40.229213],[29.168224,40.229736],[29.169552,40.229713],[29.170319,40.232837],[29.176794,40.233576],[29.176862,40.23336],[29.177088,40.232749],[29.177145,40.232453],[29.177177,40.232241],[29.177211,40.232034],[29.177253,40.231902],[29.177357,40.231789],[29.177599,40.231629],[29.177886,40.231449],[29.178009,40.23132],[29.178088,40.231183],[29.178127,40.231077],[29.178153,40.230872],[29.178126,40.230716],[29.178015,40.230414],[29.177894,40.230127],[29.177877,40.229925]]]]}}]}