{"type":"FeatureCollection","name":"turkiye_map.dist.mahalle_geometrileri_by_district.TR-D-06-011","features":[{"type":"Feature","properties":{"id":"TR-Y-06-011-M-0001","level":"yerlesim","type":"mahalle","parent_id":"TR-D-06-011","province_id":"TR-P-06","province_name":"Ankara","district_id":"TR-D-06-011","name":"Altınbaşak","source_raw_name":"Altınbaşak","source":"Kamu kaynak","source_only":false},"geometry":{"type":"MultiPolygon","coordinates":[[[[33.7407,39.103982],[33.742886,39.103578],[33.744666,39.102655],[33.744836,39.101336],[33.744266,39.099983],[33.745553,39.096682],[33.745758,39.094399],[33.745545,39.092787],[33.745042,39.092101],[33.744476,39.091645],[33.744172,39.089477],[33.744237,39.089019],[33.744213,39.089087],[33.744146,39.089554],[33.743696,39.089251],[33.742742,39.088908],[33.742301,39.08921],[33.742765,39.08972],[33.741102,39.089985],[33.740428,39.0901],[33.740209,39.090153],[33.739907,39.089527],[33.739367,39.088835],[33.738171,39.089004],[33.737612,39.088485],[33.738098,39.088257],[33.737233,39.086858],[33.737852,39.086725],[33.738014,39.085773],[33.739076,39.085878],[33.739781,39.085833],[33.739904,39.085304],[33.739448,39.083797],[33.739415,39.083304],[33.738715,39.082818],[33.738817,39.082465],[33.739127,39.081812],[33.739105,39.081701],[33.739643,39.081544],[33.739898,39.08122],[33.740255,39.081053],[33.740748,39.080974],[33.740854,39.080637],[33.740468,39.080495],[33.739978,39.080095],[33.740681,39.079388],[33.738978,39.078033],[33.737768,39.076488],[33.736625,39.075507],[33.73604,39.068756],[33.728594,39.067327],[33.725202,39.066378],[33.718931,39.065009],[33.718939,39.064419],[33.718368,39.06455],[33.718031,39.064558],[33.717615,39.064542],[33.717577,39.064487],[33.717221,39.06454],[33.716343,39.064307],[33.716171,39.064131],[33.715884,39.064102],[33.715384,39.064072],[33.714823,39.063958],[33.713537,39.064065],[33.713419,39.063978],[33.713031,39.064002],[33.712746,39.064052],[33.711822,39.063722],[33.712325,39.062919],[33.712069,39.062345],[33.712731,39.060743],[33.712846,39.059864],[33.712735,39.059402],[33.71245,39.058988],[33.712413,39.058783],[33.712498,39.058426],[33.712811,39.057881],[33.712546,39.05794],[33.711662,39.058546],[33.710629,39.059084],[33.710236,39.059342],[33.709827,39.059226],[33.70992,39.059187],[33.710113,39.059107],[33.709471,39.058634],[33.709244,39.058184],[33.709405,39.058023],[33.708766,39.056642],[33.70877,39.056406],[33.708506,39.055836],[33.708015,39.055572],[33.706885,39.054486],[33.706595,39.054642],[33.70645,39.054699],[33.705866,39.054052],[33.705514,39.05366],[33.704847,39.053259],[33.704642,39.052674],[33.704811,39.052614],[33.70475,39.052415],[33.704057,39.051805],[33.702902,39.050206],[33.70296,39.050098],[33.701627,39.049067],[33.700701,39.048572],[33.699739,39.048238],[33.69754,39.047402],[33.697232,39.047018],[33.69521,39.046965],[33.692017,39.047259],[33.689403,39.047767],[33.687267,39.047822],[33.687013,39.047649],[33.686606,39.047189],[33.686238,39.047105],[33.68611,39.046935],[33.68615,39.046916],[33.686038,39.046783],[33.685712,39.046912],[33.685661,39.047096],[33.685409,39.047278],[33.684101,39.048552],[33.682396,39.048203],[33.680323,39.048627],[33.678484,39.049189],[33.676739,39.049174],[33.675199,39.048203],[33.676004,39.046681],[33.673083,39.044952],[33.672236,39.045158],[33.67094,39.04438],[33.670393,39.043583],[33.668007,39.041645],[33.667961,39.041671],[33.668263,39.043551],[33.669658,39.045409],[33.666355,39.046367],[33.664646,39.04848],[33.665631,39.049577],[33.665665,39.048961],[33.666762,39.048653],[33.667769,39.048157],[33.668321,39.048075],[33.669602,39.047487],[33.670473,39.047689],[33.670688,39.0497],[33.674405,39.050195],[33.674193,39.050915],[33.67388,39.05132],[33.673635,39.05155],[33.67411,39.051708],[33.674144,39.051921],[33.674536,39.052042],[33.675319,39.051966],[33.675506,39.052461],[33.675328,39.052541],[33.675181,39.052567],[33.675392,39.052736],[33.675455,39.052828],[33.675306,39.052948],[33.675562,39.053325],[33.675771,39.053153],[33.675803,39.053195],[33.675803,39.053073],[33.676204,39.053392],[33.676379,39.053278],[33.676639,39.053626],[33.677367,39.054347],[33.677524,39.054404],[33.677918,39.054459],[33.678001,39.054465],[33.678287,39.054927],[33.678626,39.055195],[33.678769,39.055273],[33.678517,39.05564],[33.679432,39.055718],[33.679473,39.05609],[33.679487,39.056494],[33.679519,39.056581],[33.679521,39.056689],[33.679524,39.056816],[33.679478,39.056889],[33.679372,39.056806],[33.678656,39.056684],[33.678609,39.056993],[33.678688,39.057382],[33.678662,39.057641],[33.679067,39.057698],[33.679223,39.057958],[33.679457,39.057945],[33.679732,39.058336],[33.679807,39.058413],[33.680023,39.058606],[33.68066,39.05906],[33.681351,39.058917],[33.681228,39.058371],[33.68133,39.058003],[33.681743,39.058228],[33.681955,39.058446],[33.682166,39.058392],[33.682768,39.058324],[33.683121,39.058211],[33.683324,39.057883],[33.684614,39.057997],[33.686261,39.057711],[33.686273,39.058243],[33.686616,39.058789],[33.687048,39.058869],[33.687064,39.059011],[33.68736,39.059132],[33.687683,39.059408],[33.687479,39.059522],[33.687684,39.059849],[33.687693,39.060142],[33.687932,39.060143],[33.688155,39.060308],[33.688085,39.060839],[33.68831,39.061455],[33.689065,39.061188],[33.689752,39.06101],[33.690046,39.060783],[33.690227,39.06078],[33.690858,39.060812],[33.691258,39.060744],[33.691422,39.060759],[33.69146,39.060525],[33.692035,39.06023],[33.692553,39.06022],[33.693275,39.060692],[33.693356,39.060729],[33.693639,39.061008],[33.694021,39.061146],[33.694228,39.06129],[33.694348,39.061211],[33.694884,39.061662],[33.694797,39.06182],[33.694632,39.062138],[33.69461,39.062244],[33.694791,39.06279],[33.695605,39.063142],[33.695616,39.063295],[33.696272,39.063318],[33.696399,39.063439],[33.697132,39.063344],[33.697175,39.063415],[33.697436,39.063363],[33.697501,39.06352],[33.697838,39.063423],[33.698077,39.063706],[33.698455,39.063559],[33.6987,39.063791],[33.699121,39.064801],[33.697655,39.065245],[33.697277,39.065389],[33.697959,39.066766],[33.698676,39.066454],[33.699272,39.067253],[33.700679,39.066757],[33.700795,39.067004],[33.701181,39.067508],[33.7006,39.067819],[33.701686,39.068732],[33.702225,39.06814],[33.702726,39.067441],[33.702828,39.067498],[33.703991,39.068388],[33.704682,39.068181],[33.705227,39.067787],[33.705444,39.067796],[33.707434,39.068928],[33.707497,39.068986],[33.707356,39.069184],[33.708165,39.069862],[33.708308,39.069833],[33.708551,39.069985],[33.709292,39.070426],[33.708711,39.070832],[33.709296,39.071331],[33.709961,39.070881],[33.710485,39.071387],[33.710693,39.07172],[33.710793,39.07233],[33.711005,39.073236],[33.711552,39.073268],[33.71179,39.073672],[33.712497,39.073378],[33.712921,39.073925],[33.713274,39.074518],[33.714025,39.074332],[33.71368,39.073515],[33.714619,39.073358],[33.715317,39.074795],[33.71548,39.074804],[33.716062,39.074642],[33.716762,39.074336],[33.717125,39.074138],[33.717684,39.073972],[33.717919,39.074227],[33.71853,39.074049],[33.718623,39.074151],[33.719126,39.074787],[33.718929,39.07495],[33.719118,39.075192],[33.719081,39.075224],[33.7197,39.075732],[33.720177,39.075537],[33.720444,39.075493],[33.721459,39.075247],[33.722653,39.074715],[33.722831,39.074865],[33.723228,39.075227],[33.7236,39.075623],[33.72372,39.075751],[33.723822,39.075713],[33.724239,39.076135],[33.724569,39.076701],[33.72499,39.07758],[33.725264,39.077575],[33.725279,39.077619],[33.725907,39.078742],[33.726756,39.079781],[33.728775,39.078378],[33.728882,39.078481],[33.728903,39.078495],[33.729142,39.078519],[33.729402,39.078791],[33.730118,39.079302],[33.730765,39.079698],[33.730529,39.080108],[33.72999,39.080107],[33.729936,39.080302],[33.729953,39.080522],[33.729971,39.081244],[33.731481,39.081153],[33.734805,39.080865],[33.735905,39.082173],[33.732543,39.083417],[33.73236,39.083868],[33.732318,39.084431],[33.73283,39.084423],[33.732821,39.084947],[33.732715,39.085328],[33.731627,39.085939],[33.732421,39.086554],[33.732213,39.086737],[33.732662,39.087016],[33.73349,39.086674],[33.73372,39.087075],[33.733938,39.087475],[33.734229,39.087917],[33.734301,39.087928],[33.734492,39.088242],[33.733037,39.089072],[33.733217,39.089208],[33.733006,39.089328],[33.732366,39.089565],[33.731754,39.089841],[33.731976,39.090151],[33.732039,39.090212],[33.732537,39.090736],[33.733422,39.091531],[33.733768,39.091267],[33.734126,39.09108],[33.734764,39.09163],[33.734511,39.09182],[33.735211,39.092406],[33.734986,39.092571],[33.734948,39.092669],[33.734126,39.09314],[33.734543,39.093384],[33.734765,39.093857],[33.735125,39.09435],[33.735781,39.095057],[33.736495,39.0967],[33.735007,39.096813],[33.735236,39.097157],[33.735185,39.097528],[33.735601,39.098484],[33.734715,39.098572],[33.735922,39.100943],[33.736462,39.102097],[33.736452,39.103246],[33.736497,39.103738],[33.736533,39.103777],[33.736533,39.103771],[33.736533,39.103771],[33.736531,39.103749],[33.736543,39.103763],[33.736556,39.103777],[33.736672,39.103864],[33.737686,39.103752],[33.7407,39.103982]]]]}},{"type":"Feature","properties":{"id":"TR-Y-06-011-M-0002","level":"yerlesim","type":"mahalle","parent_id":"TR-D-06-011","province_id":"TR-P-06","province_name":"Ankara","district_id":"TR-D-06-011","name":"Çatalpınar","source_raw_name":"Çatalpınar","source":"Kamu kaynak","source_only":false},"geometry":{"type":"MultiPolygon","coordinates":[[[[33.750738,39.043428],[33.750162,39.04277],[33.749443,39.041603],[33.749294,39.041007],[33.748814,39.039578],[33.751442,39.040344],[33.752199,39.040658],[33.753391,39.040792],[33.752618,39.040372],[33.752264,39.03964],[33.752044,39.038997],[33.752789,39.038842],[33.752939,39.03905],[33.753367,39.038949],[33.753406,39.038823],[33.753874,39.038728],[33.753841,39.037652],[33.754764,39.037197],[33.754105,39.036763],[33.753519,39.036301],[33.752963,39.035673],[33.752918,39.03568],[33.752785,39.035701],[33.752803,39.035204],[33.753241,39.035257],[33.753404,39.035305],[33.754596,39.035559],[33.754602,39.035559],[33.755164,39.03554],[33.755664,39.035623],[33.756422,39.035786],[33.757061,39.03595],[33.757398,39.036098],[33.757962,39.036191],[33.75866,39.036283],[33.759316,39.036361],[33.75988,39.036477],[33.7599,39.036482],[33.760583,39.036599],[33.761385,39.036524],[33.761969,39.036377],[33.762304,39.036233],[33.762458,39.036131],[33.761561,39.034634],[33.761476,39.034551],[33.761361,39.034375],[33.761422,39.034123],[33.761037,39.033614],[33.760688,39.0333],[33.759993,39.032288],[33.759634,39.0313],[33.759871,39.031387],[33.760947,39.031095],[33.76268,39.030429],[33.763119,39.03006],[33.764761,39.029443],[33.765306,39.029207],[33.76552,39.029749],[33.765624,39.030416],[33.767268,39.030399],[33.767249,39.0313],[33.769135,39.03118],[33.769142,39.03124],[33.769341,39.03129],[33.769322,39.033283],[33.76983,39.033323],[33.770328,39.033311],[33.770297,39.032315],[33.770219,39.032303],[33.770196,39.031509],[33.770671,39.031464],[33.770696,39.031534],[33.770777,39.031625],[33.772552,39.031385],[33.77192,39.030504],[33.771816,39.030226],[33.771846,39.030151],[33.773099,39.030107],[33.772866,39.029855],[33.773074,39.029766],[33.772227,39.027976],[33.773207,39.027501],[33.772412,39.027286],[33.772359,39.026997],[33.771747,39.026325],[33.771763,39.025781],[33.771867,39.025404],[33.771796,39.024975],[33.771473,39.024868],[33.77078,39.024555],[33.770422,39.024351],[33.7703,39.024207],[33.770304,39.024205],[33.77048,39.024028],[33.770701,39.023839],[33.770862,39.023627],[33.771005,39.023464],[33.771131,39.023165],[33.771192,39.02301],[33.771302,39.022918],[33.771548,39.022902],[33.771997,39.022859],[33.77223,39.022831],[33.772419,39.022773],[33.772697,39.022639],[33.772905,39.022503],[33.772938,39.022479],[33.772912,39.022418],[33.772382,39.021873],[33.771863,39.021053],[33.770127,39.021712],[33.76981,39.021487],[33.769624,39.020845],[33.769558,39.020044],[33.76999,39.019794],[33.769323,39.019689],[33.768866,39.019381],[33.768425,39.019142],[33.768227,39.01908],[33.767841,39.019094],[33.76746,39.01908],[33.766145,39.018215],[33.764893,39.017244],[33.764053,39.016533],[33.76303,39.015871],[33.762027,39.015079],[33.76164,39.014703],[33.761473,39.014544],[33.761264,39.014392],[33.761315,39.01434],[33.763553,39.013312],[33.763907,39.013173],[33.764614,39.012952],[33.765124,39.012762],[33.764767,39.011876],[33.764672,39.011577],[33.764648,39.011413],[33.764314,39.010825],[33.76425,39.01051],[33.763913,39.010184],[33.763862,39.010044],[33.763775,39.009427],[33.763998,39.009065],[33.763963,39.008934],[33.763764,39.008694],[33.762929,39.007993],[33.762702,39.007755],[33.764499,39.006766],[33.766672,39.006545],[33.766789,39.006238],[33.766826,39.005932],[33.766817,39.005723],[33.766612,39.004663],[33.76595,39.003682],[33.765954,39.003589],[33.76607,39.003422],[33.765521,39.002716],[33.76496,39.001821],[33.764925,39.001462],[33.764738,39.001313],[33.764593,39.00124],[33.764428,39.001232],[33.764437,39.001417],[33.764314,39.002401],[33.764219,39.002587],[33.763992,39.002736],[33.76409,39.003064],[33.764042,39.003149],[33.764159,39.003654],[33.764145,39.003917],[33.764431,39.004407],[33.764093,39.004643],[33.763756,39.004696],[33.763465,39.004705],[33.762614,39.004821],[33.762534,39.004347],[33.762065,39.004555],[33.760089,39.005097],[33.759832,39.004749],[33.759891,39.004564],[33.759961,39.004491],[33.760792,39.004236],[33.761271,39.004045],[33.761033,39.003586],[33.760947,39.003401],[33.760783,39.002973],[33.760678,39.002417],[33.760755,39.002384],[33.760399,39.000893],[33.760915,38.99993],[33.760862,38.99854],[33.760627,38.997508],[33.760517,38.997342],[33.760282,38.996706],[33.760402,38.996448],[33.760833,38.996285],[33.760311,38.995817],[33.759685,38.995531],[33.759501,38.99463],[33.758869,38.993986],[33.757873,38.992274],[33.758963,38.990474],[33.759063,38.988823],[33.759277,38.988184],[33.759303,38.988107],[33.757653,38.98773],[33.757519,38.987683],[33.757179,38.987536],[33.75675,38.987239],[33.756426,38.98702],[33.755993,38.986656],[33.75582,38.986487],[33.755903,38.986435],[33.75572,38.986329],[33.755691,38.986223],[33.755727,38.986136],[33.755277,38.98616],[33.754736,38.986187],[33.754663,38.986181],[33.753468,38.98622],[33.753405,38.986237],[33.752477,38.986343],[33.752022,38.986512],[33.751636,38.986602],[33.749877,38.986992],[33.750046,38.988081],[33.750077,38.988409],[33.749371,38.988363],[33.749072,38.988372],[33.748686,38.988115],[33.748541,38.988035],[33.748394,38.987994],[33.747323,38.988706],[33.746884,38.989041],[33.747024,38.989189],[33.746793,38.989113],[33.74629,38.989469],[33.745067,38.989329],[33.744369,38.989583],[33.743921,38.990573],[33.743667,38.99093],[33.742332,38.991394],[33.739956,38.991589],[33.738179,38.992121],[33.737359,38.992563],[33.736745,38.991977],[33.736724,38.991227],[33.736677,38.991235],[33.736723,38.991181],[33.736719,38.991025],[33.736524,38.990545],[33.736585,38.990267],[33.736459,38.990248],[33.736422,38.990074],[33.736332,38.989723],[33.735824,38.989763],[33.735523,38.989401],[33.735077,38.98902],[33.735032,38.988992],[33.735045,38.988979],[33.735045,38.988972],[33.734955,38.988934],[33.734908,38.988879],[33.73477,38.988912],[33.733882,38.989425],[33.732734,38.989908],[33.731901,38.990506],[33.731711,38.990399],[33.731557,38.990276],[33.731709,38.990073],[33.731757,38.989495],[33.731626,38.989339],[33.731292,38.989028],[33.731134,38.988589],[33.731021,38.988596],[33.730788,38.987769],[33.730777,38.987722],[33.729954,38.987464],[33.72772,38.987879],[33.727614,38.987865],[33.726809,38.987882],[33.726522,38.987954],[33.726139,38.987875],[33.725742,38.987942],[33.726455,38.991156],[33.727269,38.992664],[33.724762,38.991938],[33.724271,38.991723],[33.724109,38.99169],[33.723963,38.992068],[33.723995,38.992131],[33.723949,38.992194],[33.723881,38.992237],[33.723804,38.992264],[33.723564,38.992372],[33.723198,38.992417],[33.722655,38.992175],[33.722346,38.992506],[33.721995,38.992295],[33.720985,38.99227],[33.720808,38.992453],[33.719947,38.992474],[33.719078,38.992351],[33.718695,38.992255],[33.717712,38.992498],[33.717448,38.993053],[33.717142,38.993194],[33.716119,38.99382],[33.715787,38.994143],[33.716247,38.994488],[33.716257,38.994719],[33.716424,38.99531],[33.715752,38.99552],[33.714699,38.995914],[33.713196,38.996893],[33.711581,38.997631],[33.710487,38.998606],[33.709321,38.998759],[33.709197,38.99871],[33.707751,38.999066],[33.704856,39.000097],[33.700293,39.002177],[33.699409,39.003535],[33.697678,39.006063],[33.697501,39.008583],[33.688799,39.011147],[33.688058,39.011879],[33.690333,39.013099],[33.6973,39.01391],[33.699963,39.013995],[33.702555,39.014306],[33.70556,39.015575],[33.706575,39.01745],[33.708926,39.019429],[33.71021,39.021982],[33.710442,39.022201],[33.711204,39.02426],[33.712202,39.026368],[33.714136,39.028561],[33.715718,39.030247],[33.716769,39.031884],[33.717847,39.034398],[33.719318,39.034112],[33.720286,39.034608],[33.720804,39.034036],[33.721055,39.034133],[33.721549,39.03369],[33.722952,39.034952],[33.726332,39.039109],[33.727597,39.038814],[33.727425,39.038179],[33.727472,39.038174],[33.72852,39.038056],[33.728568,39.038133],[33.728812,39.038114],[33.728873,39.038364],[33.72965,39.038067],[33.729829,39.038353],[33.72993,39.038356],[33.730146,39.037967],[33.730228,39.037952],[33.72954,39.03705],[33.729144,39.036784],[33.728838,39.036204],[33.728783,39.035486],[33.728735,39.035167],[33.729481,39.034796],[33.730169,39.034084],[33.730778,39.033773],[33.731187,39.034354],[33.731533,39.034337],[33.731639,39.034399],[33.733375,39.034348],[33.732914,39.035386],[33.732435,39.036801],[33.732557,39.036835],[33.733846,39.037478],[33.734839,39.038091],[33.735396,39.037662],[33.735826,39.0378],[33.735924,39.037701],[33.736127,39.037772],[33.736184,39.037446],[33.736792,39.037679],[33.73799,39.039143],[33.739634,39.038378],[33.740142,39.038984],[33.740756,39.038751],[33.740584,39.038451],[33.740086,39.037675],[33.740077,39.037551],[33.74024,39.037405],[33.742111,39.038951],[33.741168,39.039434],[33.741268,39.039562],[33.743184,39.039147],[33.744338,39.039125],[33.744836,39.040413],[33.746503,39.043371],[33.746803,39.043998],[33.747513,39.043732],[33.747438,39.043509],[33.747771,39.04344],[33.747803,39.043563],[33.747919,39.043563],[33.748115,39.044388],[33.748346,39.044289],[33.748392,39.043488],[33.749279,39.043091],[33.749839,39.044132],[33.750459,39.044965],[33.751567,39.045609],[33.752055,39.04532],[33.752258,39.045028],[33.752304,39.044749],[33.750738,39.043428]]]]}},{"type":"Feature","properties":{"id":"TR-Y-06-011-M-0003","level":"yerlesim","type":"mahalle","parent_id":"TR-D-06-011","province_id":"TR-P-06","province_name":"Ankara","district_id":"TR-D-06-011","name":"Cebirli","source_raw_name":"Cebirli","source":"Kamu kaynak","source_only":false},"geometry":{"type":"MultiPolygon","coordinates":[[[[33.654996,39.144241],[33.655153,39.14415],[33.655488,39.144521],[33.656238,39.144436],[33.656357,39.143768],[33.657014,39.142809],[33.660582,39.140382],[33.66281,39.14014],[33.66724,39.141853],[33.67129,39.141058],[33.67929,39.133279],[33.681846,39.131608],[33.683716,39.130709],[33.68458,39.129952],[33.685525,39.128863],[33.685908,39.128105],[33.685804,39.127586],[33.685962,39.127225],[33.68533,39.127215],[33.684832,39.126335],[33.684799,39.126399],[33.684632,39.126104],[33.684087,39.124934],[33.683805,39.124787],[33.683776,39.12441],[33.683295,39.123958],[33.683109,39.123784],[33.682779,39.123374],[33.681987,39.123014],[33.680866,39.122967],[33.680683,39.122781],[33.680113,39.122569],[33.679364,39.122169],[33.679061,39.121923],[33.678955,39.121957],[33.678467,39.121593],[33.678049,39.121526],[33.677599,39.120952],[33.676993,39.120906],[33.676083,39.119943],[33.674947,39.119049],[33.674156,39.1187],[33.672494,39.11826],[33.671779,39.117805],[33.669967,39.116806],[33.671259,39.116275],[33.670718,39.115828],[33.673042,39.115117],[33.672264,39.114032],[33.671954,39.113151],[33.670785,39.113567],[33.669304,39.111175],[33.670077,39.110873],[33.670877,39.110679],[33.6716,39.111626],[33.673599,39.110943],[33.673153,39.110249],[33.672681,39.10954],[33.674212,39.109068],[33.673826,39.107923],[33.675102,39.107749],[33.676239,39.10745],[33.675671,39.106407],[33.675739,39.106312],[33.676653,39.105679],[33.67645,39.105458],[33.676086,39.104381],[33.676053,39.103493],[33.675528,39.103354],[33.674404,39.103055],[33.673498,39.103076],[33.672758,39.102871],[33.672754,39.1027],[33.672266,39.102091],[33.671357,39.101373],[33.671163,39.10113],[33.671511,39.10088],[33.671845,39.100734],[33.672348,39.10049],[33.673267,39.101436],[33.673384,39.101957],[33.673551,39.102245],[33.675661,39.101844],[33.675653,39.101091],[33.674655,39.101102],[33.673264,39.100861],[33.6736,39.100469],[33.674124,39.100125],[33.673977,39.099898],[33.674324,39.099617],[33.674012,39.099182],[33.673331,39.098517],[33.674187,39.098211],[33.673877,39.097563],[33.675307,39.097053],[33.674629,39.095173],[33.674103,39.094125],[33.67367,39.094083],[33.674075,39.093097],[33.673562,39.092507],[33.673471,39.092179],[33.673314,39.092036],[33.67313,39.091774],[33.672666,39.091514],[33.67192,39.090661],[33.671936,39.089982],[33.670359,39.088985],[33.669837,39.088267],[33.669925,39.087584],[33.670512,39.086556],[33.670173,39.08551],[33.669451,39.084671],[33.66914,39.084685],[33.669663,39.084318],[33.668821,39.083974],[33.668999,39.083249],[33.668817,39.083083],[33.668671,39.082702],[33.668694,39.082045],[33.669341,39.081097],[33.669071,39.081074],[33.668924,39.08062],[33.669032,39.079696],[33.668112,39.078921],[33.668477,39.078705],[33.668175,39.078421],[33.668444,39.078145],[33.668495,39.077879],[33.667846,39.077423],[33.667508,39.07694],[33.666772,39.07608],[33.666026,39.075418],[33.665074,39.076653],[33.664888,39.076749],[33.665839,39.077386],[33.665812,39.077691],[33.664471,39.077141],[33.664094,39.077232],[33.663941,39.077128],[33.662798,39.076517],[33.662227,39.076428],[33.660955,39.075898],[33.659961,39.074836],[33.659557,39.074863],[33.659423,39.074523],[33.657441,39.073064],[33.655239,39.069933],[33.652518,39.068806],[33.65267,39.068643],[33.652494,39.068074],[33.651591,39.068028],[33.650805,39.06819],[33.650172,39.068733],[33.65035,39.068346],[33.65037,39.06739],[33.651305,39.065669],[33.652548,39.06432],[33.653046,39.064209],[33.653118,39.064329],[33.653554,39.064319],[33.653553,39.064124],[33.654009,39.064122],[33.653947,39.063859],[33.654012,39.063559],[33.653641,39.063507],[33.65329,39.062306],[33.653364,39.061497],[33.650616,39.059848],[33.649456,39.060021],[33.647374,39.060471],[33.645987,39.062604],[33.64562,39.067618],[33.644101,39.069462],[33.639564,39.072277],[33.642562,39.081645],[33.643333,39.084912],[33.642985,39.091511],[33.642433,39.093106],[33.642445,39.093155],[33.642435,39.093183],[33.643016,39.095616],[33.642937,39.095875],[33.643149,39.096784],[33.643736,39.097899],[33.643625,39.098006],[33.642658,39.098223],[33.641643,39.098399],[33.640614,39.098544],[33.639705,39.098606],[33.638898,39.098737],[33.638469,39.098813],[33.638409,39.09948],[33.638695,39.100732],[33.639136,39.101601],[33.639239,39.101989],[33.639125,39.102003],[33.639497,39.102742],[33.640964,39.104336],[33.641872,39.103932],[33.642338,39.104728],[33.640582,39.10547],[33.644308,39.107835],[33.64449,39.108151],[33.644165,39.10819],[33.642734,39.108577],[33.642732,39.109187],[33.640869,39.109766],[33.641138,39.110361],[33.640809,39.110627],[33.641241,39.111149],[33.639992,39.111479],[33.639907,39.111142],[33.639108,39.111264],[33.638134,39.111351],[33.637057,39.11155],[33.63711,39.11266],[33.637229,39.113438],[33.637224,39.11412],[33.636347,39.114192],[33.636453,39.115264],[33.635271,39.115281],[33.635336,39.115663],[33.635935,39.115937],[33.636973,39.116023],[33.638079,39.116207],[33.638436,39.116395],[33.638509,39.116772],[33.638622,39.117175],[33.639064,39.117925],[33.638615,39.118037],[33.638196,39.118045],[33.637975,39.118688],[33.638032,39.118909],[33.637882,39.118943],[33.638069,39.119235],[33.638576,39.119641],[33.638722,39.119829],[33.638865,39.120216],[33.638928,39.120908],[33.639654,39.121052],[33.639405,39.121562],[33.639481,39.121946],[33.640482,39.123143],[33.641934,39.122707],[33.642013,39.122819],[33.642001,39.123041],[33.642936,39.123022],[33.643776,39.122945],[33.643969,39.123555],[33.644111,39.123492],[33.644158,39.123789],[33.644044,39.123794],[33.644124,39.124226],[33.644076,39.124672],[33.644264,39.125309],[33.644456,39.125769],[33.644554,39.126225],[33.644885,39.126766],[33.644581,39.127077],[33.644232,39.126936],[33.643898,39.126986],[33.643698,39.127208],[33.643921,39.127618],[33.643502,39.128143],[33.643246,39.128583],[33.643039,39.128592],[33.64285,39.129465],[33.643316,39.130077],[33.643426,39.130643],[33.643746,39.130614],[33.643842,39.130987],[33.644001,39.131051],[33.644641,39.132049],[33.644856,39.131955],[33.645584,39.133033],[33.645905,39.133621],[33.645998,39.134054],[33.646531,39.134244],[33.647266,39.134149],[33.647617,39.13541],[33.647691,39.136124],[33.648115,39.137085],[33.648345,39.138037],[33.648437,39.138803],[33.648203,39.138844],[33.648258,39.139672],[33.648419,39.140094],[33.648331,39.140309],[33.648396,39.140706],[33.648043,39.140685],[33.648179,39.140904],[33.647965,39.140985],[33.647573,39.142642],[33.647092,39.143381],[33.648111,39.144046],[33.647365,39.145524],[33.647155,39.147119],[33.647768,39.147989],[33.648045,39.148445],[33.647997,39.14877],[33.647359,39.149812],[33.646844,39.150493],[33.644915,39.153044],[33.645103,39.153273],[33.647038,39.155632],[33.649591,39.155821],[33.652638,39.153805],[33.652673,39.15379],[33.652668,39.153756],[33.652877,39.14874],[33.653776,39.148388],[33.655277,39.144724],[33.654996,39.144241]]]]}},{"type":"Feature","properties":{"id":"TR-Y-06-011-M-0004","level":"yerlesim","type":"mahalle","parent_id":"TR-D-06-011","province_id":"TR-P-06","province_name":"Ankara","district_id":"TR-D-06-011","name":"Demirayak","source_raw_name":"Demirayak","source":"Kamu kaynak","source_only":false},"geometry":{"type":"MultiPolygon","coordinates":[[[[33.712274,39.055384],[33.711942,39.054865],[33.710909,39.055102],[33.710282,39.054195],[33.710243,39.053928],[33.710903,39.054209],[33.710379,39.053536],[33.710563,39.052585],[33.709885,39.052507],[33.708835,39.052799],[33.708956,39.052911],[33.707567,39.053045],[33.708863,39.052568],[33.707868,39.051878],[33.707937,39.051641],[33.707516,39.051253],[33.707088,39.05102],[33.707021,39.050889],[33.707185,39.050545],[33.705726,39.05058],[33.705735,39.049437],[33.705984,39.049403],[33.70579,39.048606],[33.706368,39.048149],[33.70645,39.047816],[33.706205,39.047352],[33.705593,39.047055],[33.705248,39.04711],[33.704748,39.046836],[33.704399,39.046987],[33.704447,39.046278],[33.704624,39.046232],[33.70483,39.046041],[33.70499,39.04565],[33.705303,39.045521],[33.706979,39.044181],[33.70691,39.044141],[33.706824,39.044034],[33.706822,39.044031],[33.706767,39.043963],[33.706774,39.043846],[33.706144,39.043273],[33.70552,39.042635],[33.705419,39.042201],[33.705284,39.042284],[33.705234,39.042231],[33.705047,39.042031],[33.703717,39.04076],[33.702976,39.039993],[33.701961,39.039021],[33.70061,39.038999],[33.698531,39.039245],[33.697515,39.038914],[33.69734,39.03891],[33.696873,39.038883],[33.696665,39.038639],[33.696455,39.038447],[33.695998,39.038234],[33.695662,39.038239],[33.695219,39.038508],[33.695122,39.038486],[33.69507,39.038607],[33.69495,39.038569],[33.694891,39.038467],[33.69501,39.038332],[33.694843,39.038167],[33.694583,39.037922],[33.694433,39.03802],[33.693386,39.038193],[33.693581,39.038054],[33.693687,39.037634],[33.694067,39.036639],[33.692927,39.035847],[33.692401,39.03563],[33.692175,39.035457],[33.69228,39.035304],[33.691923,39.035087],[33.69132,39.0343],[33.690876,39.034607],[33.690705,39.034463],[33.690224,39.034649],[33.689895,39.034577],[33.689626,39.03453],[33.689041,39.034509],[33.687796,39.033615],[33.687651,39.033375],[33.687094,39.032563],[33.686989,39.032319],[33.68624,39.032215],[33.686108,39.031762],[33.686755,39.03183],[33.686787,39.031439],[33.685636,39.031285],[33.685761,39.031707],[33.685114,39.031639],[33.684809,39.031886],[33.684658,39.031868],[33.684172,39.03152],[33.68289,39.031234],[33.682081,39.030758],[33.682064,39.029915],[33.68186,39.029372],[33.679343,39.029216],[33.678273,39.028237],[33.676973,39.028403],[33.677462,39.026799],[33.676811,39.026908],[33.676494,39.026962],[33.675563,39.027311],[33.674581,39.027816],[33.674567,39.027855],[33.67424,39.028735],[33.673696,39.029584],[33.672087,39.030937],[33.671764,39.031209],[33.668544,39.033915],[33.668506,39.033948],[33.668537,39.034001],[33.668508,39.034026],[33.669674,39.036702],[33.671146,39.039848],[33.668007,39.041566],[33.66795,39.041598],[33.668007,39.041645],[33.670393,39.043583],[33.67094,39.04438],[33.672236,39.045158],[33.673083,39.044952],[33.676004,39.046681],[33.675199,39.048203],[33.6752,39.048203],[33.676739,39.049174],[33.678484,39.049189],[33.680323,39.048627],[33.682396,39.048203],[33.684101,39.048552],[33.685409,39.047278],[33.685661,39.047096],[33.685712,39.046912],[33.686038,39.046783],[33.68615,39.046916],[33.68611,39.046935],[33.686238,39.047105],[33.686606,39.047189],[33.687013,39.047649],[33.68722,39.04779],[33.687267,39.047822],[33.68873,39.047785],[33.689403,39.047767],[33.692017,39.047259],[33.69521,39.046965],[33.697232,39.047018],[33.69754,39.047402],[33.699206,39.048035],[33.699206,39.048036],[33.699739,39.048238],[33.700701,39.048572],[33.701627,39.049067],[33.70296,39.050098],[33.702902,39.050206],[33.704057,39.051805],[33.70475,39.052415],[33.704811,39.052614],[33.704642,39.052674],[33.704847,39.053259],[33.705514,39.05366],[33.705866,39.054052],[33.70645,39.054699],[33.706595,39.054642],[33.706885,39.054486],[33.708015,39.055572],[33.708506,39.055836],[33.70877,39.056406],[33.708766,39.056642],[33.709405,39.058023],[33.709244,39.058184],[33.709471,39.058634],[33.710113,39.059107],[33.70992,39.059187],[33.7102,39.05916],[33.710729,39.058814],[33.710956,39.058379],[33.710976,39.05809],[33.711873,39.056876],[33.711908,39.056412],[33.71217,39.055778],[33.712274,39.055384]]]]}},{"type":"Feature","properties":{"id":"TR-Y-06-011-M-0005","level":"yerlesim","type":"mahalle","parent_id":"TR-D-06-011","province_id":"TR-P-06","province_name":"Ankara","district_id":"TR-D-06-011","name":"Esentepe","source_raw_name":"Esentepe","source":"Kamu kaynak","source_only":false},"geometry":{"type":"MultiPolygon","coordinates":[[[[33.828238,39.020057],[33.829296,39.01962],[33.829563,39.01947],[33.83009,39.019096],[33.830931,39.018584],[33.831808,39.018178],[33.832373,39.017828],[33.832445,39.017807],[33.83327,39.017194],[33.834087,39.01655],[33.834908,39.015803],[33.835476,39.015259],[33.835771,39.014919],[33.836124,39.014428],[33.83691,39.013115],[33.837015,39.012618],[33.836073,39.01258],[33.835275,39.01237],[33.834759,39.012126],[33.834539,39.011846],[33.834338,39.011476],[33.833642,39.011719],[33.832859,39.011939],[33.832546,39.011668],[33.832227,39.011222],[33.831894,39.010693],[33.83083,39.010912],[33.830638,39.010722],[33.830105,39.01014],[33.83042,39.010011],[33.829544,39.008569],[33.829138,39.007617],[33.829122,39.007475],[33.832252,39.007499],[33.831452,39.005867],[33.830671,39.005948],[33.830183,39.005181],[33.829669,39.004353],[33.829273,39.004537],[33.828754,39.003906],[33.827678,39.004487],[33.826496,39.005284],[33.825666,39.004319],[33.825016,39.004799],[33.824226,39.004626],[33.823321,39.00467],[33.822782,39.003251],[33.822234,39.002467],[33.821883,39.001937],[33.821617,39.001362],[33.822096,39.0013],[33.821731,39.000663],[33.821584,39.000137],[33.821567,38.999791],[33.821012,38.99802],[33.82028,38.996594],[33.81985,38.995703],[33.819633,38.9956],[33.819443,38.995076],[33.81869,38.994714],[33.81835,38.994335],[33.817021,38.993703],[33.817362,38.99351],[33.817811,38.993161],[33.817693,38.993143],[33.817596,38.992605],[33.817015,38.99201],[33.817053,38.991559],[33.816539,38.99063],[33.816829,38.990575],[33.816659,38.990064],[33.816058,38.988254],[33.816414,38.987748],[33.816497,38.987294],[33.817002,38.985794],[33.819404,38.9854],[33.819199,38.984961],[33.819358,38.984822],[33.819296,38.984252],[33.817996,38.982123],[33.816552,38.981813],[33.8147,38.977631],[33.808119,38.972694],[33.807871,38.972258],[33.808179,38.972185],[33.808358,38.97054],[33.807561,38.970364],[33.80711,38.969817],[33.80615,38.969084],[33.806354,38.968857],[33.805896,38.968494],[33.806435,38.967268],[33.806242,38.966839],[33.805057,38.966531],[33.804865,38.966722],[33.803738,38.966039],[33.803008,38.965272],[33.801512,38.964798],[33.802013,38.964367],[33.801929,38.963925],[33.801249,38.96396],[33.800917,38.963594],[33.800119,38.963693],[33.800026,38.963276],[33.799534,38.962325],[33.79896,38.962586],[33.798534,38.961824],[33.797905,38.961965],[33.796861,38.960644],[33.794302,38.960466],[33.793786,38.960489],[33.79387,38.96159],[33.793861,38.961658],[33.79412,38.963043],[33.794112,38.963191],[33.79413,38.963248],[33.793543,38.966105],[33.792804,38.965961],[33.792579,38.970766],[33.790841,38.975726],[33.788888,38.977333],[33.789046,38.978276],[33.788797,38.978583],[33.787964,38.979065],[33.787865,38.979072],[33.78786,38.979191],[33.787843,38.979299],[33.787444,38.979291],[33.787143,38.97929],[33.786895,38.979286],[33.786537,38.979301],[33.786164,38.97931],[33.786099,38.979302],[33.786074,38.979379],[33.790375,38.987772],[33.790378,38.987781],[33.792662,38.995793],[33.793081,38.996455],[33.793101,38.996468],[33.793136,38.996524],[33.793513,38.99678],[33.793913,38.99696],[33.794581,38.997083],[33.794658,38.997261],[33.794777,38.997496],[33.79502,38.997853],[33.795188,38.998113],[33.795421,38.998485],[33.795624,38.998841],[33.795948,38.999311],[33.79612,38.999591],[33.796246,38.999845],[33.796303,39.000063],[33.796349,39.000331],[33.796415,39.000578],[33.796602,39.001003],[33.796764,39.001396],[33.796821,39.001465],[33.796903,39.0016],[33.797045,39.001752],[33.797306,39.001968],[33.797839,39.002265],[33.798351,39.002488],[33.798508,39.002553],[33.795616,39.004705],[33.795274,39.005008],[33.800032,39.009164],[33.799789,39.010173],[33.799589,39.011896],[33.799142,39.013773],[33.799645,39.013906],[33.799984,39.014067],[33.800525,39.014327],[33.800714,39.014419],[33.801158,39.014637],[33.801484,39.014802],[33.801616,39.014871],[33.801676,39.014904],[33.801803,39.014981],[33.801888,39.015025],[33.802311,39.015253],[33.803385,39.015841],[33.803494,39.015973],[33.803809,39.016541],[33.804178,39.01719],[33.804469,39.017734],[33.804949,39.018606],[33.805363,39.019374],[33.805794,39.020232],[33.806233,39.021042],[33.80669,39.020904],[33.806931,39.020832],[33.806931,39.020832],[33.807468,39.02065],[33.808506,39.020324],[33.808507,39.020324],[33.808672,39.020268],[33.809199,39.020089],[33.809704,39.019918],[33.810581,39.019634],[33.810581,39.019634],[33.81163,39.019307],[33.812018,39.019192],[33.812213,39.01914],[33.812665,39.019995],[33.813448,39.019737],[33.813449,39.019737],[33.813451,39.019737],[33.813567,39.019772],[33.813568,39.019775],[33.815903,39.019021],[33.815991,39.01897],[33.817174,39.019264],[33.818248,39.019567],[33.818785,39.0197],[33.819132,39.019762],[33.819267,39.019768],[33.819879,39.019811],[33.819882,39.019811],[33.819882,39.019811],[33.820683,39.019801],[33.82138,39.019816],[33.821743,39.019807],[33.822051,39.019852],[33.822355,39.019957],[33.822745,39.020122],[33.823072,39.020223],[33.823174,39.020244],[33.823516,39.020319],[33.823751,39.020456],[33.823917,39.020663],[33.824071,39.020927],[33.824227,39.021265],[33.824338,39.021604],[33.824402,39.021823],[33.824459,39.021921],[33.824527,39.021956],[33.824619,39.021997],[33.825075,39.021753],[33.826022,39.021232],[33.827567,39.020399],[33.828238,39.020057]]]]}},{"type":"Feature","properties":{"id":"TR-Y-06-011-M-0006","level":"yerlesim","type":"mahalle","parent_id":"TR-D-06-011","province_id":"TR-P-06","province_name":"Ankara","district_id":"TR-D-06-011","name":"Eskitorunobası","source_raw_name":"Eskitorunobası","source":"Kamu kaynak","source_only":false},"geometry":{"type":"MultiPolygon","coordinates":[[[[33.723842,38.967443],[33.724339,38.967395],[33.724691,38.967433],[33.724128,38.966698],[33.72416,38.96663],[33.724153,38.966621],[33.724347,38.966218],[33.724248,38.965405],[33.725351,38.965273],[33.72587,38.964343],[33.72637,38.964383],[33.726998,38.963997],[33.727344,38.964185],[33.728098,38.964528],[33.72904,38.964847],[33.729063,38.964797],[33.728863,38.964603],[33.727198,38.962844],[33.728087,38.962314],[33.728504,38.962603],[33.728978,38.960651],[33.72956,38.960902],[33.729794,38.961151],[33.730261,38.958843],[33.730268,38.95847],[33.731097,38.958512],[33.731868,38.958446],[33.73169,38.958703],[33.731526,38.959368],[33.732098,38.960325],[33.732276,38.960214],[33.73265,38.959823],[33.733111,38.96064],[33.7332,38.960989],[33.733493,38.96142],[33.73395,38.961738],[33.734457,38.962523],[33.734213,38.962661],[33.734218,38.962683],[33.735075,38.962811],[33.735925,38.962229],[33.736143,38.96227],[33.736393,38.961681],[33.737649,38.962101],[33.738741,38.962287],[33.738889,38.962542],[33.739256,38.960507],[33.739856,38.959533],[33.737314,38.957052],[33.736375,38.954949],[33.736424,38.954387],[33.736405,38.95427],[33.736567,38.952322],[33.738166,38.950695],[33.739192,38.948962],[33.74052,38.947941],[33.741068,38.947586],[33.741099,38.947512],[33.742425,38.946029],[33.74367,38.943262],[33.745818,38.940919],[33.747335,38.939769],[33.747037,38.937526],[33.745769,38.936206],[33.745682,38.93615],[33.745526,38.936087],[33.743952,38.934955],[33.741407,38.93333],[33.741356,38.933094],[33.74133,38.933171],[33.738644,38.933449],[33.73557,38.934337],[33.735228,38.935908],[33.736207,38.937709],[33.7362,38.937771],[33.736345,38.938154],[33.736276,38.938526],[33.736015,38.939502],[33.735973,38.939894],[33.734866,38.941248],[33.722862,38.941043],[33.720688,38.940419],[33.718279,38.938931],[33.716453,38.938612],[33.710243,38.936176],[33.706902,38.936296],[33.705091,38.934429],[33.700931,38.933851],[33.698099,38.93397],[33.697969,38.934734],[33.697802,38.935435],[33.696385,38.935295],[33.696139,38.936588],[33.697418,38.936855],[33.696139,38.938302],[33.695336,38.9399],[33.696738,38.940998],[33.696792,38.94213],[33.69679,38.942137],[33.696557,38.943782],[33.697912,38.94377],[33.698645,38.943936],[33.699229,38.94416],[33.699288,38.943951],[33.700996,38.943768],[33.70248,38.943913],[33.70301,38.943578],[33.704805,38.944454],[33.703827,38.94527],[33.70263,38.946976],[33.701776,38.946566],[33.700354,38.946686],[33.700078,38.947038],[33.699738,38.947133],[33.700134,38.948503],[33.699799,38.949131],[33.699154,38.949208],[33.696316,38.950319],[33.696428,38.951504],[33.696519,38.95176],[33.696949,38.9519],[33.697517,38.952281],[33.696902,38.953088],[33.696333,38.953622],[33.696073,38.954711],[33.695966,38.954865],[33.695531,38.955194],[33.695932,38.956857],[33.696273,38.95735],[33.697021,38.957605],[33.699048,38.958134],[33.700055,38.95862],[33.700679,38.959063],[33.701417,38.959033],[33.702989,38.959782],[33.704807,38.960016],[33.704897,38.960027],[33.706566,38.960054],[33.707589,38.960635],[33.709638,38.962849],[33.710066,38.963303],[33.710381,38.963951],[33.711868,38.965151],[33.713445,38.965446],[33.714739,38.965934],[33.716108,38.967331],[33.717233,38.967159],[33.722289,38.967533],[33.72242,38.967418],[33.722645,38.967423],[33.723688,38.967932],[33.723929,38.967816],[33.723842,38.967443]]]]}},{"type":"Feature","properties":{"id":"TR-Y-06-011-M-0007","level":"yerlesim","type":"mahalle","parent_id":"TR-D-06-011","province_id":"TR-P-06","province_name":"Ankara","district_id":"TR-D-06-011","name":"İbrahimbeyli","source_raw_name":"İbrahimbeyli","source":"Kamu kaynak","source_only":false},"geometry":{"type":"MultiPolygon","coordinates":[[[[33.707751,38.999066],[33.709197,38.99871],[33.709321,38.998759],[33.710487,38.998606],[33.711581,38.997631],[33.713196,38.996893],[33.714699,38.995914],[33.715752,38.99552],[33.716424,38.99531],[33.716257,38.994719],[33.716247,38.994488],[33.715787,38.994143],[33.716119,38.99382],[33.717142,38.993194],[33.717448,38.993053],[33.717712,38.992498],[33.718695,38.992255],[33.719078,38.992351],[33.719947,38.992474],[33.720808,38.992453],[33.720985,38.99227],[33.721995,38.992295],[33.722346,38.992506],[33.722655,38.992175],[33.723198,38.992417],[33.723564,38.992372],[33.723804,38.992264],[33.723881,38.992237],[33.723949,38.992194],[33.723995,38.992131],[33.723963,38.992068],[33.724109,38.99169],[33.724271,38.991723],[33.724762,38.991938],[33.727269,38.992664],[33.726455,38.991156],[33.725742,38.987942],[33.726139,38.987875],[33.726522,38.987954],[33.726809,38.987882],[33.727614,38.987865],[33.72772,38.987879],[33.72771,38.987844],[33.72735,38.986395],[33.727041,38.986072],[33.726756,38.986128],[33.726402,38.985893],[33.726103,38.986121],[33.725933,38.985243],[33.726371,38.984896],[33.726141,38.984652],[33.726299,38.983836],[33.724137,38.984812],[33.723287,38.982852],[33.723326,38.981056],[33.724401,38.98045],[33.725084,38.980465],[33.725365,38.980609],[33.725392,38.980577],[33.727678,38.980959],[33.728248,38.981081],[33.728929,38.981046],[33.729388,38.980832],[33.729838,38.980399],[33.730577,38.979749],[33.729924,38.979233],[33.729704,38.979088],[33.729548,38.978917],[33.728285,38.979268],[33.727074,38.979608],[33.726054,38.979885],[33.72594,38.980174],[33.725613,38.980055],[33.725287,38.980021],[33.726056,38.979719],[33.727161,38.979404],[33.728618,38.978894],[33.731671,38.97402],[33.73178,38.973952],[33.731702,38.97397],[33.73182,38.973781],[33.731786,38.973737],[33.731256,38.973915],[33.730803,38.974047],[33.730543,38.974102],[33.73035,38.974111],[33.730002,38.974078],[33.729897,38.974066],[33.729729,38.974038],[33.729518,38.974004],[33.729109,38.973948],[33.729019,38.973927],[33.72961,38.973656],[33.730889,38.973013],[33.73126,38.97282],[33.731262,38.972769],[33.730983,38.972175],[33.730845,38.971794],[33.73073,38.971537],[33.730602,38.971245],[33.730447,38.970872],[33.73038,38.970644],[33.730243,38.970632],[33.730207,38.970534],[33.730185,38.970384],[33.729603,38.970285],[33.729633,38.970052],[33.72966,38.969888],[33.729701,38.96964],[33.729567,38.969624],[33.729421,38.969608],[33.729161,38.96963],[33.729111,38.969913],[33.728512,38.96986],[33.728447,38.969995],[33.728394,38.969906],[33.728207,38.96982],[33.728098,38.970145],[33.727796,38.970163],[33.727781,38.969995],[33.727822,38.969729],[33.725823,38.96773],[33.724901,38.967597],[33.72416,38.96663],[33.724128,38.966698],[33.724691,38.967433],[33.724339,38.967395],[33.723842,38.967443],[33.723929,38.967816],[33.723688,38.967932],[33.722645,38.967423],[33.72242,38.967418],[33.722289,38.967533],[33.717233,38.967159],[33.716108,38.967331],[33.714739,38.965934],[33.713445,38.965446],[33.711868,38.965151],[33.710381,38.963951],[33.710066,38.963303],[33.709638,38.962849],[33.707589,38.960635],[33.706566,38.960054],[33.704897,38.960027],[33.704807,38.960016],[33.702989,38.959782],[33.701417,38.959033],[33.700679,38.959063],[33.700055,38.95862],[33.699048,38.958134],[33.697021,38.957605],[33.696273,38.95735],[33.695932,38.956857],[33.695531,38.955194],[33.695966,38.954865],[33.696073,38.954711],[33.696333,38.953622],[33.696902,38.953088],[33.697517,38.952281],[33.696949,38.9519],[33.696519,38.95176],[33.696428,38.951504],[33.696316,38.950319],[33.699154,38.949208],[33.699799,38.949131],[33.700134,38.948503],[33.699738,38.947133],[33.700078,38.947038],[33.700354,38.946686],[33.701776,38.946566],[33.70263,38.946976],[33.703827,38.94527],[33.704805,38.944454],[33.70301,38.943578],[33.70248,38.943913],[33.700996,38.943768],[33.699288,38.943951],[33.699229,38.94416],[33.698645,38.943936],[33.697912,38.94377],[33.696557,38.943782],[33.694532,38.945486],[33.69191,38.945454],[33.690691,38.9432],[33.689926,38.941905],[33.689261,38.941102],[33.687876,38.940014],[33.68727,38.939852],[33.685404,38.939504],[33.684357,38.939871],[33.68247,38.940988],[33.682597,38.94126],[33.682179,38.941459],[33.681648,38.941615],[33.681386,38.941828],[33.681115,38.942121],[33.680766,38.94369],[33.678357,38.944737],[33.677188,38.946282],[33.675129,38.947461],[33.673654,38.948442],[33.671955,38.949266],[33.670257,38.950145],[33.667749,38.951089],[33.665166,38.949935],[33.664464,38.949425],[33.66428,38.949413],[33.664178,38.949964],[33.664188,38.949997],[33.66418,38.950042],[33.66431,38.950453],[33.664602,38.951764],[33.664436,38.951811],[33.66312,38.952027],[33.658297,38.949987],[33.658164,38.950394],[33.658182,38.950421],[33.658438,38.950785],[33.658406,38.950815],[33.658406,38.950815],[33.656456,38.952643],[33.65633,38.952711],[33.656242,38.953688],[33.657341,38.953921],[33.660187,38.958644],[33.660767,38.959128],[33.660657,38.959886],[33.663441,38.960581],[33.665901,38.961121],[33.668126,38.961532],[33.668595,38.961591],[33.668349,38.962347],[33.668038,38.963051],[33.667544,38.963796],[33.668585,38.964154],[33.669086,38.964886],[33.669707,38.964713],[33.67007,38.965199],[33.66971,38.965326],[33.670252,38.966014],[33.670974,38.966717],[33.672544,38.967869],[33.673241,38.968194],[33.674041,38.96846],[33.674372,38.969232],[33.674657,38.969359],[33.674938,38.969173],[33.675749,38.968468],[33.676371,38.968687],[33.676822,38.969421],[33.67678,38.96959],[33.676792,38.969628],[33.676782,38.969668],[33.676947,38.970187],[33.677103,38.970502],[33.676338,38.970815],[33.675237,38.970279],[33.675194,38.970319],[33.674265,38.970963],[33.674277,38.971139],[33.674222,38.971408],[33.674153,38.971747],[33.674393,38.97193],[33.67441,38.972167],[33.674608,38.972451],[33.674723,38.972904],[33.674919,38.973296],[33.675027,38.973264],[33.675289,38.973722],[33.676291,38.974954],[33.676443,38.975079],[33.676702,38.975376],[33.676887,38.975551],[33.677094,38.975705],[33.67771,38.97587],[33.678879,38.976073],[33.679573,38.976461],[33.679704,38.976703],[33.680202,38.97733],[33.680394,38.977741],[33.680544,38.978827],[33.681149,38.978817],[33.681557,38.97917],[33.681959,38.979383],[33.682286,38.979291],[33.682737,38.979007],[33.6833,38.97875],[33.683741,38.978806],[33.684678,38.978812],[33.684892,38.978675],[33.685117,38.978403],[33.687006,38.979066],[33.687652,38.97925],[33.689484,38.979587],[33.689924,38.979683],[33.690581,38.979805],[33.691013,38.979941],[33.691401,38.980037],[33.6933,38.980396],[33.69365,38.98049],[33.694108,38.980586],[33.695264,38.980908],[33.695338,38.98086],[33.695549,38.980281],[33.695347,38.980162],[33.695555,38.979426],[33.695772,38.979475],[33.69677,38.979741],[33.697276,38.979799],[33.697724,38.979742],[33.698157,38.979545],[33.69835,38.979505],[33.698562,38.979543],[33.698441,38.979961],[33.698401,38.980221],[33.70076,38.980837],[33.701518,38.98088],[33.701432,38.981395],[33.702351,38.981743],[33.702184,38.983181],[33.703088,38.983464],[33.704099,38.983684],[33.70274,38.984106],[33.70299,38.984932],[33.703149,38.985298],[33.703328,38.985865],[33.703685,38.986384],[33.70306,38.986676],[33.70283,38.987195],[33.703545,38.988189],[33.704099,38.989298],[33.705023,38.989338],[33.705588,38.994198],[33.705584,38.994221],[33.70559,38.994276],[33.704969,38.997701],[33.704856,39.000097],[33.707751,38.999066]]]]}},{"type":"Feature","properties":{"id":"TR-Y-06-011-M-0008","level":"yerlesim","type":"mahalle","parent_id":"TR-D-06-011","province_id":"TR-P-06","province_name":"Ankara","district_id":"TR-D-06-011","name":"İnebeyli","source_raw_name":"İnebeyli","source":"Kamu kaynak","source_only":false},"geometry":{"type":"MultiPolygon","coordinates":[[[[33.686373,39.123083],[33.689601,39.121225],[33.692934,39.119635],[33.696473,39.120023],[33.699002,39.119935],[33.701798,39.119531],[33.702329,39.118749],[33.703192,39.119469],[33.705801,39.119301],[33.706774,39.11962],[33.708128,39.120146],[33.709002,39.120635],[33.710367,39.121121],[33.711915,39.121369],[33.71322,39.121511],[33.714112,39.121521],[33.714925,39.121194],[33.716038,39.120454],[33.715603,39.119472],[33.714939,39.118747],[33.71397,39.118039],[33.713035,39.117381],[33.711607,39.116733],[33.70988,39.11602],[33.708229,39.115379],[33.706177,39.115677],[33.706172,39.115778],[33.706172,39.115782],[33.705499,39.115256],[33.704179,39.114554],[33.704173,39.114551],[33.70378,39.11428],[33.703976,39.114034],[33.703648,39.113152],[33.703536,39.112776],[33.703648,39.111989],[33.70368,39.111692],[33.703698,39.111516],[33.703563,39.110464],[33.703774,39.110253],[33.703751,39.110126],[33.704594,39.110302],[33.704733,39.109653],[33.704533,39.109098],[33.704432,39.107821],[33.704284,39.10714],[33.704244,39.107149],[33.704054,39.1069],[33.703557,39.106944],[33.703382,39.106963],[33.701868,39.106172],[33.702033,39.106041],[33.701299,39.105422],[33.701074,39.104464],[33.701119,39.104174],[33.701167,39.104082],[33.70121,39.103994],[33.701694,39.102781],[33.701914,39.102286],[33.702101,39.102035],[33.701717,39.101332],[33.701528,39.100952],[33.701468,39.100831],[33.700433,39.099242],[33.699881,39.099087],[33.699571,39.098421],[33.699393,39.098183],[33.698304,39.095894],[33.697734,39.095584],[33.697279,39.094796],[33.697194,39.094685],[33.696998,39.094581],[33.695934,39.093734],[33.695326,39.093108],[33.694817,39.092093],[33.694218,39.09093],[33.693872,39.090062],[33.693871,39.089391],[33.693302,39.089011],[33.693013,39.087538],[33.692789,39.08695],[33.693199,39.086837],[33.693163,39.086312],[33.692831,39.085973],[33.692037,39.086415],[33.691514,39.086162],[33.691646,39.085964],[33.691682,39.085741],[33.692059,39.085638],[33.692044,39.085536],[33.691161,39.085498],[33.691292,39.084968],[33.691115,39.084435],[33.690812,39.084458],[33.691037,39.083903],[33.691371,39.083112],[33.690952,39.0829],[33.690294,39.081825],[33.688836,39.080215],[33.688529,39.080039],[33.687992,39.07968],[33.686524,39.078386],[33.685531,39.077665],[33.68454,39.076692],[33.683144,39.076202],[33.684083,39.07584],[33.684169,39.075413],[33.682916,39.074531],[33.682214,39.073158],[33.681288,39.074465],[33.681112,39.072895],[33.678939,39.07126],[33.677009,39.069998],[33.673123,39.068633],[33.672483,39.068138],[33.671403,39.067524],[33.669459,39.065842],[33.669974,39.065261],[33.669171,39.06491],[33.667928,39.063635],[33.666811,39.063398],[33.657345,39.05981],[33.652111,39.05831],[33.650616,39.059848],[33.653364,39.061497],[33.65329,39.062306],[33.653641,39.063507],[33.654012,39.063559],[33.653947,39.063859],[33.654009,39.064122],[33.653553,39.064124],[33.653554,39.064319],[33.653118,39.064329],[33.653046,39.064209],[33.652548,39.06432],[33.651305,39.065669],[33.65037,39.06739],[33.65035,39.068346],[33.650172,39.068733],[33.650805,39.06819],[33.651591,39.068028],[33.652494,39.068074],[33.65267,39.068643],[33.652518,39.068806],[33.655239,39.069933],[33.657441,39.073064],[33.659423,39.074523],[33.659557,39.074863],[33.659961,39.074836],[33.660955,39.075898],[33.662227,39.076428],[33.662798,39.076517],[33.663941,39.077128],[33.664094,39.077232],[33.664471,39.077141],[33.665812,39.077691],[33.665839,39.077386],[33.664888,39.076749],[33.665074,39.076653],[33.666026,39.075418],[33.666772,39.07608],[33.667508,39.07694],[33.667846,39.077423],[33.668495,39.077879],[33.668444,39.078145],[33.668175,39.078421],[33.668477,39.078705],[33.668112,39.078921],[33.669032,39.079696],[33.668924,39.08062],[33.669071,39.081074],[33.669341,39.081097],[33.668694,39.082045],[33.668671,39.082702],[33.668817,39.083083],[33.668999,39.083249],[33.668821,39.083974],[33.669663,39.084318],[33.66914,39.084685],[33.669451,39.084671],[33.670173,39.08551],[33.670512,39.086556],[33.669925,39.087584],[33.669837,39.088267],[33.670359,39.088985],[33.671936,39.089982],[33.67192,39.090661],[33.672666,39.091514],[33.67313,39.091774],[33.673314,39.092036],[33.673471,39.092179],[33.673562,39.092507],[33.674075,39.093097],[33.67367,39.094083],[33.674103,39.094125],[33.674629,39.095173],[33.675307,39.097053],[33.673877,39.097563],[33.674187,39.098211],[33.673331,39.098517],[33.674012,39.099182],[33.674324,39.099617],[33.673977,39.099898],[33.674124,39.100125],[33.6736,39.100469],[33.673264,39.100861],[33.674655,39.101102],[33.675653,39.101091],[33.675661,39.101844],[33.673551,39.102245],[33.673384,39.101957],[33.673267,39.101436],[33.672348,39.10049],[33.671845,39.100734],[33.671511,39.10088],[33.671163,39.10113],[33.671357,39.101373],[33.672266,39.102091],[33.672754,39.1027],[33.672758,39.102871],[33.673498,39.103076],[33.674404,39.103055],[33.675528,39.103354],[33.676053,39.103493],[33.676086,39.104381],[33.67645,39.105458],[33.676653,39.105679],[33.675739,39.106312],[33.675671,39.106407],[33.676239,39.10745],[33.675102,39.107749],[33.673826,39.107923],[33.674212,39.109068],[33.672681,39.10954],[33.673153,39.110249],[33.673599,39.110943],[33.6716,39.111626],[33.670877,39.110679],[33.670077,39.110873],[33.669304,39.111175],[33.670785,39.113567],[33.671954,39.113151],[33.672264,39.114032],[33.673042,39.115117],[33.670718,39.115828],[33.671259,39.116275],[33.669967,39.116806],[33.671779,39.117805],[33.672494,39.11826],[33.674156,39.1187],[33.674947,39.119049],[33.676083,39.119943],[33.676993,39.120906],[33.677599,39.120952],[33.678049,39.121526],[33.678467,39.121593],[33.678955,39.121957],[33.679061,39.121923],[33.679364,39.122169],[33.680113,39.122569],[33.680683,39.122781],[33.680866,39.122967],[33.681987,39.123014],[33.682779,39.123374],[33.683109,39.123784],[33.683295,39.123958],[33.683776,39.12441],[33.683805,39.124787],[33.684087,39.124934],[33.684632,39.126104],[33.684799,39.126399],[33.684832,39.126335],[33.684825,39.126322],[33.685327,39.125347],[33.685208,39.125326],[33.686059,39.123918],[33.686048,39.123142],[33.686373,39.123083]]]]}},{"type":"Feature","properties":{"id":"TR-Y-06-011-M-0009","level":"yerlesim","type":"mahalle","parent_id":"TR-D-06-011","province_id":"TR-P-06","province_name":"Ankara","district_id":"TR-D-06-011","name":"Modern","source_raw_name":"Modern","source":"Kamu kaynak","source_only":false},"geometry":{"type":"MultiPolygon","coordinates":[[[[33.800794,39.070627],[33.800127,39.064656],[33.812891,39.061918],[33.81258,39.058076],[33.816872,39.054617],[33.819188,39.053198],[33.820651,39.05298],[33.822665,39.054212],[33.824094,39.0568],[33.826319,39.059018],[33.828318,39.059056],[33.827863,39.059995],[33.827498,39.06301],[33.831569,39.063501],[33.834982,39.064672],[33.841651,39.065091],[33.845393,39.065947],[33.851726,39.066057],[33.851725,39.066064],[33.851725,39.066065],[33.851725,39.066065],[33.851293,39.068814],[33.857287,39.068458],[33.862924,39.066183],[33.86756,39.06381],[33.869392,39.05564],[33.866027,39.052911],[33.863208,39.051218],[33.862241,39.048419],[33.862214,39.046185],[33.862455,39.044053],[33.863573,39.042902],[33.866098,39.042312],[33.868719,39.044215],[33.874152,39.041701],[33.874094,39.044516],[33.876361,39.044463],[33.881519,39.042584],[33.884537,39.03873],[33.885982,39.036885],[33.889064,39.031811],[33.888567,39.028904],[33.888567,39.028904],[33.888565,39.028892],[33.888244,39.029029],[33.887573,39.030657],[33.885129,39.032262],[33.877683,39.035796],[33.875156,39.037081],[33.873557,39.037474],[33.872739,39.037579],[33.87251,39.037551],[33.872365,39.037465],[33.8722,39.03726],[33.871805,39.036511],[33.870305,39.033411],[33.869894,39.03218],[33.869305,39.031077],[33.868925,39.031013],[33.867624,39.031605],[33.866457,39.031915],[33.86571,39.032035],[33.865532,39.03143],[33.865757,39.031337],[33.865794,39.030977],[33.865564,39.029608],[33.8654,39.02943],[33.86376,39.029813],[33.863356,39.028942],[33.863224,39.028611],[33.862789,39.02868],[33.862252,39.028839],[33.861831,39.029036],[33.861491,39.029212],[33.860694,39.027633],[33.860552,39.027505],[33.859497,39.027842],[33.858748,39.02794],[33.858148,39.028078],[33.857714,39.027077],[33.857595,39.027095],[33.856559,39.027425],[33.856079,39.027558],[33.855722,39.027736],[33.855791,39.027863],[33.853576,39.028833],[33.851863,39.029726],[33.852182,39.029946],[33.850762,39.031025],[33.849301,39.029555],[33.850189,39.028989],[33.850542,39.02909],[33.850836,39.02886],[33.852235,39.027786],[33.852318,39.027776],[33.851756,39.027377],[33.85008,39.027763],[33.849032,39.028516],[33.846943,39.02749],[33.846329,39.027203],[33.845105,39.026431],[33.845144,39.026387],[33.843872,39.025147],[33.843708,39.025011],[33.844811,39.024555],[33.844405,39.024085],[33.844019,39.023453],[33.843248,39.022254],[33.842149,39.020831],[33.841403,39.019962],[33.840993,39.019429],[33.842268,39.018756],[33.84212,39.017962],[33.842111,39.017841],[33.840707,39.017906],[33.840673,39.017285],[33.840504,39.016696],[33.840323,39.01622],[33.84022,39.016046],[33.840174,39.015972],[33.839099,39.016546],[33.837833,39.016728],[33.837411,39.01581],[33.836878,39.016232],[33.836804,39.016273],[33.836651,39.016343],[33.835303,39.016974],[33.834922,39.016478],[33.8346,39.016153],[33.835535,39.015247],[33.835771,39.014919],[33.835476,39.015259],[33.834908,39.015803],[33.834087,39.01655],[33.83327,39.017194],[33.832445,39.017807],[33.832373,39.017828],[33.831808,39.018178],[33.830931,39.018584],[33.83009,39.019096],[33.829563,39.01947],[33.829296,39.01962],[33.828238,39.020057],[33.827567,39.020399],[33.826022,39.021232],[33.825075,39.021753],[33.824619,39.021997],[33.824535,39.022045],[33.823933,39.022332],[33.823001,39.022713],[33.821946,39.023096],[33.820629,39.023604],[33.819108,39.024179],[33.818891,39.024263],[33.817437,39.024856],[33.817437,39.024856],[33.81529,39.025905],[33.814994,39.024989],[33.814726,39.024312],[33.814553,39.023369],[33.814532,39.023235],[33.814075,39.023335],[33.813545,39.023557],[33.813238,39.023678],[33.812075,39.024055],[33.810857,39.024451],[33.80998,39.024738],[33.809661,39.024836],[33.808459,39.025221],[33.807299,39.025638],[33.806969,39.025757],[33.806148,39.02605],[33.805262,39.026367],[33.805113,39.026413],[33.804271,39.026686],[33.802736,39.027229],[33.802029,39.027476],[33.801462,39.027671],[33.800852,39.02788],[33.800034,39.028206],[33.799937,39.028236],[33.800097,39.0288],[33.800318,39.029548],[33.800559,39.0303],[33.800917,39.031178],[33.801104,39.03177],[33.80125,39.032161],[33.801366,39.032559],[33.80186,39.033495],[33.801418,39.033854],[33.801089,39.034122],[33.800689,39.034389],[33.800417,39.034551],[33.800096,39.034736],[33.800075,39.034746],[33.799553,39.035034],[33.798734,39.035633],[33.798129,39.036098],[33.797476,39.036526],[33.796952,39.036876],[33.796376,39.037444],[33.795729,39.037945],[33.795114,39.038386],[33.794461,39.038831],[33.793863,39.039206],[33.793553,39.039389],[33.793251,39.039544],[33.791876,39.040157],[33.790721,39.040645],[33.790312,39.04091],[33.789964,39.041228],[33.78947,39.041744],[33.789219,39.041964],[33.787216,39.043736],[33.786534,39.044312],[33.786405,39.044407],[33.786016,39.044686],[33.785586,39.044979],[33.785006,39.045355],[33.784587,39.045701],[33.784546,39.04575],[33.784431,39.045857],[33.784124,39.046199],[33.78364,39.046857],[33.783002,39.047797],[33.782473,39.048459],[33.782256,39.048772],[33.782251,39.048777],[33.781863,39.049331],[33.781304,39.049912],[33.780808,39.05042],[33.780217,39.050928],[33.779833,39.051246],[33.779486,39.051476],[33.779035,39.051765],[33.778249,39.052224],[33.777777,39.052504],[33.777024,39.052894],[33.776479,39.053123],[33.776116,39.05327],[33.775383,39.053574],[33.774907,39.053812],[33.774707,39.053963],[33.774103,39.054413],[33.773696,39.054672],[33.773346,39.054863],[33.773106,39.054978],[33.773087,39.054981],[33.772884,39.055065],[33.772723,39.055129],[33.772223,39.055352],[33.771231,39.055756],[33.770873,39.0559],[33.769196,39.057083],[33.768886,39.058892],[33.766315,39.058959],[33.763959,39.060929],[33.764418,39.061828],[33.765954,39.061191],[33.76648,39.06229],[33.767474,39.062108],[33.767642,39.062784],[33.765462,39.063274],[33.766018,39.064097],[33.767652,39.063686],[33.767503,39.064789],[33.766605,39.06492],[33.767964,39.068695],[33.768341,39.068872],[33.769094,39.068666],[33.76952,39.069433],[33.769611,39.069477],[33.76955,39.069365],[33.769545,39.069356],[33.770996,39.070048],[33.776126,39.06991],[33.781579,39.068834],[33.78631,39.068751],[33.792663,39.070682],[33.800794,39.070627]]]]}},{"type":"Feature","properties":{"id":"TR-Y-06-011-M-0010","level":"yerlesim","type":"mahalle","parent_id":"TR-D-06-011","province_id":"TR-P-06","province_name":"Ankara","district_id":"TR-D-06-011","name":"Şerafettin Yılmaz","source_raw_name":"Şerafettin Yılmaz","source":"Kamu kaynak","source_only":false},"geometry":{"type":"MultiPolygon","coordinates":[[[[33.798668,39.023606],[33.799341,39.023382],[33.799536,39.023479],[33.801775,39.02257],[33.80174,39.022508],[33.802686,39.022184],[33.803855,39.021779],[33.80415,39.021683],[33.804538,39.021566],[33.805097,39.021395],[33.805316,39.021328],[33.805891,39.021165],[33.805891,39.021165],[33.806233,39.021042],[33.805794,39.020232],[33.805363,39.019374],[33.804949,39.018606],[33.804469,39.017734],[33.804178,39.01719],[33.803809,39.016541],[33.803494,39.015973],[33.803385,39.015841],[33.802311,39.015253],[33.801888,39.015025],[33.801803,39.014981],[33.801676,39.014904],[33.801616,39.014871],[33.801484,39.014802],[33.801158,39.014637],[33.800714,39.014419],[33.800525,39.014327],[33.799984,39.014067],[33.799645,39.013906],[33.799142,39.013773],[33.799589,39.011896],[33.799789,39.010173],[33.800032,39.009164],[33.795274,39.005008],[33.795616,39.004705],[33.798508,39.002553],[33.798351,39.002488],[33.797839,39.002265],[33.797306,39.001968],[33.797045,39.001752],[33.796903,39.0016],[33.796821,39.001465],[33.796764,39.001396],[33.796602,39.001003],[33.796415,39.000578],[33.796349,39.000331],[33.796303,39.000063],[33.796246,38.999845],[33.79612,38.999591],[33.795948,38.999311],[33.795624,38.998841],[33.795421,38.998485],[33.795188,38.998113],[33.79502,38.997853],[33.794777,38.997496],[33.794658,38.997261],[33.794581,38.997083],[33.793913,38.99696],[33.793513,38.99678],[33.793136,38.996524],[33.793101,38.996468],[33.793081,38.996455],[33.792662,38.995793],[33.790378,38.987781],[33.790375,38.987772],[33.786074,38.979379],[33.786099,38.979302],[33.7844,38.981613],[33.784023,38.981898],[33.783645,38.982434],[33.783478,38.98281],[33.783275,38.98309],[33.783228,38.983429],[33.783107,38.983672],[33.783112,38.98391],[33.782801,38.984528],[33.782512,38.984781],[33.782176,38.984887],[33.78196,38.984995],[33.781544,38.985046],[33.781507,38.984985],[33.781396,38.985204],[33.78137,38.98548],[33.78145,38.985781],[33.781392,38.986013],[33.781356,38.986265],[33.781046,38.986201],[33.78055,38.986169],[33.780416,38.986254],[33.78037,38.98634],[33.780227,38.986475],[33.780008,38.986569],[33.779688,38.986776],[33.779472,38.986853],[33.779443,38.987032],[33.779293,38.987025],[33.777663,38.986845],[33.777533,38.986895],[33.777533,38.986896],[33.777551,38.986956],[33.777659,38.987325],[33.777091,38.987517],[33.775898,38.987781],[33.775175,38.988273],[33.773584,38.988077],[33.771969,38.98826],[33.771533,38.988144],[33.768795,38.988002],[33.766736,38.988012],[33.763008,38.987977],[33.759303,38.988107],[33.759277,38.988184],[33.759063,38.988823],[33.758963,38.990474],[33.757873,38.992274],[33.758869,38.993986],[33.759501,38.99463],[33.759685,38.995531],[33.760311,38.995817],[33.760833,38.996285],[33.760402,38.996448],[33.760282,38.996706],[33.760517,38.997342],[33.760627,38.997508],[33.760862,38.99854],[33.760915,38.99993],[33.760399,39.000893],[33.760755,39.002384],[33.760678,39.002417],[33.760783,39.002973],[33.760947,39.003401],[33.761033,39.003586],[33.761271,39.004045],[33.760792,39.004236],[33.759961,39.004491],[33.759891,39.004564],[33.759832,39.004749],[33.760089,39.005097],[33.762065,39.004555],[33.762534,39.004347],[33.762614,39.004821],[33.763465,39.004705],[33.763756,39.004696],[33.764093,39.004643],[33.764431,39.004407],[33.764145,39.003917],[33.764159,39.003654],[33.764042,39.003149],[33.76409,39.003064],[33.763992,39.002736],[33.764219,39.002587],[33.764314,39.002401],[33.764437,39.001417],[33.764428,39.001232],[33.764593,39.00124],[33.764738,39.001313],[33.764925,39.001462],[33.76496,39.001821],[33.765521,39.002716],[33.76607,39.003422],[33.765954,39.003589],[33.76595,39.003682],[33.766612,39.004663],[33.766817,39.005723],[33.766826,39.005932],[33.766789,39.006238],[33.766672,39.006545],[33.764499,39.006766],[33.762702,39.007755],[33.762929,39.007993],[33.763764,39.008694],[33.763963,39.008934],[33.763998,39.009065],[33.763775,39.009427],[33.763862,39.010044],[33.763913,39.010184],[33.76425,39.01051],[33.764314,39.010825],[33.764648,39.011413],[33.764672,39.011577],[33.764767,39.011876],[33.765124,39.012762],[33.764614,39.012952],[33.763907,39.013173],[33.763553,39.013312],[33.761315,39.01434],[33.761264,39.014392],[33.761473,39.014544],[33.76164,39.014703],[33.762027,39.015079],[33.76303,39.015871],[33.764053,39.016533],[33.764893,39.017244],[33.766145,39.018215],[33.76746,39.01908],[33.767841,39.019094],[33.768227,39.01908],[33.768425,39.019142],[33.768866,39.019381],[33.769323,39.019689],[33.76999,39.019794],[33.769558,39.020044],[33.769624,39.020845],[33.76981,39.021487],[33.770127,39.021712],[33.771863,39.021053],[33.772382,39.021873],[33.772912,39.022418],[33.772938,39.022479],[33.773122,39.022347],[33.773229,39.02223],[33.773411,39.022075],[33.773771,39.02182],[33.774089,39.021638],[33.774527,39.021348],[33.775031,39.020946],[33.775572,39.020459],[33.775934,39.020119],[33.776335,39.020219],[33.776655,39.020199],[33.787201,39.015103],[33.788283,39.01484],[33.788964,39.014629],[33.789135,39.014589],[33.789339,39.014553],[33.789478,39.014525],[33.79005,39.01446],[33.791459,39.014361],[33.793262,39.014192],[33.794489,39.014091],[33.794597,39.014142],[33.794827,39.014289],[33.795038,39.014475],[33.795163,39.014665],[33.795262,39.014845],[33.795302,39.015021],[33.7954,39.015382],[33.795579,39.015884],[33.79577,39.016244],[33.795853,39.016553],[33.795845,39.01703],[33.795842,39.017287],[33.795841,39.017315],[33.79583,39.017829],[33.795885,39.018171],[33.795992,39.018456],[33.79627,39.019173],[33.796489,39.01971],[33.796628,39.020046],[33.796753,39.020286],[33.796904,39.020506],[33.797041,39.020666],[33.797386,39.02093],[33.797795,39.021214],[33.798063,39.021514],[33.798174,39.021684],[33.798287,39.02199],[33.798414,39.022361],[33.798463,39.022539],[33.798491,39.022634],[33.798513,39.02272],[33.798513,39.022841],[33.798499,39.023304],[33.798499,39.023305],[33.798499,39.023306],[33.798505,39.023571],[33.798505,39.023573],[33.798506,39.023605],[33.798668,39.023606]]]]}},{"type":"Feature","properties":{"id":"TR-Y-06-011-M-0011","level":"yerlesim","type":"mahalle","parent_id":"TR-D-06-011","province_id":"TR-P-06","province_name":"Ankara","district_id":"TR-D-06-011","name":"Solakuşağı","source_raw_name":"Solakuşağı","source":"Kamu kaynak","source_only":false},"geometry":{"type":"MultiPolygon","coordinates":[[[[33.742301,39.08921],[33.742742,39.088908],[33.743696,39.089251],[33.744146,39.089554],[33.744213,39.089087],[33.744237,39.089019],[33.744238,39.08901],[33.744648,39.087874],[33.744741,39.087662],[33.747573,39.085664],[33.748608,39.084577],[33.751611,39.083414],[33.753496,39.081771],[33.754849,39.081222],[33.760443,39.07586],[33.761813,39.074834],[33.764157,39.074613],[33.764721,39.073307],[33.765298,39.073149],[33.765983,39.072938],[33.766342,39.072803],[33.767319,39.071879],[33.768444,39.070269],[33.769849,39.069915],[33.769611,39.069477],[33.76952,39.069433],[33.769094,39.068666],[33.768341,39.068872],[33.767964,39.068695],[33.766605,39.06492],[33.767503,39.064789],[33.767652,39.063686],[33.766018,39.064097],[33.765462,39.063274],[33.767642,39.062784],[33.767474,39.062108],[33.76648,39.06229],[33.765954,39.061191],[33.764418,39.061828],[33.763959,39.060929],[33.766315,39.058959],[33.768886,39.058892],[33.769196,39.057083],[33.770873,39.0559],[33.771231,39.055756],[33.772223,39.055352],[33.772723,39.055129],[33.772884,39.055065],[33.773087,39.054981],[33.773106,39.054978],[33.772211,39.053785],[33.771498,39.053928],[33.770632,39.052246],[33.769479,39.052915],[33.768775,39.051806],[33.767886,39.052125],[33.767386,39.051311],[33.766481,39.050151],[33.765114,39.049638],[33.76476,39.045778],[33.764028,39.046183],[33.763867,39.046236],[33.763785,39.046033],[33.761306,39.046731],[33.761191,39.046555],[33.761618,39.04634],[33.760031,39.04536],[33.759159,39.04556],[33.75852,39.044227],[33.758382,39.044339],[33.757845,39.04456],[33.757373,39.043837],[33.758371,39.043395],[33.757825,39.042702],[33.756084,39.043322],[33.755722,39.042556],[33.75502,39.042894],[33.754756,39.04252],[33.754995,39.042416],[33.753771,39.040916],[33.753395,39.040793],[33.752199,39.040658],[33.751442,39.040344],[33.748814,39.039578],[33.749294,39.041007],[33.749443,39.041603],[33.750162,39.04277],[33.750738,39.043428],[33.752304,39.044749],[33.752258,39.045028],[33.752055,39.04532],[33.751567,39.045609],[33.750459,39.044965],[33.749839,39.044132],[33.749279,39.043091],[33.748392,39.043488],[33.748346,39.044289],[33.748115,39.044388],[33.747919,39.043563],[33.747803,39.043563],[33.747771,39.04344],[33.747438,39.043509],[33.747513,39.043732],[33.746803,39.043998],[33.746503,39.043371],[33.744836,39.040413],[33.744338,39.039125],[33.743184,39.039147],[33.741268,39.039562],[33.741168,39.039434],[33.742111,39.038951],[33.74024,39.037405],[33.740077,39.037551],[33.740086,39.037675],[33.740584,39.038451],[33.740756,39.038751],[33.740142,39.038984],[33.739634,39.038378],[33.73799,39.039143],[33.736792,39.037679],[33.736184,39.037446],[33.736127,39.037772],[33.735924,39.037701],[33.735826,39.0378],[33.735396,39.037662],[33.734839,39.038091],[33.733846,39.037478],[33.732557,39.036835],[33.732435,39.036801],[33.732914,39.035386],[33.733375,39.034348],[33.731639,39.034399],[33.731533,39.034337],[33.731187,39.034354],[33.730778,39.033773],[33.730169,39.034084],[33.729481,39.034796],[33.728735,39.035167],[33.728783,39.035486],[33.728838,39.036204],[33.729144,39.036784],[33.72954,39.03705],[33.730228,39.037952],[33.730146,39.037967],[33.72993,39.038356],[33.729829,39.038353],[33.72965,39.038067],[33.728873,39.038364],[33.728812,39.038114],[33.728568,39.038133],[33.72852,39.038056],[33.727472,39.038174],[33.727425,39.038179],[33.727597,39.038814],[33.726332,39.039109],[33.722952,39.034952],[33.721549,39.03369],[33.721055,39.034133],[33.720804,39.034036],[33.720286,39.034608],[33.719318,39.034112],[33.717847,39.034398],[33.716769,39.031884],[33.715718,39.030247],[33.714136,39.028561],[33.712202,39.026368],[33.711204,39.02426],[33.710442,39.022201],[33.71021,39.021982],[33.708926,39.019429],[33.706575,39.01745],[33.70556,39.015575],[33.702555,39.014306],[33.699963,39.013995],[33.6973,39.01391],[33.690333,39.013099],[33.688058,39.011879],[33.688799,39.011147],[33.685103,39.011665],[33.683539,39.01333],[33.682945,39.014382],[33.683827,39.015533],[33.683232,39.017217],[33.682729,39.018131],[33.682342,39.019123],[33.681833,39.020198],[33.680172,39.022251],[33.679336,39.023472],[33.6789,39.024225],[33.677457,39.026561],[33.676494,39.026962],[33.677462,39.026799],[33.676973,39.028403],[33.678273,39.028237],[33.679343,39.029216],[33.68186,39.029372],[33.682064,39.029915],[33.682081,39.030758],[33.68289,39.031234],[33.684172,39.03152],[33.684658,39.031868],[33.684809,39.031886],[33.685114,39.031639],[33.685761,39.031707],[33.685636,39.031285],[33.686787,39.031439],[33.686755,39.03183],[33.686108,39.031762],[33.68624,39.032215],[33.686989,39.032319],[33.687094,39.032563],[33.687651,39.033375],[33.687796,39.033615],[33.689041,39.034509],[33.689626,39.03453],[33.689895,39.034577],[33.690224,39.034649],[33.690705,39.034463],[33.690876,39.034607],[33.69132,39.0343],[33.691923,39.035087],[33.69228,39.035304],[33.692175,39.035457],[33.692401,39.03563],[33.692927,39.035847],[33.694067,39.036639],[33.693687,39.037634],[33.693581,39.038054],[33.693386,39.038193],[33.694433,39.03802],[33.694583,39.037922],[33.694843,39.038167],[33.69501,39.038332],[33.694891,39.038467],[33.69495,39.038569],[33.69507,39.038607],[33.695122,39.038486],[33.695219,39.038508],[33.695662,39.038239],[33.695998,39.038234],[33.696455,39.038447],[33.696665,39.038639],[33.696873,39.038883],[33.69734,39.03891],[33.697515,39.038914],[33.698531,39.039245],[33.70061,39.038999],[33.701961,39.039021],[33.702976,39.039993],[33.703717,39.04076],[33.705047,39.042031],[33.705284,39.042284],[33.705419,39.042201],[33.70552,39.042635],[33.706144,39.043273],[33.706774,39.043846],[33.706767,39.043963],[33.70691,39.044141],[33.706979,39.044181],[33.705303,39.045521],[33.70499,39.04565],[33.70483,39.046041],[33.704624,39.046232],[33.704447,39.046278],[33.704399,39.046987],[33.704748,39.046836],[33.705248,39.04711],[33.705593,39.047055],[33.706205,39.047352],[33.70645,39.047816],[33.706368,39.048149],[33.70579,39.048606],[33.705984,39.049403],[33.705735,39.049437],[33.705726,39.05058],[33.707185,39.050545],[33.707021,39.050889],[33.707088,39.05102],[33.707516,39.051253],[33.707937,39.051641],[33.707868,39.051878],[33.708863,39.052568],[33.707567,39.053045],[33.708956,39.052911],[33.708835,39.052799],[33.709885,39.052507],[33.710563,39.052585],[33.710379,39.053536],[33.710903,39.054209],[33.710243,39.053928],[33.710282,39.054195],[33.710909,39.055102],[33.711942,39.054865],[33.712274,39.055384],[33.71217,39.055778],[33.711908,39.056412],[33.711873,39.056876],[33.710976,39.05809],[33.710956,39.058379],[33.710729,39.058814],[33.7102,39.05916],[33.70992,39.059187],[33.709827,39.059226],[33.710236,39.059342],[33.710629,39.059084],[33.711662,39.058546],[33.712546,39.05794],[33.712811,39.057881],[33.712498,39.058426],[33.712413,39.058783],[33.71245,39.058988],[33.712735,39.059402],[33.712846,39.059864],[33.712731,39.060743],[33.712069,39.062345],[33.712325,39.062919],[33.711822,39.063722],[33.712746,39.064052],[33.713031,39.064002],[33.713419,39.063978],[33.713537,39.064065],[33.714823,39.063958],[33.715384,39.064072],[33.715884,39.064102],[33.716171,39.064131],[33.716343,39.064307],[33.717221,39.06454],[33.717577,39.064487],[33.717615,39.064542],[33.718031,39.064558],[33.718368,39.06455],[33.718939,39.064419],[33.718931,39.065009],[33.725202,39.066378],[33.728594,39.067327],[33.73604,39.068756],[33.736625,39.075507],[33.737768,39.076488],[33.738978,39.078033],[33.740681,39.079388],[33.739978,39.080095],[33.740468,39.080495],[33.740854,39.080637],[33.740748,39.080974],[33.740255,39.081053],[33.739898,39.08122],[33.739643,39.081544],[33.739105,39.081701],[33.739127,39.081812],[33.738817,39.082465],[33.738715,39.082818],[33.739415,39.083304],[33.739448,39.083797],[33.739904,39.085304],[33.739781,39.085833],[33.739076,39.085878],[33.738014,39.085773],[33.737852,39.086725],[33.737233,39.086858],[33.738098,39.088257],[33.737612,39.088485],[33.738171,39.089004],[33.739367,39.088835],[33.739907,39.089527],[33.740209,39.090153],[33.740428,39.0901],[33.741102,39.089985],[33.742765,39.08972],[33.742301,39.08921]]]]}},{"type":"Feature","properties":{"id":"TR-Y-06-011-M-0012","level":"yerlesim","type":"mahalle","parent_id":"TR-D-06-011","province_id":"TR-P-06","province_name":"Ankara","district_id":"TR-D-06-011","name":"Yeni","source_raw_name":"Yeni","source":"Kamu kaynak","source_only":false},"geometry":{"type":"MultiPolygon","coordinates":[[[[33.774907,39.053812],[33.775383,39.053574],[33.776116,39.05327],[33.776479,39.053123],[33.777024,39.052894],[33.777777,39.052504],[33.778249,39.052224],[33.779035,39.051765],[33.779486,39.051476],[33.779833,39.051246],[33.780217,39.050928],[33.780808,39.05042],[33.781304,39.049912],[33.781863,39.049331],[33.782251,39.048777],[33.782256,39.048772],[33.782473,39.048459],[33.783002,39.047797],[33.78364,39.046857],[33.784124,39.046199],[33.784431,39.045857],[33.784546,39.04575],[33.784587,39.045701],[33.785006,39.045355],[33.785586,39.044979],[33.786016,39.044686],[33.786405,39.044407],[33.786534,39.044312],[33.787216,39.043736],[33.789219,39.041964],[33.78947,39.041744],[33.789964,39.041228],[33.790312,39.04091],[33.790721,39.040645],[33.791876,39.040157],[33.793251,39.039544],[33.793553,39.039389],[33.793863,39.039206],[33.794461,39.038831],[33.795114,39.038386],[33.795729,39.037945],[33.796376,39.037444],[33.796952,39.036876],[33.797476,39.036526],[33.798129,39.036098],[33.798734,39.035633],[33.799553,39.035034],[33.800075,39.034746],[33.800096,39.034736],[33.800417,39.034551],[33.800689,39.034389],[33.801089,39.034122],[33.801418,39.033854],[33.80186,39.033495],[33.801366,39.032559],[33.80125,39.032161],[33.801104,39.03177],[33.800917,39.031178],[33.800559,39.0303],[33.800318,39.029548],[33.800097,39.0288],[33.799937,39.028236],[33.800034,39.028206],[33.800852,39.02788],[33.801462,39.027671],[33.802029,39.027476],[33.802736,39.027229],[33.804271,39.026686],[33.805113,39.026413],[33.805262,39.026367],[33.806148,39.02605],[33.806969,39.025757],[33.807299,39.025638],[33.808459,39.025221],[33.809661,39.024836],[33.80998,39.024738],[33.810857,39.024451],[33.812075,39.024055],[33.813238,39.023678],[33.813545,39.023557],[33.814075,39.023335],[33.814532,39.023235],[33.814553,39.023369],[33.814726,39.024312],[33.814994,39.024989],[33.81529,39.025905],[33.817437,39.024856],[33.817437,39.024856],[33.818891,39.024263],[33.819108,39.024179],[33.820629,39.023604],[33.821946,39.023096],[33.823001,39.022713],[33.823933,39.022332],[33.824535,39.022045],[33.824619,39.021997],[33.824527,39.021956],[33.824459,39.021921],[33.824402,39.021823],[33.824338,39.021604],[33.824227,39.021265],[33.824071,39.020927],[33.823917,39.020663],[33.823751,39.020456],[33.823516,39.020319],[33.823174,39.020244],[33.823072,39.020223],[33.822745,39.020122],[33.822355,39.019957],[33.822051,39.019852],[33.821743,39.019807],[33.82138,39.019816],[33.820683,39.019801],[33.819882,39.019811],[33.819882,39.019811],[33.819879,39.019811],[33.819267,39.019768],[33.819132,39.019762],[33.818785,39.0197],[33.818248,39.019567],[33.817174,39.019264],[33.815991,39.01897],[33.815903,39.019021],[33.813568,39.019775],[33.813567,39.019772],[33.813451,39.019737],[33.813449,39.019737],[33.813448,39.019737],[33.812665,39.019995],[33.812213,39.01914],[33.812018,39.019192],[33.81163,39.019307],[33.810581,39.019634],[33.810581,39.019634],[33.809704,39.019918],[33.809199,39.020089],[33.808672,39.020268],[33.808507,39.020324],[33.808506,39.020324],[33.807468,39.02065],[33.806931,39.020832],[33.806931,39.020832],[33.80669,39.020904],[33.806233,39.021042],[33.805891,39.021165],[33.805891,39.021165],[33.805316,39.021328],[33.805097,39.021395],[33.804538,39.021566],[33.80415,39.021683],[33.803855,39.021779],[33.802686,39.022184],[33.80174,39.022508],[33.801775,39.02257],[33.799536,39.023479],[33.799341,39.023382],[33.798668,39.023606],[33.798506,39.023605],[33.798505,39.023573],[33.798505,39.023571],[33.798499,39.023306],[33.798499,39.023305],[33.798499,39.023304],[33.798513,39.022841],[33.798513,39.02272],[33.798491,39.022634],[33.798463,39.022539],[33.798414,39.022361],[33.798287,39.02199],[33.798174,39.021684],[33.798063,39.021514],[33.797795,39.021214],[33.797386,39.02093],[33.797041,39.020666],[33.796904,39.020506],[33.796753,39.020286],[33.796628,39.020046],[33.796489,39.01971],[33.79627,39.019173],[33.795992,39.018456],[33.795885,39.018171],[33.79583,39.017829],[33.795841,39.017315],[33.795842,39.017287],[33.795845,39.01703],[33.795853,39.016553],[33.79577,39.016244],[33.795579,39.015884],[33.7954,39.015382],[33.795302,39.015021],[33.795262,39.014845],[33.795163,39.014665],[33.795038,39.014475],[33.794827,39.014289],[33.794597,39.014142],[33.794489,39.014091],[33.793262,39.014192],[33.791459,39.014361],[33.79005,39.01446],[33.789478,39.014525],[33.789339,39.014553],[33.789135,39.014589],[33.788964,39.014629],[33.788283,39.01484],[33.787201,39.015103],[33.776655,39.020199],[33.776335,39.020219],[33.775934,39.020119],[33.775572,39.020459],[33.775031,39.020946],[33.774527,39.021348],[33.774089,39.021638],[33.773771,39.02182],[33.773411,39.022075],[33.773229,39.02223],[33.773122,39.022347],[33.772905,39.022503],[33.772697,39.022639],[33.772419,39.022773],[33.77223,39.022831],[33.771997,39.022859],[33.771548,39.022902],[33.771302,39.022918],[33.771192,39.02301],[33.771131,39.023165],[33.771005,39.023464],[33.770862,39.023627],[33.770701,39.023839],[33.77048,39.024028],[33.770304,39.024205],[33.7703,39.024207],[33.770422,39.024351],[33.77078,39.024555],[33.771473,39.024868],[33.771796,39.024975],[33.771867,39.025404],[33.771763,39.025781],[33.771747,39.026325],[33.772359,39.026997],[33.772412,39.027286],[33.773207,39.027501],[33.772227,39.027976],[33.773074,39.029766],[33.772866,39.029855],[33.773099,39.030107],[33.771846,39.030151],[33.771816,39.030226],[33.77192,39.030504],[33.772552,39.031385],[33.770777,39.031625],[33.770696,39.031534],[33.770671,39.031464],[33.770196,39.031509],[33.770219,39.032303],[33.770297,39.032315],[33.770328,39.033311],[33.76983,39.033323],[33.769322,39.033283],[33.769341,39.03129],[33.769142,39.03124],[33.769135,39.03118],[33.767249,39.0313],[33.767268,39.030399],[33.765624,39.030416],[33.76552,39.029749],[33.765306,39.029207],[33.764761,39.029443],[33.763119,39.03006],[33.76268,39.030429],[33.760947,39.031095],[33.759871,39.031387],[33.759634,39.0313],[33.759993,39.032288],[33.760688,39.0333],[33.761037,39.033614],[33.761422,39.034123],[33.761361,39.034375],[33.761476,39.034551],[33.761561,39.034634],[33.762458,39.036131],[33.762304,39.036233],[33.761969,39.036377],[33.761385,39.036524],[33.760583,39.036599],[33.7599,39.036482],[33.75988,39.036477],[33.759316,39.036361],[33.75866,39.036283],[33.757962,39.036191],[33.757398,39.036098],[33.757061,39.03595],[33.756422,39.035786],[33.755664,39.035623],[33.755164,39.03554],[33.754602,39.035559],[33.754596,39.035559],[33.753404,39.035305],[33.753241,39.035257],[33.752803,39.035204],[33.752785,39.035701],[33.752918,39.03568],[33.752963,39.035673],[33.753519,39.036301],[33.754105,39.036763],[33.754764,39.037197],[33.753841,39.037652],[33.753874,39.038728],[33.753406,39.038823],[33.753367,39.038949],[33.752939,39.03905],[33.752789,39.038842],[33.752044,39.038997],[33.752264,39.03964],[33.752618,39.040372],[33.753391,39.040792],[33.753395,39.040793],[33.753771,39.040916],[33.754995,39.042416],[33.754756,39.04252],[33.75502,39.042894],[33.755722,39.042556],[33.756084,39.043322],[33.757825,39.042702],[33.758371,39.043395],[33.757373,39.043837],[33.757845,39.04456],[33.758382,39.044339],[33.75852,39.044227],[33.759159,39.04556],[33.760031,39.04536],[33.761618,39.04634],[33.761191,39.046555],[33.761306,39.046731],[33.763785,39.046033],[33.763867,39.046236],[33.764028,39.046183],[33.76476,39.045778],[33.765114,39.049638],[33.766481,39.050151],[33.767386,39.051311],[33.767886,39.052125],[33.768775,39.051806],[33.769479,39.052915],[33.770632,39.052246],[33.771498,39.053928],[33.772211,39.053785],[33.773106,39.054978],[33.773346,39.054863],[33.773696,39.054672],[33.774103,39.054413],[33.774707,39.053963],[33.774907,39.053812]]]]}},{"type":"Feature","properties":{"id":"TR-Y-06-011-M-0013","level":"yerlesim","type":"mahalle","parent_id":"TR-D-06-011","province_id":"TR-P-06","province_name":"Ankara","district_id":"TR-D-06-011","name":"Yusufuşağı","source_raw_name":"Yusufuşağı","source":"Kamu kaynak","source_only":false},"geometry":{"type":"MultiPolygon","coordinates":[[[[33.710569,39.107033],[33.711833,39.106021],[33.712995,39.105539],[33.713458,39.105468],[33.716448,39.105853],[33.718951,39.105721],[33.721968,39.103192],[33.722556,39.103001],[33.723019,39.103046],[33.723728,39.103099],[33.724403,39.103155],[33.725405,39.103308],[33.726708,39.103362],[33.728545,39.104],[33.729853,39.104017],[33.730549,39.104703],[33.733615,39.10442],[33.736293,39.103517],[33.736497,39.103738],[33.736452,39.103246],[33.736462,39.102097],[33.735922,39.100943],[33.734715,39.098572],[33.735601,39.098484],[33.735185,39.097528],[33.735236,39.097157],[33.735007,39.096813],[33.736495,39.0967],[33.735781,39.095057],[33.735125,39.09435],[33.734765,39.093857],[33.734543,39.093384],[33.734126,39.09314],[33.734948,39.092669],[33.734986,39.092571],[33.735211,39.092406],[33.734511,39.09182],[33.734764,39.09163],[33.734126,39.09108],[33.733768,39.091267],[33.733422,39.091531],[33.732537,39.090736],[33.732039,39.090212],[33.731976,39.090151],[33.731754,39.089841],[33.732366,39.089565],[33.733006,39.089328],[33.733217,39.089208],[33.733037,39.089072],[33.734492,39.088242],[33.734301,39.087928],[33.734229,39.087917],[33.733938,39.087475],[33.73372,39.087075],[33.73349,39.086674],[33.732662,39.087016],[33.732213,39.086737],[33.732421,39.086554],[33.731627,39.085939],[33.732715,39.085328],[33.732821,39.084947],[33.73283,39.084423],[33.732318,39.084431],[33.73236,39.083868],[33.732543,39.083417],[33.735905,39.082173],[33.734805,39.080865],[33.731481,39.081153],[33.729971,39.081244],[33.729953,39.080522],[33.729936,39.080302],[33.72999,39.080107],[33.730529,39.080108],[33.730765,39.079698],[33.730118,39.079302],[33.729402,39.078791],[33.729142,39.078519],[33.728903,39.078495],[33.728882,39.078481],[33.728775,39.078378],[33.726756,39.079781],[33.725907,39.078742],[33.725279,39.077619],[33.725264,39.077575],[33.72499,39.07758],[33.724569,39.076701],[33.724239,39.076135],[33.723822,39.075713],[33.72372,39.075751],[33.7236,39.075623],[33.723228,39.075227],[33.722831,39.074865],[33.722653,39.074715],[33.721459,39.075247],[33.720444,39.075493],[33.720177,39.075537],[33.7197,39.075732],[33.719081,39.075224],[33.719118,39.075192],[33.718929,39.07495],[33.719126,39.074787],[33.718623,39.074151],[33.71853,39.074049],[33.717919,39.074227],[33.717684,39.073972],[33.717125,39.074138],[33.716762,39.074336],[33.716062,39.074642],[33.71548,39.074804],[33.715317,39.074795],[33.714619,39.073358],[33.71368,39.073515],[33.714025,39.074332],[33.713274,39.074518],[33.712921,39.073925],[33.712497,39.073378],[33.71179,39.073672],[33.711552,39.073268],[33.711005,39.073236],[33.710793,39.07233],[33.710693,39.07172],[33.710485,39.071387],[33.709961,39.070881],[33.709296,39.071331],[33.708711,39.070832],[33.709292,39.070426],[33.708551,39.069985],[33.708308,39.069833],[33.708165,39.069862],[33.707356,39.069184],[33.707497,39.068986],[33.707434,39.068928],[33.705444,39.067796],[33.705227,39.067787],[33.704682,39.068181],[33.703991,39.068388],[33.702828,39.067498],[33.702726,39.067441],[33.702225,39.06814],[33.701686,39.068732],[33.7006,39.067819],[33.701181,39.067508],[33.700795,39.067004],[33.700679,39.066757],[33.699272,39.067253],[33.698676,39.066454],[33.697959,39.066766],[33.697277,39.065389],[33.697655,39.065245],[33.699121,39.064801],[33.6987,39.063791],[33.698455,39.063559],[33.698077,39.063706],[33.697838,39.063423],[33.697501,39.06352],[33.697436,39.063363],[33.697175,39.063415],[33.697132,39.063344],[33.696399,39.063439],[33.696272,39.063318],[33.695616,39.063295],[33.695605,39.063142],[33.694791,39.06279],[33.69461,39.062244],[33.694632,39.062138],[33.694797,39.06182],[33.694884,39.061662],[33.694348,39.061211],[33.694228,39.06129],[33.694021,39.061146],[33.693639,39.061008],[33.693356,39.060729],[33.693275,39.060692],[33.692553,39.06022],[33.692035,39.06023],[33.69146,39.060525],[33.691422,39.060759],[33.691258,39.060744],[33.690858,39.060812],[33.690227,39.06078],[33.690046,39.060783],[33.689752,39.06101],[33.689065,39.061188],[33.68831,39.061455],[33.688085,39.060839],[33.688155,39.060308],[33.687932,39.060143],[33.687693,39.060142],[33.687684,39.059849],[33.687479,39.059522],[33.687683,39.059408],[33.68736,39.059132],[33.687064,39.059011],[33.687048,39.058869],[33.686616,39.058789],[33.686273,39.058243],[33.686261,39.057711],[33.684614,39.057997],[33.683324,39.057883],[33.683121,39.058211],[33.682768,39.058324],[33.682166,39.058392],[33.681955,39.058446],[33.681743,39.058228],[33.68133,39.058003],[33.681228,39.058371],[33.681351,39.058917],[33.68066,39.05906],[33.680023,39.058606],[33.679807,39.058413],[33.679732,39.058336],[33.679457,39.057945],[33.679223,39.057958],[33.679067,39.057698],[33.678662,39.057641],[33.678688,39.057382],[33.678609,39.056993],[33.678656,39.056684],[33.679372,39.056806],[33.679478,39.056889],[33.679524,39.056816],[33.679521,39.056689],[33.679519,39.056581],[33.679487,39.056494],[33.679473,39.05609],[33.679432,39.055718],[33.678517,39.05564],[33.678769,39.055273],[33.678626,39.055195],[33.678287,39.054927],[33.678001,39.054465],[33.677918,39.054459],[33.677524,39.054404],[33.677367,39.054347],[33.676639,39.053626],[33.676379,39.053278],[33.676204,39.053392],[33.675803,39.053073],[33.675803,39.053195],[33.675771,39.053153],[33.675562,39.053325],[33.675306,39.052948],[33.675455,39.052828],[33.675392,39.052736],[33.675181,39.052567],[33.675328,39.052541],[33.675506,39.052461],[33.675319,39.051966],[33.674536,39.052042],[33.674144,39.051921],[33.67411,39.051708],[33.673635,39.05155],[33.67388,39.05132],[33.674193,39.050915],[33.674405,39.050195],[33.670688,39.0497],[33.670473,39.047689],[33.669602,39.047487],[33.668321,39.048075],[33.667769,39.048157],[33.666762,39.048653],[33.665665,39.048961],[33.665631,39.049577],[33.664646,39.04848],[33.666355,39.046367],[33.669658,39.045409],[33.668263,39.043551],[33.667961,39.041671],[33.668007,39.041645],[33.66795,39.041598],[33.667096,39.042089],[33.662001,39.044037],[33.65667,39.046486],[33.646718,39.054814],[33.646487,39.055118],[33.647648,39.060212],[33.650616,39.059848],[33.652111,39.05831],[33.657345,39.05981],[33.666811,39.063398],[33.667928,39.063635],[33.669171,39.06491],[33.669974,39.065261],[33.669459,39.065842],[33.671403,39.067524],[33.672483,39.068138],[33.673123,39.068633],[33.677009,39.069998],[33.678939,39.07126],[33.681112,39.072895],[33.681288,39.074465],[33.682214,39.073158],[33.682916,39.074531],[33.684169,39.075413],[33.684083,39.07584],[33.683144,39.076202],[33.68454,39.076692],[33.685531,39.077665],[33.686524,39.078386],[33.687992,39.07968],[33.688529,39.080039],[33.688836,39.080215],[33.690294,39.081825],[33.690952,39.0829],[33.691371,39.083112],[33.691037,39.083903],[33.690812,39.084458],[33.691115,39.084435],[33.691292,39.084968],[33.691161,39.085498],[33.692044,39.085536],[33.692059,39.085638],[33.691682,39.085741],[33.691646,39.085964],[33.691514,39.086162],[33.692037,39.086415],[33.692831,39.085973],[33.693163,39.086312],[33.693199,39.086837],[33.692789,39.08695],[33.693013,39.087538],[33.693302,39.089011],[33.693871,39.089391],[33.693872,39.090062],[33.694218,39.09093],[33.694817,39.092093],[33.695326,39.093108],[33.695934,39.093734],[33.696998,39.094581],[33.697194,39.094685],[33.697279,39.094796],[33.697734,39.095584],[33.698304,39.095894],[33.699393,39.098183],[33.699571,39.098421],[33.699881,39.099087],[33.700433,39.099242],[33.701468,39.100831],[33.701528,39.100952],[33.701717,39.101332],[33.702101,39.102035],[33.701914,39.102286],[33.701694,39.102781],[33.70121,39.103994],[33.701167,39.104082],[33.701119,39.104174],[33.701074,39.104464],[33.701299,39.105422],[33.702033,39.106041],[33.701868,39.106172],[33.703382,39.106963],[33.703557,39.106944],[33.704054,39.1069],[33.704244,39.107149],[33.704284,39.10714],[33.70427,39.107072],[33.704445,39.107034],[33.705095,39.107229],[33.705777,39.107728],[33.707192,39.109063],[33.710569,39.107033]]]]}}]}