{"type":"FeatureCollection","name":"turkiye_map.dist.mahalle_geometrileri_by_district.TR-D-17-004","features":[{"type":"Feature","properties":{"id":"TR-Y-17-004-M-0001","level":"yerlesim","type":"mahalle","parent_id":"TR-D-17-004","province_id":"TR-P-17","district_id":"TR-D-17-004","name":"Alaybey","source_raw_name":"Alaybey","source":"Kullanıcı tarafından sağlanan KML","source_label":"Kullanıcı tarafından sağlanan KML","source_name":"Canakkale Mahalle KML - kullanici tarafindan saglandi"},"geometry":{"type":"Polygon","coordinates":[[[26.07414,39.836779],[26.074473,39.836485],[26.074985,39.836308],[26.075686,39.836053],[26.076777,39.835594],[26.07679,39.835541],[26.076754,39.835432],[26.076606,39.835459],[26.076472,39.835529],[26.076346,39.835643],[26.076017,39.835768],[26.075871,39.835681],[26.075271,39.835894],[26.074466,39.836175],[26.074071,39.835945],[26.073755,39.835863],[26.073749,39.835819],[26.073685,39.835817],[26.073683,39.835805],[26.073455,39.835778],[26.073406,39.835694],[26.073376,39.835669],[26.073329,39.835639],[26.073279,39.835625],[26.07327,39.835403],[26.073203,39.835384],[26.073171,39.835273],[26.07305,39.835279],[26.072875,39.835039],[26.072844,39.835014],[26.072833,39.835009],[26.072811,39.835015],[26.072767,39.834909],[26.073064,39.834841],[26.073042,39.83478],[26.07272,39.834849],[26.072691,39.834831],[26.072649,39.83472],[26.073036,39.834625],[26.073131,39.834643],[26.073186,39.834516],[26.073915,39.83469],[26.073938,39.834619],[26.073213,39.834444],[26.07326,39.834312],[26.072757,39.834171],[26.072705,39.834186],[26.072737,39.834276],[26.072408,39.834385],[26.072425,39.834552],[26.071989,39.834613],[26.071971,39.834573],[26.072062,39.834567],[26.072047,39.834468],[26.071999,39.834466],[26.071998,39.834337],[26.072344,39.834318],[26.072344,39.834285],[26.072147,39.834283],[26.07213,39.834149],[26.072194,39.834041],[26.072367,39.833902],[26.072682,39.83405],[26.072822,39.834001],[26.073041,39.833845],[26.07361,39.833783],[26.073591,39.833634],[26.073945,39.83362],[26.074005,39.833656],[26.074098,39.833692],[26.074162,39.833705],[26.074119,39.833793],[26.074143,39.833796],[26.07418,39.833726],[26.074474,39.833762],[26.074579,39.833816],[26.074846,39.834239],[26.074955,39.834179],[26.07471,39.83367],[26.074731,39.833488],[26.07478,39.833374],[26.074998,39.833202],[26.075129,39.833089],[26.075501,39.832944],[26.075692,39.832847],[26.075845,39.832708],[26.075845,39.832598],[26.075686,39.832495],[26.075587,39.8324],[26.075076,39.832131],[26.074505,39.831962],[26.07417,39.831735],[26.073862,39.831185],[26.073864,39.830894],[26.074026,39.830622],[26.074393,39.830212],[26.074709,39.830188],[26.075166,39.830241],[26.075487,39.830233],[26.075705,39.830233],[26.075769,39.830168],[26.075769,39.83],[26.075762,39.829943],[26.075731,39.829866],[26.075227,39.829553],[26.07501,39.829428],[26.07497,39.829339],[26.074884,39.829251],[26.074665,39.829131],[26.074621,39.829149],[26.074595,39.829135],[26.074567,39.829133],[26.074535,39.829142],[26.074477,39.828972],[26.074531,39.828845],[26.074542,39.828719],[26.074645,39.828532],[26.074855,39.828376],[26.075063,39.828316],[26.075344,39.82835],[26.075845,39.828391],[26.076353,39.828427],[26.076517,39.828431],[26.076572,39.828459],[26.076725,39.828614],[26.076817,39.828684],[26.076851,39.828675],[26.076882,39.828634],[26.077047,39.828681],[26.077209,39.828693],[26.07749,39.828693],[26.077515,39.82863],[26.077528,39.828492],[26.077523,39.828213],[26.077537,39.827816],[26.077528,39.827751],[26.077496,39.827697],[26.077496,39.827664],[26.077521,39.827595],[26.077568,39.827585],[26.077693,39.827593],[26.077714,39.827574],[26.077679,39.827499],[26.077599,39.82742],[26.077421,39.827436],[26.077356,39.827436],[26.077259,39.827451],[26.077137,39.827413],[26.077029,39.827355],[26.076956,39.82725],[26.076937,39.827167],[26.076844,39.827123],[26.076817,39.82709],[26.076777,39.82703],[26.076715,39.827007],[26.076616,39.826975],[26.076596,39.826953],[26.076566,39.826871],[26.076506,39.826844],[26.076455,39.826797],[26.076387,39.826764],[26.076327,39.826752],[26.07625,39.826717],[26.076197,39.826658],[26.076168,39.826558],[26.076184,39.826419],[26.076235,39.82632],[26.076314,39.82621],[26.076359,39.826181],[26.076456,39.826203],[26.076551,39.826183],[26.076723,39.826127],[26.076821,39.826091],[26.076856,39.826036],[26.076873,39.825967],[26.076867,39.825915],[26.076812,39.825884],[26.07677,39.825885],[26.07672,39.82588],[26.07671,39.825853],[26.076723,39.825817],[26.076742,39.825793],[26.076812,39.825779],[26.076812,39.825759],[26.076799,39.825748],[26.076752,39.82573],[26.076741,39.825709],[26.076761,39.825687],[26.076796,39.825657],[26.076784,39.825574],[26.076704,39.825491],[26.076691,39.825459],[26.076697,39.825422],[26.076736,39.825382],[26.07684,39.825279],[26.076917,39.825226],[26.077042,39.825198],[26.077188,39.825181],[26.077335,39.825154],[26.077409,39.82511],[26.077423,39.825054],[26.077473,39.825025],[26.077556,39.825011],[26.077902,39.824933],[26.077979,39.824891],[26.078092,39.824837],[26.078296,39.824817],[26.078315,39.824791],[26.078323,39.824733],[26.078317,39.824676],[26.078337,39.824633],[26.078394,39.824584],[26.078526,39.824532],[26.078568,39.824559],[26.07862,39.82454],[26.078683,39.824513],[26.07871,39.8245],[26.078759,39.824515],[26.078789,39.824515],[26.078784,39.824484],[26.078801,39.824447],[26.078961,39.824379],[26.078997,39.824406],[26.079065,39.824448],[26.079097,39.824443],[26.079122,39.824425],[26.079153,39.824288],[26.079134,39.823985],[26.079105,39.823848],[26.079125,39.823748],[26.079279,39.823536],[26.079302,39.82346],[26.079258,39.82342],[26.079171,39.823382],[26.079144,39.823367],[26.079141,39.823356],[26.079162,39.82334],[26.079296,39.823326],[26.079463,39.823353],[26.07952,39.823324],[26.079539,39.823229],[26.079735,39.823006],[26.07977,39.822896],[26.079795,39.822783],[26.079858,39.822584],[26.079853,39.82253],[26.079798,39.822465],[26.079644,39.822348],[26.079525,39.822331],[26.079476,39.822291],[26.079496,39.822158],[26.079541,39.822032],[26.079606,39.821938],[26.079754,39.821792],[26.079806,39.821711],[26.079829,39.821637],[26.079818,39.821581],[26.079765,39.821413],[26.079712,39.821363],[26.079503,39.821312],[26.079258,39.821291],[26.078957,39.821205],[26.07889,39.821163],[26.078853,39.821152],[26.07881,39.821165],[26.078745,39.821234],[26.078638,39.821299],[26.078581,39.821363],[26.078535,39.821436],[26.078535,39.821524],[26.078543,39.821611],[26.078581,39.821699],[26.078638,39.821764],[26.078695,39.821852],[26.078753,39.821924],[26.078802,39.822004],[26.078707,39.822252],[26.078623,39.822435],[26.078184,39.822592],[26.077444,39.822714],[26.076487,39.822652],[26.075863,39.822485],[26.075261,39.822165],[26.07439,39.821506],[26.073906,39.820901],[26.073716,39.820581],[26.07356,39.820212],[26.073487,39.819481],[26.073613,39.818982],[26.07375,39.818685],[26.073834,39.818623],[26.073895,39.818613],[26.073915,39.818585],[26.073908,39.818562],[26.073895,39.818533],[26.073902,39.818513],[26.073947,39.818493],[26.074067,39.818484],[26.074082,39.818472],[26.074075,39.818466],[26.074018,39.818449],[26.074007,39.818427],[26.07401,39.818405],[26.074106,39.818371],[26.074108,39.818349],[26.0741,39.818325],[26.074082,39.818251],[26.07411,39.818132],[26.074212,39.817988],[26.074332,39.817833],[26.074555,39.817622],[26.074904,39.817417],[26.074959,39.817408],[26.07501,39.817413],[26.075099,39.817446],[26.075141,39.817461],[26.07518,39.817452],[26.075217,39.817438],[26.075256,39.81745],[26.075305,39.81745],[26.075349,39.817423],[26.075383,39.817423],[26.075427,39.817426],[26.075537,39.817386],[26.075609,39.817375],[26.07573,39.817409],[26.075789,39.817447],[26.07584,39.817477],[26.075925,39.817511],[26.075988,39.817524],[26.076085,39.817526],[26.076141,39.817532],[26.076201,39.817551],[26.076239,39.817538],[26.076251,39.81751],[26.076273,39.817488],[26.07634,39.817478],[26.076382,39.817469],[26.07638,39.817433],[26.07637,39.817389],[26.076295,39.817324],[26.076225,39.817271],[26.076079,39.817274],[26.076024,39.817286],[26.075974,39.817259],[26.075876,39.817252],[26.075803,39.817264],[26.075684,39.817235],[26.075512,39.817143],[26.075345,39.817017],[26.075258,39.816912],[26.075212,39.816779],[26.075242,39.816578],[26.075263,39.816384],[26.075457,39.816119],[26.075595,39.816013],[26.075715,39.815946],[26.075816,39.815945],[26.075888,39.815989],[26.076078,39.815989],[26.076174,39.816008],[26.076258,39.816046],[26.076299,39.816034],[26.076368,39.815975],[26.076545,39.815878],[26.076624,39.81582],[26.07665,39.815741],[26.076635,39.815703],[26.07657,39.815673],[26.076513,39.815657],[26.076353,39.815657],[26.076198,39.815692],[26.076015,39.815678],[26.075904,39.815706],[26.075712,39.815742],[26.075675,39.815755],[26.075636,39.81579],[26.075601,39.81581],[26.075535,39.815831],[26.075368,39.815843],[26.075194,39.815806],[26.075008,39.815739],[26.074843,39.81563],[26.074518,39.815395],[26.074111,39.814896],[26.073768,39.814178],[26.073643,39.813863],[26.073609,39.813563],[26.073596,39.813413],[26.073587,39.813353],[26.073545,39.813331],[26.0735,39.813291],[26.073506,39.81319],[26.073522,39.813081],[26.073758,39.812744],[26.073967,39.812434],[26.074373,39.811961],[26.07451,39.811869],[26.074566,39.811811],[26.074609,39.81177],[26.074659,39.81167],[26.074739,39.811593],[26.075021,39.811386],[26.075192,39.811192],[26.075363,39.810952],[26.075508,39.810807],[26.075649,39.810694],[26.075797,39.810615],[26.076054,39.810494],[26.076352,39.810422],[26.076439,39.81042],[26.076572,39.810392],[26.07664,39.81033],[26.076726,39.810183],[26.076821,39.809978],[26.076866,39.809752],[26.07689,39.809641],[26.076857,39.809491],[26.076806,39.809318],[26.076779,39.809204],[26.076815,39.809159],[26.076747,39.808984],[26.076766,39.808883],[26.076937,39.808597],[26.077065,39.808422],[26.077263,39.808205],[26.077636,39.807868],[26.077989,39.807685],[26.078138,39.807634],[26.078374,39.807504],[26.078741,39.807191],[26.078835,39.807129],[26.078997,39.807048],[26.079101,39.806968],[26.079145,39.806923],[26.079274,39.806856],[26.079538,39.806769],[26.079648,39.806704],[26.079726,39.806645],[26.079797,39.806545],[26.079868,39.806403],[26.079905,39.806231],[26.079793,39.805916],[26.079773,39.805761],[26.079685,39.805653],[26.079534,39.805581],[26.079343,39.80551],[26.079134,39.805559],[26.078535,39.805539],[26.078278,39.805447],[26.077966,39.805168],[26.077661,39.804808],[26.077604,39.804619],[26.07753,39.804494],[26.07745,39.804328],[26.077453,39.804023],[26.077527,39.803663],[26.077618,39.803392],[26.077741,39.803249],[26.077815,39.803123],[26.077892,39.802949],[26.077912,39.802672],[26.077915,39.802555],[26.078098,39.802355],[26.078523,39.80199],[26.079148,39.801627],[26.079353,39.801576],[26.079469,39.801576],[26.079543,39.801627],[26.079553,39.801689],[26.079573,39.801737],[26.07961,39.801732],[26.079626,39.801721],[26.079648,39.801718],[26.079659,39.801727],[26.07967,39.801828],[26.079705,39.801868],[26.079755,39.801865],[26.079808,39.801834],[26.079856,39.801794],[26.079882,39.801779],[26.079908,39.801772],[26.079919,39.801782],[26.07992,39.801795],[26.079936,39.801838],[26.080023,39.801913],[26.080059,39.801935],[26.08013,39.801957],[26.080326,39.801977],[26.080775,39.801978],[26.080847,39.801959],[26.080953,39.801883],[26.081068,39.801778],[26.081137,39.801569],[26.081138,39.801252],[26.081124,39.80115],[26.081094,39.8011],[26.08104,39.801066],[26.080988,39.801018],[26.080965,39.800984],[26.080965,39.800947],[26.08099,39.800917],[26.081025,39.80089],[26.081025,39.800837],[26.081017,39.800766],[26.08103,39.800714],[26.081075,39.800692],[26.081154,39.800696],[26.081232,39.800725],[26.081305,39.800794],[26.081351,39.800834],[26.081385,39.800838],[26.081426,39.800835],[26.081472,39.800814],[26.081534,39.800819],[26.081579,39.800834],[26.081686,39.800898],[26.08176,39.80095],[26.081804,39.800963],[26.081834,39.800944],[26.081852,39.800918],[26.081857,39.80086],[26.081863,39.800833],[26.081884,39.800806],[26.081947,39.800814],[26.082066,39.800928],[26.082198,39.800931],[26.082266,39.800945],[26.082314,39.800966],[26.08233,39.800982],[26.082357,39.801023],[26.082388,39.801049],[26.082412,39.801049],[26.082414,39.801014],[26.082427,39.800983],[26.082465,39.800989],[26.082502,39.801006],[26.082515,39.801016],[26.082596,39.801044],[26.082651,39.801101],[26.082694,39.80121],[26.082716,39.801239],[26.082813,39.801285],[26.082868,39.801305],[26.082908,39.801306],[26.082943,39.801291],[26.082974,39.801226],[26.082989,39.801137],[26.083008,39.801049],[26.082981,39.800974],[26.082828,39.800843],[26.082668,39.800696],[26.082286,39.8004],[26.081735,39.800103],[26.081579,39.800066],[26.081513,39.800046],[26.081414,39.799963],[26.081374,39.799878],[26.081376,39.799828],[26.081429,39.799769],[26.081426,39.79971],[26.081385,39.799629],[26.081281,39.79949],[26.081246,39.799408],[26.081239,39.7993],[26.081239,39.799188],[26.081222,39.799078],[26.0812,39.798999],[26.081189,39.798913],[26.081193,39.798872],[26.081224,39.798838],[26.081272,39.798839],[26.081306,39.798847],[26.081384,39.798889],[26.081418,39.798891],[26.081434,39.798872],[26.081426,39.798832],[26.081384,39.798723],[26.081358,39.798671],[26.081311,39.798659],[26.081262,39.798655],[26.081213,39.7987],[26.08122,39.798762],[26.081213,39.798793],[26.081186,39.798803],[26.081131,39.798781],[26.08109,39.798717],[26.081084,39.798655],[26.081141,39.798551],[26.081145,39.798495],[26.081106,39.798405],[26.081024,39.798326],[26.080768,39.798374],[26.080698,39.798352],[26.080681,39.798309],[26.080771,39.798268],[26.080763,39.798241],[26.080714,39.79823],[26.080589,39.79815],[26.080551,39.798122],[26.080548,39.798078],[26.080563,39.798042],[26.08057,39.797982],[26.080551,39.797818],[26.080533,39.797761],[26.080483,39.797692],[26.080363,39.797648],[26.080283,39.797629],[26.080156,39.797637],[26.080086,39.797694],[26.079983,39.797717],[26.079898,39.797713],[26.07982,39.797699],[26.079795,39.797685],[26.079683,39.79772],[26.079565,39.797754],[26.079458,39.79777],[26.07937,39.797812],[26.079306,39.797895],[26.079199,39.797937],[26.078966,39.79797],[26.078801,39.797929],[26.078706,39.79783],[26.078545,39.797679],[26.078433,39.797643],[26.078316,39.797594],[26.078281,39.797559],[26.078268,39.797499],[26.078307,39.797437],[26.078398,39.797406],[26.078441,39.797365],[26.078479,39.797254],[26.078491,39.797079],[26.078522,39.796884],[26.078453,39.796768],[26.078437,39.796654],[26.078473,39.796506],[26.078473,39.796404],[26.078595,39.796185],[26.078869,39.796011],[26.079154,39.795737],[26.079283,39.795514],[26.079169,39.795251],[26.078895,39.795017],[26.078632,39.795009],[26.078543,39.795034],[26.078418,39.795266],[26.078366,39.795446],[26.078346,39.7957],[26.078264,39.795965],[26.077848,39.796133],[26.077654,39.796267],[26.077525,39.796325],[26.077447,39.796327],[26.077316,39.796327],[26.07714,39.796287],[26.07671,39.796131],[26.076377,39.796007],[26.076109,39.795868],[26.076027,39.795762],[26.075941,39.795644],[26.075804,39.795446],[26.075757,39.795359],[26.075751,39.79529],[26.07578,39.795248],[26.07582,39.795214],[26.075829,39.795121],[26.075774,39.795037],[26.075476,39.794827],[26.07531,39.794616],[26.075176,39.794459],[26.075072,39.794358],[26.075008,39.794313],[26.074901,39.794252],[26.074813,39.794238],[26.07476,39.794285],[26.0747,39.794383],[26.074707,39.794451],[26.074774,39.79454],[26.074825,39.794602],[26.074834,39.794657],[26.074805,39.794722],[26.074746,39.794786],[26.074627,39.794846],[26.074591,39.794851],[26.074312,39.794937],[26.07414,39.794911],[26.073851,39.794785],[26.073633,39.794645],[26.073514,39.79454],[26.073467,39.79445],[26.073475,39.794384],[26.073535,39.794329],[26.07361,39.794307],[26.073636,39.794279],[26.07361,39.794249],[26.073546,39.794162],[26.073526,39.794072],[26.073523,39.794011],[26.073554,39.793979],[26.073604,39.793973],[26.073624,39.793941],[26.07359,39.793894],[26.073418,39.793857],[26.073292,39.793777],[26.073214,39.793682],[26.073208,39.793618],[26.073222,39.793573],[26.073251,39.79355],[26.073247,39.79353],[26.073231,39.793476],[26.073223,39.79343],[26.073237,39.793385],[26.073267,39.793364],[26.073269,39.793316],[26.07325,39.793255],[26.07324,39.793241],[26.073267,39.793191],[26.073349,39.793143],[26.073472,39.793167],[26.07363,39.793183],[26.073679,39.793141],[26.073658,39.793008],[26.073616,39.792836],[26.073599,39.792786],[26.073562,39.792807],[26.073543,39.792838],[26.073513,39.792865],[26.073493,39.792838],[26.073409,39.792625],[26.073346,39.792553],[26.073256,39.792501],[26.07316,39.792463],[26.072996,39.792463],[26.072905,39.792536],[26.072826,39.792694],[26.072827,39.792777],[26.072893,39.792888],[26.073004,39.793021],[26.072973,39.793185],[26.072926,39.793264],[26.072853,39.793348],[26.072751,39.793377],[26.072676,39.793468],[26.072584,39.793493],[26.072447,39.793535],[26.072229,39.793608],[26.072138,39.793661],[26.072035,39.793749],[26.071966,39.793818],[26.071886,39.793886],[26.071783,39.793959],[26.071692,39.794027],[26.071589,39.7941],[26.071486,39.794142],[26.071371,39.794153],[26.071268,39.794153],[26.071131,39.794181],[26.071001,39.794181],[26.070797,39.794117],[26.07068,39.794032],[26.070529,39.793879],[26.070328,39.793616],[26.070248,39.793383],[26.070229,39.793226],[26.070132,39.793164],[26.06998,39.793112],[26.069801,39.79304],[26.069494,39.792946],[26.069258,39.79292],[26.069072,39.792874],[26.068929,39.792819],[26.068863,39.79272],[26.068737,39.792407],[26.06856,39.792227],[26.068526,39.792233],[26.06849,39.79225],[26.068478,39.792294],[26.068465,39.79243],[26.068443,39.792613],[26.068233,39.792741],[26.068119,39.792917],[26.068018,39.793066],[26.067836,39.793392],[26.067772,39.793516],[26.067626,39.79356],[26.067563,39.7936],[26.06748,39.793635],[26.067381,39.793636],[26.067246,39.793596],[26.067158,39.79354],[26.067131,39.793491],[26.067131,39.793451],[26.067154,39.793244],[26.067209,39.793064],[26.067229,39.792986],[26.067229,39.792901],[26.067208,39.792864],[26.067172,39.792816],[26.067161,39.792786],[26.06716,39.79276],[26.067201,39.792719],[26.067287,39.792618],[26.067317,39.792554],[26.067289,39.792289],[26.067223,39.792126],[26.067165,39.792017],[26.067124,39.792007],[26.067109,39.792028],[26.067093,39.792024],[26.067062,39.792],[26.067021,39.791935],[26.066904,39.791721],[26.066841,39.791567],[26.066792,39.79147],[26.066787,39.791433],[26.0668,39.791399],[26.066814,39.791379],[26.066783,39.791333],[26.066763,39.791287],[26.066767,39.791268],[26.066816,39.791279],[26.066858,39.791248],[26.066881,39.79121],[26.066872,39.791152],[26.066864,39.791123],[26.066879,39.791085],[26.066902,39.791063],[26.066911,39.791027],[26.066851,39.790861],[26.066839,39.790825],[26.066839,39.790802],[26.066866,39.790784],[26.066904,39.790773],[26.066956,39.790776],[26.06698,39.790757],[26.066976,39.790717],[26.06698,39.790689],[26.066995,39.790655],[26.067022,39.790639],[26.067044,39.790616],[26.067035,39.790586],[26.066988,39.790487],[26.066965,39.790418],[26.066963,39.790344],[26.066958,39.790332],[26.066943,39.790326],[26.066925,39.790349],[26.066913,39.790358],[26.066888,39.790326],[26.066854,39.790256],[26.066787,39.790231],[26.066762,39.7902],[26.066734,39.790148],[26.066756,39.790114],[26.066753,39.790058],[26.066705,39.790021],[26.066661,39.790013],[26.066591,39.790041],[26.066551,39.790102],[26.066505,39.790159],[26.066441,39.790164],[26.066352,39.790115],[26.066329,39.790077],[26.066353,39.790065],[26.066395,39.790027],[26.066399,39.789999],[26.066375,39.789975],[26.066317,39.789954],[26.066279,39.789968],[26.066262,39.789969],[26.066213,39.789956],[26.066088,39.789997],[26.065985,39.790141],[26.065921,39.790139],[26.065867,39.790133],[26.065809,39.790147],[26.065777,39.790187],[26.065775,39.790249],[26.065795,39.790353],[26.06579,39.790396],[26.065756,39.790436],[26.0657,39.790459],[26.065567,39.790477],[26.065467,39.790481],[26.065365,39.790495],[26.065278,39.790534],[26.065227,39.790568],[26.065213,39.790586],[26.064783,39.790586],[26.064657,39.790606],[26.064607,39.790632],[26.064439,39.79066],[26.06434,39.790763],[26.064291,39.790833],[26.064203,39.79086],[26.064129,39.790856],[26.063775,39.790999],[26.063543,39.791174],[26.063395,39.791246],[26.063267,39.79126],[26.063186,39.791281],[26.063154,39.791345],[26.063146,39.791482],[26.06312,39.791636],[26.06309,39.791793],[26.063078,39.7918],[26.062936,39.791851],[26.062756,39.791868],[26.062642,39.791842],[26.062398,39.791743],[26.062367,39.791707],[26.062346,39.791661],[26.062301,39.791624],[26.062211,39.791627],[26.062174,39.791648],[26.062123,39.791642],[26.061919,39.791557],[26.061761,39.791416],[26.061636,39.791262],[26.061607,39.791111],[26.061719,39.79105],[26.062002,39.790797],[26.062266,39.79069],[26.06239,39.790675],[26.062485,39.790634],[26.06256,39.790567],[26.062613,39.790484],[26.062725,39.790389],[26.062866,39.790185],[26.0629,39.790043],[26.062932,39.789892],[26.062919,39.789787],[26.062937,39.789673],[26.062941,39.78961],[26.063027,39.789518],[26.063039,39.789481],[26.063016,39.78945],[26.062998,39.789414],[26.062995,39.789298],[26.062927,39.789236],[26.062751,39.78912],[26.062536,39.789034],[26.06242,39.789086],[26.062397,39.789066],[26.062369,39.789026],[26.062405,39.78897],[26.062409,39.788922],[26.06239,39.788867],[26.062211,39.788394],[26.062138,39.78814],[26.061946,39.787953],[26.061578,39.787711],[26.061367,39.787496],[26.061249,39.787458],[26.061041,39.787423],[26.060931,39.787433],[26.060837,39.787494],[26.060837,39.787595],[26.060851,39.787724],[26.061172,39.788143],[26.061365,39.788459],[26.061597,39.78887],[26.061738,39.789295],[26.061854,39.78959],[26.061901,39.789793],[26.061907,39.789968],[26.061841,39.790193],[26.061738,39.790376],[26.061528,39.79057],[26.06141,39.790696],[26.061336,39.790762],[26.061274,39.790785],[26.061211,39.790827],[26.061117,39.790842],[26.061035,39.790886],[26.060992,39.790951],[26.060908,39.791177],[26.060866,39.791263],[26.060832,39.791325],[26.060712,39.791355],[26.06046,39.791355],[26.060231,39.7913],[26.059982,39.79119],[26.059853,39.791128],[26.059681,39.791001],[26.059589,39.790857],[26.059546,39.790772],[26.059543,39.790707],[26.05957,39.790657],[26.059682,39.790613],[26.059782,39.790545],[26.059857,39.790521],[26.059874,39.790479],[26.059874,39.790433],[26.059856,39.790353],[26.059843,39.790165],[26.059788,39.790023],[26.059686,39.789984],[26.059597,39.789972],[26.059559,39.789941],[26.059507,39.789878],[26.059504,39.789739],[26.059558,39.78973],[26.059581,39.789709],[26.059558,39.789675],[26.059581,39.789631],[26.059628,39.78956],[26.059608,39.789516],[26.059549,39.789459],[26.059474,39.789419],[26.059443,39.789429],[26.059415,39.789452],[26.059337,39.789381],[26.059327,39.789335],[26.059287,39.789308],[26.059218,39.789294],[26.05917,39.78925],[26.059201,39.789167],[26.059211,39.789118],[26.059179,39.789096],[26.059152,39.789102],[26.059125,39.789114],[26.05911,39.789148],[26.059102,39.789153],[26.059091,39.78915],[26.059076,39.789142],[26.059041,39.789134],[26.058997,39.7891],[26.05896,39.789096],[26.058947,39.789088],[26.058945,39.789085],[26.058977,39.789081],[26.058989,39.789069],[26.058971,39.789046],[26.058954,39.789036],[26.058935,39.789037],[26.058919,39.789044],[26.058892,39.789028],[26.058839,39.78898],[26.05883,39.788966],[26.058831,39.788912],[26.058833,39.78887],[26.058788,39.788836],[26.058661,39.788829],[26.058584,39.788851],[26.058549,39.788894],[26.058561,39.788959],[26.0586,39.788999],[26.058615,39.789026],[26.058615,39.78907],[26.058591,39.789107],[26.058554,39.789192],[26.058615,39.78926],[26.058637,39.789294],[26.05864,39.789325],[26.058632,39.789335],[26.0586,39.789326],[26.058579,39.789338],[26.058563,39.78936],[26.05857,39.789373],[26.058602,39.789373],[26.05863,39.789392],[26.058673,39.789436],[26.058714,39.789498],[26.058745,39.789582],[26.058785,39.789643],[26.058786,39.789698],[26.058768,39.789747],[26.058748,39.789791],[26.05874,39.789805],[26.058722,39.789792],[26.058705,39.789757],[26.058674,39.789673],[26.058633,39.789629],[26.058613,39.789617],[26.058609,39.789632],[26.058619,39.789669],[26.058601,39.789706],[26.058573,39.789755],[26.058506,39.78981],[26.058447,39.789846],[26.058325,39.789892],[26.058261,39.789892],[26.058186,39.789857],[26.05813,39.789785],[26.05813,39.789749],[26.058146,39.789716],[26.05813,39.789683],[26.058094,39.789675],[26.058078,39.789691],[26.058056,39.789696],[26.058035,39.789682],[26.058031,39.789647],[26.05801,39.789599],[26.057981,39.789563],[26.057951,39.789557],[26.057913,39.789561],[26.05787,39.789599],[26.057821,39.789606],[26.057768,39.789583],[26.057613,39.789526],[26.057519,39.789513],[26.057489,39.789503],[26.057444,39.789449],[26.057419,39.789411],[26.057419,39.789375],[26.057457,39.78934],[26.057492,39.789316],[26.057555,39.789296],[26.057629,39.789274],[26.057655,39.789258],[26.057657,39.789161],[26.057649,39.789149],[26.057619,39.789149],[26.0575,39.789203],[26.05744,39.789227],[26.05738,39.789244],[26.057348,39.789245],[26.057329,39.789181],[26.057316,39.789126],[26.057205,39.789058],[26.057134,39.789018],[26.057085,39.788977],[26.057078,39.788959],[26.05709,39.788924],[26.057121,39.788894],[26.057176,39.788863],[26.057262,39.7888],[26.057286,39.788759],[26.057283,39.788729],[26.057251,39.788704],[26.05718,39.788683],[26.057043,39.788675],[26.056746,39.788675],[26.056608,39.788656],[26.056448,39.788622],[26.056185,39.788561],[26.05607,39.788527],[26.055956,39.788596],[26.05592,39.788604],[26.055847,39.788596],[26.055742,39.788565],[26.055547,39.788541],[26.055449,39.788482],[26.055437,39.788396],[26.055427,39.788379],[26.055377,39.788332],[26.055343,39.788321],[26.055315,39.788342],[26.055307,39.788398],[26.05529,39.788438],[26.05524,39.78846],[26.05515,39.788431],[26.055066,39.78839],[26.054988,39.788331],[26.054951,39.788296],[26.054946,39.78827],[26.054972,39.788252],[26.054962,39.78823],[26.054939,39.788222],[26.054888,39.788242],[26.054828,39.788221],[26.054731,39.788171],[26.054677,39.78811],[26.054614,39.788021],[26.054565,39.788015],[26.054514,39.788041],[26.054474,39.78803],[26.054441,39.788026],[26.054411,39.788031],[26.054405,39.788022],[26.054393,39.787972],[26.054376,39.787955],[26.054355,39.787959],[26.054342,39.787945],[26.054342,39.78792],[26.054371,39.787916],[26.054411,39.78789],[26.054419,39.787856],[26.054405,39.787786],[26.054405,39.787739],[26.054331,39.787729],[26.054316,39.787716],[26.054275,39.787713],[26.054271,39.787695],[26.054246,39.787664],[26.054183,39.787664],[26.054211,39.787703],[26.05421,39.787729],[26.054188,39.787736],[26.054174,39.787723],[26.054144,39.787704],[26.054126,39.787708],[26.054105,39.787724],[26.054069,39.787698],[26.054047,39.787676],[26.054044,39.787651],[26.054053,39.787626],[26.054084,39.787596],[26.054078,39.787578],[26.054069,39.787572],[26.054039,39.787574],[26.05401,39.787569],[26.053995,39.787548],[26.053971,39.787531],[26.053895,39.787567],[26.053861,39.787506],[26.0539,39.787491],[26.053895,39.787463],[26.053884,39.787446],[26.05387,39.787429],[26.05385,39.787419],[26.053793,39.787418],[26.05371,39.787398],[26.05353,39.787341],[26.053452,39.787306],[26.053262,39.787306],[26.053304,39.787376],[26.053332,39.787414],[26.053336,39.787441],[26.053316,39.787461],[26.053276,39.787467],[26.053072,39.78744],[26.053042,39.787411],[26.053031,39.787376],[26.053011,39.787342],[26.052816,39.787329],[26.052639,39.787336],[26.052525,39.78735],[26.052468,39.787383],[26.052402,39.787414],[26.052368,39.787414],[26.052354,39.787391],[26.05235,39.78735],[26.052333,39.787315],[26.052324,39.787306],[26.05224,39.787306],[26.052114,39.787313],[26.052,39.787333],[26.051874,39.787374],[26.051783,39.787428],[26.051565,39.787535],[26.051485,39.787603],[26.051405,39.787657],[26.051348,39.787745],[26.051279,39.787825],[26.051176,39.787886],[26.051073,39.787905],[26.050913,39.787905],[26.050798,39.787958],[26.050718,39.788],[26.050638,39.788061],[26.050585,39.788183],[26.050562,39.788263],[26.050562,39.788473],[26.050528,39.788572],[26.050505,39.788668],[26.050425,39.788862],[26.050379,39.78895],[26.05031,39.789045],[26.050264,39.789118],[26.050219,39.789206],[26.05015,39.789293],[26.050104,39.789354],[26.050024,39.78945],[26.049981,39.78949],[26.04974,39.789596],[26.049606,39.789736],[26.049557,39.789842],[26.049571,39.789906],[26.0496,39.789961],[26.049561,39.789991],[26.049457,39.790059],[26.049418,39.790139],[26.049417,39.790199],[26.04944,39.790221],[26.049478,39.790215],[26.049503,39.790212],[26.049492,39.790349],[26.049505,39.790466],[26.049518,39.790713],[26.049538,39.790813],[26.049628,39.790949],[26.049773,39.79123],[26.0498,39.791328],[26.04986,39.791443],[26.049932,39.791503],[26.049978,39.791552],[26.049978,39.791596],[26.049925,39.791714],[26.049837,39.791833],[26.049759,39.791918],[26.049722,39.792012],[26.049689,39.792078],[26.049684,39.792121],[26.049662,39.792177],[26.049623,39.792181],[26.049498,39.792215],[26.049401,39.792271],[26.04936,39.792342],[26.049359,39.792395],[26.049373,39.792446],[26.049417,39.792471],[26.049437,39.79248],[26.049457,39.792508],[26.049449,39.79254],[26.04943,39.792584],[26.049396,39.792607],[26.049357,39.792645],[26.049332,39.79268],[26.049302,39.792681],[26.049301,39.792697],[26.049308,39.792715],[26.049338,39.792767],[26.049347,39.792794],[26.049385,39.792882],[26.049427,39.792935],[26.049436,39.792963],[26.049439,39.793009],[26.049413,39.793057],[26.049397,39.793108],[26.049378,39.793125],[26.049321,39.793129],[26.049292,39.793143],[26.049284,39.793175],[26.049297,39.793195],[26.049337,39.793184],[26.049388,39.793186],[26.049391,39.793207],[26.049374,39.793232],[26.049369,39.793254],[26.049351,39.793269],[26.049331,39.793265],[26.049313,39.793277],[26.049328,39.793287],[26.049356,39.793299],[26.049362,39.793351],[26.049361,39.793413],[26.04934,39.793463],[26.049284,39.79348],[26.049217,39.79348],[26.049043,39.793365],[26.048968,39.793291],[26.048894,39.793246],[26.048792,39.793225],[26.04878,39.793238],[26.048779,39.793272],[26.048767,39.793281],[26.048734,39.793273],[26.04871,39.793259],[26.048706,39.793228],[26.048629,39.79318],[26.048571,39.79315],[26.048528,39.793211],[26.048517,39.793277],[26.048537,39.793394],[26.048567,39.793461],[26.048604,39.793536],[26.048658,39.793618],[26.048704,39.793668],[26.048725,39.793673],[26.048755,39.793663],[26.048795,39.793634],[26.048794,39.793611],[26.048776,39.793604],[26.048757,39.79359],[26.048746,39.793572],[26.048746,39.793557],[26.048759,39.793557],[26.048788,39.79358],[26.048809,39.793585],[26.048838,39.793551],[26.04891,39.793548],[26.048953,39.793575],[26.048991,39.793595],[26.049006,39.793615],[26.048979,39.793738],[26.04896,39.793782],[26.048956,39.793813],[26.049,39.793841],[26.049036,39.793844],[26.049048,39.793861],[26.049038,39.793893],[26.049,39.793901],[26.048997,39.793918],[26.049025,39.793959],[26.049067,39.793988],[26.049068,39.79402],[26.049089,39.794037],[26.049121,39.794052],[26.048964,39.794147],[26.048923,39.794128],[26.048875,39.794077],[26.048777,39.794028],[26.048541,39.7939],[26.048421,39.793821],[26.048181,39.793568],[26.048073,39.793437],[26.048031,39.793398],[26.047986,39.79339],[26.047958,39.793411],[26.047957,39.793476],[26.047975,39.793522],[26.048009,39.793564],[26.048031,39.793582],[26.048122,39.793642],[26.048122,39.793649],[26.048113,39.793659],[26.048002,39.793649],[26.047854,39.793639],[26.047798,39.793623],[26.047597,39.793554],[26.047436,39.793518],[26.047345,39.793416],[26.047334,39.793373],[26.047294,39.793343],[26.047281,39.793367],[26.047281,39.79341],[26.047257,39.793424],[26.047187,39.793445],[26.047108,39.793453],[26.047074,39.793425],[26.047062,39.79337],[26.047052,39.793289],[26.046965,39.793111],[26.046932,39.793091],[26.046932,39.793074],[26.046941,39.793042],[26.046924,39.792999],[26.046884,39.79298],[26.046862,39.792979],[26.046854,39.793016],[26.046871,39.793065],[26.046898,39.793083],[26.046903,39.793106],[26.046878,39.793116],[26.046841,39.793121],[26.046799,39.793101],[26.046643,39.792939],[26.046487,39.792885],[26.046438,39.792847],[26.046427,39.792827],[26.046457,39.792826],[26.046467,39.792801],[26.046453,39.792774],[26.046424,39.792735],[26.046182,39.792764],[26.046175,39.792768],[26.046095,39.792761],[26.046036,39.792787],[26.045975,39.79287],[26.045912,39.793006],[26.045911,39.793098],[26.045937,39.793109],[26.045934,39.793131],[26.045885,39.793185],[26.04581,39.7933],[26.045775,39.793372],[26.045786,39.793412],[26.045786,39.793451],[26.045776,39.793491],[26.045687,39.793629],[26.045619,39.793836],[26.045574,39.793947],[26.045578,39.794038],[26.045613,39.794077],[26.045666,39.794132],[26.045753,39.794243],[26.045791,39.794265],[26.045818,39.794296],[26.045832,39.794317],[26.045835,39.794369],[26.045835,39.794415],[26.045772,39.794514],[26.045709,39.794656],[26.045703,39.794748],[26.045693,39.794857],[26.0457,39.79501],[26.045715,39.7951],[26.045702,39.795143],[26.045696,39.795173],[26.045706,39.79519],[26.045734,39.795197],[26.045766,39.795198],[26.04579,39.795222],[26.045812,39.795297],[26.045904,39.795498],[26.045955,39.795646],[26.04597,39.795794],[26.045983,39.795991],[26.046013,39.79611],[26.046058,39.796179],[26.046121,39.79625],[26.046138,39.796297],[26.046124,39.796357],[26.046013,39.796441],[26.045888,39.796543],[26.045698,39.79664],[26.045561,39.796656],[26.045412,39.796682],[26.045286,39.796709],[26.04516,39.796717],[26.045057,39.796743],[26.044931,39.796782],[26.044826,39.796797],[26.044655,39.796887],[26.04456,39.796941],[26.044464,39.797021],[26.044381,39.797085],[26.044199,39.797167],[26.044062,39.79722],[26.043947,39.797262],[26.043798,39.797308],[26.043547,39.797342],[26.043444,39.797396],[26.043352,39.797449],[26.043226,39.797491],[26.0431,39.797518],[26.042974,39.797537],[26.04286,39.797564],[26.042734,39.797606],[26.042631,39.797659],[26.042505,39.79772],[26.042391,39.797792],[26.042038,39.798025],[26.041927,39.79812],[26.041762,39.798194],[26.041616,39.798212],[26.041312,39.798218],[26.040883,39.798206],[26.040561,39.798204],[26.040208,39.798187],[26.040043,39.798206],[26.039677,39.798322],[26.0395,39.798464],[26.039448,39.79861],[26.039388,39.798858],[26.039339,39.798887],[26.039259,39.798941],[26.039145,39.798986],[26.03903,39.799021],[26.038893,39.79904],[26.038778,39.79904],[26.038436,39.798973],[26.038339,39.798934],[26.038206,39.798856],[26.038041,39.798795],[26.037888,39.798745],[26.037695,39.798732],[26.037378,39.79876],[26.03714,39.798803],[26.03705,39.798876],[26.036945,39.798933],[26.036804,39.798979],[26.036593,39.799073],[26.036219,39.799227],[26.036104,39.799246],[26.035978,39.799288],[26.035798,39.799403],[26.035668,39.799508],[26.035588,39.79957],[26.035555,39.79957],[26.03544,39.799589],[26.035303,39.799631],[26.0352,39.799658],[26.035097,39.7997],[26.035006,39.799765],[26.034786,39.799857],[26.034657,39.799942],[26.034546,39.800002],[26.034438,39.800015],[26.034362,39.799991],[26.034318,39.799965],[26.034108,39.800006],[26.033967,39.80008],[26.033818,39.800228],[26.033732,39.800343],[26.033582,39.800441],[26.033529,39.800525],[26.033497,39.80063],[26.033524,39.800688],[26.033546,39.800713],[26.033482,39.800809],[26.033449,39.800866],[26.033445,39.800928],[26.033464,39.800995],[26.033481,39.801098],[26.033554,39.801222],[26.033553,39.801296],[26.033531,39.801364],[26.033441,39.801599],[26.03337,39.801727],[26.033228,39.801867],[26.033059,39.801967],[26.032814,39.802069],[26.032685,39.802116],[26.032213,39.802136],[26.031916,39.802041],[26.031772,39.801953],[26.031732,39.801943],[26.03169,39.801937],[26.031641,39.801989],[26.031602,39.802033],[26.031529,39.802065],[26.031415,39.802118],[26.031283,39.802129],[26.031166,39.802113],[26.031065,39.802111],[26.030962,39.802164],[26.030848,39.802206],[26.030733,39.802259],[26.030561,39.802374],[26.030436,39.802408],[26.03031,39.802408],[26.030195,39.80242],[26.029932,39.802488],[26.029329,39.802687],[26.029261,39.802721],[26.029032,39.802816],[26.028929,39.80287],[26.028803,39.802931],[26.028734,39.802984],[26.028608,39.803053],[26.028528,39.803106],[26.028391,39.803179],[26.028334,39.803221],[26.028231,39.803282],[26.028139,39.803354],[26.027967,39.803503],[26.027899,39.803572],[26.027796,39.803644],[26.027693,39.803713],[26.027613,39.803759],[26.027372,39.803759],[26.027246,39.803713],[26.027132,39.803686],[26.027006,39.803671],[26.026857,39.803671],[26.026468,39.803659],[26.026354,39.803659],[26.026239,39.803679],[26.026125,39.803705],[26.025965,39.803713],[26.025873,39.803713],[26.025759,39.80374],[26.025679,39.803816],[26.02561,39.803896],[26.025415,39.80401],[26.025175,39.804106],[26.025061,39.804159],[26.024969,39.804193],[26.024855,39.804247],[26.024717,39.804327],[26.024626,39.804388],[26.0245,39.804476],[26.024317,39.804598],[26.024191,39.804644],[26.024088,39.804686],[26.023944,39.804777],[26.023913,39.804884],[26.023947,39.805069],[26.023913,39.805171],[26.023808,39.805352],[26.023627,39.80554],[26.023574,39.805681],[26.02358,39.805809],[26.023626,39.805894],[26.023749,39.806056],[26.023811,39.80619],[26.02384,39.806348],[26.023798,39.806449],[26.023664,39.806578],[26.023397,39.80686],[26.023306,39.806921],[26.02318,39.806993],[26.023088,39.807055],[26.022997,39.807108],[26.022882,39.807196],[26.022791,39.807272],[26.022654,39.807413],[26.022585,39.807508],[26.022516,39.807562],[26.022425,39.807615],[26.02231,39.807676],[26.022207,39.807749],[26.022127,39.807798],[26.021921,39.807905],[26.021738,39.808027],[26.021635,39.808073],[26.021463,39.808134],[26.021326,39.808187],[26.021223,39.808241],[26.020872,39.80834],[26.020781,39.808355],[26.020666,39.808382],[26.020414,39.808435],[26.020277,39.808481],[26.020163,39.808516],[26.020025,39.808542],[26.019876,39.808577],[26.019762,39.808596],[26.019636,39.808603],[26.019487,39.808603],[26.01935,39.808611],[26.019159,39.808611],[26.018716,39.808681],[26.018421,39.808677],[26.018231,39.808574],[26.01801,39.808501],[26.017767,39.808448],[26.017345,39.80842],[26.01729,39.808428],[26.017118,39.80847],[26.017038,39.808496],[26.016867,39.808531],[26.016798,39.808531],[26.016494,39.808567],[26.016149,39.808565],[26.015635,39.808724],[26.015436,39.80884],[26.015333,39.808908],[26.015116,39.809099],[26.015093,39.80916],[26.015036,39.80924],[26.014933,39.80929],[26.01483,39.809328],[26.014715,39.809355],[26.014521,39.809484],[26.014441,39.809565],[26.014372,39.809645],[26.014189,39.809767],[26.014143,39.80987],[26.014086,39.80995],[26.014017,39.810038],[26.013926,39.810125],[26.013845,39.810198],[26.013742,39.810247],[26.013514,39.810347],[26.013422,39.810389],[26.013216,39.810495],[26.013124,39.810537],[26.012987,39.810591],[26.01277,39.81069],[26.012667,39.810732],[26.012564,39.810793],[26.012472,39.810827],[26.012358,39.810873],[26.01222,39.810915],[26.012106,39.810968],[26.012014,39.811007],[26.011877,39.811075],[26.011518,39.81122],[26.011461,39.811239],[26.011324,39.8113],[26.011511,39.811622],[26.011365,39.811967],[26.011291,39.812132],[26.011286,39.812227],[26.011334,39.812367],[26.011524,39.8125],[26.011941,39.812734],[26.012455,39.813095],[26.012857,39.813443],[26.012864,39.813477],[26.013279,39.813511],[26.01409,39.813476],[26.014467,39.813395],[26.014892,39.813418],[26.01533,39.813582],[26.015783,39.814005],[26.016544,39.814702],[26.016734,39.814898],[26.017107,39.815187],[26.017533,39.815386],[26.017853,39.815503],[26.017853,39.815503],[26.01799,39.815562],[26.018181,39.815633],[26.018366,39.815699],[26.018531,39.815763],[26.018717,39.815841],[26.018914,39.81593],[26.019021,39.815991],[26.019133,39.816055],[26.019353,39.816181],[26.019474,39.816251],[26.019573,39.816308],[26.019678,39.816365],[26.01977,39.816403],[26.019899,39.816457],[26.02,39.816504],[26.020158,39.816575],[26.020295,39.816626],[26.02052,39.816706],[26.020759,39.81679],[26.02091,39.816845],[26.021105,39.816929],[26.021257,39.816995],[26.021395,39.817057],[26.021547,39.817125],[26.02174,39.81722],[26.021855,39.817278],[26.021963,39.817328],[26.02213,39.817405],[26.022254,39.817459],[26.022372,39.817508],[26.022519,39.817574],[26.022729,39.81767],[26.02285,39.817719],[26.022962,39.817768],[26.02304,39.817803],[26.023136,39.817848],[26.02325,39.817896],[26.023319,39.817934],[26.023438,39.817983],[26.023518,39.818021],[26.023577,39.818046],[26.023657,39.818086],[26.023774,39.818135],[26.023926,39.818185],[26.024024,39.81822],[26.024118,39.818272],[26.024231,39.818317],[26.02433,39.818362],[26.02449,39.818424],[26.024669,39.818493],[26.024858,39.818562],[26.024935,39.818604],[26.025069,39.818664],[26.025168,39.818711],[26.025237,39.818747],[26.025344,39.818806],[26.025412,39.818855],[26.025471,39.818894],[26.025539,39.818956],[26.025605,39.819006],[26.025659,39.819044],[26.025745,39.819112],[26.025809,39.819184],[26.025872,39.819233],[26.025962,39.81932],[26.026024,39.81938],[26.026082,39.819425],[26.026082,39.819425],[26.026104,39.819443],[26.026163,39.819489],[26.02623,39.819536],[26.026335,39.819603],[26.026412,39.819666],[26.026485,39.819703],[26.026539,39.819742],[26.026623,39.819805],[26.026724,39.819862],[26.026793,39.819915],[26.026867,39.819965],[26.026937,39.820022],[26.027006,39.820083],[26.027051,39.820133],[26.027088,39.820179],[26.027128,39.820234],[26.027158,39.820305],[26.027182,39.820372],[26.027194,39.820453],[26.027211,39.82052],[26.027225,39.820597],[26.027258,39.820707],[26.02728,39.820754],[26.027305,39.820797],[26.027316,39.820807],[26.027316,39.820807],[26.027348,39.820836],[26.027401,39.82087],[26.027463,39.820895],[26.027519,39.820909],[26.027606,39.820912],[26.027686,39.820896],[26.02775,39.820884],[26.027842,39.820849],[26.027981,39.820791],[26.028153,39.820721],[26.028289,39.820667],[26.028436,39.820601],[26.028584,39.820532],[26.028682,39.820492],[26.028891,39.820409],[26.028991,39.820365],[26.029137,39.820307],[26.029272,39.820254],[26.029394,39.820197],[26.029524,39.820143],[26.029632,39.820101],[26.029759,39.820071],[26.029866,39.820044],[26.029979,39.820041],[26.030117,39.820055],[26.030247,39.8201],[26.030407,39.82017],[26.030545,39.820236],[26.030692,39.820316],[26.03085,39.820406],[26.030972,39.820473],[26.031063,39.820526],[26.031161,39.820576],[26.031257,39.820615],[26.031492,39.820666],[26.031713,39.820687],[26.031972,39.820685],[26.032238,39.82065],[26.032428,39.820584],[26.032649,39.820504],[26.032751,39.820471],[26.032876,39.820431],[26.032996,39.820396],[26.033093,39.820371],[26.033195,39.82035],[26.033284,39.820338],[26.033421,39.820331],[26.033589,39.820338],[26.033657,39.820347],[26.033739,39.820364],[26.033867,39.820408],[26.033918,39.820436],[26.033975,39.820473],[26.034065,39.820534],[26.034154,39.820591],[26.03428,39.820688],[26.034376,39.820751],[26.034478,39.820815],[26.034596,39.820903],[26.034666,39.82095],[26.034736,39.820994],[26.034813,39.821064],[26.034952,39.821196],[26.035048,39.821298],[26.035131,39.821385],[26.035197,39.821463],[26.035232,39.821514],[26.035312,39.821608],[26.035381,39.82169],[26.035493,39.82183],[26.035541,39.821901],[26.03561,39.821986],[26.035675,39.822074],[26.035761,39.822173],[26.035828,39.822264],[26.035889,39.822346],[26.036011,39.822503],[26.036063,39.82261],[26.03612,39.822724],[26.036156,39.822825],[26.0362,39.82293],[26.036244,39.823025],[26.036294,39.823105],[26.03637,39.823219],[26.036456,39.823312],[26.036541,39.823412],[26.036659,39.823509],[26.03677,39.823591],[26.036873,39.823662],[26.036962,39.823711],[26.037096,39.823778],[26.037192,39.823817],[26.037264,39.823843],[26.037371,39.823905],[26.037558,39.824016],[26.037715,39.824126],[26.037823,39.824199],[26.037953,39.82427],[26.038071,39.824322],[26.038253,39.824393],[26.038459,39.824483],[26.038662,39.824578],[26.038759,39.824636],[26.038823,39.824692],[26.038879,39.824788],[26.038926,39.824916],[26.038959,39.825041],[26.038992,39.825157],[26.039013,39.825249],[26.039039,39.82534],[26.03907,39.825467],[26.039113,39.825576],[26.039171,39.825685],[26.039231,39.825782],[26.039294,39.825882],[26.039381,39.826019],[26.039436,39.826122],[26.03947,39.826204],[26.039501,39.826299],[26.03952,39.826395],[26.039534,39.826521],[26.039542,39.826577],[26.039562,39.826696],[26.039582,39.826835],[26.039612,39.826976],[26.039629,39.827089],[26.039657,39.827208],[26.039677,39.827297],[26.039707,39.827406],[26.039734,39.827496],[26.039795,39.827646],[26.039919,39.82794],[26.04,39.828083],[26.040137,39.828256],[26.040232,39.828374],[26.040338,39.828472],[26.040426,39.828546],[26.040529,39.828631],[26.040616,39.828688],[26.040827,39.828804],[26.041006,39.82891],[26.041156,39.829004],[26.041309,39.829111],[26.041499,39.829244],[26.041652,39.829347],[26.041858,39.829455],[26.042031,39.82953],[26.042237,39.829601],[26.042435,39.829662],[26.042644,39.829721],[26.042826,39.82974],[26.04305,39.829765],[26.043511,39.829799],[26.043751,39.829824],[26.044195,39.829882],[26.044442,39.829918],[26.044665,39.829953],[26.044872,39.82998],[26.045128,39.830016],[26.045331,39.830054],[26.045549,39.830099],[26.045714,39.830131],[26.045892,39.83018],[26.046087,39.830244],[26.046222,39.830286],[26.046362,39.830337],[26.046508,39.8304],[26.04661,39.83044],[26.046869,39.830566],[26.04699,39.830629],[26.047121,39.830705],[26.047266,39.830784],[26.047529,39.830919],[26.047663,39.830981],[26.047837,39.831059],[26.047988,39.83113],[26.048146,39.831191],[26.048345,39.831268],[26.048478,39.831315],[26.048603,39.831351],[26.048757,39.831403],[26.048803,39.831416],[26.04901,39.831483],[26.049094,39.831508],[26.049203,39.831546],[26.049304,39.831582],[26.049381,39.831607],[26.04946,39.831635],[26.049549,39.831666],[26.049705,39.831723],[26.049862,39.83178],[26.050055,39.831846],[26.050173,39.831889],[26.050288,39.831922],[26.050387,39.831948],[26.050511,39.831983],[26.050636,39.832016],[26.050723,39.832037],[26.050844,39.832064],[26.050975,39.832085],[26.051256,39.832125],[26.051495,39.832153],[26.051978,39.832181],[26.052072,39.832187],[26.052486,39.832216],[26.052861,39.83224],[26.053013,39.832247],[26.053392,39.832277],[26.05348,39.832281],[26.053573,39.832285],[26.053757,39.832283],[26.053781,39.832281],[26.053892,39.832278],[26.053982,39.832275],[26.05423,39.832244],[26.054353,39.832226],[26.054466,39.832203],[26.054766,39.832145],[26.054886,39.83212],[26.055031,39.832078],[26.055169,39.832039],[26.055449,39.831962],[26.055655,39.831908],[26.055796,39.831865],[26.056152,39.831765],[26.056486,39.831677],[26.056596,39.831646],[26.05698,39.831547],[26.05714,39.831511],[26.057373,39.831461],[26.057857,39.831363],[26.05796,39.831341],[26.058068,39.831318],[26.058271,39.831277],[26.058492,39.831237],[26.058637,39.831212],[26.058773,39.831188],[26.059032,39.831149],[26.059343,39.831108],[26.059525,39.831087],[26.059612,39.831077],[26.059732,39.831062],[26.059791,39.831054],[26.059853,39.831045],[26.059962,39.831037],[26.060089,39.831023],[26.060282,39.831009],[26.060363,39.830999],[26.060456,39.830991],[26.060617,39.830981],[26.06082,39.830973],[26.06099,39.830968],[26.061056,39.830964],[26.061349,39.830931],[26.061743,39.83091],[26.06228,39.831011],[26.062953,39.831324],[26.063061,39.831365],[26.063185,39.831404],[26.063303,39.831437],[26.063457,39.831469],[26.06356,39.83149],[26.063677,39.831507],[26.063801,39.831524],[26.063893,39.831535],[26.064097,39.831572],[26.06433,39.831613],[26.064459,39.831633],[26.064546,39.831644],[26.064668,39.831666],[26.064793,39.831689],[26.064947,39.831719],[26.065043,39.831742],[26.065122,39.831759],[26.065183,39.831775],[26.065286,39.831805],[26.065357,39.831828],[26.06545,39.831857],[26.065537,39.831885],[26.065728,39.831954],[26.065932,39.832024],[26.066426,39.832213],[26.066647,39.832296],[26.066741,39.832331],[26.066973,39.832413],[26.066981,39.832416],[26.067048,39.832441],[26.067151,39.832485],[26.06721,39.832508],[26.067329,39.832551],[26.067391,39.832604],[26.067643,39.832787],[26.068031,39.833091],[26.068307,39.833309],[26.068499,39.833463],[26.068693,39.83361],[26.068851,39.833736],[26.068961,39.833822],[26.068982,39.833837],[26.069176,39.833979],[26.069214,39.834002],[26.069454,39.834142],[26.069536,39.834227],[26.06965,39.834327],[26.069814,39.834439],[26.069904,39.834504],[26.070011,39.834608],[26.070216,39.834839],[26.070225,39.834953],[26.070257,39.835059],[26.0703,39.835158],[26.070353,39.835276],[26.070388,39.835356],[26.070425,39.835435],[26.070486,39.835581],[26.070534,39.835677],[26.070569,39.835738],[26.070616,39.835838],[26.070645,39.83591],[26.070686,39.836003],[26.070691,39.836014],[26.070737,39.836105],[26.070765,39.836177],[26.070782,39.836221],[26.070799,39.83627],[26.070819,39.836308],[26.070968,39.836556],[26.071012,39.836591],[26.071263,39.836516],[26.071345,39.836491],[26.071596,39.836497],[26.071603,39.836507],[26.071614,39.836517],[26.071647,39.836519],[26.071672,39.836522],[26.071706,39.836493],[26.071756,39.836483],[26.071951,39.836465],[26.071998,39.836463],[26.072033,39.836464],[26.072127,39.836491],[26.072157,39.836493],[26.072148,39.836511],[26.072345,39.836603],[26.072437,39.836636],[26.07252,39.836685],[26.072581,39.83674],[26.072604,39.836754],[26.072688,39.836712],[26.072871,39.836782],[26.073086,39.836834],[26.073474,39.836908],[26.073805,39.836927],[26.07414,39.836779]]]}},{"type":"Feature","properties":{"id":"TR-Y-17-004-M-0002","level":"yerlesim","type":"mahalle","parent_id":"TR-D-17-004","province_id":"TR-P-17","district_id":"TR-D-17-004","name":"Cumhuriyet","source_raw_name":"Cumhuriyet","source":"Kullanıcı tarafından sağlanan KML","source_label":"Kullanıcı tarafından sağlanan KML","source_name":"Canakkale Mahalle KML - kullanici tarafindan saglandi"},"geometry":{"type":"MultiPolygon","coordinates":[[[[26.080315,39.827463],[26.080279,39.827461],[26.080211,39.827502],[26.079955,39.827604],[26.079817,39.827674],[26.07977,39.82781],[26.07978,39.827926],[26.079864,39.828059],[26.079996,39.828078],[26.080151,39.827996],[26.080261,39.827958],[26.080355,39.827849],[26.080345,39.827691],[26.080283,39.827623],[26.080334,39.8275],[26.080315,39.827463]]],[[[26.092211,39.841524],[26.092062,39.841501],[26.091961,39.841527],[26.091988,39.841604],[26.092079,39.841625],[26.092211,39.841524]]],[[[26.095192,39.841173],[26.095025,39.841157],[26.094771,39.841284],[26.094784,39.841441],[26.094657,39.841486],[26.094701,39.841552],[26.094717,39.841692],[26.09513,39.841907],[26.095445,39.841901],[26.095587,39.841859],[26.095637,39.841728],[26.095645,39.841411],[26.095483,39.841281],[26.095192,39.841173]]],[[[26.051509,39.84675],[26.05156,39.846725],[26.051671,39.846698],[26.051749,39.846701],[26.051823,39.84675],[26.051884,39.846763],[26.051933,39.846752],[26.052024,39.846677],[26.052144,39.846626],[26.052257,39.84662],[26.052361,39.846634],[26.052676,39.846645],[26.052984,39.846689],[26.05302,39.846691],[26.05307,39.846698],[26.053131,39.846664],[26.053393,39.846568],[26.053592,39.846486],[26.053814,39.846453],[26.054267,39.846429],[26.054634,39.846359],[26.054977,39.846246],[26.055228,39.846248],[26.055417,39.846242],[26.055513,39.846258],[26.055621,39.846316],[26.055671,39.846362],[26.05569,39.846397],[26.055746,39.846455],[26.055759,39.846509],[26.055832,39.846596],[26.05596,39.846638],[26.055999,39.846525],[26.056011,39.846431],[26.055938,39.846352],[26.055918,39.846277],[26.055949,39.846268],[26.056128,39.846231],[26.056272,39.846182],[26.05634,39.846124],[26.056386,39.846023],[26.056423,39.845959],[26.056563,39.845902],[26.056653,39.845894],[26.056905,39.84595],[26.056965,39.845949],[26.057003,39.845912],[26.056989,39.845871],[26.056897,39.845811],[26.056897,39.845768],[26.056925,39.845723],[26.057058,39.845547],[26.057139,39.845324],[26.057221,39.845129],[26.057212,39.845036],[26.057193,39.844976],[26.057233,39.844858],[26.057468,39.844509],[26.057643,39.8443],[26.058009,39.84403],[26.058121,39.843976],[26.058183,39.843893],[26.058226,39.843773],[26.058252,39.843631],[26.058318,39.843501],[26.058413,39.843398],[26.058605,39.843301],[26.058791,39.843239],[26.058803,39.843231],[26.058812,39.843194],[26.058853,39.842921],[26.058916,39.842697],[26.05908,39.842536],[26.059221,39.842404],[26.059477,39.842135],[26.059637,39.842002],[26.059692,39.841927],[26.059782,39.841835],[26.059917,39.841778],[26.060324,39.841643],[26.060952,39.841379],[26.061089,39.841303],[26.061289,39.84122],[26.061682,39.841134],[26.06196,39.841081],[26.062345,39.84104],[26.062611,39.841038],[26.062852,39.841015],[26.062974,39.84096],[26.06304,39.840913],[26.063046,39.840883],[26.063109,39.840852],[26.063301,39.840872],[26.063432,39.840898],[26.063525,39.840933],[26.063487,39.840974],[26.063484,39.841022],[26.063518,39.84107],[26.063507,39.841077],[26.063495,39.841092],[26.063502,39.841103],[26.063534,39.841119],[26.063568,39.841124],[26.06357,39.841116],[26.063543,39.841099],[26.063534,39.84108],[26.063557,39.841079],[26.0636,39.841081],[26.063627,39.84108],[26.063672,39.841056],[26.063682,39.841039],[26.063672,39.841022],[26.063619,39.840976],[26.063625,39.840967],[26.063668,39.840931],[26.063701,39.840879],[26.063775,39.840837],[26.063829,39.840823],[26.064027,39.84084],[26.064123,39.840879],[26.064236,39.840928],[26.064613,39.840945],[26.064823,39.840935],[26.065037,39.840842],[26.065278,39.840773],[26.065443,39.840748],[26.065639,39.840758],[26.065876,39.840844],[26.06607,39.840897],[26.066332,39.840903],[26.066568,39.840885],[26.06675,39.840811],[26.066868,39.840737],[26.06703,39.840712],[26.067248,39.840693],[26.067425,39.840705],[26.067577,39.840712],[26.067732,39.840714],[26.067827,39.840684],[26.067943,39.840635],[26.068004,39.840584],[26.068114,39.840563],[26.068229,39.840569],[26.068421,39.840639],[26.068549,39.840642],[26.068732,39.840612],[26.068901,39.840549],[26.068999,39.84052],[26.069143,39.840533],[26.069171,39.840509],[26.069184,39.840487],[26.069179,39.840456],[26.069108,39.840459],[26.069051,39.840432],[26.068989,39.840392],[26.068993,39.840306],[26.069034,39.840214],[26.069078,39.840123],[26.069184,39.840047],[26.069385,39.839942],[26.069532,39.839895],[26.06967,39.83992],[26.069765,39.839983],[26.069821,39.840039],[26.069824,39.840066],[26.069882,39.840071],[26.069936,39.840043],[26.069963,39.84],[26.070007,39.839942],[26.069932,39.839885],[26.069909,39.83984],[26.069887,39.839785],[26.069906,39.839693],[26.069989,39.839587],[26.070175,39.839512],[26.070271,39.83948],[26.070373,39.839529],[26.070466,39.839587],[26.070487,39.839651],[26.070506,39.839651],[26.07053,39.839581],[26.070573,39.839535],[26.070666,39.8395],[26.070754,39.839488],[26.070703,39.83944],[26.070673,39.839395],[26.070679,39.839342],[26.070726,39.839311],[26.070769,39.839304],[26.070774,39.839273],[26.07075,39.839244],[26.070675,39.839225],[26.070514,39.839142],[26.070359,39.839028],[26.070197,39.838852],[26.070131,39.838725],[26.070071,39.838634],[26.070066,39.838545],[26.070078,39.838474],[26.070124,39.838419],[26.07014,39.838384],[26.07014,39.838349],[26.070093,39.83832],[26.070072,39.838313],[26.070035,39.838323],[26.069991,39.838325],[26.069941,39.838263],[26.069761,39.837959],[26.069789,39.837758],[26.069875,39.837614],[26.069927,39.837293],[26.070318,39.836895],[26.070574,39.836773],[26.070942,39.836614],[26.071012,39.836591],[26.070968,39.836556],[26.070819,39.836308],[26.070799,39.83627],[26.070782,39.836221],[26.070765,39.836177],[26.070737,39.836105],[26.070691,39.836014],[26.070686,39.836003],[26.070645,39.83591],[26.070616,39.835838],[26.070569,39.835738],[26.070534,39.835677],[26.070486,39.835581],[26.070425,39.835435],[26.070388,39.835356],[26.070353,39.835276],[26.0703,39.835158],[26.070257,39.835059],[26.070225,39.834953],[26.070216,39.834839],[26.070011,39.834608],[26.069904,39.834504],[26.069814,39.834439],[26.06965,39.834327],[26.069536,39.834227],[26.069454,39.834142],[26.069214,39.834002],[26.069176,39.833979],[26.068982,39.833837],[26.068961,39.833822],[26.068851,39.833736],[26.068693,39.83361],[26.068499,39.833463],[26.068307,39.833309],[26.068031,39.833091],[26.067643,39.832787],[26.067391,39.832604],[26.067329,39.832551],[26.06721,39.832508],[26.067151,39.832485],[26.067048,39.832441],[26.066981,39.832416],[26.066973,39.832413],[26.066741,39.832331],[26.066647,39.832296],[26.066426,39.832213],[26.065932,39.832024],[26.065728,39.831954],[26.065537,39.831885],[26.06545,39.831857],[26.065357,39.831828],[26.065286,39.831805],[26.065183,39.831775],[26.065122,39.831759],[26.065043,39.831742],[26.064947,39.831719],[26.064793,39.831689],[26.064668,39.831666],[26.064546,39.831644],[26.064459,39.831633],[26.06433,39.831613],[26.064097,39.831572],[26.063893,39.831535],[26.063801,39.831524],[26.063677,39.831507],[26.06356,39.83149],[26.063457,39.831469],[26.063303,39.831437],[26.063185,39.831404],[26.063061,39.831365],[26.062953,39.831324],[26.06228,39.831011],[26.061743,39.83091],[26.061349,39.830931],[26.061056,39.830964],[26.06099,39.830968],[26.06082,39.830973],[26.060617,39.830981],[26.060456,39.830991],[26.060363,39.830999],[26.060282,39.831009],[26.060089,39.831023],[26.059962,39.831037],[26.059853,39.831045],[26.059791,39.831054],[26.059732,39.831062],[26.059612,39.831077],[26.059525,39.831087],[26.059343,39.831108],[26.059032,39.831149],[26.058773,39.831188],[26.058637,39.831212],[26.058492,39.831237],[26.058271,39.831277],[26.058068,39.831318],[26.05796,39.831341],[26.057857,39.831363],[26.057373,39.831461],[26.05714,39.831511],[26.05698,39.831547],[26.056596,39.831646],[26.056486,39.831677],[26.056152,39.831765],[26.055796,39.831865],[26.055655,39.831908],[26.055449,39.831962],[26.055169,39.832039],[26.055031,39.832078],[26.054886,39.83212],[26.054766,39.832145],[26.054466,39.832203],[26.054353,39.832226],[26.05423,39.832244],[26.053982,39.832275],[26.053892,39.832278],[26.053781,39.832281],[26.053757,39.832283],[26.053573,39.832285],[26.05348,39.832281],[26.053392,39.832277],[26.053013,39.832247],[26.052861,39.83224],[26.052486,39.832216],[26.052072,39.832187],[26.051978,39.832181],[26.051495,39.832153],[26.051256,39.832125],[26.050975,39.832085],[26.050844,39.832064],[26.050723,39.832037],[26.050636,39.832016],[26.050511,39.831983],[26.050387,39.831948],[26.050288,39.831922],[26.050173,39.831889],[26.050055,39.831846],[26.049862,39.83178],[26.049705,39.831723],[26.049549,39.831666],[26.04946,39.831635],[26.049381,39.831607],[26.049304,39.831582],[26.049203,39.831546],[26.049094,39.831508],[26.04901,39.831483],[26.048803,39.831416],[26.048757,39.831403],[26.048603,39.831351],[26.048478,39.831315],[26.048345,39.831268],[26.048146,39.831191],[26.047988,39.83113],[26.047837,39.831059],[26.047663,39.830981],[26.047529,39.830919],[26.047266,39.830784],[26.047121,39.830705],[26.04699,39.830629],[26.046869,39.830566],[26.04661,39.83044],[26.046508,39.8304],[26.046362,39.830337],[26.046222,39.830286],[26.046087,39.830244],[26.045892,39.83018],[26.045714,39.830131],[26.045549,39.830099],[26.045331,39.830054],[26.045128,39.830016],[26.044872,39.82998],[26.044665,39.829953],[26.044442,39.829918],[26.044195,39.829882],[26.043751,39.829824],[26.043511,39.829799],[26.04305,39.829765],[26.042826,39.82974],[26.042644,39.829721],[26.042435,39.829662],[26.042237,39.829601],[26.042031,39.82953],[26.041858,39.829455],[26.041652,39.829347],[26.041499,39.829244],[26.041309,39.829111],[26.041156,39.829004],[26.041006,39.82891],[26.040827,39.828804],[26.040616,39.828688],[26.040529,39.828631],[26.040426,39.828546],[26.040338,39.828472],[26.040232,39.828374],[26.040137,39.828256],[26.04,39.828083],[26.039919,39.82794],[26.039795,39.827646],[26.039734,39.827496],[26.039707,39.827406],[26.039677,39.827297],[26.039657,39.827208],[26.039629,39.827089],[26.039612,39.826976],[26.039582,39.826835],[26.039562,39.826696],[26.039542,39.826577],[26.039534,39.826521],[26.03952,39.826395],[26.039501,39.826299],[26.03947,39.826204],[26.039436,39.826122],[26.039381,39.826019],[26.039294,39.825882],[26.039231,39.825782],[26.039171,39.825685],[26.039113,39.825576],[26.03907,39.825467],[26.039039,39.82534],[26.039013,39.825249],[26.038992,39.825157],[26.038959,39.825041],[26.038926,39.824916],[26.038879,39.824788],[26.038823,39.824692],[26.038759,39.824636],[26.038662,39.824578],[26.038459,39.824483],[26.038253,39.824393],[26.038071,39.824322],[26.037953,39.82427],[26.037823,39.824199],[26.037715,39.824126],[26.037558,39.824016],[26.037371,39.823905],[26.037264,39.823843],[26.037192,39.823817],[26.037096,39.823778],[26.036962,39.823711],[26.036873,39.823662],[26.03677,39.823591],[26.036659,39.823509],[26.036541,39.823412],[26.036456,39.823312],[26.03637,39.823219],[26.036294,39.823105],[26.036244,39.823025],[26.0362,39.82293],[26.036156,39.822825],[26.03612,39.822724],[26.036063,39.82261],[26.036011,39.822503],[26.035889,39.822346],[26.035828,39.822264],[26.035761,39.822173],[26.035675,39.822074],[26.03561,39.821986],[26.035541,39.821901],[26.035493,39.82183],[26.035381,39.82169],[26.035312,39.821608],[26.035232,39.821514],[26.035197,39.821463],[26.035131,39.821385],[26.035048,39.821298],[26.034952,39.821196],[26.034813,39.821064],[26.034736,39.820994],[26.034666,39.82095],[26.034596,39.820903],[26.034478,39.820815],[26.034376,39.820751],[26.03428,39.820688],[26.034154,39.820591],[26.034065,39.820534],[26.033975,39.820473],[26.033918,39.820436],[26.033867,39.820408],[26.033739,39.820364],[26.033657,39.820347],[26.033589,39.820338],[26.033421,39.820331],[26.033284,39.820338],[26.033195,39.82035],[26.033093,39.820371],[26.032996,39.820396],[26.032876,39.820431],[26.032751,39.820471],[26.032649,39.820504],[26.032428,39.820584],[26.032238,39.82065],[26.031972,39.820685],[26.031713,39.820687],[26.031492,39.820666],[26.031257,39.820615],[26.031161,39.820576],[26.031063,39.820526],[26.030972,39.820473],[26.03085,39.820406],[26.030692,39.820316],[26.030545,39.820236],[26.030407,39.82017],[26.030247,39.8201],[26.030117,39.820055],[26.029979,39.820041],[26.029866,39.820044],[26.029759,39.820071],[26.029632,39.820101],[26.029524,39.820143],[26.029394,39.820197],[26.029272,39.820254],[26.029137,39.820307],[26.028991,39.820365],[26.028891,39.820409],[26.028682,39.820492],[26.028584,39.820532],[26.028436,39.820601],[26.028289,39.820667],[26.028153,39.820721],[26.027981,39.820791],[26.027842,39.820849],[26.02775,39.820884],[26.027686,39.820896],[26.027606,39.820912],[26.027519,39.820909],[26.027463,39.820895],[26.027401,39.82087],[26.027348,39.820836],[26.027316,39.820807],[26.027316,39.820807],[26.027305,39.820797],[26.02728,39.820754],[26.027258,39.820707],[26.027225,39.820597],[26.027211,39.82052],[26.027194,39.820453],[26.027182,39.820372],[26.027158,39.820305],[26.027128,39.820234],[26.027088,39.820179],[26.027051,39.820133],[26.027006,39.820083],[26.026937,39.820022],[26.026867,39.819965],[26.026793,39.819915],[26.026724,39.819862],[26.026623,39.819805],[26.026539,39.819742],[26.026485,39.819703],[26.026412,39.819666],[26.026335,39.819603],[26.02623,39.819536],[26.026163,39.819489],[26.026104,39.819443],[26.026082,39.819425],[26.026082,39.819425],[26.026024,39.81938],[26.025962,39.81932],[26.025872,39.819233],[26.025809,39.819184],[26.025745,39.819112],[26.025659,39.819044],[26.025605,39.819006],[26.025539,39.818956],[26.025471,39.818894],[26.025412,39.818855],[26.025344,39.818806],[26.025237,39.818747],[26.025168,39.818711],[26.025069,39.818664],[26.024935,39.818604],[26.024858,39.818562],[26.024669,39.818493],[26.02449,39.818424],[26.02433,39.818362],[26.024231,39.818317],[26.024118,39.818272],[26.024024,39.81822],[26.023926,39.818185],[26.023774,39.818135],[26.023657,39.818086],[26.023577,39.818046],[26.023518,39.818021],[26.023438,39.817983],[26.023319,39.817934],[26.02325,39.817896],[26.023136,39.817848],[26.02304,39.817803],[26.022962,39.817768],[26.02285,39.817719],[26.022729,39.81767],[26.022519,39.817574],[26.022372,39.817508],[26.022254,39.817459],[26.02213,39.817405],[26.021963,39.817328],[26.021855,39.817278],[26.02174,39.81722],[26.021547,39.817125],[26.021395,39.817057],[26.021257,39.816995],[26.021105,39.816929],[26.02091,39.816845],[26.020759,39.81679],[26.02052,39.816706],[26.020295,39.816626],[26.020158,39.816575],[26.02,39.816504],[26.019899,39.816457],[26.01977,39.816403],[26.019678,39.816365],[26.019573,39.816308],[26.019474,39.816251],[26.019353,39.816181],[26.019133,39.816055],[26.019021,39.815991],[26.018914,39.81593],[26.018717,39.815841],[26.018531,39.815763],[26.018366,39.815699],[26.018181,39.815633],[26.01799,39.815562],[26.017853,39.815503],[26.017853,39.815503],[26.017533,39.815386],[26.017107,39.815187],[26.016734,39.814898],[26.016544,39.814702],[26.015783,39.814005],[26.01533,39.813582],[26.014892,39.813418],[26.014467,39.813395],[26.01409,39.813476],[26.013279,39.813511],[26.012864,39.813477],[26.012857,39.813443],[26.012455,39.813095],[26.011941,39.812734],[26.011524,39.8125],[26.011334,39.812367],[26.011286,39.812227],[26.011291,39.812132],[26.011365,39.811967],[26.011511,39.811622],[26.011324,39.8113],[26.011221,39.811342],[26.011118,39.811403],[26.010992,39.811464],[26.010866,39.811529],[26.010752,39.811571],[26.010614,39.811605],[26.010511,39.811625],[26.010374,39.811659],[26.010294,39.811705],[26.010168,39.811781],[26.010054,39.811853],[26.009939,39.811914],[26.009871,39.811983],[26.009768,39.812056],[26.009539,39.812178],[26.009436,39.81222],[26.00931,39.812284],[26.009218,39.812326],[26.009104,39.812353],[26.008875,39.812414],[26.008749,39.812441],[26.008646,39.812487],[26.008535,39.812521],[26.007372,39.812741],[26.006601,39.812913],[26.006168,39.812915],[26.005704,39.812889],[26.005461,39.812794],[26.005301,39.812651],[26.005142,39.812454],[26.005037,39.812301],[26.004976,39.812205],[26.004946,39.812223],[26.004783,39.812452],[26.004663,39.812534],[26.004491,39.812568],[26.004388,39.812517],[26.004269,39.812435],[26.004202,39.812568],[26.004155,39.812699],[26.003994,39.812738],[26.003819,39.812758],[26.003658,39.81281],[26.00358,39.812895],[26.003626,39.812975],[26.003712,39.813067],[26.003832,39.813148],[26.003847,39.813225],[26.003795,39.813273],[26.003793,39.813341],[26.003835,39.813418],[26.003845,39.813457],[26.00382,39.813513],[26.003867,39.813543],[26.003948,39.813584],[26.004093,39.813616],[26.004183,39.813595],[26.004238,39.813591],[26.004289,39.813617],[26.004321,39.813675],[26.004355,39.813756],[26.004331,39.813811],[26.004358,39.813843],[26.004385,39.813837],[26.004454,39.813826],[26.004464,39.813842],[26.004574,39.813859],[26.004668,39.813841],[26.00473,39.813856],[26.004795,39.813958],[26.004827,39.814005],[26.004846,39.814011],[26.004887,39.814011],[26.004912,39.813992],[26.005003,39.813952],[26.005127,39.813922],[26.005246,39.813944],[26.005328,39.814032],[26.005388,39.814174],[26.005376,39.814312],[26.00531,39.814444],[26.00531,39.814491],[26.005373,39.814549],[26.005403,39.814606],[26.005323,39.814948],[26.005268,39.815234],[26.005169,39.815458],[26.004969,39.815811],[26.004651,39.81618],[26.004387,39.816497],[26.004286,39.816584],[26.004194,39.816675],[26.004126,39.816736],[26.004057,39.816805],[26.003897,39.816927],[26.003794,39.816999],[26.003691,39.817076],[26.003676,39.817093],[26.002767,39.817596],[26.002451,39.817779],[26.001923,39.817998],[26.001565,39.818053],[26.001368,39.81811],[26.001219,39.818136],[26.00115,39.818144],[26.001036,39.818163],[26.000898,39.818205],[26.000772,39.818224],[26.000743,39.818224],[26.000086,39.818386],[25.999891,39.818426],[25.999765,39.818468],[25.999651,39.818514],[25.999525,39.818548],[25.99847,39.819071],[25.998061,39.81921],[25.997854,39.819245],[25.997774,39.819245],[25.997643,39.819196],[25.997536,39.819212],[25.997471,39.819283],[25.997364,39.819391],[25.997177,39.819519],[25.997039,39.819684],[25.996953,39.819736],[25.99677,39.819815],[25.996644,39.819926],[25.996335,39.82015],[25.995997,39.82035],[25.995814,39.820451],[25.995762,39.820467],[25.995732,39.820505],[25.99572,39.820548],[25.995749,39.820611],[25.995726,39.820669],[25.995664,39.820744],[25.995583,39.82083],[25.995365,39.820904],[25.995245,39.820914],[25.995207,39.820936],[25.995001,39.821043],[25.994405,39.821305],[25.993925,39.821508],[25.993765,39.821516],[25.993662,39.821524],[25.993513,39.821569],[25.993204,39.821657],[25.993124,39.821692],[25.99301,39.821753],[25.992872,39.821787],[25.992769,39.821798],[25.992632,39.821798],[25.992495,39.821806],[25.992392,39.821833],[25.992266,39.821875],[25.992174,39.821913],[25.99206,39.821939],[25.992042,39.821945],[25.991316,39.822069],[25.991076,39.822069],[25.990961,39.822062],[25.990655,39.822087],[25.990304,39.822054],[25.99006,39.821958],[25.989827,39.821667],[25.989641,39.82147],[25.989433,39.821316],[25.989303,39.821233],[25.989279,39.821226],[25.989153,39.821165],[25.989073,39.821138],[25.988833,39.821038],[25.988731,39.820954],[25.988656,39.820852],[25.988616,39.820723],[25.988593,39.820511],[25.988543,39.820381],[25.988463,39.82024],[25.988406,39.820098],[25.988321,39.819954],[25.988109,39.819722],[25.987922,39.819501],[25.987464,39.819244],[25.987221,39.819174],[25.986946,39.819136],[25.986597,39.819073],[25.986079,39.819055],[25.985773,39.819038],[25.985385,39.819003],[25.985076,39.818891],[25.984876,39.818763],[25.984709,39.818615],[25.984514,39.818355],[25.984368,39.818277],[25.984193,39.818233],[25.983981,39.818313],[25.983836,39.818441],[25.983682,39.818746],[25.983588,39.818951],[25.98339,39.819224],[25.983204,39.819427],[25.983032,39.81955],[25.982796,39.819714],[25.982508,39.819867],[25.981948,39.820091],[25.981668,39.82019],[25.981371,39.820299],[25.981191,39.820328],[25.980929,39.820328],[25.980547,39.820281],[25.980498,39.82025],[25.980446,39.820237],[25.98037,39.820232],[25.980329,39.820234],[25.980274,39.820272],[25.980225,39.820321],[25.980126,39.820404],[25.979878,39.820564],[25.979756,39.820646],[25.979665,39.820665],[25.979581,39.820675],[25.979532,39.820727],[25.979481,39.820765],[25.979415,39.820857],[25.979435,39.820936],[25.979414,39.820998],[25.979228,39.82114],[25.97866,39.821499],[25.977978,39.82183],[25.977683,39.821948],[25.977502,39.821958],[25.977172,39.82195],[25.976941,39.82193],[25.976587,39.821831],[25.976342,39.821769],[25.976146,39.821732],[25.976062,39.821734],[25.975998,39.821773],[25.975923,39.821906],[25.975782,39.822061],[25.975754,39.822113],[25.97575,39.822157],[25.975762,39.822265],[25.975677,39.822301],[25.97544,39.822252],[25.975304,39.822252],[25.97525,39.822223],[25.975168,39.821999],[25.975069,39.8219],[25.975008,39.82193],[25.974953,39.821985],[25.974847,39.822128],[25.974752,39.822226],[25.974627,39.822305],[25.974577,39.822343],[25.974128,39.822746],[25.973051,39.823399],[25.971281,39.824564],[25.970274,39.82544],[25.970219,39.825597],[25.970252,39.825689],[25.970428,39.825912],[25.970494,39.826316],[25.970341,39.826888],[25.96942,39.829175],[25.968576,39.830395],[25.968477,39.83047],[25.968323,39.830479],[25.968236,39.830553],[25.968292,39.830619],[25.968415,39.8307],[25.968484,39.830921],[25.968399,39.831233],[25.968235,39.831424],[25.968191,39.831663],[25.96798,39.832015],[25.967625,39.832554],[25.967075,39.832992],[25.966262,39.833568],[25.965351,39.834208],[25.965081,39.834332],[25.964972,39.834341],[25.964776,39.834341],[25.964592,39.834466],[25.964301,39.834805],[25.964276,39.834918],[25.964199,39.834992],[25.964103,39.835035],[25.964028,39.835032],[25.963903,39.835055],[25.963751,39.835077],[25.963649,39.83512],[25.963646,39.835158],[25.96367,39.835192],[25.963736,39.835246],[25.96376,39.835315],[25.96371,39.835431],[25.963641,39.835534],[25.963558,39.83567],[25.963495,39.835729],[25.96339,39.835808],[25.963382,39.835826],[25.963152,39.836125],[25.962944,39.836436],[25.962959,39.83646],[25.962959,39.83651],[25.962903,39.836596],[25.96286,39.836614],[25.962894,39.836652],[25.962929,39.836667],[25.962956,39.836708],[25.96297,39.836743],[25.962938,39.836774],[25.962961,39.83681],[25.963002,39.836826],[25.963026,39.836847],[25.96302,39.836912],[25.963021,39.836941],[25.963135,39.837019],[25.963173,39.837093],[25.963311,39.837199],[25.963358,39.837314],[25.963366,39.837529],[25.963312,39.837771],[25.963215,39.837957],[25.963113,39.838131],[25.962973,39.838228],[25.96282,39.83835],[25.962706,39.838393],[25.962533,39.838399],[25.962466,39.838377],[25.962414,39.838406],[25.962441,39.838455],[25.96249,39.838481],[25.962495,39.838516],[25.962466,39.83858],[25.962342,39.838626],[25.962307,39.838696],[25.962332,39.838706],[25.962389,39.838696],[25.962449,39.838679],[25.962464,39.838688],[25.962466,39.838713],[25.962441,39.838723],[25.962409,39.838747],[25.962418,39.838768],[25.962462,39.838835],[25.962495,39.838844],[25.962524,39.838834],[25.962586,39.838806],[25.962635,39.838799],[25.962648,39.838807],[25.962666,39.838829],[25.962667,39.838844],[25.962652,39.838864],[25.962617,39.838884],[25.962602,39.838899],[25.962597,39.838912],[25.962622,39.838923],[25.962706,39.838955],[25.962731,39.838955],[25.962741,39.838992],[25.962747,39.839069],[25.962747,39.8391],[25.962728,39.839103],[25.962702,39.839119],[25.962686,39.839132],[25.962702,39.839144],[25.962721,39.839146],[25.96275,39.839158],[25.962757,39.83917],[25.962758,39.839196],[25.962766,39.839199],[25.962781,39.839224],[25.96277,39.839228],[25.962766,39.839241],[25.962769,39.839253],[25.962775,39.83926],[25.962788,39.839269],[25.962771,39.839279],[25.962772,39.839303],[25.962785,39.83932],[25.962798,39.839335],[25.962835,39.839359],[25.96285,39.839388],[25.962836,39.839407],[25.962841,39.839416],[25.962857,39.839429],[25.962926,39.839454],[25.963036,39.839513],[25.963226,39.839627],[25.963264,39.839619],[25.963282,39.839617],[25.963305,39.839605],[25.96332,39.839581],[25.963334,39.839574],[25.963364,39.839588],[25.963391,39.83963],[25.963404,39.839665],[25.963416,39.839682],[25.963438,39.839694],[25.96347,39.839686],[25.963499,39.839677],[25.963529,39.839659],[25.963563,39.839647],[25.963601,39.839641],[25.96364,39.839641],[25.963662,39.839645],[25.963682,39.83965],[25.963702,39.839657],[25.963721,39.839667],[25.963736,39.839677],[25.963751,39.839689],[25.963763,39.839702],[25.963773,39.839716],[25.963783,39.839726],[25.963794,39.83973],[25.963805,39.839706],[25.96382,39.839691],[25.963848,39.83969],[25.96386,39.839699],[25.963872,39.839696],[25.963873,39.839691],[25.963959,39.839628],[25.964126,39.839563],[25.964196,39.839546],[25.964431,39.83943],[25.964662,39.839413],[25.965115,39.839392],[25.966032,39.839377],[25.966489,39.839468],[25.967022,39.839483],[25.967771,39.839451],[25.968471,39.839361],[25.969265,39.839268],[25.969656,39.839273],[25.970086,39.839337],[25.970455,39.839335],[25.971305,39.839334],[25.971333,39.839331],[25.971952,39.839337],[25.972333,39.839363],[25.972944,39.839434],[25.973301,39.839482],[25.973722,39.839504],[25.973979,39.83955],[25.974348,39.839667],[25.974442,39.83967],[25.974511,39.83965],[25.974558,39.839629],[25.97509,39.839636],[25.97621,39.839646],[25.977509,39.839718],[25.978493,39.839809],[25.979199,39.839996],[25.979759,39.840148],[25.980123,39.840319],[25.980349,39.84045],[25.98043,39.840619],[25.980463,39.840826],[25.980703,39.841197],[25.980917,39.84144],[25.981016,39.841436],[25.981455,39.841397],[25.982833,39.841366],[25.983178,39.84134],[25.98363,39.841278],[25.984418,39.84118],[25.985381,39.841092],[25.986469,39.841007],[25.98729,39.840966],[25.987861,39.840932],[25.988,39.84102],[25.988034,39.841017],[25.988167,39.8409],[25.988328,39.840912],[25.989088,39.840913],[25.98972,39.840933],[25.990051,39.840936],[25.990275,39.840959],[25.990844,39.841027],[25.991487,39.841085],[25.991884,39.841136],[25.992073,39.841198],[25.992165,39.841237],[25.992172,39.841288],[25.99227,39.841302],[25.992456,39.841337],[25.992557,39.841371],[25.992664,39.841495],[25.99278,39.84149],[25.992979,39.841493],[25.993648,39.841548],[25.994132,39.841631],[25.99443,39.84169],[25.994767,39.84181],[25.995076,39.841966],[25.995215,39.842073],[25.995393,39.842439],[25.995414,39.842492],[25.9954,39.842517],[25.995329,39.842558],[25.995245,39.84259],[25.995204,39.842648],[25.995158,39.842719],[25.995315,39.84276],[25.995772,39.842748],[25.99587,39.842754],[25.996004,39.842775],[25.996069,39.842796],[25.996308,39.842822],[25.996668,39.842886],[25.996859,39.842925],[25.997154,39.843026],[25.99754,39.843198],[25.99769,39.843276],[25.997776,39.843379],[25.997825,39.843506],[25.997819,39.843638],[25.997821,39.843664],[25.997878,39.843721],[25.997894,39.843746],[25.997891,39.843787],[25.997872,39.843822],[25.997882,39.843855],[25.997923,39.843882],[25.99799,39.843938],[25.998073,39.844048],[25.998092,39.844174],[25.998063,39.844277],[25.998066,39.844366],[25.998094,39.844567],[25.998331,39.844678],[25.998563,39.844724],[25.998723,39.844709],[25.998836,39.844637],[25.999042,39.844483],[25.999301,39.844402],[25.999654,39.844315],[25.999946,39.844261],[26.00033,39.844204],[26.001124,39.844076],[26.002096,39.843938],[26.003146,39.843849],[26.003455,39.843887],[26.003702,39.843909],[26.003876,39.843918],[26.003893,39.843932],[26.003893,39.843948],[26.003862,39.843997],[26.00388,39.84401],[26.003912,39.844018],[26.003964,39.843983],[26.004012,39.843959],[26.004049,39.843905],[26.004065,39.843914],[26.0041,39.843946],[26.004098,39.843973],[26.004093,39.843998],[26.004097,39.844012],[26.004111,39.844012],[26.00414,39.843998],[26.004164,39.843995],[26.004174,39.843986],[26.00423,39.843983],[26.004432,39.844007],[26.004447,39.844005],[26.004469,39.844001],[26.004497,39.843985],[26.004534,39.843969],[26.004577,39.843969],[26.004617,39.843978],[26.004657,39.844003],[26.004687,39.844029],[26.004734,39.844059],[26.004792,39.844083],[26.004852,39.844087],[26.004865,39.844084],[26.004898,39.844094],[26.004941,39.844121],[26.004953,39.844132],[26.005023,39.844138],[26.005057,39.844163],[26.005081,39.844168],[26.005113,39.844165],[26.005136,39.844114],[26.005143,39.844103],[26.005162,39.844094],[26.005233,39.844118],[26.005299,39.844119],[26.005416,39.844134],[26.00544,39.844124],[26.005574,39.844123],[26.005637,39.844141],[26.005707,39.844141],[26.005782,39.844122],[26.005902,39.844061],[26.005959,39.844045],[26.006179,39.844014],[26.006458,39.843995],[26.006588,39.843992],[26.006668,39.84402],[26.006683,39.844019],[26.007268,39.844025],[26.007476,39.84402],[26.007573,39.84402],[26.007683,39.843975],[26.007916,39.843955],[26.008386,39.843937],[26.00843,39.843953],[26.008449,39.843984],[26.008444,39.844008],[26.008444,39.844028],[26.008502,39.844035],[26.008632,39.844034],[26.008664,39.844007],[26.008747,39.843976],[26.008846,39.843953],[26.009072,39.843945],[26.009233,39.843917],[26.00955,39.843913],[26.009893,39.843943],[26.010007,39.843983],[26.010107,39.84397],[26.010259,39.843962],[26.010575,39.843952],[26.010848,39.843935],[26.011023,39.843936],[26.011289,39.843885],[26.011667,39.843867],[26.011749,39.843878],[26.011764,39.843876],[26.012842,39.843872],[26.013777,39.843894],[26.013887,39.84392],[26.014001,39.843987],[26.014107,39.844091],[26.014161,39.844151],[26.014179,39.844217],[26.014203,39.844247],[26.014287,39.844289],[26.014548,39.844416],[26.014712,39.844497],[26.015042,39.844638],[26.015278,39.844718],[26.015337,39.844735],[26.015444,39.844739],[26.015766,39.844854],[26.015852,39.844879],[26.015982,39.844899],[26.016083,39.844891],[26.016163,39.844848],[26.016204,39.844778],[26.016241,39.844739],[26.016346,39.844691],[26.016488,39.844637],[26.016671,39.844606],[26.016837,39.844605],[26.017002,39.844633],[26.017311,39.844589],[26.017481,39.84456],[26.017926,39.84446],[26.018406,39.844446],[26.018972,39.844458],[26.019174,39.844473],[26.019245,39.844471],[26.01975,39.844431],[26.020479,39.84437],[26.021159,39.844383],[26.022082,39.844403],[26.022733,39.844339],[26.023731,39.844195],[26.024677,39.84399],[26.025907,39.843819],[26.027095,39.84359],[26.027909,39.843443],[26.028668,39.843383],[26.029631,39.843288],[26.030734,39.843289],[26.030765,39.843287],[26.03113,39.843285],[26.031586,39.843175],[26.03211,39.842973],[26.032907,39.842619],[26.03412,39.842127],[26.034541,39.84198],[26.035187,39.841829],[26.035766,39.841663],[26.036002,39.841628],[26.036246,39.841616],[26.036798,39.841643],[26.036984,39.841635],[26.03704,39.841628],[26.037426,39.841555],[26.037866,39.841533],[26.038056,39.841547],[26.038507,39.841669],[26.038528,39.841674],[26.038864,39.841798],[26.039255,39.842039],[26.039507,39.842316],[26.039514,39.8427],[26.039569,39.842801],[26.039801,39.843106],[26.040001,39.843347],[26.040412,39.843736],[26.04102,39.844117],[26.041888,39.844526],[26.042023,39.844313],[26.042704,39.844311],[26.042752,39.844255],[26.042813,39.844233],[26.042923,39.844233],[26.043079,39.844242],[26.043173,39.844233],[26.043277,39.844225],[26.044254,39.844282],[26.044718,39.84428],[26.045063,39.844311],[26.045365,39.844395],[26.045386,39.844399],[26.045593,39.844472],[26.045657,39.844542],[26.045856,39.844749],[26.04591,39.844789],[26.046228,39.844914],[26.046669,39.84507],[26.046894,39.845167],[26.047033,39.845243],[26.047075,39.845287],[26.04711,39.845331],[26.047349,39.845424],[26.047873,39.845583],[26.048054,39.845604],[26.048184,39.845636],[26.048237,39.845668],[26.048321,39.845775],[26.048382,39.84581],[26.048492,39.84585],[26.048652,39.845861],[26.048818,39.84591],[26.049358,39.846034],[26.049708,39.846137],[26.050074,39.846288],[26.050162,39.846341],[26.050196,39.846376],[26.050254,39.846469],[26.050289,39.846519],[26.050356,39.846549],[26.050447,39.846598],[26.05062,39.846655],[26.050935,39.846779],[26.05103,39.846746],[26.051087,39.846754],[26.051195,39.846796],[26.051258,39.846827],[26.051319,39.846836],[26.051362,39.846829],[26.051407,39.846812],[26.051454,39.846777],[26.051509,39.84675]]],[[[26.022688,39.847474],[26.022702,39.847431],[26.022562,39.847432],[26.022563,39.847491],[26.022621,39.847496],[26.022659,39.84752],[26.022688,39.847474]]],[[[26.022664,39.847663],[26.022644,39.847625],[26.022549,39.847658],[26.022428,39.847547],[26.022297,39.847661],[26.022419,39.847664],[26.022519,39.847676],[26.022664,39.847663]]],[[[26.03463,39.850304],[26.034562,39.850215],[26.034378,39.850115],[26.034299,39.850116],[26.034244,39.850171],[26.034152,39.850208],[26.034043,39.850188],[26.033879,39.850103],[26.033877,39.85005],[26.033798,39.850009],[26.033739,39.850012],[26.033624,39.849903],[26.033555,39.849919],[26.033214,39.849865],[26.033087,39.849795],[26.032972,39.849712],[26.032984,39.849552],[26.032831,39.849538],[26.032875,39.849753],[26.033007,39.849815],[26.033043,39.84989],[26.033006,39.849922],[26.033029,39.85002],[26.033531,39.850394],[26.033568,39.850384],[26.033591,39.850314],[26.033611,39.850308],[26.033666,39.850296],[26.033744,39.850336],[26.033868,39.850339],[26.033986,39.850354],[26.034086,39.850309],[26.03423,39.850239],[26.034322,39.850217],[26.034458,39.850235],[26.03464,39.850334],[26.034669,39.850386],[26.034687,39.850502],[26.034735,39.850569],[26.034785,39.850553],[26.034749,39.85048],[26.034717,39.850453],[26.03472,39.850428],[26.034755,39.850383],[26.034786,39.850343],[26.034737,39.850306],[26.03463,39.850304]]],[[[25.993369,39.850079],[25.993421,39.850055],[25.993537,39.850077],[25.993671,39.850083],[25.993777,39.850094],[25.993817,39.850077],[25.993823,39.85001],[25.993856,39.849921],[25.99391,39.849805],[25.993995,39.849722],[25.994004,39.849619],[25.993952,39.849468],[25.993891,39.849365],[25.993855,39.849309],[25.993806,39.849265],[25.993798,39.849164],[25.993772,39.849034],[25.993709,39.848995],[25.993627,39.849023],[25.993529,39.849123],[25.993391,39.849256],[25.993249,39.849302],[25.993169,39.849368],[25.99317,39.849448],[25.993199,39.849709],[25.993207,39.849786],[25.993152,39.84985],[25.993065,39.84991],[25.992945,39.849955],[25.992863,39.849996],[25.992818,39.850049],[25.992812,39.850137],[25.992819,39.850167],[25.992885,39.850206],[25.993,39.850253],[25.993127,39.850239],[25.993214,39.850203],[25.993319,39.850128],[25.993369,39.850079]]],[[[25.995193,39.8506],[25.995084,39.850386],[25.995041,39.850496],[25.994926,39.85052],[25.994936,39.850655],[25.995015,39.850759],[25.995104,39.85077],[25.995219,39.850704],[25.995193,39.8506]]],[[[26.059797,39.851955],[26.059605,39.851951],[26.059455,39.851996],[26.059395,39.852065],[26.059373,39.852135],[26.059428,39.852188],[26.05944,39.852231],[26.059579,39.852278],[26.059649,39.852276],[26.059642,39.852143],[26.059777,39.852126],[26.059806,39.85208],[26.059797,39.851955]]],[[[26.075093,39.919376],[26.075477,39.919307],[26.075737,39.919324],[26.076015,39.919359],[26.076157,39.919365],[26.076405,39.919329],[26.076592,39.919292],[26.076662,39.919155],[26.076527,39.91902],[26.076453,39.91902],[26.076379,39.918971],[26.076392,39.918924],[26.07635,39.918852],[26.076239,39.918837],[26.076127,39.91885],[26.076036,39.918706],[26.075975,39.918649],[26.075827,39.918614],[26.075814,39.918686],[26.075843,39.918786],[26.075811,39.918895],[26.075655,39.918999],[26.075443,39.919102],[26.075052,39.919209],[26.074766,39.919244],[26.074439,39.919218],[26.074111,39.919163],[26.073716,39.919112],[26.073464,39.919015],[26.07336,39.918909],[26.073162,39.91885],[26.072975,39.918968],[26.072912,39.919082],[26.072861,39.919148],[26.07296,39.919197],[26.07305,39.919355],[26.073028,39.919612],[26.073121,39.919665],[26.073213,39.919685],[26.073243,39.919795],[26.07321,39.919928],[26.073258,39.920004],[26.073437,39.920049],[26.073498,39.920102],[26.073578,39.920131],[26.07364,39.920131],[26.073836,39.920314],[26.074001,39.920501],[26.074124,39.920536],[26.074101,39.920369],[26.074123,39.920164],[26.074286,39.919984],[26.074393,39.919856],[26.074649,39.91971],[26.074755,39.919635],[26.074849,39.919531],[26.075093,39.919376]]],[[[26.085736,39.920851],[26.085875,39.920492],[26.086166,39.920368],[26.08633,39.920284],[26.086335,39.919958],[26.086256,39.91974],[26.086318,39.919557],[26.086389,39.919215],[26.086325,39.919014],[26.086163,39.918887],[26.085883,39.918776],[26.085422,39.918778],[26.084843,39.918722],[26.084406,39.918633],[26.084162,39.91858],[26.08411,39.918562],[26.083896,39.918469],[26.083778,39.918439],[26.083474,39.918414],[26.082975,39.91849],[26.082535,39.918595],[26.08223,39.918667],[26.081841,39.918876],[26.081735,39.919046],[26.081903,39.919185],[26.08211,39.919284],[26.082273,39.919331],[26.082752,39.919598],[26.083002,39.919766],[26.083298,39.919865],[26.083614,39.920108],[26.083849,39.920304],[26.083996,39.920443],[26.084284,39.920588],[26.084446,39.920698],[26.084676,39.920734],[26.084764,39.920769],[26.084787,39.920712],[26.084936,39.920713],[26.085172,39.920806],[26.085475,39.920946],[26.085586,39.920947],[26.085661,39.920908],[26.085736,39.920851]]],[[[26.052728,39.931164],[26.052897,39.931139],[26.053065,39.931159],[26.053243,39.931164],[26.05386,39.930964],[26.05389,39.930903],[26.053976,39.930812],[26.054111,39.930733],[26.054299,39.930696],[26.054418,39.930709],[26.054517,39.930744],[26.054621,39.930711],[26.054567,39.930641],[26.054444,39.930621],[26.054317,39.930506],[26.053993,39.930317],[26.053795,39.930239],[26.053534,39.93016],[26.053095,39.930023],[26.05273,39.929925],[26.052344,39.929903],[26.052017,39.92995],[26.051649,39.930034],[26.051484,39.930136],[26.051373,39.930284],[26.051416,39.930395],[26.051455,39.930456],[26.051542,39.930617],[26.05165,39.930702],[26.051889,39.930951],[26.052396,39.931184],[26.052593,39.931258],[26.052728,39.931164]]],[[[26.057709,39.932467],[26.057626,39.93244],[26.05752,39.932463],[26.057482,39.932508],[26.057454,39.93256],[26.057441,39.932598],[26.057446,39.932687],[26.057486,39.932675],[26.057517,39.932654],[26.057549,39.932628],[26.057688,39.932603],[26.057899,39.93259],[26.057853,39.932533],[26.057709,39.932467]]],[[[26.062486,39.940035],[26.063204,39.93969],[26.063999,39.939513],[26.064971,39.939399],[26.065807,39.939116],[26.066683,39.938818],[26.067437,39.938687],[26.067911,39.938813],[26.068267,39.938877],[26.068609,39.938468],[26.06893,39.938165],[26.069495,39.937453],[26.069933,39.937258],[26.071145,39.937024],[26.072036,39.937016],[26.072737,39.936503],[26.07365,39.936327],[26.074266,39.936195],[26.074937,39.936429],[26.07537,39.936631],[26.076061,39.936789],[26.076276,39.937004],[26.076472,39.937173],[26.077143,39.937331],[26.077537,39.937517],[26.078303,39.938011],[26.0786,39.938014],[26.079,39.937773],[26.078644,39.937678],[26.078271,39.937447],[26.077901,39.937002],[26.077886,39.93662],[26.077018,39.936354],[26.076153,39.935844],[26.075192,39.935104],[26.074698,39.935039],[26.074048,39.934729],[26.073757,39.934315],[26.073464,39.933977],[26.072838,39.933423],[26.072486,39.933039],[26.072094,39.932746],[26.071401,39.93271],[26.070691,39.932476],[26.070061,39.932211],[26.06947,39.931947],[26.068602,39.931727],[26.068126,39.931769],[26.067688,39.931918],[26.066193,39.932607],[26.064757,39.933282],[26.062273,39.933872],[26.060547,39.934026],[26.059204,39.933771],[26.059043,39.933937],[26.058819,39.934393],[26.058796,39.934621],[26.058952,39.93479],[26.058967,39.935126],[26.058841,39.935659],[26.058497,39.936159],[26.058014,39.936765],[26.05789,39.9371],[26.0581,39.937712],[26.058683,39.938525],[26.059312,39.938865],[26.060139,39.939253],[26.060665,39.939913],[26.060901,39.940022],[26.061318,39.939964],[26.061911,39.940061],[26.062486,39.940035]]]]}}]}