{"type":"FeatureCollection","name":"turkiye_map.dist.mahalle_geometrileri_by_district.TR-D-41-004","features":[{"type":"Feature","properties":{"id":"TR-Y-41-004-M-0001","level":"yerlesim","type":"mahalle","parent_id":"TR-D-41-004","province_id":"TR-P-41","district_id":"TR-D-41-004","name":"Çavuşlu","source_raw_name":"Çavuşlu","source":"Kullanıcı tarafından sağlanan KML","source_label":"Kullanıcı tarafından sağlanan KML","source_name":"Kocaeli Mahalle KML - kullanıcı tarafından sağlandı"},"geometry":{"type":"Polygon","coordinates":[[[29.814343,40.911067],[29.813879,40.911378],[29.81354,40.912254],[29.814423,40.913533],[29.814514,40.913809],[29.814425,40.91438],[29.812916,40.916809],[29.813754,40.916578],[29.814403,40.916546],[29.81693,40.916116],[29.818554,40.916685],[29.819638,40.917405],[29.820935,40.917913],[29.821803,40.918597],[29.821985,40.918895],[29.822578,40.919232],[29.822569,40.919446],[29.822703,40.91965],[29.823042,40.919937],[29.822937,40.920185],[29.82311,40.920643],[29.8231,40.921009],[29.824075,40.922465],[29.824798,40.922845],[29.825037,40.922778],[29.825462,40.923063],[29.825402,40.923268],[29.82573,40.92368],[29.826223,40.92374],[29.826137,40.924259],[29.826315,40.924606],[29.826834,40.924881],[29.826892,40.925073],[29.827491,40.925373],[29.827907,40.925894],[29.828346,40.926182],[29.828612,40.926505],[29.830203,40.927475],[29.830568,40.928144],[29.831248,40.928611],[29.832118,40.929617],[29.832312,40.930142],[29.833026,40.930821],[29.833685,40.931283],[29.834106,40.931837],[29.834822,40.931881],[29.83522,40.932058],[29.835414,40.9323],[29.835353,40.93259],[29.835728,40.932961],[29.835804,40.933413],[29.835925,40.933549],[29.836,40.933931],[29.835856,40.934193],[29.836188,40.934228],[29.836275,40.934136],[29.836545,40.934146],[29.837597,40.934342],[29.838421,40.934001],[29.840864,40.93569],[29.842108,40.936033],[29.843148,40.936205],[29.84376,40.936479],[29.843234,40.936537],[29.842482,40.936843],[29.840683,40.938294],[29.839854,40.938691],[29.840125,40.938927],[29.84108,40.940285],[29.841996,40.94085],[29.84251,40.940896],[29.84254,40.941057],[29.842378,40.941318],[29.842177,40.941399],[29.842036,40.941675],[29.842053,40.942083],[29.841676,40.942504],[29.841848,40.942968],[29.841748,40.943347],[29.841011,40.944163],[29.841049,40.94451],[29.840755,40.944967],[29.840805,40.94528],[29.840589,40.945703],[29.84074,40.946293],[29.840507,40.946218],[29.840431,40.947006],[29.839657,40.947246],[29.839032,40.94755],[29.838825,40.947547],[29.838664,40.947654],[29.838672,40.947892],[29.838783,40.948238],[29.839106,40.948506],[29.83902,40.948752],[29.838927,40.948657],[29.838909,40.949078],[29.839351,40.949817],[29.839889,40.950371],[29.841157,40.951317],[29.841849,40.952026],[29.842622,40.953221],[29.842979,40.954433],[29.843967,40.955339],[29.844434,40.95546],[29.844689,40.955744],[29.845526,40.956172],[29.846143,40.956757],[29.846411,40.957919],[29.846298,40.958727],[29.846772,40.959223],[29.847018,40.959699],[29.847082,40.960971],[29.847695,40.960962],[29.849341,40.961432],[29.852338,40.96197],[29.852799,40.961767],[29.853186,40.96141],[29.854117,40.961051],[29.856424,40.964233],[29.858819,40.964014],[29.860784,40.96427],[29.861589,40.964266],[29.863178,40.963729],[29.863895,40.963627],[29.864167,40.963457],[29.864321,40.963227],[29.864527,40.963576],[29.864807,40.96316],[29.864908,40.963155],[29.864988,40.962655],[29.86464,40.961422],[29.864682,40.961079],[29.865136,40.960227],[29.865661,40.959742],[29.865983,40.959173],[29.86652,40.958901],[29.866806,40.958557],[29.866859,40.958287],[29.866715,40.957759],[29.866883,40.957241],[29.867627,40.956702],[29.867589,40.956629],[29.868262,40.956254],[29.868235,40.955679],[29.868457,40.95493],[29.868501,40.953843],[29.868254,40.954007],[29.868114,40.953969],[29.868325,40.953385],[29.86832,40.953083],[29.868089,40.952921],[29.867783,40.952235],[29.867274,40.951699],[29.866991,40.951022],[29.866967,40.950136],[29.867123,40.949975],[29.866838,40.949827],[29.866337,40.94978],[29.866449,40.949351],[29.866383,40.949097],[29.865782,40.948856],[29.865414,40.94856],[29.864992,40.948633],[29.864117,40.948512],[29.863967,40.948333],[29.863531,40.94833],[29.863277,40.94817],[29.862956,40.948319],[29.862679,40.948306],[29.862942,40.947818],[29.863238,40.946532],[29.863556,40.945878],[29.863428,40.94489],[29.86357,40.944631],[29.863811,40.944556],[29.86405,40.944639],[29.864178,40.944907],[29.864264,40.944909],[29.864469,40.94457],[29.864663,40.944551],[29.864685,40.94373],[29.865458,40.943355],[29.865333,40.942837],[29.865644,40.942265],[29.865154,40.942045],[29.864673,40.942008],[29.864207,40.941834],[29.864462,40.941585],[29.864205,40.940795],[29.864276,40.940678],[29.863912,40.940167],[29.863414,40.939801],[29.863208,40.939495],[29.863006,40.939429],[29.862953,40.93917],[29.862683,40.939025],[29.862704,40.938882],[29.862378,40.938762],[29.862315,40.938563],[29.861421,40.938099],[29.861028,40.937489],[29.861031,40.937241],[29.861263,40.936845],[29.861246,40.936612],[29.861521,40.936427],[29.861716,40.936021],[29.862119,40.935561],[29.863197,40.935255],[29.864023,40.934882],[29.863625,40.934586],[29.863176,40.934732],[29.862783,40.934586],[29.862709,40.93414],[29.863293,40.93391],[29.863585,40.933652],[29.863266,40.933622],[29.862486,40.933237],[29.863072,40.932994],[29.862427,40.932889],[29.86228,40.932664],[29.86253,40.932446],[29.862121,40.932326],[29.862359,40.932091],[29.862934,40.931925],[29.863273,40.931485],[29.863867,40.931549],[29.863549,40.931356],[29.863002,40.930798],[29.863122,40.930358],[29.862687,40.929178],[29.862755,40.928271],[29.862149,40.928046],[29.862816,40.927973],[29.862417,40.927313],[29.862515,40.927103],[29.861838,40.926709],[29.86131,40.925914],[29.860667,40.923698],[29.86051,40.922056],[29.860592,40.921797],[29.861016,40.921342],[29.861239,40.919844],[29.861509,40.918893],[29.861823,40.918257],[29.862626,40.917094],[29.863216,40.916569],[29.86409,40.91542],[29.864551,40.915002],[29.863858,40.914779],[29.863517,40.914312],[29.863442,40.914044],[29.863688,40.91343],[29.863652,40.912362],[29.863555,40.912049],[29.863179,40.911916],[29.862895,40.911567],[29.862814,40.910604],[29.862992,40.909275],[29.862852,40.908643],[29.863137,40.907963],[29.863189,40.907388],[29.863008,40.90682],[29.864032,40.906665],[29.864581,40.90686],[29.864647,40.906557],[29.865436,40.906273],[29.865868,40.90631],[29.866097,40.906072],[29.866465,40.905936],[29.867651,40.905998],[29.868564,40.90625],[29.87019,40.906223],[29.870604,40.905959],[29.870775,40.905562],[29.871118,40.90524],[29.871024,40.904886],[29.871116,40.904193],[29.871633,40.90327],[29.872031,40.903091],[29.871731,40.901987],[29.871955,40.901519],[29.871335,40.900947],[29.871383,40.90056],[29.870559,40.900368],[29.870063,40.900151],[29.870252,40.89968],[29.870029,40.899693],[29.869466,40.899944],[29.869389,40.899686],[29.869531,40.899518],[29.869448,40.899391],[29.869505,40.899223],[29.869268,40.898954],[29.869423,40.898757],[29.869655,40.898685],[29.869776,40.898328],[29.87011,40.898135],[29.870026,40.897664],[29.870494,40.897569],[29.870346,40.897472],[29.870291,40.897133],[29.870654,40.89637],[29.870388,40.896075],[29.870333,40.895853],[29.87011,40.895775],[29.870153,40.895181],[29.86986,40.894683],[29.869677,40.894588],[29.869784,40.894351],[29.869655,40.893885],[29.870009,40.89309],[29.870008,40.892621],[29.870355,40.892542],[29.870554,40.89187],[29.870574,40.891604],[29.870441,40.891475],[29.870488,40.891225],[29.870308,40.890865],[29.870396,40.890555],[29.870751,40.890203],[29.870915,40.889746],[29.871572,40.888847],[29.871711,40.887951],[29.871673,40.887255],[29.871874,40.886566],[29.872507,40.885815],[29.872813,40.885697],[29.872941,40.885361],[29.871365,40.88553],[29.871285,40.885458],[29.870567,40.88568],[29.869375,40.885731],[29.869412,40.885823],[29.869059,40.88596],[29.868195,40.886747],[29.867327,40.886892],[29.866886,40.887452],[29.866844,40.887886],[29.866307,40.889289],[29.865364,40.890711],[29.864062,40.891608],[29.862144,40.891637],[29.861613,40.891726],[29.861451,40.891628],[29.860662,40.892185],[29.860239,40.892239],[29.859689,40.892175],[29.859572,40.892467],[29.859105,40.89232],[29.858049,40.891607],[29.85672,40.890423],[29.856589,40.890706],[29.856889,40.891251],[29.856742,40.891611],[29.856418,40.891962],[29.855951,40.892137],[29.855589,40.892421],[29.855144,40.892918],[29.856032,40.893869],[29.856468,40.895046],[29.85639,40.895333],[29.856135,40.895371],[29.855495,40.895718],[29.855524,40.896746],[29.855844,40.897354],[29.856095,40.897599],[29.855949,40.898257],[29.855098,40.898539],[29.854104,40.898657],[29.853235,40.898568],[29.853115,40.898351],[29.851024,40.898262],[29.850293,40.898054],[29.850237,40.898339],[29.849847,40.898469],[29.848499,40.898439],[29.847967,40.898645],[29.846774,40.898459],[29.845504,40.899118],[29.844937,40.899225],[29.842599,40.900985],[29.841735,40.901257],[29.840516,40.902343],[29.839547,40.902507],[29.838123,40.903169],[29.837051,40.904178],[29.836422,40.905105],[29.836,40.906012],[29.835139,40.906599],[29.83476,40.906719],[29.83427,40.906725],[29.833331,40.906391],[29.832657,40.906299],[29.832453,40.906413],[29.831537,40.907434],[29.831451,40.907714],[29.8303,40.908417],[29.830253,40.908111],[29.830066,40.908115],[29.829874,40.907488],[29.828199,40.908069],[29.828088,40.908309],[29.827818,40.908471],[29.82776,40.908307],[29.827022,40.908185],[29.827014,40.908326],[29.827239,40.908431],[29.827119,40.908617],[29.825913,40.909246],[29.825431,40.909345],[29.824679,40.909283],[29.824285,40.90917],[29.824265,40.909083],[29.823259,40.908925],[29.822607,40.908966],[29.821869,40.909276],[29.821153,40.909372],[29.820467,40.909373],[29.819255,40.909216],[29.819301,40.909332],[29.818105,40.909464],[29.81687,40.909792],[29.816278,40.910309],[29.81628,40.910506],[29.81574,40.910891],[29.815356,40.910549],[29.814343,40.911067]]]}},{"type":"Feature","properties":{"id":"TR-Y-41-004-M-0002","level":"yerlesim","type":"mahalle","parent_id":"TR-D-41-004","province_id":"TR-P-41","district_id":"TR-D-41-004","name":"Çenedağ","source_raw_name":"Çenedağ","source":"Kullanıcı tarafından sağlanan KML","source_label":"Kullanıcı tarafından sağlanan KML","source_name":"Kocaeli Mahalle KML - kullanıcı tarafından sağlandı"},"geometry":{"type":"Polygon","coordinates":[[[29.832269,40.769266],[29.834783,40.769178],[29.840274,40.768568],[29.839541,40.766577],[29.839469,40.76545],[29.839204,40.765054],[29.839147,40.764701],[29.839389,40.764262],[29.839264,40.763842],[29.839334,40.763447],[29.839059,40.76233],[29.83912,40.760663],[29.839,40.760299],[29.83911,40.759171],[29.839598,40.757745],[29.834862,40.756377],[29.833604,40.75609],[29.832528,40.756001],[29.829469,40.756076],[29.829028,40.758228],[29.828759,40.761402],[29.828301,40.763673],[29.82763,40.765703],[29.827408,40.767397],[29.827028,40.767895],[29.826719,40.76877],[29.830016,40.769245],[29.832269,40.769266]]]}},{"type":"Feature","properties":{"id":"TR-Y-41-004-M-0003","level":"yerlesim","type":"mahalle","parent_id":"TR-D-41-004","province_id":"TR-P-41","district_id":"TR-D-41-004","name":"Çınarlı","source_raw_name":"Çınarlı","source":"Kullanıcı tarafından sağlanan KML","source_label":"Kullanıcı tarafından sağlanan KML","source_name":"Kocaeli Mahalle KML - kullanıcı tarafından sağlandı"},"geometry":{"type":"Polygon","coordinates":[[[29.825765,40.826321],[29.826027,40.82636],[29.827699,40.826205],[29.830764,40.826964],[29.831567,40.827481],[29.832265,40.82756],[29.833606,40.827267],[29.833571,40.827012],[29.833095,40.826739],[29.833366,40.826197],[29.834289,40.826124],[29.834574,40.826181],[29.836006,40.825728],[29.83647,40.825763],[29.836846,40.825906],[29.839312,40.826168],[29.840073,40.825972],[29.84189,40.826126],[29.841893,40.826216],[29.842028,40.826203],[29.843757,40.826935],[29.846032,40.827313],[29.847419,40.827136],[29.848502,40.827521],[29.849222,40.827422],[29.849734,40.827793],[29.851251,40.828072],[29.852133,40.827668],[29.85369,40.827642],[29.854019,40.827548],[29.854393,40.82712],[29.85492,40.8272],[29.855407,40.827404],[29.856269,40.82694],[29.856972,40.826822],[29.857601,40.826477],[29.857743,40.826239],[29.857685,40.825421],[29.857831,40.82493],[29.858973,40.823945],[29.859243,40.823783],[29.859811,40.823631],[29.860025,40.823441],[29.85986,40.823194],[29.858049,40.822781],[29.858,40.82255],[29.858156,40.822414],[29.859242,40.82192],[29.859838,40.821803],[29.860204,40.821958],[29.860409,40.822468],[29.860569,40.822614],[29.860904,40.822776],[29.861549,40.82289],[29.861961,40.822774],[29.862231,40.822472],[29.862807,40.822126],[29.863835,40.821824],[29.864586,40.821726],[29.865611,40.820968],[29.86609,40.82046],[29.867204,40.819839],[29.86731,40.819164],[29.867574,40.818937],[29.868221,40.818463],[29.86884,40.818295],[29.869146,40.818121],[29.869271,40.817926],[29.869155,40.817166],[29.8686,40.816685],[29.868942,40.815587],[29.868778,40.815209],[29.868292,40.815002],[29.867398,40.814898],[29.867099,40.814516],[29.867214,40.81303],[29.867584,40.812133],[29.866635,40.812042],[29.866299,40.811881],[29.866028,40.811582],[29.865822,40.811521],[29.865601,40.811621],[29.865172,40.812157],[29.864958,40.812205],[29.863851,40.812022],[29.863256,40.812066],[29.862904,40.811876],[29.862684,40.811635],[29.862719,40.811459],[29.863294,40.810999],[29.863588,40.810597],[29.863649,40.810139],[29.86314,40.809678],[29.862628,40.808422],[29.862344,40.808049],[29.861301,40.807404],[29.861056,40.806839],[29.860695,40.806615],[29.859614,40.806269],[29.858988,40.805464],[29.859006,40.805068],[29.859609,40.804511],[29.859824,40.803801],[29.859333,40.802708],[29.859363,40.80209],[29.859088,40.801904],[29.858567,40.800986],[29.858609,40.800449],[29.858901,40.799637],[29.858879,40.799073],[29.858166,40.798405],[29.858326,40.797227],[29.859205,40.796076],[29.85932,40.795771],[29.859234,40.795112],[29.859028,40.794858],[29.857766,40.794025],[29.856934,40.793272],[29.856414,40.793018],[29.855825,40.792401],[29.855581,40.791971],[29.852286,40.783541],[29.851898,40.782152],[29.851342,40.781209],[29.851261,40.780659],[29.850437,40.779558],[29.849731,40.778221],[29.848357,40.776861],[29.84603,40.775678],[29.84593,40.775338],[29.845596,40.77496],[29.845505,40.774605],[29.84572,40.774042],[29.845488,40.773286],[29.845955,40.77314],[29.846006,40.773024],[29.845399,40.772005],[29.845119,40.770423],[29.845405,40.769575],[29.845315,40.768348],[29.848393,40.768405],[29.849645,40.768283],[29.850788,40.767977],[29.8541,40.766732],[29.854234,40.76676],[29.855567,40.76501],[29.855169,40.764062],[29.855209,40.763864],[29.855732,40.762811],[29.85657,40.761896],[29.856547,40.761703],[29.854119,40.761638],[29.852465,40.761388],[29.839598,40.757745],[29.83911,40.759171],[29.839,40.760299],[29.83912,40.760663],[29.839059,40.76233],[29.839334,40.763447],[29.839264,40.763842],[29.839389,40.764262],[29.839147,40.764701],[29.839204,40.765054],[29.839469,40.76545],[29.839541,40.766577],[29.840274,40.768568],[29.834783,40.769178],[29.832269,40.769266],[29.832104,40.770673],[29.832113,40.771941],[29.830615,40.773519],[29.830458,40.775517],[29.830522,40.775667],[29.830134,40.776821],[29.830291,40.777724],[29.83259,40.778314],[29.833809,40.778914],[29.834068,40.7794],[29.834121,40.780141],[29.834461,40.781259],[29.835112,40.782265],[29.83842,40.785994],[29.839592,40.786437],[29.841599,40.786854],[29.842723,40.78778],[29.84187,40.788923],[29.841656,40.790359],[29.841469,40.793863],[29.841552,40.793987],[29.840015,40.795806],[29.839805,40.796208],[29.83987,40.796577],[29.840509,40.79703],[29.840703,40.798522],[29.840802,40.798781],[29.841306,40.799345],[29.840372,40.799019],[29.839975,40.798482],[29.839673,40.798481],[29.839415,40.798725],[29.838985,40.798705],[29.83869,40.798485],[29.838408,40.798021],[29.838139,40.797859],[29.83751,40.797717],[29.837202,40.797511],[29.837023,40.797252],[29.8369,40.797487],[29.836328,40.797828],[29.835756,40.797818],[29.835061,40.798012],[29.834797,40.798539],[29.834564,40.798686],[29.832392,40.798753],[29.831525,40.798995],[29.83038,40.798983],[29.828927,40.799305],[29.825988,40.798918],[29.82486,40.798237],[29.823931,40.797402],[29.823641,40.797536],[29.823637,40.797801],[29.82347,40.797775],[29.8232,40.797887],[29.823141,40.79858],[29.822753,40.799273],[29.822506,40.800523],[29.822234,40.801294],[29.822243,40.802573],[29.821978,40.8033],[29.822335,40.804199],[29.821913,40.805785],[29.821598,40.806024],[29.821893,40.8062],[29.822269,40.80662],[29.821578,40.806339],[29.820846,40.806202],[29.819575,40.806162],[29.818278,40.805418],[29.817756,40.805336],[29.817118,40.805426],[29.816382,40.805222],[29.816052,40.805252],[29.815136,40.805677],[29.814177,40.805686],[29.813622,40.806],[29.812783,40.806277],[29.812314,40.806625],[29.811542,40.806363],[29.81007,40.80637],[29.809839,40.806267],[29.809751,40.805681],[29.809964,40.805364],[29.809849,40.805017],[29.809143,40.804928],[29.808596,40.805298],[29.808415,40.80565],[29.808444,40.806078],[29.808868,40.80649],[29.808954,40.806834],[29.80889,40.80734],[29.808498,40.807937],[29.808399,40.808466],[29.808313,40.808595],[29.807685,40.808941],[29.807437,40.809518],[29.807046,40.809772],[29.806924,40.809963],[29.806933,40.810214],[29.807351,40.810589],[29.808387,40.810958],[29.808358,40.811255],[29.807999,40.811569],[29.807914,40.811944],[29.808116,40.812148],[29.808511,40.812318],[29.808515,40.812474],[29.808277,40.812696],[29.80756,40.813073],[29.80699,40.813603],[29.807037,40.813901],[29.807537,40.814593],[29.808036,40.81499],[29.808795,40.815406],[29.809443,40.815506],[29.810324,40.815479],[29.811072,40.815747],[29.811854,40.816305],[29.812393,40.816319],[29.812891,40.816187],[29.81343,40.81641],[29.813812,40.81639],[29.814846,40.816021],[29.81525,40.815739],[29.81579,40.815612],[29.816039,40.815667],[29.81626,40.816033],[29.816988,40.816531],[29.817194,40.816816],[29.817194,40.816997],[29.816721,40.817323],[29.816506,40.817728],[29.81638,40.818216],[29.816465,40.818572],[29.817303,40.819205],[29.818334,40.81927],[29.818713,40.820306],[29.819495,40.821009],[29.819942,40.82184],[29.819972,40.82223],[29.819079,40.822984],[29.819065,40.823399],[29.819281,40.823803],[29.819899,40.824315],[29.821398,40.824921],[29.823253,40.824622],[29.82427,40.824255],[29.824701,40.824287],[29.824972,40.824428],[29.825087,40.824606],[29.825002,40.825512],[29.825133,40.82593],[29.825452,40.826221],[29.825765,40.826321]]]}},{"type":"Feature","properties":{"id":"TR-Y-41-004-M-0004","level":"yerlesim","type":"mahalle","parent_id":"TR-D-41-004","province_id":"TR-P-41","district_id":"TR-D-41-004","name":"Deniz","source_raw_name":"Deniz","source":"Kullanıcı tarafından sağlanan KML","source_label":"Kullanıcı tarafından sağlanan KML","source_name":"Kocaeli Mahalle KML - kullanıcı tarafından sağlandı"},"geometry":{"type":"Polygon","coordinates":[[[29.856487,40.761444],[29.856663,40.760957],[29.857643,40.760764],[29.857904,40.760501],[29.857883,40.760138],[29.857436,40.76002],[29.857319,40.759536],[29.857479,40.758826],[29.857944,40.758294],[29.858102,40.757478],[29.858562,40.757274],[29.859046,40.757253],[29.859537,40.757452],[29.860328,40.757421],[29.860796,40.757575],[29.860938,40.757427],[29.861436,40.755871],[29.86201,40.754821],[29.862331,40.754529],[29.862334,40.754336],[29.861175,40.754016],[29.86181,40.752728],[29.86161,40.752641],[29.861491,40.752799],[29.861532,40.752971],[29.860894,40.75411],[29.85992,40.753811],[29.860668,40.752269],[29.860558,40.752239],[29.859812,40.753901],[29.858931,40.753698],[29.858596,40.753488],[29.858184,40.753505],[29.857981,40.753415],[29.857873,40.753298],[29.858074,40.752862],[29.8582,40.752897],[29.858248,40.752796],[29.85797,40.75273],[29.857716,40.753435],[29.856752,40.753132],[29.856724,40.753028],[29.856408,40.752868],[29.85637,40.75294],[29.855365,40.75248],[29.854829,40.751986],[29.854155,40.750284],[29.854004,40.750226],[29.855739,40.749885],[29.85561,40.749616],[29.855233,40.749731],[29.855264,40.749804],[29.853892,40.750137],[29.853739,40.75009],[29.853289,40.750274],[29.852404,40.750269],[29.851383,40.750125],[29.85133,40.750017],[29.850926,40.750057],[29.850835,40.750196],[29.850614,40.750272],[29.848596,40.750419],[29.848066,40.750233],[29.847563,40.750429],[29.847172,40.750366],[29.84682,40.750652],[29.846507,40.750632],[29.84594,40.751399],[29.845035,40.752132],[29.844478,40.752239],[29.844136,40.752474],[29.842965,40.752612],[29.842782,40.752064],[29.842744,40.751498],[29.84204,40.751163],[29.84184,40.749721],[29.842099,40.74949],[29.841966,40.749257],[29.841317,40.749012],[29.839962,40.748766],[29.83889,40.748425],[29.83781,40.748304],[29.837421,40.750382],[29.838778,40.752258],[29.838595,40.752443],[29.837197,40.752101],[29.836153,40.750853],[29.831198,40.747629],[29.831458,40.747378],[29.831482,40.747221],[29.826298,40.746785],[29.82633,40.747289],[29.82737,40.747228],[29.827365,40.747615],[29.826963,40.748141],[29.82648,40.747878],[29.825541,40.747741],[29.825269,40.748057],[29.824913,40.748255],[29.824886,40.748485],[29.825053,40.748767],[29.825256,40.748705],[29.826334,40.749423],[29.827112,40.751785],[29.827809,40.751863],[29.829289,40.752411],[29.828297,40.7561],[29.832528,40.756001],[29.834146,40.756192],[29.852465,40.761388],[29.854119,40.761638],[29.856547,40.761703],[29.856487,40.761444]]]}},{"type":"Feature","properties":{"id":"TR-Y-41-004-M-0005","level":"yerlesim","type":"mahalle","parent_id":"TR-D-41-004","province_id":"TR-P-41","district_id":"TR-D-41-004","name":"Dumlupınar","source_raw_name":"Dumlupınar","source":"Kullanıcı tarafından sağlanan KML","source_label":"Kullanıcı tarafından sağlanan KML","source_name":"Kocaeli Mahalle KML - kullanıcı tarafından sağlandı"},"geometry":{"type":"Polygon","coordinates":[[[29.821627,40.756269],[29.828297,40.7561],[29.829289,40.752411],[29.827809,40.751863],[29.827112,40.751785],[29.826334,40.749423],[29.825256,40.748705],[29.825053,40.748767],[29.825423,40.749346],[29.825324,40.749492],[29.824707,40.748938],[29.824496,40.749098],[29.824316,40.748988],[29.8244,40.749097],[29.82404,40.749268],[29.823788,40.748893],[29.823656,40.74892],[29.82394,40.74929],[29.822968,40.749726],[29.822769,40.749483],[29.822656,40.749534],[29.822897,40.749777],[29.822279,40.750054],[29.821201,40.75004],[29.821249,40.749746],[29.82118,40.749853],[29.820721,40.749805],[29.820767,40.749423],[29.820689,40.749411],[29.820664,40.749537],[29.819122,40.749756],[29.816451,40.749397],[29.814639,40.749306],[29.813938,40.749526],[29.814326,40.749949],[29.81415,40.750441],[29.814129,40.750909],[29.814665,40.751957],[29.81438,40.753195],[29.81404,40.753901],[29.814799,40.753925],[29.81456,40.754734],[29.81568,40.754801],[29.815733,40.756423],[29.821627,40.756269]]]}},{"type":"Feature","properties":{"id":"TR-Y-41-004-M-0006","level":"yerlesim","type":"mahalle","parent_id":"TR-D-41-004","province_id":"TR-P-41","district_id":"TR-D-41-004","name":"Fatih Sultan","source_raw_name":"Fatih Sultan","source":"Kullanıcı tarafından sağlanan KML","source_label":"Kullanıcı tarafından sağlanan KML","source_name":"Kocaeli Mahalle KML - kullanıcı tarafından sağlandı"},"geometry":{"type":"Polygon","coordinates":[[[29.840802,40.798781],[29.840627,40.798136],[29.840563,40.797164],[29.840366,40.796904],[29.83987,40.796577],[29.839805,40.796208],[29.840015,40.795806],[29.841552,40.793987],[29.841469,40.793863],[29.841656,40.790359],[29.84187,40.788923],[29.842723,40.78778],[29.841599,40.786854],[29.839592,40.786437],[29.83842,40.785994],[29.835112,40.782265],[29.834461,40.781259],[29.834121,40.780141],[29.834068,40.7794],[29.833809,40.778914],[29.83259,40.778314],[29.830291,40.777724],[29.830134,40.776821],[29.830522,40.775667],[29.830458,40.775517],[29.830615,40.773519],[29.832113,40.771941],[29.832104,40.770673],[29.832269,40.769266],[29.829372,40.769186],[29.827061,40.768839],[29.822399,40.767947],[29.82021,40.767664],[29.817063,40.767414],[29.816686,40.768049],[29.817213,40.768969],[29.817268,40.769765],[29.818001,40.771455],[29.817826,40.772059],[29.818112,40.772934],[29.818236,40.773783],[29.818143,40.77416],[29.818736,40.776068],[29.81954,40.776647],[29.819643,40.776918],[29.81947,40.77751],[29.819821,40.777839],[29.819579,40.778091],[29.819707,40.778672],[29.819498,40.77936],[29.819635,40.779762],[29.819519,40.7802],[29.819783,40.780673],[29.820081,40.780901],[29.819861,40.781329],[29.8194,40.781661],[29.818916,40.781861],[29.818809,40.782486],[29.818909,40.783021],[29.818774,40.783352],[29.819692,40.783376],[29.819937,40.78331],[29.819926,40.783706],[29.82068,40.784331],[29.820596,40.784623],[29.82067,40.784895],[29.821108,40.785314],[29.821255,40.785878],[29.82197,40.787286],[29.822687,40.78769],[29.822927,40.787986],[29.822841,40.788549],[29.822926,40.789106],[29.823202,40.790241],[29.823601,40.790909],[29.823386,40.791445],[29.824189,40.792246],[29.823898,40.793163],[29.824062,40.793783],[29.82377,40.794238],[29.823628,40.794767],[29.823695,40.79532],[29.823363,40.795831],[29.823318,40.796077],[29.823468,40.796457],[29.823385,40.79759],[29.823637,40.797801],[29.823641,40.797536],[29.823931,40.797402],[29.82486,40.798237],[29.825988,40.798918],[29.828927,40.799305],[29.83038,40.798983],[29.831525,40.798995],[29.832392,40.798753],[29.834564,40.798686],[29.834797,40.798539],[29.835061,40.798012],[29.835756,40.797818],[29.836328,40.797828],[29.8369,40.797487],[29.837023,40.797252],[29.837202,40.797511],[29.83751,40.797717],[29.838139,40.797859],[29.838408,40.798021],[29.83869,40.798485],[29.838985,40.798705],[29.839415,40.798725],[29.839673,40.798481],[29.839975,40.798482],[29.840372,40.799019],[29.841306,40.799345],[29.840802,40.798781]]]}},{"type":"Feature","properties":{"id":"TR-Y-41-004-M-0007","level":"yerlesim","type":"mahalle","parent_id":"TR-D-41-004","province_id":"TR-P-41","district_id":"TR-D-41-004","name":"Geredeli","source_raw_name":"Geredeli","source":"Kullanıcı tarafından sağlanan KML","source_label":"Kullanıcı tarafından sağlanan KML","source_name":"Kocaeli Mahalle KML - kullanıcı tarafından sağlandı"},"geometry":{"type":"Polygon","coordinates":[[[29.928255,40.916232],[29.928561,40.916047],[29.928542,40.915202],[29.928649,40.914909],[29.928765,40.914854],[29.928447,40.914037],[29.9284,40.913505],[29.928552,40.911713],[29.92867,40.911233],[29.928986,40.910635],[29.92902,40.909724],[29.928959,40.909424],[29.928836,40.909435],[29.928274,40.908649],[29.92797,40.907907],[29.928126,40.906943],[29.928244,40.906929],[29.928271,40.906431],[29.928571,40.905759],[29.928874,40.904308],[29.930181,40.904315],[29.93216,40.904625],[29.932709,40.904837],[29.933309,40.905241],[29.933611,40.905771],[29.934109,40.905924],[29.93694,40.905698],[29.937399,40.905754],[29.937688,40.905974],[29.93809,40.906002],[29.938177,40.906079],[29.939282,40.905953],[29.940421,40.905984],[29.941372,40.905816],[29.94144,40.905602],[29.941256,40.905487],[29.94044,40.90553],[29.939851,40.905422],[29.939734,40.905267],[29.939542,40.905229],[29.939548,40.905106],[29.939295,40.90511],[29.939332,40.904923],[29.938984,40.904822],[29.938774,40.904428],[29.937964,40.904049],[29.937542,40.90397],[29.937053,40.903261],[29.936754,40.902998],[29.936344,40.902768],[29.935855,40.902664],[29.936487,40.901791],[29.936935,40.901372],[29.93684,40.90095],[29.936653,40.900752],[29.937963,40.899455],[29.938001,40.899041],[29.938119,40.898885],[29.937421,40.898231],[29.937194,40.897326],[29.936895,40.896945],[29.936496,40.896849],[29.936265,40.89658],[29.935491,40.89663],[29.934985,40.896412],[29.934588,40.896061],[29.934131,40.895859],[29.934159,40.895773],[29.933622,40.895696],[29.932426,40.895745],[29.932734,40.894527],[29.93263,40.89439],[29.932168,40.89125],[29.931914,40.890904],[29.928607,40.888277],[29.928273,40.887919],[29.92813,40.887403],[29.928004,40.887391],[29.927806,40.88709],[29.927727,40.886774],[29.927746,40.885526],[29.927908,40.884724],[29.927621,40.88396],[29.927641,40.883668],[29.927908,40.883373],[29.928128,40.882327],[29.928762,40.882108],[29.928922,40.88218],[29.929185,40.882135],[29.929419,40.882241],[29.930078,40.881279],[29.930337,40.881268],[29.930738,40.880826],[29.930996,40.880386],[29.931017,40.880142],[29.930929,40.880068],[29.931604,40.87925],[29.93298,40.878598],[29.933832,40.877799],[29.934008,40.877825],[29.935104,40.877317],[29.936553,40.877012],[29.936748,40.876899],[29.937009,40.876275],[29.936915,40.876213],[29.937179,40.875733],[29.939028,40.872806],[29.940207,40.871898],[29.940792,40.871189],[29.940898,40.870826],[29.940681,40.868233],[29.940433,40.867663],[29.939658,40.86659],[29.938796,40.865739],[29.938469,40.865008],[29.93765,40.86444],[29.937213,40.863922],[29.937031,40.863386],[29.935463,40.863636],[29.932733,40.862522],[29.932654,40.862113],[29.929492,40.861006],[29.929184,40.861095],[29.92675,40.861121],[29.924016,40.861326],[29.923008,40.861152],[29.920303,40.860446],[29.920023,40.860233],[29.919906,40.859594],[29.919202,40.859443],[29.918271,40.859693],[29.916942,40.860231],[29.916364,40.860273],[29.916174,40.860868],[29.916555,40.861726],[29.916274,40.862492],[29.915643,40.86294],[29.915557,40.863166],[29.91569,40.863379],[29.915523,40.864482],[29.915871,40.865233],[29.916196,40.865604],[29.91539,40.866249],[29.915381,40.866662],[29.9146,40.868523],[29.913177,40.869958],[29.91181,40.869727],[29.91148,40.86974],[29.910987,40.869557],[29.910138,40.869447],[29.909341,40.869531],[29.90909,40.869656],[29.908757,40.870316],[29.908373,40.870436],[29.908038,40.870893],[29.907473,40.871258],[29.907192,40.871614],[29.906671,40.872622],[29.906442,40.872763],[29.906257,40.873281],[29.905109,40.874092],[29.904809,40.874173],[29.904469,40.875373],[29.903929,40.875683],[29.903113,40.876514],[29.902566,40.876888],[29.900395,40.877703],[29.900433,40.877789],[29.900082,40.877989],[29.899816,40.878013],[29.899753,40.877931],[29.898968,40.8781],[29.898205,40.878872],[29.897366,40.87954],[29.896913,40.880669],[29.896455,40.881249],[29.896023,40.881428],[29.895481,40.881419],[29.894881,40.881539],[29.893725,40.882051],[29.891007,40.884345],[29.889764,40.884504],[29.888023,40.884905],[29.886285,40.884435],[29.885539,40.883995],[29.88445,40.883809],[29.883947,40.883955],[29.883256,40.884467],[29.881682,40.884529],[29.881054,40.884742],[29.881075,40.884833],[29.88065,40.885077],[29.880059,40.885305],[29.87995,40.88523],[29.879255,40.885263],[29.878272,40.885082],[29.876684,40.884605],[29.875673,40.884453],[29.874962,40.884534],[29.873716,40.885238],[29.873119,40.885254],[29.872941,40.885361],[29.872813,40.885697],[29.872507,40.885815],[29.871874,40.886566],[29.871673,40.887255],[29.871711,40.887951],[29.871572,40.888847],[29.870915,40.889746],[29.870751,40.890203],[29.870396,40.890555],[29.870308,40.890865],[29.870488,40.891225],[29.870441,40.891475],[29.870574,40.891604],[29.870554,40.89187],[29.870355,40.892542],[29.870008,40.892621],[29.870009,40.89309],[29.869655,40.893885],[29.869784,40.894351],[29.869677,40.894588],[29.86986,40.894683],[29.870153,40.895181],[29.87011,40.895775],[29.870333,40.895853],[29.870388,40.896075],[29.870654,40.89637],[29.870291,40.897133],[29.870346,40.897472],[29.870494,40.897569],[29.870026,40.897664],[29.87011,40.898135],[29.869776,40.898328],[29.869655,40.898685],[29.869423,40.898757],[29.869268,40.898954],[29.869505,40.899223],[29.869448,40.899391],[29.869531,40.899518],[29.869385,40.899777],[29.869466,40.899944],[29.870029,40.899693],[29.870252,40.89968],[29.870063,40.900151],[29.870559,40.900368],[29.871383,40.90056],[29.871335,40.900947],[29.871955,40.901519],[29.872301,40.901201],[29.872576,40.901351],[29.879947,40.901712],[29.879889,40.90303],[29.880348,40.903047],[29.880749,40.902759],[29.88113,40.902923],[29.881661,40.902964],[29.883107,40.902804],[29.884918,40.903431],[29.885157,40.903782],[29.885089,40.904551],[29.887026,40.90501],[29.887297,40.905151],[29.887724,40.905206],[29.888173,40.905089],[29.888633,40.905173],[29.889948,40.905596],[29.890816,40.905566],[29.891499,40.90522],[29.892063,40.905379],[29.892572,40.905384],[29.892703,40.904834],[29.893533,40.904588],[29.893535,40.904338],[29.893751,40.903971],[29.893623,40.903944],[29.893701,40.903763],[29.893945,40.903701],[29.89406,40.903276],[29.894019,40.903041],[29.893829,40.902904],[29.893983,40.902623],[29.894417,40.902333],[29.894443,40.90242],[29.896086,40.902669],[29.89692,40.902683],[29.897698,40.90258],[29.898151,40.902461],[29.898018,40.902387],[29.897233,40.902417],[29.897216,40.902195],[29.897957,40.90217],[29.897911,40.901616],[29.898251,40.901411],[29.898726,40.901349],[29.89895,40.901414],[29.89987,40.90103],[29.900394,40.900985],[29.901427,40.901699],[29.901715,40.901805],[29.902365,40.901297],[29.90277,40.901521],[29.903681,40.900836],[29.907409,40.902582],[29.908305,40.902607],[29.909364,40.902818],[29.909636,40.903017],[29.909648,40.903773],[29.91008,40.904047],[29.910234,40.904624],[29.909515,40.905298],[29.908615,40.905605],[29.908615,40.90566],[29.909217,40.905643],[29.910203,40.905931],[29.909992,40.906488],[29.909994,40.906988],[29.909404,40.907164],[29.909147,40.907458],[29.909221,40.907692],[29.909629,40.908064],[29.910294,40.908298],[29.910546,40.908228],[29.910917,40.908278],[29.911316,40.908477],[29.911579,40.908136],[29.912139,40.907968],[29.912729,40.907539],[29.914089,40.90724],[29.914839,40.907968],[29.915155,40.908033],[29.917454,40.910514],[29.918171,40.911058],[29.918319,40.911145],[29.918528,40.911106],[29.919516,40.911543],[29.920601,40.911499],[29.921548,40.911618],[29.922059,40.911927],[29.922208,40.912094],[29.922288,40.912655],[29.922706,40.91391],[29.922425,40.915636],[29.925432,40.915817],[29.926704,40.916071],[29.928255,40.916232]]]}},{"type":"Feature","properties":{"id":"TR-Y-41-004-M-0008","level":"yerlesim","type":"mahalle","parent_id":"TR-D-41-004","province_id":"TR-P-41","district_id":"TR-D-41-004","name":"İbni Sina","source_raw_name":"İbnisina","source":"Kullanıcı tarafından sağlanan KML","source_label":"Kullanıcı tarafından sağlanan KML","source_name":"Kocaeli Mahalle KML - kullanıcı tarafından sağlandı"},"geometry":{"type":"Polygon","coordinates":[[[29.808992,40.767794],[29.811815,40.767516],[29.814722,40.767391],[29.814832,40.766182],[29.814708,40.76514],[29.814953,40.76279],[29.814426,40.756463],[29.810165,40.756719],[29.799784,40.757873],[29.799627,40.758691],[29.799322,40.759183],[29.799313,40.759545],[29.799788,40.760006],[29.799622,40.760491],[29.800164,40.761705],[29.800352,40.761926],[29.801772,40.762888],[29.802187,40.763452],[29.802518,40.764205],[29.802915,40.764579],[29.803176,40.766371],[29.803547,40.766878],[29.803928,40.766938],[29.804558,40.767296],[29.804641,40.767547],[29.80504,40.767718],[29.805314,40.768468],[29.808992,40.767794]]]}},{"type":"Feature","properties":{"id":"TR-Y-41-004-M-0009","level":"yerlesim","type":"mahalle","parent_id":"TR-D-41-004","province_id":"TR-P-41","district_id":"TR-D-41-004","name":"Karagöllü","source_raw_name":"Karagöllü","source":"Kullanıcı tarafından sağlanan KML","source_label":"Kullanıcı tarafından sağlanan KML","source_name":"Kocaeli Mahalle KML - kullanıcı tarafından sağlandı"},"geometry":{"type":"Polygon","coordinates":[[[29.854117,40.961051],[29.853186,40.96141],[29.852799,40.961767],[29.852338,40.96197],[29.849341,40.961432],[29.847695,40.960962],[29.847082,40.960971],[29.847018,40.959699],[29.846772,40.959223],[29.846298,40.958727],[29.846411,40.957919],[29.846143,40.956757],[29.845526,40.956172],[29.844689,40.955744],[29.844434,40.95546],[29.843967,40.955339],[29.842979,40.954433],[29.842622,40.953221],[29.841849,40.952026],[29.841157,40.951317],[29.839889,40.950371],[29.839351,40.949817],[29.838909,40.949078],[29.838927,40.948657],[29.83902,40.948752],[29.839106,40.948506],[29.838783,40.948238],[29.838664,40.947654],[29.840431,40.947006],[29.840507,40.946218],[29.84074,40.946293],[29.840589,40.945703],[29.840805,40.94528],[29.840755,40.944967],[29.841049,40.94451],[29.841011,40.944163],[29.841748,40.943347],[29.841848,40.942968],[29.841676,40.942504],[29.842053,40.942083],[29.842036,40.941675],[29.842177,40.941399],[29.842378,40.941318],[29.84254,40.941057],[29.84251,40.940896],[29.841996,40.94085],[29.84108,40.940285],[29.840125,40.938927],[29.839854,40.938691],[29.840683,40.938294],[29.842482,40.936843],[29.843234,40.936537],[29.84376,40.936479],[29.843148,40.936205],[29.842108,40.936033],[29.840864,40.93569],[29.838421,40.934001],[29.837597,40.934342],[29.836545,40.934146],[29.836275,40.934136],[29.836188,40.934228],[29.835856,40.934193],[29.836,40.933931],[29.835925,40.933549],[29.835804,40.933413],[29.835728,40.932961],[29.835353,40.93259],[29.835414,40.9323],[29.83522,40.932058],[29.834822,40.931881],[29.834106,40.931837],[29.833685,40.931283],[29.833026,40.930821],[29.832312,40.930142],[29.832118,40.929617],[29.831248,40.928611],[29.830568,40.928144],[29.830203,40.927475],[29.828612,40.926505],[29.828346,40.926182],[29.827907,40.925894],[29.827491,40.925373],[29.826892,40.925073],[29.826834,40.924881],[29.826315,40.924606],[29.826137,40.924259],[29.826223,40.92374],[29.82573,40.92368],[29.825402,40.923268],[29.825462,40.923063],[29.825037,40.922778],[29.824798,40.922845],[29.824075,40.922465],[29.8231,40.921009],[29.82311,40.920643],[29.822937,40.920185],[29.823042,40.919937],[29.822703,40.91965],[29.822569,40.919446],[29.822578,40.919232],[29.821985,40.918895],[29.821803,40.918597],[29.820935,40.917913],[29.819638,40.917405],[29.818554,40.916685],[29.81693,40.916116],[29.814403,40.916546],[29.813754,40.916578],[29.812807,40.91687],[29.81247,40.917443],[29.812544,40.917569],[29.812454,40.91776],[29.811925,40.91809],[29.810985,40.918351],[29.810726,40.918653],[29.810075,40.918835],[29.810081,40.919161],[29.809203,40.919794],[29.808931,40.920609],[29.80901,40.920716],[29.808956,40.92138],[29.808265,40.923932],[29.808379,40.924845],[29.808847,40.925745],[29.80907,40.926526],[29.809225,40.927341],[29.80926,40.928411],[29.80952,40.929048],[29.809544,40.929598],[29.808827,40.930859],[29.807922,40.933866],[29.807434,40.934914],[29.806993,40.935322],[29.807004,40.935951],[29.806152,40.938682],[29.804708,40.940737],[29.804287,40.943208],[29.80357,40.943797],[29.803169,40.944543],[29.803157,40.945013],[29.803337,40.945807],[29.803128,40.946644],[29.80341,40.948367],[29.80301,40.94904],[29.802962,40.949372],[29.802795,40.949441],[29.802863,40.951184],[29.802421,40.9515],[29.801687,40.951738],[29.800634,40.951969],[29.798768,40.9522],[29.798415,40.952581],[29.797565,40.953044],[29.797258,40.953409],[29.797197,40.954487],[29.796675,40.954736],[29.797186,40.955798],[29.797256,40.957933],[29.797048,40.95797],[29.796303,40.957778],[29.795229,40.959717],[29.794242,40.959959],[29.795222,40.960421],[29.79555,40.960725],[29.795336,40.961425],[29.795426,40.961733],[29.795859,40.962121],[29.793318,40.965729],[29.790363,40.968659],[29.791525,40.970821],[29.791839,40.97196],[29.791986,40.973291],[29.79193,40.973831],[29.791812,40.973854],[29.79185,40.974368],[29.791975,40.974371],[29.792295,40.974763],[29.792564,40.974828],[29.792563,40.974921],[29.793906,40.976176],[29.793549,40.977925],[29.79373,40.979802],[29.795196,40.981378],[29.795615,40.982246],[29.795354,40.984365],[29.792615,40.986909],[29.794061,40.989446],[29.794308,40.990295],[29.794684,40.992359],[29.794386,40.993182],[29.794382,40.993712],[29.794492,40.993827],[29.794733,40.993856],[29.795474,40.993827],[29.795795,40.994058],[29.796371,40.994147],[29.796952,40.994931],[29.797187,40.995088],[29.797758,40.995112],[29.798208,40.9954],[29.798376,40.995848],[29.798153,40.996204],[29.798219,40.996371],[29.798997,40.996735],[29.79932,40.996707],[29.799579,40.996882],[29.799582,40.997189],[29.799119,40.997816],[29.799381,40.998594],[29.799629,40.99888],[29.799644,40.999239],[29.799809,40.999609],[29.79971,41.000244],[29.798994,41.001484],[29.799082,41.002113],[29.798591,41.003072],[29.798423,41.003694],[29.798248,41.003815],[29.797416,41.003992],[29.796771,41.003987],[29.795342,41.004308],[29.794779,41.004608],[29.794529,41.005037],[29.794563,41.005426],[29.794899,41.006158],[29.795372,41.006669],[29.795891,41.006895],[29.796319,41.007322],[29.796476,41.007893],[29.796023,41.008383],[29.795844,41.008978],[29.795945,41.009704],[29.795709,41.010025],[29.796089,41.011161],[29.796159,41.012244],[29.795084,41.013103],[29.794362,41.013239],[29.793992,41.013877],[29.793912,41.014768],[29.793555,41.014989],[29.79334,41.015331],[29.794032,41.017036],[29.794788,41.01839],[29.794783,41.0186],[29.794163,41.019363],[29.796204,41.020154],[29.797989,41.020215],[29.800458,41.020536],[29.801006,41.02021],[29.801431,41.020097],[29.802601,41.020026],[29.803722,41.01961],[29.804143,41.019537],[29.804512,41.01962],[29.804793,41.019496],[29.80521,41.019538],[29.805702,41.019437],[29.8062,41.019585],[29.80749,41.019374],[29.807712,41.019629],[29.808018,41.019699],[29.808203,41.019987],[29.808624,41.019682],[29.808651,41.020283],[29.808999,41.019606],[29.809808,41.019053],[29.810086,41.018973],[29.811199,41.017947],[29.811423,41.017448],[29.811326,41.017237],[29.811446,41.017042],[29.811436,41.016751],[29.811729,41.016045],[29.811992,41.015885],[29.812242,41.015559],[29.813893,41.014574],[29.815623,41.014518],[29.816802,41.014907],[29.817044,41.015235],[29.817143,41.015221],[29.817286,41.015025],[29.819136,41.014859],[29.819479,41.014619],[29.819821,41.014529],[29.820192,41.014236],[29.821183,41.014257],[29.822642,41.013317],[29.823335,41.01316],[29.823722,41.013278],[29.823792,41.013649],[29.824005,41.013818],[29.824564,41.013914],[29.825115,41.013766],[29.826003,41.013226],[29.826611,41.01314],[29.827291,41.013626],[29.827939,41.013919],[29.828192,41.014417],[29.829004,41.014816],[29.830211,41.014855],[29.830581,41.014763],[29.830959,41.014527],[29.831616,41.014459],[29.831993,41.014578],[29.832437,41.014498],[29.833225,41.01471],[29.833733,41.015047],[29.834012,41.015041],[29.834512,41.015365],[29.834857,41.01536],[29.835267,41.015491],[29.835444,41.014819],[29.835916,41.014044],[29.835883,41.01339],[29.836076,41.012773],[29.836144,41.012014],[29.836082,41.011284],[29.836278,41.011172],[29.837097,41.011133],[29.837289,41.011365],[29.837905,41.01141],[29.838467,41.011096],[29.838578,41.01075],[29.839494,41.010466],[29.839612,41.01031],[29.839566,41.010137],[29.838575,41.009517],[29.838601,41.008974],[29.838866,41.008607],[29.83931,41.008104],[29.83986,41.00783],[29.840855,41.00694],[29.841166,41.006788],[29.841384,41.006424],[29.842746,41.005255],[29.843343,41.005062],[29.84405,41.004202],[29.844538,41.004001],[29.844949,41.004008],[29.848472,41.004598],[29.849169,41.004463],[29.849003,41.004166],[29.849076,41.003291],[29.848924,41.002757],[29.84976,41.002095],[29.849957,41.001729],[29.84988,41.001245],[29.849474,41.000583],[29.849131,40.999512],[29.849083,40.99886],[29.849241,40.99829],[29.848949,40.997243],[29.847743,40.995521],[29.847914,40.994726],[29.847399,40.99406],[29.8474,40.993844],[29.847804,40.993502],[29.848022,40.993174],[29.848174,40.992163],[29.848567,40.991153],[29.848198,40.990624],[29.847135,40.989962],[29.846708,40.989793],[29.846273,40.989099],[29.848578,40.988443],[29.849064,40.988177],[29.84935,40.987847],[29.850163,40.987475],[29.850698,40.987057],[29.850927,40.986524],[29.852584,40.985262],[29.853034,40.983826],[29.853916,40.983203],[29.855128,40.980816],[29.855313,40.980536],[29.855676,40.980289],[29.856117,40.980128],[29.856599,40.980124],[29.857521,40.980765],[29.858146,40.980863],[29.858338,40.980599],[29.858225,40.980004],[29.858522,40.979851],[29.859106,40.979726],[29.860462,40.979565],[29.861343,40.979629],[29.863103,40.980001],[29.864388,40.979813],[29.865269,40.97985],[29.868399,40.979502],[29.868767,40.979728],[29.869623,40.980045],[29.870123,40.98009],[29.871043,40.979453],[29.870518,40.979255],[29.868793,40.979091],[29.868356,40.978792],[29.867663,40.978648],[29.867473,40.978976],[29.86674,40.979391],[29.866283,40.978706],[29.865851,40.978841],[29.865368,40.97856],[29.864111,40.977623],[29.864225,40.977543],[29.864039,40.977314],[29.863802,40.977437],[29.863448,40.977238],[29.863176,40.977376],[29.862107,40.977093],[29.86185,40.976816],[29.861481,40.976679],[29.860471,40.976554],[29.859431,40.975661],[29.859243,40.975064],[29.859193,40.974434],[29.857764,40.974238],[29.857414,40.973671],[29.856936,40.971952],[29.857345,40.970328],[29.858921,40.971123],[29.859524,40.970954],[29.859844,40.970246],[29.861134,40.969988],[29.862787,40.967921],[29.862323,40.967255],[29.862072,40.967063],[29.860511,40.966461],[29.85965,40.966032],[29.859265,40.965548],[29.858849,40.964747],[29.858904,40.964137],[29.858819,40.964014],[29.856424,40.964233],[29.854117,40.961051]]]}},{"type":"Feature","properties":{"id":"TR-Y-41-004-M-0010","level":"yerlesim","type":"mahalle","parent_id":"TR-D-41-004","province_id":"TR-P-41","district_id":"TR-D-41-004","name":"Kaşıkçı","source_raw_name":"Kaşıkçı","source":"Kullanıcı tarafından sağlanan KML","source_label":"Kullanıcı tarafından sağlanan KML","source_name":"Kocaeli Mahalle KML - kullanıcı tarafından sağlandı"},"geometry":{"type":"Polygon","coordinates":[[[29.846591,40.898527],[29.846904,40.898434],[29.847967,40.898645],[29.848499,40.898439],[29.849847,40.898469],[29.850237,40.898339],[29.850293,40.898054],[29.851024,40.898262],[29.853115,40.898351],[29.853235,40.898568],[29.853958,40.898657],[29.855098,40.898539],[29.855949,40.898257],[29.856095,40.897599],[29.855844,40.897354],[29.855524,40.896746],[29.855495,40.895718],[29.856135,40.895371],[29.85639,40.895333],[29.856468,40.895046],[29.856032,40.893869],[29.855144,40.892918],[29.855589,40.892421],[29.855951,40.892137],[29.856418,40.891962],[29.856742,40.891611],[29.856889,40.891251],[29.856589,40.890706],[29.85672,40.890423],[29.858049,40.891607],[29.859105,40.89232],[29.859572,40.892467],[29.859689,40.892175],[29.860239,40.892239],[29.860662,40.892185],[29.861451,40.891628],[29.861613,40.891726],[29.862144,40.891637],[29.864062,40.891608],[29.865364,40.890711],[29.866117,40.889615],[29.866844,40.887886],[29.866886,40.887452],[29.867152,40.887065],[29.867327,40.886892],[29.868195,40.886747],[29.869059,40.88596],[29.869412,40.885823],[29.869375,40.885731],[29.870567,40.88568],[29.871285,40.885458],[29.871365,40.88553],[29.872916,40.885411],[29.873119,40.885254],[29.873716,40.885238],[29.874962,40.884534],[29.875673,40.884453],[29.876684,40.884605],[29.878272,40.885082],[29.879255,40.885263],[29.87995,40.88523],[29.880059,40.885305],[29.88065,40.885077],[29.881075,40.884833],[29.881054,40.884742],[29.881682,40.884529],[29.883256,40.884467],[29.883947,40.883955],[29.88445,40.883809],[29.885539,40.883995],[29.886285,40.884435],[29.888023,40.884905],[29.889764,40.884504],[29.891007,40.884345],[29.893725,40.882051],[29.894881,40.881539],[29.895481,40.881419],[29.896023,40.881428],[29.896455,40.881249],[29.896913,40.880669],[29.897366,40.87954],[29.898205,40.878872],[29.898968,40.8781],[29.899753,40.877931],[29.899816,40.878013],[29.900082,40.877989],[29.900433,40.877789],[29.900395,40.877703],[29.902566,40.876888],[29.903113,40.876514],[29.903929,40.875683],[29.904469,40.875373],[29.904809,40.874173],[29.905109,40.874092],[29.906257,40.873281],[29.906442,40.872763],[29.906671,40.872622],[29.907192,40.871614],[29.907473,40.871258],[29.908038,40.870893],[29.908373,40.870436],[29.908757,40.870316],[29.90909,40.869656],[29.909341,40.869531],[29.910138,40.869447],[29.910987,40.869557],[29.91148,40.86974],[29.91181,40.869727],[29.913177,40.869958],[29.9146,40.868523],[29.915381,40.866662],[29.91539,40.866249],[29.916196,40.865604],[29.915871,40.865233],[29.915523,40.864482],[29.91569,40.863379],[29.915557,40.863166],[29.915643,40.86294],[29.916274,40.862492],[29.916555,40.861726],[29.916174,40.860868],[29.916364,40.860273],[29.916942,40.860231],[29.918271,40.859693],[29.919202,40.859443],[29.919906,40.859594],[29.920023,40.860233],[29.920303,40.860446],[29.923008,40.861152],[29.924016,40.861326],[29.92675,40.861121],[29.929184,40.861095],[29.929492,40.861006],[29.932668,40.862111],[29.932362,40.859115],[29.933378,40.858412],[29.93533,40.858032],[29.937263,40.857448],[29.937137,40.856609],[29.936767,40.855517],[29.935653,40.853522],[29.935446,40.852757],[29.934168,40.85094],[29.933932,40.849217],[29.933009,40.847728],[29.932868,40.847006],[29.93298,40.845878],[29.933173,40.845145],[29.933078,40.844378],[29.932366,40.843694],[29.931341,40.843264],[29.931098,40.84306],[29.930902,40.842715],[29.93069,40.841836],[29.929938,40.841451],[29.929489,40.840634],[29.929404,40.839878],[29.929531,40.839087],[29.929607,40.838911],[29.930153,40.838428],[29.930275,40.838048],[29.930113,40.837833],[29.929432,40.837598],[29.929195,40.836754],[29.928655,40.836473],[29.92823,40.8364],[29.926572,40.836794],[29.924162,40.837226],[29.923232,40.837153],[29.921919,40.836668],[29.921515,40.836311],[29.921347,40.83519],[29.91987,40.834668],[29.919336,40.835095],[29.919543,40.835631],[29.918998,40.83611],[29.91873,40.836603],[29.918399,40.836948],[29.917846,40.83674],[29.917404,40.83673],[29.915464,40.837086],[29.915375,40.837221],[29.914813,40.837393],[29.91389,40.83739],[29.912028,40.837615],[29.910362,40.837671],[29.906927,40.83815],[29.906004,40.838999],[29.904011,40.839823],[29.903334,40.839922],[29.901768,40.839855],[29.900125,40.84023],[29.898518,40.841302],[29.89713,40.841885],[29.896856,40.842466],[29.896651,40.842595],[29.895882,40.842462],[29.895427,40.842494],[29.893497,40.843065],[29.892497,40.843176],[29.891503,40.843474],[29.890893,40.843546],[29.88987,40.843496],[29.889149,40.843731],[29.888148,40.844346],[29.887836,40.845648],[29.887122,40.845999],[29.885984,40.846272],[29.884758,40.847319],[29.884238,40.84758],[29.883844,40.847614],[29.882897,40.847506],[29.882913,40.847603],[29.881804,40.84739],[29.880466,40.847396],[29.879334,40.84768],[29.879219,40.847643],[29.878885,40.848133],[29.878457,40.848205],[29.877971,40.848699],[29.877497,40.848799],[29.877613,40.849343],[29.877431,40.849758],[29.877464,40.850092],[29.876879,40.850874],[29.876179,40.851047],[29.876092,40.850922],[29.875916,40.850965],[29.876051,40.852021],[29.875792,40.85222],[29.875288,40.852271],[29.874446,40.852831],[29.873873,40.852868],[29.87363,40.852966],[29.873338,40.853429],[29.873071,40.854257],[29.872516,40.855117],[29.872098,40.855485],[29.869654,40.857071],[29.869324,40.857163],[29.868316,40.857107],[29.867615,40.856721],[29.867096,40.856562],[29.865807,40.856543],[29.864769,40.85643],[29.863498,40.856635],[29.862469,40.857466],[29.861096,40.858184],[29.86021,40.857891],[29.858986,40.858622],[29.85685,40.858978],[29.856277,40.85896],[29.855489,40.858672],[29.854508,40.858639],[29.854016,40.858703],[29.853126,40.859091],[29.851532,40.859012],[29.85035,40.859119],[29.849823,40.859491],[29.848141,40.860083],[29.84796,40.860312],[29.848192,40.861574],[29.847457,40.862191],[29.846732,40.862385],[29.846505,40.862527],[29.846533,40.862956],[29.846261,40.863432],[29.846269,40.864119],[29.846011,40.864998],[29.84583,40.864974],[29.845497,40.865244],[29.844893,40.866489],[29.844538,40.866715],[29.843938,40.867375],[29.843258,40.867705],[29.843385,40.868498],[29.843833,40.868234],[29.844037,40.868233],[29.844319,40.869088],[29.844211,40.869588],[29.844365,40.870381],[29.844279,40.870846],[29.844434,40.871177],[29.844277,40.871668],[29.844395,40.871912],[29.844285,40.872484],[29.84391,40.873],[29.844011,40.873231],[29.843847,40.873563],[29.843855,40.87389],[29.844036,40.874303],[29.844457,40.874678],[29.844805,40.875342],[29.844934,40.876074],[29.845246,40.876304],[29.845768,40.877631],[29.846167,40.877774],[29.846808,40.878396],[29.846763,40.878772],[29.847376,40.879403],[29.847505,40.879888],[29.847692,40.880149],[29.848655,40.880464],[29.849594,40.880265],[29.850493,40.880934],[29.850744,40.881465],[29.850608,40.882237],[29.850624,40.883017],[29.84969,40.884248],[29.848823,40.886743],[29.848419,40.887503],[29.848093,40.888731],[29.847381,40.88911],[29.846907,40.889171],[29.846896,40.889274],[29.847395,40.88969],[29.847763,40.889796],[29.847782,40.889954],[29.848633,40.890853],[29.849197,40.891275],[29.849742,40.892151],[29.850809,40.893007],[29.850741,40.893174],[29.851051,40.893468],[29.850525,40.894237],[29.850104,40.894639],[29.850296,40.895313],[29.849537,40.895463],[29.849282,40.895977],[29.848573,40.896519],[29.847547,40.896571],[29.847211,40.896372],[29.846908,40.896326],[29.846255,40.896801],[29.845848,40.896984],[29.846495,40.897695],[29.846264,40.898072],[29.845664,40.898526],[29.846294,40.898559],[29.84632,40.898712],[29.846591,40.898527]]]}},{"type":"Feature","properties":{"id":"TR-Y-41-004-M-0011","level":"yerlesim","type":"mahalle","parent_id":"TR-D-41-004","province_id":"TR-P-41","district_id":"TR-D-41-004","name":"Mersincik","source_raw_name":"Mersincik","source":"Kullanıcı tarafından sağlanan KML","source_label":"Kullanıcı tarafından sağlanan KML","source_name":"Kocaeli Mahalle KML - kullanıcı tarafından sağlandı"},"geometry":{"type":"Polygon","coordinates":[[[29.855591,40.791377],[29.856602,40.790546],[29.857173,40.790317],[29.857433,40.789983],[29.857555,40.788336],[29.858021,40.787708],[29.857683,40.786468],[29.857995,40.78607],[29.857868,40.785732],[29.85795,40.785224],[29.858793,40.784139],[29.858278,40.783776],[29.85802,40.783429],[29.85835,40.78237],[29.858768,40.781991],[29.858845,40.781585],[29.858994,40.781433],[29.858953,40.781159],[29.859344,40.780331],[29.859178,40.779096],[29.859305,40.778637],[29.859132,40.777956],[29.858903,40.775828],[29.858621,40.774788],[29.857136,40.773523],[29.85687,40.772874],[29.85694,40.771787],[29.856668,40.77061],[29.856364,40.770061],[29.85626,40.769537],[29.857086,40.768792],[29.857034,40.768553],[29.856182,40.768096],[29.855866,40.76769],[29.855507,40.767495],[29.854575,40.767415],[29.854391,40.767333],[29.854221,40.767073],[29.854234,40.76676],[29.8541,40.766732],[29.850788,40.767977],[29.849645,40.768283],[29.848393,40.768405],[29.845315,40.768348],[29.845405,40.769575],[29.845119,40.770423],[29.845399,40.772005],[29.846006,40.773024],[29.845955,40.77314],[29.845488,40.773286],[29.84572,40.774042],[29.845505,40.774605],[29.845596,40.77496],[29.84593,40.775338],[29.84603,40.775678],[29.848357,40.776861],[29.849731,40.778221],[29.850437,40.779558],[29.851261,40.780659],[29.851342,40.781209],[29.851898,40.782152],[29.852286,40.783541],[29.855493,40.7917],[29.855591,40.791377]]]}},{"type":"Feature","properties":{"id":"TR-Y-41-004-M-0012","level":"yerlesim","type":"mahalle","parent_id":"TR-D-41-004","province_id":"TR-P-41","district_id":"TR-D-41-004","name":"Sırrıpaşa","source_raw_name":"Sırrıpaşa","source":"Kullanıcı tarafından sağlanan KML","source_label":"Kullanıcı tarafından sağlanan KML","source_name":"Kocaeli Mahalle KML - kullanıcı tarafından sağlandı"},"geometry":{"type":"Polygon","coordinates":[[[29.826786,40.768608],[29.827028,40.767895],[29.827408,40.767397],[29.82763,40.765703],[29.828301,40.763673],[29.828759,40.761402],[29.829028,40.758228],[29.829469,40.756076],[29.814426,40.756463],[29.814953,40.76279],[29.814708,40.76514],[29.814832,40.766182],[29.814722,40.767391],[29.817063,40.767414],[29.82021,40.767664],[29.822399,40.767947],[29.826719,40.76877],[29.826786,40.768608]]]}},{"type":"Feature","properties":{"id":"TR-Y-41-004-M-0013","level":"yerlesim","type":"mahalle","parent_id":"TR-D-41-004","province_id":"TR-P-41","district_id":"TR-D-41-004","name":"Tahtalı","source_raw_name":"Tahtalı","source":"Kullanıcı tarafından sağlanan KML","source_label":"Kullanıcı tarafından sağlanan KML","source_name":"Kocaeli Mahalle KML - kullanıcı tarafından sağlandı"},"geometry":{"type":"Polygon","coordinates":[[[29.867473,40.978976],[29.867663,40.978648],[29.868356,40.978792],[29.868793,40.979091],[29.870583,40.97926],[29.87051,40.979013],[29.871312,40.977765],[29.871466,40.977242],[29.871884,40.976584],[29.873128,40.97543],[29.873993,40.973759],[29.874287,40.973528],[29.874863,40.973399],[29.875312,40.972973],[29.875624,40.97205],[29.87511,40.970946],[29.874289,40.969896],[29.872951,40.968603],[29.872583,40.967912],[29.871673,40.966901],[29.871293,40.966114],[29.871202,40.965659],[29.871681,40.96432],[29.87162,40.963362],[29.871121,40.962191],[29.87102,40.961695],[29.871096,40.961374],[29.871294,40.961482],[29.871766,40.961419],[29.872426,40.961508],[29.872817,40.960995],[29.87303,40.960372],[29.87231,40.959936],[29.871898,40.959467],[29.872435,40.959437],[29.872852,40.959003],[29.873241,40.958378],[29.873562,40.958364],[29.87374,40.95885],[29.874385,40.958717],[29.87462,40.958537],[29.874617,40.95833],[29.874788,40.958196],[29.8747,40.957628],[29.874436,40.957551],[29.874199,40.957249],[29.874382,40.957074],[29.874581,40.956222],[29.874458,40.956074],[29.874519,40.95553],[29.874898,40.954915],[29.874637,40.954467],[29.874155,40.954305],[29.874327,40.953935],[29.87533,40.953532],[29.876495,40.953242],[29.876968,40.953006],[29.878323,40.952726],[29.880113,40.951997],[29.880335,40.951827],[29.88206,40.949249],[29.882233,40.947834],[29.881997,40.947002],[29.882021,40.946441],[29.882226,40.946596],[29.883054,40.946769],[29.883431,40.946946],[29.884859,40.94718],[29.885804,40.947669],[29.886216,40.947772],[29.888579,40.947752],[29.889926,40.947451],[29.8911,40.947036],[29.892163,40.94702],[29.893186,40.947464],[29.894028,40.9473],[29.894341,40.947544],[29.894824,40.947542],[29.894873,40.947821],[29.897588,40.948428],[29.899208,40.948418],[29.899353,40.948268],[29.899442,40.947736],[29.90074,40.946428],[29.901251,40.945682],[29.902079,40.94403],[29.902487,40.94283],[29.902852,40.942153],[29.903416,40.941362],[29.90444,40.940547],[29.906239,40.942601],[29.906897,40.94299],[29.906987,40.942931],[29.907991,40.943254],[29.908755,40.943369],[29.908547,40.942903],[29.908961,40.942589],[29.909199,40.942501],[29.909692,40.942508],[29.910959,40.942326],[29.912039,40.942076],[29.913143,40.941685],[29.913907,40.94129],[29.913782,40.940874],[29.91403,40.939861],[29.914943,40.938785],[29.914954,40.938435],[29.915638,40.937921],[29.915856,40.937543],[29.917149,40.936659],[29.917257,40.936418],[29.91864,40.936053],[29.921616,40.935047],[29.921959,40.93486],[29.922294,40.93454],[29.922398,40.934026],[29.922972,40.933438],[29.923156,40.932906],[29.924069,40.932161],[29.924368,40.931754],[29.925777,40.932106],[29.92634,40.932331],[29.926962,40.932724],[29.927658,40.932971],[29.928855,40.933594],[29.930746,40.933712],[29.931518,40.933986],[29.93334,40.933299],[29.933455,40.933329],[29.933776,40.932951],[29.934942,40.932155],[29.936593,40.930278],[29.936711,40.930014],[29.936678,40.929771],[29.936228,40.928968],[29.936506,40.928202],[29.936297,40.9276],[29.936368,40.927413],[29.936493,40.927385],[29.936451,40.927087],[29.936609,40.926972],[29.93646,40.926423],[29.93617,40.926168],[29.936042,40.926173],[29.935308,40.924699],[29.935325,40.922993],[29.935429,40.92294],[29.934962,40.921975],[29.934919,40.921035],[29.934714,40.92062],[29.933832,40.919717],[29.932406,40.917397],[29.932035,40.917161],[29.930752,40.916929],[29.929992,40.916585],[29.929078,40.915624],[29.928765,40.914854],[29.928649,40.914909],[29.928542,40.915202],[29.928561,40.916047],[29.928255,40.916232],[29.926704,40.916071],[29.925432,40.915817],[29.922425,40.915636],[29.922706,40.91391],[29.922288,40.912655],[29.922208,40.912094],[29.922059,40.911927],[29.921548,40.911618],[29.920601,40.911499],[29.919516,40.911543],[29.918528,40.911106],[29.918319,40.911145],[29.918171,40.911058],[29.917454,40.910514],[29.915155,40.908033],[29.914839,40.907968],[29.914089,40.90724],[29.912729,40.907539],[29.912139,40.907968],[29.911579,40.908136],[29.911316,40.908477],[29.910917,40.908278],[29.910546,40.908228],[29.910294,40.908298],[29.909629,40.908064],[29.909221,40.907692],[29.909147,40.907458],[29.909404,40.907164],[29.909994,40.906988],[29.909992,40.906488],[29.910203,40.905931],[29.909217,40.905643],[29.908615,40.90566],[29.908615,40.905605],[29.909515,40.905298],[29.910234,40.904624],[29.91008,40.904047],[29.909648,40.903773],[29.909636,40.903017],[29.909364,40.902818],[29.908305,40.902607],[29.907409,40.902582],[29.903681,40.900836],[29.90277,40.901521],[29.902365,40.901297],[29.901715,40.901805],[29.901427,40.901699],[29.900394,40.900985],[29.89987,40.90103],[29.89895,40.901414],[29.898726,40.901349],[29.898251,40.901411],[29.897911,40.901616],[29.897957,40.90217],[29.897216,40.902195],[29.897233,40.902417],[29.898018,40.902387],[29.898151,40.902461],[29.897698,40.90258],[29.89692,40.902683],[29.896086,40.902669],[29.894443,40.90242],[29.894417,40.902333],[29.893983,40.902623],[29.893829,40.902904],[29.894019,40.903041],[29.89406,40.903276],[29.893945,40.903701],[29.893701,40.903763],[29.893623,40.903944],[29.893751,40.903971],[29.893535,40.904338],[29.893533,40.904588],[29.892703,40.904834],[29.892572,40.905384],[29.892063,40.905379],[29.891499,40.90522],[29.890816,40.905566],[29.889948,40.905596],[29.888633,40.905173],[29.888173,40.905089],[29.887724,40.905206],[29.887297,40.905151],[29.887026,40.90501],[29.885089,40.904551],[29.885157,40.903782],[29.884918,40.903431],[29.883107,40.902804],[29.881661,40.902964],[29.88113,40.902923],[29.880749,40.902759],[29.880348,40.903047],[29.879889,40.90303],[29.879947,40.901712],[29.872576,40.901351],[29.872301,40.901201],[29.871735,40.901875],[29.872031,40.903091],[29.871633,40.90327],[29.871491,40.903455],[29.871116,40.904193],[29.871024,40.904886],[29.871118,40.90524],[29.870775,40.905562],[29.870467,40.906064],[29.87019,40.906223],[29.869095,40.906283],[29.868428,40.906225],[29.867651,40.905998],[29.866465,40.905936],[29.866097,40.906072],[29.865868,40.90631],[29.865436,40.906273],[29.864647,40.906557],[29.864581,40.90686],[29.864032,40.906665],[29.863008,40.90682],[29.863189,40.907388],[29.863137,40.907963],[29.862852,40.908643],[29.862992,40.909275],[29.862814,40.910604],[29.862895,40.911567],[29.863179,40.911916],[29.863555,40.912049],[29.863652,40.912362],[29.863688,40.91343],[29.863442,40.914044],[29.863517,40.914312],[29.863858,40.914779],[29.864551,40.915002],[29.86409,40.91542],[29.863216,40.916569],[29.862626,40.917094],[29.861823,40.918257],[29.861509,40.918893],[29.861239,40.919844],[29.861016,40.921342],[29.860592,40.921797],[29.86051,40.922056],[29.860667,40.923698],[29.86131,40.925914],[29.861838,40.926709],[29.862515,40.927103],[29.862417,40.927313],[29.862816,40.927973],[29.862149,40.928046],[29.862755,40.928271],[29.862687,40.929178],[29.863122,40.930358],[29.863002,40.930798],[29.863549,40.931356],[29.863867,40.931549],[29.863273,40.931485],[29.862934,40.931925],[29.862359,40.932091],[29.862121,40.932326],[29.86253,40.932446],[29.86228,40.932664],[29.862427,40.932889],[29.863072,40.932994],[29.862486,40.933237],[29.863266,40.933622],[29.863585,40.933652],[29.863293,40.93391],[29.862709,40.93414],[29.862783,40.934586],[29.863176,40.934732],[29.863625,40.934586],[29.864023,40.934882],[29.863197,40.935255],[29.862119,40.935561],[29.861716,40.936021],[29.861521,40.936427],[29.861246,40.936612],[29.861263,40.936845],[29.861031,40.937241],[29.861028,40.937489],[29.861421,40.938099],[29.862315,40.938563],[29.862378,40.938762],[29.862704,40.938882],[29.862683,40.939025],[29.862953,40.93917],[29.863006,40.939429],[29.863208,40.939495],[29.863414,40.939801],[29.863912,40.940167],[29.864276,40.940678],[29.864205,40.940795],[29.864462,40.941585],[29.864207,40.941834],[29.864673,40.942008],[29.865154,40.942045],[29.865644,40.942265],[29.865333,40.942837],[29.865458,40.943355],[29.864685,40.94373],[29.864663,40.944551],[29.864469,40.94457],[29.864264,40.944909],[29.864178,40.944907],[29.86405,40.944639],[29.863811,40.944556],[29.86357,40.944631],[29.863428,40.94489],[29.863556,40.945878],[29.863238,40.946532],[29.862942,40.947818],[29.862679,40.948306],[29.862956,40.948319],[29.863277,40.94817],[29.863531,40.94833],[29.863967,40.948333],[29.864117,40.948512],[29.864992,40.948633],[29.865414,40.94856],[29.865782,40.948856],[29.866383,40.949097],[29.866449,40.949351],[29.866337,40.94978],[29.866838,40.949827],[29.867123,40.949975],[29.866967,40.950136],[29.866991,40.951022],[29.867274,40.951699],[29.867783,40.952235],[29.868089,40.952921],[29.86832,40.953083],[29.868325,40.953385],[29.868114,40.953969],[29.868254,40.954007],[29.868501,40.953843],[29.868457,40.95493],[29.868235,40.955679],[29.868262,40.956254],[29.867589,40.956629],[29.867627,40.956702],[29.866883,40.957241],[29.866715,40.957759],[29.866859,40.958287],[29.866806,40.958557],[29.86652,40.958901],[29.865983,40.959173],[29.865661,40.959742],[29.865136,40.960227],[29.864682,40.961079],[29.86464,40.961422],[29.864988,40.962655],[29.864908,40.963155],[29.864807,40.96316],[29.864527,40.963576],[29.864321,40.963227],[29.864167,40.963457],[29.863895,40.963627],[29.863178,40.963729],[29.861589,40.964266],[29.860784,40.96427],[29.858819,40.964014],[29.858904,40.964137],[29.858849,40.964747],[29.859265,40.965548],[29.85965,40.966032],[29.860511,40.966461],[29.862072,40.967063],[29.862584,40.967587],[29.862787,40.967921],[29.862759,40.968054],[29.861134,40.969988],[29.859844,40.970246],[29.859524,40.970954],[29.858921,40.971123],[29.857345,40.970328],[29.856936,40.971952],[29.857414,40.973671],[29.857764,40.974238],[29.859193,40.974434],[29.859243,40.975064],[29.859431,40.975661],[29.860471,40.976554],[29.861481,40.976679],[29.86185,40.976816],[29.862107,40.977093],[29.863176,40.977376],[29.863448,40.977238],[29.863802,40.977437],[29.864039,40.977314],[29.864225,40.977543],[29.864111,40.977623],[29.865368,40.97856],[29.865851,40.978841],[29.866283,40.978706],[29.86674,40.979391],[29.867473,40.978976]]]}},{"type":"Feature","properties":{"id":"TR-Y-41-004-M-0014","level":"yerlesim","type":"mahalle","parent_id":"TR-D-41-004","province_id":"TR-P-41","district_id":"TR-D-41-004","name":"Terziler","source_raw_name":"Terziler","source":"Kullanıcı tarafından sağlanan KML","source_label":"Kullanıcı tarafından sağlanan KML","source_name":"Kocaeli Mahalle KML - kullanıcı tarafından sağlandı"},"geometry":{"type":"Polygon","coordinates":[[[29.892786,40.966029],[29.893175,40.965412],[29.893586,40.965109],[29.894133,40.965236],[29.894547,40.965116],[29.894632,40.965026],[29.894559,40.96464],[29.894777,40.964537],[29.894964,40.96499],[29.895248,40.96493],[29.895184,40.964784],[29.895538,40.964736],[29.895963,40.964811],[29.896081,40.965304],[29.896656,40.965167],[29.897142,40.964781],[29.898525,40.964914],[29.899395,40.964814],[29.899599,40.964842],[29.89965,40.965257],[29.900801,40.965424],[29.90277,40.965894],[29.904242,40.964984],[29.904824,40.965015],[29.905431,40.964805],[29.905544,40.964429],[29.904721,40.964179],[29.9047,40.963978],[29.905376,40.963219],[29.905518,40.962821],[29.905715,40.962763],[29.905955,40.962491],[29.906346,40.962275],[29.90656,40.962253],[29.907783,40.962417],[29.908015,40.961967],[29.909262,40.962045],[29.909372,40.961971],[29.909718,40.962051],[29.910162,40.961921],[29.911096,40.96197],[29.913576,40.963234],[29.913593,40.962718],[29.915181,40.962981],[29.916038,40.963415],[29.916262,40.963357],[29.917741,40.963604],[29.917752,40.96392],[29.918004,40.963791],[29.918539,40.964072],[29.919362,40.964302],[29.919864,40.964346],[29.919977,40.964152],[29.92052,40.964052],[29.921632,40.962681],[29.921877,40.962747],[29.922602,40.962271],[29.923715,40.962954],[29.924124,40.962775],[29.924596,40.962375],[29.924916,40.962514],[29.925028,40.9624],[29.924934,40.962068],[29.924585,40.961933],[29.924266,40.961667],[29.924703,40.961483],[29.924647,40.961112],[29.924351,40.960728],[29.924981,40.960309],[29.924808,40.960155],[29.925489,40.959696],[29.925843,40.959925],[29.926081,40.959697],[29.925584,40.95949],[29.925424,40.95884],[29.925254,40.958673],[29.925893,40.95866],[29.926378,40.957385],[29.926539,40.957175],[29.926825,40.957244],[29.926929,40.956995],[29.926543,40.956787],[29.925807,40.956671],[29.925168,40.956136],[29.924111,40.955647],[29.92182,40.95488],[29.920758,40.954109],[29.920164,40.953947],[29.919642,40.953922],[29.919332,40.953706],[29.91885,40.953548],[29.918001,40.953434],[29.917397,40.95287],[29.916924,40.952771],[29.91573,40.951343],[29.915119,40.950866],[29.914639,40.950723],[29.914417,40.950463],[29.914283,40.950084],[29.914107,40.950107],[29.913973,40.949738],[29.913949,40.949301],[29.914109,40.949001],[29.914759,40.948298],[29.914741,40.947606],[29.915373,40.947467],[29.915522,40.947553],[29.915919,40.94737],[29.91591,40.94713],[29.91551,40.946643],[29.915455,40.946399],[29.914922,40.945774],[29.914792,40.945779],[29.914323,40.944999],[29.914214,40.945039],[29.913628,40.944502],[29.912181,40.943982],[29.911675,40.943629],[29.90908,40.943546],[29.909063,40.943451],[29.908755,40.943369],[29.907991,40.943254],[29.906987,40.942931],[29.906897,40.94299],[29.906074,40.942478],[29.90444,40.940547],[29.903416,40.941362],[29.902852,40.942153],[29.902487,40.94283],[29.902079,40.94403],[29.901251,40.945682],[29.90074,40.946428],[29.899442,40.947736],[29.899353,40.948268],[29.899208,40.948418],[29.897588,40.948428],[29.894873,40.947821],[29.894824,40.947542],[29.894341,40.947544],[29.894028,40.9473],[29.893186,40.947464],[29.892163,40.94702],[29.8911,40.947036],[29.889926,40.947451],[29.888579,40.947752],[29.886216,40.947772],[29.885804,40.947669],[29.884859,40.94718],[29.883431,40.946946],[29.883054,40.946769],[29.882226,40.946596],[29.882021,40.946441],[29.881997,40.947002],[29.882233,40.947834],[29.88206,40.949249],[29.880335,40.951827],[29.880113,40.951997],[29.878323,40.952726],[29.876968,40.953006],[29.876495,40.953242],[29.87533,40.953532],[29.874327,40.953935],[29.874155,40.954305],[29.874637,40.954467],[29.874898,40.954915],[29.874519,40.95553],[29.874458,40.956074],[29.874581,40.956222],[29.874382,40.957074],[29.874199,40.957249],[29.874436,40.957551],[29.8747,40.957628],[29.874788,40.958196],[29.874617,40.95833],[29.87462,40.958537],[29.874385,40.958717],[29.87374,40.95885],[29.873562,40.958364],[29.873241,40.958378],[29.872852,40.959003],[29.872435,40.959437],[29.871898,40.959467],[29.872551,40.960113],[29.87303,40.960372],[29.873542,40.960364],[29.874797,40.959948],[29.875991,40.958791],[29.876324,40.958577],[29.87685,40.958563],[29.87749,40.958685],[29.87903,40.958515],[29.879067,40.958592],[29.880365,40.957872],[29.881223,40.957207],[29.882667,40.95748],[29.882585,40.957704],[29.882665,40.958484],[29.882808,40.958901],[29.883012,40.958994],[29.883259,40.959485],[29.883224,40.959844],[29.883349,40.960199],[29.884124,40.960902],[29.884469,40.961145],[29.885059,40.961232],[29.885584,40.961541],[29.887082,40.963073],[29.888915,40.964086],[29.889386,40.96455],[29.890284,40.965118],[29.890854,40.965853],[29.89111,40.965931],[29.891266,40.965882],[29.89125,40.965563],[29.892598,40.966192],[29.892786,40.966029]]]}},{"type":"Feature","properties":{"id":"TR-Y-41-004-M-0015","level":"yerlesim","type":"mahalle","parent_id":"TR-D-41-004","province_id":"TR-P-41","district_id":"TR-D-41-004","name":"Toylar","source_raw_name":"Toylar","source":"Kullanıcı tarafından sağlanan KML","source_label":"Kullanıcı tarafından sağlanan KML","source_name":"Kocaeli Mahalle KML - kullanıcı tarafından sağlandı"},"geometry":{"type":"Polygon","coordinates":[[[29.860135,40.85791],[29.860345,40.857892],[29.860849,40.858157],[29.861096,40.858184],[29.862469,40.857466],[29.863498,40.856635],[29.864769,40.85643],[29.865807,40.856543],[29.867096,40.856562],[29.867615,40.856721],[29.868316,40.857107],[29.869324,40.857163],[29.869654,40.857071],[29.872098,40.855485],[29.872516,40.855117],[29.873071,40.854257],[29.873338,40.853429],[29.87363,40.852966],[29.873873,40.852868],[29.874446,40.852831],[29.875288,40.852271],[29.875792,40.85222],[29.876051,40.852021],[29.875916,40.850965],[29.876092,40.850922],[29.876179,40.851047],[29.876879,40.850874],[29.877464,40.850092],[29.877431,40.849758],[29.877613,40.849343],[29.877497,40.848799],[29.877971,40.848699],[29.878457,40.848205],[29.878885,40.848133],[29.879219,40.847643],[29.879334,40.84768],[29.880466,40.847396],[29.881804,40.84739],[29.882913,40.847603],[29.882897,40.847506],[29.883844,40.847614],[29.884238,40.84758],[29.884758,40.847319],[29.885984,40.846272],[29.887122,40.845999],[29.887836,40.845648],[29.888148,40.844346],[29.889149,40.843731],[29.88987,40.843496],[29.890893,40.843546],[29.891503,40.843474],[29.892497,40.843176],[29.893497,40.843065],[29.895427,40.842494],[29.895882,40.842462],[29.896651,40.842595],[29.896856,40.842466],[29.89713,40.841885],[29.898309,40.841408],[29.899109,40.840907],[29.897986,40.839696],[29.896746,40.838556],[29.895386,40.836879],[29.89398,40.835613],[29.893249,40.835159],[29.89235,40.834919],[29.891652,40.834539],[29.891053,40.834492],[29.890261,40.834213],[29.890246,40.834115],[29.889664,40.83416],[29.889249,40.833918],[29.887279,40.83346],[29.88569,40.832064],[29.885116,40.831813],[29.884577,40.831747],[29.883672,40.831319],[29.883379,40.831142],[29.883281,40.830909],[29.882523,40.830593],[29.882206,40.830239],[29.881826,40.830202],[29.881288,40.82995],[29.88047,40.829149],[29.879983,40.828915],[29.879392,40.828965],[29.87844,40.828809],[29.877784,40.828851],[29.877153,40.828723],[29.875984,40.828749],[29.875769,40.828543],[29.8746,40.828405],[29.873591,40.828136],[29.873431,40.827719],[29.871922,40.827815],[29.870785,40.827278],[29.870188,40.827123],[29.869775,40.826907],[29.869517,40.826432],[29.869589,40.825865],[29.868916,40.824945],[29.86785,40.824676],[29.866921,40.823884],[29.866309,40.823871],[29.865446,40.823533],[29.865038,40.823532],[29.864452,40.823376],[29.864237,40.823249],[29.863543,40.822211],[29.863202,40.822002],[29.862507,40.822271],[29.861961,40.822774],[29.861549,40.82289],[29.860904,40.822776],[29.860569,40.822614],[29.860409,40.822468],[29.860204,40.821958],[29.859838,40.821803],[29.859242,40.82192],[29.858156,40.822414],[29.858,40.82255],[29.858049,40.822781],[29.85986,40.823194],[29.860039,40.823349],[29.859811,40.823631],[29.859243,40.823783],[29.858973,40.823945],[29.857831,40.82493],[29.857685,40.825421],[29.857743,40.826239],[29.857601,40.826477],[29.856972,40.826822],[29.856269,40.82694],[29.855407,40.827404],[29.85492,40.8272],[29.854393,40.82712],[29.854019,40.827548],[29.85369,40.827642],[29.852133,40.827668],[29.851251,40.828072],[29.849734,40.827793],[29.849222,40.827422],[29.848502,40.827521],[29.847419,40.827136],[29.846032,40.827313],[29.843757,40.826935],[29.842028,40.826203],[29.841893,40.826216],[29.84189,40.826126],[29.840073,40.825972],[29.839312,40.826168],[29.836846,40.825906],[29.83647,40.825763],[29.836006,40.825728],[29.834574,40.826181],[29.833477,40.826162],[29.833243,40.826343],[29.833095,40.826739],[29.833571,40.827012],[29.833606,40.827267],[29.832265,40.82756],[29.831567,40.827481],[29.830764,40.826964],[29.827699,40.826205],[29.826027,40.82636],[29.826627,40.826479],[29.827019,40.826809],[29.827041,40.827067],[29.826756,40.827739],[29.826845,40.828659],[29.827213,40.829033],[29.827958,40.829497],[29.828224,40.829931],[29.828343,40.8312],[29.828126,40.832117],[29.828262,40.832487],[29.828518,40.83273],[29.830015,40.833153],[29.8304,40.833394],[29.831896,40.835362],[29.833828,40.837254],[29.834012,40.837958],[29.833071,40.839251],[29.833028,40.839513],[29.833197,40.839892],[29.833528,40.840104],[29.835236,40.840517],[29.835792,40.841096],[29.835725,40.841912],[29.83523,40.843658],[29.835207,40.844114],[29.83541,40.844578],[29.835974,40.845299],[29.835961,40.845879],[29.835634,40.846162],[29.835872,40.846398],[29.835686,40.846686],[29.835574,40.846634],[29.83508,40.846872],[29.83492,40.84714],[29.833632,40.847216],[29.834209,40.847507],[29.835419,40.847468],[29.836193,40.847886],[29.836446,40.848039],[29.8367,40.848415],[29.836617,40.848593],[29.837792,40.848995],[29.838708,40.849806],[29.839123,40.850039],[29.839903,40.850421],[29.84088,40.850488],[29.84102,40.85066],[29.842077,40.851233],[29.842237,40.851453],[29.843648,40.85196],[29.844724,40.853252],[29.845126,40.853486],[29.847356,40.854004],[29.848025,40.854065],[29.850924,40.854992],[29.851698,40.855385],[29.852179,40.855731],[29.852338,40.855989],[29.852822,40.855933],[29.854152,40.856241],[29.85439,40.856074],[29.854483,40.856177],[29.854919,40.855815],[29.85562,40.856338],[29.855948,40.856979],[29.855918,40.857293],[29.855653,40.85757],[29.855861,40.857696],[29.855886,40.85787],[29.855739,40.858032],[29.855788,40.858315],[29.856221,40.858933],[29.85685,40.858978],[29.858565,40.858738],[29.8593,40.858486],[29.860135,40.85791]]]}},{"type":"Feature","properties":{"id":"TR-Y-41-004-M-0016","level":"yerlesim","type":"mahalle","parent_id":"TR-D-41-004","province_id":"TR-P-41","district_id":"TR-D-41-004","name":"Yavuzsultan","source_raw_name":"Yavuz Sultan","source":"Kullanıcı tarafından sağlanan KML","source_label":"Kullanıcı tarafından sağlanan KML","source_name":"Kocaeli Mahalle KML - kullanıcı tarafından sağlandı"},"geometry":{"type":"Polygon","coordinates":[[[29.805047,40.75727],[29.81142,40.756611],[29.815733,40.756423],[29.81568,40.754801],[29.81456,40.754734],[29.814799,40.753925],[29.81404,40.753901],[29.81438,40.753195],[29.814665,40.751957],[29.814129,40.750909],[29.81415,40.750441],[29.814326,40.749949],[29.81391,40.749476],[29.813262,40.749399],[29.812527,40.749486],[29.812372,40.749104],[29.812751,40.749055],[29.812729,40.748985],[29.812272,40.749057],[29.812461,40.749513],[29.812255,40.749596],[29.811247,40.749574],[29.809391,40.749168],[29.808134,40.748703],[29.808201,40.748099],[29.808101,40.748089],[29.808059,40.748631],[29.805774,40.748445],[29.803946,40.748516],[29.803546,40.748617],[29.803021,40.74853],[29.80164,40.747783],[29.800545,40.747065],[29.799779,40.746072],[29.798454,40.745062],[29.798289,40.7448],[29.797661,40.74438],[29.796919,40.743695],[29.796176,40.743339],[29.795208,40.743434],[29.795285,40.743688],[29.794707,40.743887],[29.795037,40.744899],[29.795381,40.745124],[29.795686,40.745568],[29.795735,40.746337],[29.795911,40.746754],[29.796208,40.746865],[29.796423,40.747168],[29.796902,40.747484],[29.797798,40.748364],[29.798063,40.748469],[29.79821,40.748694],[29.798107,40.749765],[29.798734,40.751289],[29.799709,40.755562],[29.79979,40.756045],[29.799536,40.756237],[29.7995,40.756872],[29.799784,40.757873],[29.805047,40.75727]]]}},{"type":"Feature","properties":{"id":"TR-Y-41-004-M-0017","level":"yerlesim","type":"mahalle","parent_id":"TR-D-41-004","province_id":"TR-P-41","district_id":"TR-D-41-004","name":"Yenikent","source_raw_name":"Yenikent","source":"Kullanıcı tarafından sağlanan KML","source_label":"Kullanıcı tarafından sağlanan KML","source_name":"Kocaeli Mahalle KML - kullanıcı tarafından sağlandı"},"geometry":{"type":"Polygon","coordinates":[[[29.81242,40.806592],[29.812783,40.806277],[29.813622,40.806],[29.814177,40.805686],[29.815136,40.805677],[29.816052,40.805252],[29.816382,40.805222],[29.817118,40.805426],[29.817756,40.805336],[29.818278,40.805418],[29.819575,40.806162],[29.820846,40.806202],[29.821578,40.806339],[29.822269,40.80662],[29.821893,40.8062],[29.821598,40.806024],[29.821913,40.805785],[29.822335,40.804199],[29.821978,40.8033],[29.822243,40.802573],[29.822234,40.801294],[29.822506,40.800523],[29.822753,40.799273],[29.823141,40.79858],[29.8232,40.797887],[29.82347,40.797775],[29.823637,40.797801],[29.823385,40.79759],[29.823468,40.796457],[29.823318,40.796077],[29.823363,40.795831],[29.823695,40.79532],[29.823628,40.794767],[29.82377,40.794238],[29.824062,40.793783],[29.823898,40.793163],[29.824189,40.792246],[29.823386,40.791445],[29.823601,40.790909],[29.823202,40.790241],[29.822926,40.789106],[29.822841,40.788549],[29.822927,40.787986],[29.822687,40.78769],[29.82197,40.787286],[29.821255,40.785878],[29.821108,40.785314],[29.82067,40.784895],[29.820596,40.784623],[29.82068,40.784331],[29.819926,40.783706],[29.819937,40.78331],[29.819692,40.783376],[29.818774,40.783352],[29.818909,40.783021],[29.818809,40.782486],[29.818916,40.781861],[29.8194,40.781661],[29.819861,40.781329],[29.820081,40.780901],[29.819783,40.780673],[29.819519,40.7802],[29.819635,40.779762],[29.819498,40.77936],[29.819707,40.778672],[29.819579,40.778091],[29.819821,40.777839],[29.81947,40.77751],[29.819643,40.776918],[29.81954,40.776647],[29.818736,40.776068],[29.818143,40.77416],[29.818236,40.773783],[29.818112,40.772934],[29.817826,40.772059],[29.818001,40.771455],[29.817268,40.769765],[29.817213,40.768969],[29.816686,40.768049],[29.817063,40.767414],[29.815173,40.767377],[29.811815,40.767516],[29.808992,40.767794],[29.805314,40.768468],[29.805638,40.769269],[29.805519,40.769548],[29.80556,40.770394],[29.805503,40.77066],[29.805292,40.770877],[29.80525,40.771231],[29.8054,40.771928],[29.805574,40.772091],[29.805415,40.77257],[29.805596,40.773903],[29.805912,40.774826],[29.805837,40.775804],[29.805449,40.776469],[29.805293,40.777535],[29.805759,40.77855],[29.805697,40.778673],[29.805363,40.7788],[29.804631,40.778892],[29.803103,40.779034],[29.802526,40.778985],[29.79736,40.77777],[29.79693,40.777395],[29.796232,40.777075],[29.795473,40.777159],[29.794928,40.777723],[29.794111,40.778027],[29.795047,40.780097],[29.794657,40.781518],[29.796137,40.781767],[29.796806,40.782073],[29.796985,40.782405],[29.797323,40.782721],[29.798275,40.783049],[29.799514,40.783175],[29.799862,40.7835],[29.800337,40.783709],[29.80033,40.783885],[29.80078,40.784096],[29.800967,40.783824],[29.801999,40.783918],[29.801742,40.784236],[29.801886,40.784515],[29.802388,40.784627],[29.802765,40.784365],[29.803474,40.784379],[29.804676,40.786485],[29.804968,40.787334],[29.804966,40.787654],[29.804095,40.789135],[29.803727,40.789978],[29.80377,40.792372],[29.803478,40.793699],[29.803504,40.793937],[29.804417,40.795412],[29.804927,40.795882],[29.804625,40.796524],[29.80407,40.797236],[29.803741,40.797536],[29.802756,40.798114],[29.802194,40.798748],[29.802165,40.79901],[29.80507,40.800677],[29.806846,40.803385],[29.80689,40.803781],[29.806752,40.803944],[29.806746,40.804202],[29.806949,40.804732],[29.8075,40.805439],[29.808444,40.806078],[29.808415,40.80565],[29.808596,40.805298],[29.808866,40.80506],[29.809143,40.804928],[29.809849,40.805017],[29.809964,40.805364],[29.809751,40.805681],[29.809839,40.806267],[29.81007,40.80637],[29.811542,40.806363],[29.812314,40.806625],[29.81242,40.806592]]]}}]}