{"type":"FeatureCollection","name":"turkiye_map.dist.mahalle_geometrileri_by_district.TR-D-20-003","features":[{"type":"Feature","properties":{"id":"TR-Y-20-003-M-0001","level":"yerlesim","type":"mahalle","parent_id":"TR-D-20-003","province_id":"TR-P-20","district_id":"TR-D-20-003","name":"Balca","source_raw_name":"BALCA","source":"Kamuya açık veri ve kent rehberi servisleri","source_label":"Kamuya açık veri ve kent rehberi servisleri","source_name":"Denizli Adres Bilgi Sistemi - Mahalle Sınırları"},"geometry":{"type":"Polygon","coordinates":[[[29.613632,38.009665],[29.614228,38.009146],[29.614445,38.008957],[29.614501,38.008908],[29.61478,38.008581],[29.615604,38.009688],[29.615607,38.009691],[29.615798,38.009389],[29.616063,38.009429],[29.616161,38.009387],[29.616277,38.009338],[29.616282,38.009336],[29.616493,38.009269],[29.616501,38.009266],[29.616689,38.009246],[29.616957,38.009217],[29.617262,38.009184],[29.617265,38.009184],[29.617764,38.009225],[29.617766,38.009225],[29.618422,38.009181],[29.618449,38.008973],[29.618448,38.008969],[29.618365,38.008651],[29.618364,38.00865],[29.618272,38.008469],[29.618144,38.00822],[29.618044,38.008025],[29.618042,38.008022],[29.617938,38.007856],[29.617829,38.007679],[29.617827,38.007677],[29.618128,38.007262],[29.618133,38.007258],[29.618417,38.007055],[29.618531,38.006972],[29.618545,38.006969],[29.618901,38.006888],[29.618905,38.006888],[29.619344,38.006901],[29.618935,38.004019],[29.61861,38.001731],[29.618616,38.001645],[29.619009,37.996019],[29.618808,37.994369],[29.618238,37.994053],[29.618112,37.993983],[29.618103,37.993979],[29.617881,37.993883],[29.617693,37.993803],[29.617692,37.993802],[29.617625,37.99378],[29.617206,37.993641],[29.616844,37.993521],[29.616822,37.993515],[29.616708,37.993485],[29.616283,37.993371],[29.615974,37.993288],[29.615638,37.993187],[29.614786,37.99293],[29.614769,37.992925],[29.614344,37.992765],[29.613792,37.992558],[29.613532,37.99246],[29.613325,37.992243],[29.613179,37.99209],[29.613102,37.992009],[29.612968,37.991869],[29.612967,37.991868],[29.612745,37.991452],[29.612585,37.991154],[29.612583,37.99115],[29.612164,37.990877],[29.611827,37.990658],[29.611825,37.990654],[29.611441,37.990101],[29.611441,37.990101],[29.611068,37.989563],[29.611059,37.989556],[29.610827,37.989353],[29.610411,37.988991],[29.610285,37.98888],[29.610283,37.988877],[29.610008,37.988298],[29.609798,37.987856],[29.609797,37.987854],[29.609699,37.987783],[29.609292,37.987488],[29.609287,37.987478],[29.608667,37.986158],[29.608665,37.986154],[29.609274,37.985992],[29.609085,37.985131],[29.608202,37.983871],[29.607542,37.984308],[29.606757,37.98461],[29.605582,37.984703],[29.605551,37.984705],[29.605778,37.985332],[29.605819,37.985445],[29.60613,37.986545],[29.606134,37.986557],[29.606123,37.986759],[29.606084,37.987507],[29.606077,37.987651],[29.605931,37.988115],[29.605376,37.989875],[29.605162,37.990479],[29.60514,37.99054],[29.605143,37.990646],[29.605184,37.992184],[29.60519,37.992421],[29.605271,37.993648],[29.605273,37.993686],[29.605526,37.9958],[29.605568,37.995778],[29.605623,37.995975],[29.605826,37.996707],[29.605961,37.997194],[29.606036,37.997467],[29.606167,37.999153],[29.60274,38.000231],[29.602728,38.000234],[29.602531,38.000953],[29.602243,38.002005],[29.602237,38.002026],[29.602199,38.002954],[29.602199,38.002954],[29.602192,38.003139],[29.602189,38.00319],[29.602187,38.003204],[29.602069,38.003824],[29.601803,38.005218],[29.601803,38.005218],[29.602122,38.005365],[29.60245,38.005516],[29.602648,38.005608],[29.602727,38.005651],[29.603001,38.0058],[29.603335,38.005982],[29.603337,38.005982],[29.603905,38.006037],[29.60392,38.006038],[29.604165,38.006182],[29.604326,38.006276],[29.604339,38.006279],[29.604917,38.006411],[29.604919,38.006412],[29.6054,38.006802],[29.605413,38.006813],[29.605852,38.00711],[29.605852,38.00711],[29.605864,38.007118],[29.606278,38.007209],[29.607117,38.006747],[29.607048,38.006901],[29.607409,38.006921],[29.607448,38.006929],[29.60829,38.007117],[29.608749,38.008441],[29.608984,38.009117],[29.609003,38.009285],[29.609044,38.009643],[29.604731,38.00954],[29.604714,38.00954],[29.605061,38.011358],[29.605876,38.011458],[29.606033,38.011473],[29.607652,38.011631],[29.609052,38.011767],[29.60986,38.011846],[29.609936,38.011854],[29.610553,38.011978],[29.610583,38.011984],[29.610584,38.011984],[29.611028,38.011944],[29.611506,38.011901],[29.611694,38.011865],[29.612049,38.011796],[29.612511,38.011707],[29.613164,38.01158],[29.613503,38.011388],[29.613818,38.011209],[29.614112,38.011042],[29.614137,38.011027],[29.614378,38.01082],[29.614383,38.010816],[29.613641,38.010427],[29.613089,38.010138],[29.613632,38.009665]]]}},{"type":"Feature","properties":{"id":"TR-Y-20-003-M-0002","level":"yerlesim","type":"mahalle","parent_id":"TR-D-20-003","province_id":"TR-P-20","district_id":"TR-D-20-003","name":"Beyelli","source_raw_name":"BEYELLİ","source":"Kamuya açık veri ve kent rehberi servisleri","source_label":"Kamuya açık veri ve kent rehberi servisleri","source_name":"Denizli Adres Bilgi Sistemi - Mahalle Sınırları"},"geometry":{"type":"Polygon","coordinates":[[[29.592654,38.141412],[29.607915,38.130106],[29.60802,38.129459],[29.609603,38.127552],[29.615783,38.123997],[29.615041,38.123745],[29.609884,38.121992],[29.611662,38.11872],[29.613949,38.114159],[29.614375,38.112997],[29.615734,38.109298],[29.61134,38.108191],[29.611228,38.105708],[29.605955,38.104498],[29.606471,38.102116],[29.605341,38.101815],[29.590043,38.095994],[29.590033,38.09599],[29.590027,38.096001],[29.586393,38.102246],[29.586386,38.102259],[29.585285,38.104151],[29.584788,38.105006],[29.584404,38.105665],[29.583844,38.106628],[29.581165,38.109075],[29.581127,38.10911],[29.581127,38.10911],[29.581002,38.109193],[29.580799,38.109328],[29.579596,38.11013],[29.57739,38.111599],[29.577268,38.111678],[29.573301,38.11423],[29.573292,38.114236],[29.574438,38.11551],[29.575199,38.116355],[29.575638,38.116969],[29.576847,38.118196],[29.577545,38.118723],[29.578536,38.119513],[29.578753,38.120184],[29.578161,38.12056],[29.577,38.121211],[29.576519,38.12148],[29.575205,38.122217],[29.575199,38.122609],[29.575159,38.124329],[29.575159,38.124329],[29.575151,38.124704],[29.574947,38.126128],[29.575182,38.126715],[29.575247,38.12682],[29.575738,38.127604],[29.575769,38.127625],[29.577561,38.128856],[29.577592,38.128855],[29.579581,38.128764],[29.580937,38.126876],[29.584052,38.12709],[29.584072,38.127097],[29.587913,38.128345],[29.587656,38.12882],[29.587202,38.129659],[29.586705,38.130577],[29.586682,38.130583],[29.583038,38.131548],[29.583033,38.131551],[29.579936,38.133101],[29.579934,38.133102],[29.577794,38.132866],[29.576427,38.132828],[29.576424,38.132829],[29.575159,38.13319],[29.574687,38.134532],[29.575302,38.135373],[29.575338,38.136841],[29.57595,38.138101],[29.577052,38.138699],[29.578999,38.138741],[29.579614,38.139582],[29.580894,38.140006],[29.581442,38.142923],[29.582401,38.143096],[29.582864,38.143284],[29.583201,38.143421],[29.583225,38.143384],[29.583693,38.142652],[29.585206,38.141519],[29.586017,38.140912],[29.587224,38.140996],[29.588423,38.142431],[29.589926,38.143628],[29.591338,38.142997],[29.592654,38.141412]]]}},{"type":"Feature","properties":{"id":"TR-Y-20-003-M-0003","level":"yerlesim","type":"mahalle","parent_id":"TR-D-20-003","province_id":"TR-P-20","district_id":"TR-D-20-003","name":"Boğaziçi","source_raw_name":"BOĞAZİÇİ","source":"Kamuya açık veri ve kent rehberi servisleri","source_label":"Kamuya açık veri ve kent rehberi servisleri","source_name":"Denizli Adres Bilgi Sistemi - Mahalle Sınırları"},"geometry":{"type":"Polygon","coordinates":[[[29.552923,37.996141],[29.561279,37.984998],[29.555976,37.980231],[29.557601,37.978915],[29.561418,37.975825],[29.564431,37.973385],[29.566452,37.971749],[29.568062,37.967585],[29.568082,37.967539],[29.56736,37.965575],[29.568517,37.963168],[29.570048,37.95998],[29.571947,37.957568],[29.571972,37.957536],[29.571677,37.957055],[29.569902,37.956751],[29.569117,37.956638],[29.568484,37.956548],[29.568462,37.956532],[29.567912,37.956132],[29.567906,37.956128],[29.567001,37.955744],[29.566884,37.955695],[29.566361,37.955693],[29.565962,37.955691],[29.56586,37.955652],[29.564776,37.955239],[29.564723,37.955191],[29.564082,37.954613],[29.56339,37.954482],[29.563299,37.954465],[29.561679,37.95352],[29.561588,37.953467],[29.561089,37.952371],[29.559028,37.951325],[29.559024,37.951323],[29.555984,37.946723],[29.556243,37.945492],[29.5555,37.944887],[29.554696,37.944641],[29.554666,37.944608],[29.554137,37.94402],[29.554087,37.943986],[29.55351,37.943594],[29.55349,37.943567],[29.55289,37.942723],[29.552541,37.942232],[29.549774,37.941397],[29.549718,37.941372],[29.547902,37.940573],[29.547739,37.940839],[29.547673,37.9409],[29.547445,37.941112],[29.547377,37.94116],[29.546892,37.941503],[29.546339,37.941894],[29.545418,37.941514],[29.545539,37.941112],[29.545647,37.940749],[29.545818,37.94007],[29.545933,37.93961],[29.545947,37.939575],[29.54623,37.938882],[29.546444,37.938358],[29.546452,37.938351],[29.546623,37.938209],[29.546624,37.938208],[29.547067,37.937687],[29.547462,37.937222],[29.547748,37.936886],[29.547772,37.936857],[29.548163,37.936471],[29.548557,37.936082],[29.548581,37.93607],[29.548934,37.935907],[29.548997,37.935877],[29.549145,37.935817],[29.549159,37.935818],[29.549466,37.935861],[29.549532,37.93587],[29.549812,37.935908],[29.549891,37.935919],[29.550118,37.93595],[29.550205,37.935962],[29.550376,37.935995],[29.550243,37.936538],[29.55046,37.936556],[29.550467,37.936556],[29.550617,37.936549],[29.550627,37.936549],[29.550719,37.936523],[29.550721,37.936522],[29.550748,37.93649],[29.550776,37.936455],[29.550777,37.936456],[29.550939,37.936642],[29.551272,37.937023],[29.551282,37.937028],[29.552568,37.937749],[29.55259,37.937761],[29.552812,37.937917],[29.552815,37.937919],[29.55362,37.938089],[29.554413,37.938257],[29.554449,37.938265],[29.555032,37.938321],[29.555698,37.938386],[29.556469,37.93846],[29.556843,37.938496],[29.557218,37.938533],[29.557228,37.938534],[29.55761,37.938354],[29.557924,37.938206],[29.557959,37.938197],[29.558455,37.938073],[29.558455,37.938073],[29.559158,37.937896],[29.559162,37.937896],[29.560477,37.93781],[29.560499,37.937819],[29.561403,37.938152],[29.561405,37.938153],[29.561505,37.938501],[29.561964,37.940098],[29.561977,37.940106],[29.56298,37.94072],[29.563519,37.94187],[29.565477,37.942826],[29.565559,37.942866],[29.566059,37.944051],[29.569416,37.944899],[29.56943,37.944915],[29.570359,37.946054],[29.572782,37.949021],[29.572813,37.949059],[29.574721,37.950881],[29.574808,37.950965],[29.574806,37.950905],[29.574615,37.945853],[29.574611,37.945761],[29.580064,37.938096],[29.576238,37.935739],[29.58386,37.93346],[29.584997,37.93312],[29.586807,37.932531],[29.589798,37.931558],[29.590637,37.931285],[29.593146,37.930595],[29.59821,37.929201],[29.60178,37.928218],[29.602782,37.927942],[29.605055,37.927316],[29.605054,37.927315],[29.604202,37.924247],[29.602973,37.921825],[29.600733,37.919408],[29.600519,37.917355],[29.600873,37.914411],[29.599645,37.910375],[29.599645,37.910375],[29.597957,37.907664],[29.596317,37.904595],[29.590815,37.900009],[29.587119,37.896337],[29.583641,37.894004],[29.581494,37.895246],[29.57957,37.897024],[29.576749,37.898085],[29.576286,37.89881],[29.575233,37.898753],[29.569615,37.900904],[29.560776,37.899884],[29.556771,37.902929],[29.554745,37.908351],[29.551847,37.913769],[29.549591,37.916031],[29.548455,37.916814],[29.546462,37.91819],[29.545078,37.920357],[29.545704,37.923558],[29.545715,37.923615],[29.541764,37.926866],[29.541378,37.927199],[29.538386,37.929707],[29.538357,37.929731],[29.538214,37.930242],[29.537296,37.933529],[29.536361,37.936903],[29.536099,37.937843],[29.53471,37.939836],[29.530568,37.945779],[29.528971,37.947155],[29.526965,37.948883],[29.524153,37.951337],[29.524094,37.951388],[29.52277,37.953205],[29.522284,37.953659],[29.522281,37.953662],[29.521323,37.95425],[29.521322,37.95425],[29.521151,37.954355],[29.519865,37.955013],[29.519826,37.955033],[29.519818,37.955037],[29.519731,37.955156],[29.518894,37.956288],[29.518841,37.95636],[29.51884,37.956362],[29.518822,37.956374],[29.518377,37.956693],[29.518344,37.956731],[29.517865,37.957292],[29.517837,37.957342],[29.516857,37.959102],[29.514552,37.963243],[29.51544,37.965741],[29.517082,37.970358],[29.518971,37.975672],[29.515872,37.980085],[29.511407,37.986438],[29.512325,37.987255],[29.515121,37.988067],[29.515124,37.988068],[29.515381,37.987988],[29.515881,37.987832],[29.51827,37.987105],[29.518271,37.987106],[29.518282,37.987115],[29.518829,37.987553],[29.518878,37.987592],[29.521146,37.989484],[29.52311,37.991135],[29.525917,37.992931],[29.52805,37.994368],[29.529735,37.995445],[29.530632,37.996252],[29.530667,37.996358],[29.531074,37.997592],[29.531196,37.99777],[29.531996,37.998936],[29.535794,38.001633],[29.536076,38.001834],[29.538326,38.00218],[29.538326,38.00218],[29.539645,38.001638],[29.540498,38.001287],[29.541752,38.00077],[29.54772,37.998314],[29.552923,37.996141]]]}},{"type":"Feature","properties":{"id":"TR-Y-20-003-M-0004","level":"yerlesim","type":"mahalle","parent_id":"TR-D-20-003","province_id":"TR-P-20","district_id":"TR-D-20-003","name":"Çataloba","source_raw_name":"ÇATALOBA","source":"Kamuya açık veri ve kent rehberi servisleri","source_label":"Kamuya açık veri ve kent rehberi servisleri","source_name":"Denizli Adres Bilgi Sistemi - Mahalle Sınırları"},"geometry":{"type":"Polygon","coordinates":[[[29.515872,37.980085],[29.518971,37.975672],[29.517082,37.970358],[29.51544,37.965741],[29.514552,37.963243],[29.516857,37.959102],[29.517837,37.957342],[29.518344,37.956731],[29.518822,37.956374],[29.518841,37.95636],[29.518894,37.956288],[29.519731,37.955156],[29.519826,37.955033],[29.519865,37.955013],[29.521322,37.95425],[29.521323,37.95425],[29.522284,37.953659],[29.52277,37.953205],[29.524153,37.951337],[29.524841,37.950722],[29.525718,37.949956],[29.527147,37.948712],[29.528101,37.947889],[29.529373,37.946794],[29.530572,37.945759],[29.531603,37.94428],[29.532066,37.943616],[29.532561,37.942906],[29.532834,37.942514],[29.533075,37.942168],[29.534167,37.940601],[29.534743,37.939774],[29.535611,37.93853],[29.536113,37.93778],[29.536541,37.93624],[29.536813,37.935258],[29.537018,37.934519],[29.537376,37.933228],[29.537786,37.931761],[29.538184,37.930336],[29.538214,37.930242],[29.538386,37.929707],[29.538392,37.929687],[29.540804,37.927666],[29.541764,37.926866],[29.545715,37.923615],[29.545704,37.923558],[29.545078,37.920357],[29.540067,37.92468],[29.539703,37.9231],[29.54134,37.920441],[29.543107,37.916697],[29.542625,37.914128],[29.539771,37.912242],[29.537528,37.912233],[29.535776,37.91341],[29.532655,37.914484],[29.53242,37.912213],[29.529688,37.910721],[29.527319,37.911106],[29.524694,37.912379],[29.521339,37.911082],[29.520331,37.912756],[29.522068,37.913849],[29.520686,37.915719],[29.517679,37.918175],[29.519537,37.91986],[29.515782,37.92251],[29.512272,37.925654],[29.509892,37.927421],[29.509256,37.929393],[29.508742,37.93176],[29.507368,37.932247],[29.502035,37.931264],[29.50051,37.933192],[29.501644,37.934607],[29.502774,37.936726],[29.503879,37.94257],[29.503461,37.948006],[29.503725,37.953213],[29.503798,37.954653],[29.502373,37.958473],[29.502864,37.961093],[29.503771,37.960858],[29.507068,37.960003],[29.505273,37.96221],[29.505767,37.964428],[29.502772,37.968056],[29.502485,37.96984],[29.506977,37.973696],[29.502956,37.977971],[29.503123,37.978559],[29.505135,37.981155],[29.507491,37.98295],[29.508836,37.984116],[29.511407,37.986438],[29.515872,37.980085]]]}},{"type":"Feature","properties":{"id":"TR-Y-20-003-M-0005","level":"yerlesim","type":"mahalle","parent_id":"TR-D-20-003","province_id":"TR-P-20","district_id":"TR-D-20-003","name":"Dağal","source_raw_name":"DAĞAL","source":"Kamuya açık veri ve kent rehberi servisleri","source_label":"Kamuya açık veri ve kent rehberi servisleri","source_name":"Denizli Adres Bilgi Sistemi - Mahalle Sınırları"},"geometry":{"type":"Polygon","coordinates":[[[29.641928,38.054234],[29.639242,38.041111],[29.644676,38.041959],[29.648833,38.039676],[29.652734,38.043822],[29.656102,38.036934],[29.651062,38.033017],[29.638183,38.035814],[29.636119,38.034442],[29.634863,38.033608],[29.633405,38.032639],[29.631695,38.031434],[29.631762,38.030104],[29.631769,38.029972],[29.631826,38.028823],[29.631827,38.028797],[29.631919,38.026968],[29.632042,38.025493],[29.632042,38.025492],[29.632288,38.023851],[29.63264,38.021688],[29.632827,38.020544],[29.633433,38.016829],[29.633476,38.013281],[29.633421,38.012276],[29.633391,38.011734],[29.63339,38.011724],[29.634885,38.011181],[29.635947,38.010787],[29.639806,38.010741],[29.644862,38.012762],[29.644423,38.014676],[29.647902,38.014881],[29.648508,38.019059],[29.651812,38.020925],[29.65428,38.022278],[29.655826,38.02097],[29.658074,38.019067],[29.659391,38.017953],[29.660548,38.016961],[29.659952,38.015517],[29.659294,38.014005],[29.647416,38.003479],[29.64679,38.003047],[29.6432,38.000678],[29.6432,38.000678],[29.640069,37.998615],[29.639785,37.998525],[29.636975,37.997631],[29.636604,37.997739],[29.628926,37.999976],[29.619011,37.995993],[29.618616,38.001645],[29.618935,38.004019],[29.619344,38.006901],[29.618905,38.006888],[29.618545,38.006969],[29.618417,38.007055],[29.618133,38.007258],[29.617829,38.007679],[29.617938,38.007856],[29.618044,38.008025],[29.618144,38.00822],[29.618272,38.008469],[29.618365,38.008651],[29.618448,38.008969],[29.618422,38.009181],[29.617766,38.009225],[29.617265,38.009184],[29.616957,38.009217],[29.616689,38.009246],[29.616493,38.009269],[29.616277,38.009338],[29.616161,38.009387],[29.616063,38.009429],[29.615798,38.009389],[29.615604,38.009688],[29.61478,38.008581],[29.614445,38.008957],[29.614228,38.009146],[29.613632,38.009665],[29.613089,38.010138],[29.613641,38.010427],[29.614378,38.01082],[29.614112,38.011042],[29.613818,38.011209],[29.613503,38.011388],[29.613164,38.01158],[29.612511,38.011707],[29.612049,38.011796],[29.611694,38.011865],[29.611028,38.011944],[29.610584,38.011984],[29.610553,38.011978],[29.60986,38.011846],[29.609052,38.011767],[29.607652,38.011631],[29.606033,38.011473],[29.605061,38.011358],[29.604731,38.00954],[29.609044,38.009643],[29.609003,38.009285],[29.608749,38.008441],[29.60829,38.007117],[29.607448,38.006929],[29.607015,38.006937],[29.606278,38.007209],[29.605852,38.00711],[29.605852,38.00711],[29.6054,38.006802],[29.604917,38.006411],[29.604339,38.006279],[29.604165,38.006182],[29.603905,38.006037],[29.603337,38.005982],[29.603001,38.0058],[29.602727,38.005651],[29.60245,38.005516],[29.602122,38.005365],[29.601803,38.005218],[29.602069,38.003824],[29.602187,38.003204],[29.602192,38.003139],[29.602199,38.002954],[29.602199,38.002954],[29.602243,38.002005],[29.602531,38.000953],[29.60274,38.000231],[29.60274,38.000231],[29.596987,38.00203],[29.597049,38.004543],[29.57919,38.009442],[29.57918,38.009445],[29.57849,38.011117],[29.563896,38.011543],[29.568441,38.017737],[29.568667,38.018045],[29.572125,38.024515],[29.572242,38.024351],[29.574215,38.021594],[29.574379,38.021607],[29.583646,38.022363],[29.582559,38.016171],[29.582571,38.016167],[29.596965,38.011728],[29.598964,38.019474],[29.596687,38.027368],[29.609761,38.038415],[29.614881,38.037335],[29.61767,38.043455],[29.619939,38.045468],[29.620964,38.046929],[29.622763,38.049496],[29.619954,38.051543],[29.617312,38.053469],[29.615431,38.055208],[29.627575,38.0594],[29.630851,38.06053],[29.637382,38.065064],[29.644058,38.063099],[29.650688,38.061148],[29.646148,38.057569],[29.645444,38.057013],[29.642983,38.055068],[29.641928,38.054234]]]}},{"type":"Feature","properties":{"id":"TR-Y-20-003-M-0006","level":"yerlesim","type":"mahalle","parent_id":"TR-D-20-003","province_id":"TR-P-20","district_id":"TR-D-20-003","name":"Gökpınar","source_raw_name":"GÖKPINAR","source":"Kamuya açık veri ve kent rehberi servisleri","source_label":"Kamuya açık veri ve kent rehberi servisleri","source_name":"Denizli Adres Bilgi Sistemi - Mahalle Sınırları"},"geometry":{"type":"Polygon","coordinates":[[[29.608667,37.976553],[29.609128,37.97624],[29.609138,37.976241],[29.609505,37.976288],[29.609505,37.976288],[29.609813,37.976138],[29.609814,37.976139],[29.610221,37.976438],[29.61026,37.976466],[29.61031,37.976503],[29.610441,37.976429],[29.610464,37.976416],[29.610641,37.976316],[29.61073,37.976265],[29.610862,37.976191],[29.610903,37.976168],[29.610911,37.976161],[29.610969,37.976112],[29.61114,37.975967],[29.611262,37.975974],[29.61154,37.97599],[29.611658,37.975818],[29.611697,37.97576],[29.611862,37.975518],[29.611863,37.975515],[29.612078,37.974838],[29.612463,37.974788],[29.612816,37.974742],[29.612945,37.97456],[29.613012,37.974522],[29.613333,37.97434],[29.613442,37.974278],[29.613651,37.974123],[29.614004,37.97386],[29.614035,37.973837],[29.614419,37.973448],[29.614561,37.973305],[29.614789,37.973012],[29.615241,37.972431],[29.615295,37.972362],[29.615966,37.971385],[29.616226,37.970993],[29.616866,37.97003],[29.626363,37.968068],[29.626372,37.968066],[29.633993,37.96168],[29.629208,37.960484],[29.629188,37.960479],[29.630169,37.957773],[29.631596,37.95495],[29.633169,37.952776],[29.633614,37.950601],[29.633626,37.950539],[29.630872,37.950943],[29.626491,37.949456],[29.624469,37.948162],[29.622224,37.946459],[29.618302,37.942163],[29.615389,37.938941],[29.611121,37.936339],[29.607192,37.93347],[29.607169,37.933482],[29.606474,37.932049],[29.60614,37.93102],[29.60565,37.929393],[29.60565,37.929393],[29.605055,37.927316],[29.605054,37.927315],[29.602782,37.927942],[29.60178,37.928218],[29.59821,37.929201],[29.593146,37.930595],[29.589798,37.931558],[29.586807,37.932531],[29.58386,37.93346],[29.576238,37.935739],[29.580064,37.938096],[29.574615,37.945853],[29.57472,37.950881],[29.574721,37.950881],[29.574721,37.950881],[29.574806,37.950905],[29.57854,37.951956],[29.57964,37.951955],[29.579936,37.953822],[29.580036,37.954452],[29.580112,37.954928],[29.580123,37.955797],[29.580078,37.956542],[29.580075,37.956589],[29.580042,37.957753],[29.580376,37.958402],[29.58088,37.959379],[29.583132,37.960534],[29.585059,37.961566],[29.587504,37.962902],[29.58976,37.964191],[29.59077,37.964788],[29.592251,37.965664],[29.592252,37.965664],[29.593417,37.966352],[29.593417,37.966352],[29.594368,37.966939],[29.594742,37.967174],[29.595102,37.9674],[29.595721,37.967732],[29.596429,37.96792],[29.596894,37.968039],[29.597684,37.96824],[29.598578,37.969595],[29.598578,37.969595],[29.599047,37.970296],[29.600707,37.971695],[29.602087,37.972177],[29.602104,37.972184],[29.603818,37.972855],[29.603825,37.972857],[29.604158,37.973149],[29.604203,37.97319],[29.604539,37.973493],[29.604549,37.973501],[29.60599,37.975291],[29.606002,37.975306],[29.606051,37.975383],[29.607508,37.977683],[29.60816,37.976899],[29.608167,37.976894],[29.608394,37.976739],[29.608434,37.976712],[29.608635,37.976575],[29.608667,37.976553]]]}},{"type":"Feature","properties":{"id":"TR-Y-20-003-M-0007","level":"yerlesim","type":"mahalle","parent_id":"TR-D-20-003","province_id":"TR-P-20","district_id":"TR-D-20-003","name":"Gürlük","source_raw_name":"GÜRLÜK","source":"Kamuya açık veri ve kent rehberi servisleri","source_label":"Kamuya açık veri ve kent rehberi servisleri","source_name":"Denizli Adres Bilgi Sistemi - Mahalle Sınırları"},"geometry":{"type":"Polygon","coordinates":[[[29.568476,38.017708],[29.563896,38.011543],[29.57849,38.011117],[29.57919,38.009442],[29.597049,38.004543],[29.596987,38.00203],[29.602632,38.000265],[29.60274,38.000231],[29.606167,37.999153],[29.605961,37.997194],[29.605826,37.996707],[29.605623,37.995975],[29.605396,37.994664],[29.605271,37.993648],[29.605184,37.992184],[29.605125,37.990807],[29.605143,37.990646],[29.605162,37.990479],[29.605376,37.989875],[29.605471,37.989609],[29.605812,37.988585],[29.605931,37.988115],[29.606084,37.987507],[29.6061,37.987446],[29.606123,37.986759],[29.60613,37.986545],[29.605778,37.985332],[29.605582,37.984703],[29.606745,37.984615],[29.606757,37.98461],[29.607542,37.984308],[29.608202,37.983871],[29.608855,37.983166],[29.608856,37.983144],[29.608893,37.982507],[29.608945,37.98191],[29.608964,37.981694],[29.60902,37.981065],[29.608897,37.980499],[29.608629,37.979697],[29.608436,37.979119],[29.608323,37.978948],[29.608059,37.978549],[29.60793,37.978354],[29.607752,37.978086],[29.607526,37.977879],[29.607528,37.977877],[29.60751,37.977865],[29.605675,37.979226],[29.605059,37.978509],[29.604948,37.978144],[29.60487,37.978132],[29.60404,37.978002],[29.603556,37.977953],[29.602831,37.97788],[29.602644,37.977681],[29.602047,37.977844],[29.601666,37.977777],[29.599014,37.977308],[29.598492,37.977232],[29.597727,37.97712],[29.596023,37.976872],[29.588356,37.975505],[29.583139,37.974701],[29.566466,37.971751],[29.566452,37.971749],[29.557601,37.978915],[29.555976,37.980231],[29.556044,37.980293],[29.561279,37.984998],[29.56116,37.985157],[29.552923,37.996141],[29.552891,37.996185],[29.54772,37.998314],[29.541752,38.00077],[29.540498,38.001287],[29.539645,38.001638],[29.538327,38.00218],[29.538326,38.00218],[29.538326,38.00218],[29.536076,38.001834],[29.537806,38.003063],[29.537909,38.004198],[29.537912,38.004223],[29.536869,38.007859],[29.541777,38.012843],[29.541373,38.014784],[29.54394,38.013209],[29.549152,38.01767],[29.551194,38.012027],[29.563067,38.022255],[29.568441,38.017737],[29.568476,38.017708]]]}},{"type":"Feature","properties":{"id":"TR-Y-20-003-M-0008","level":"yerlesim","type":"mahalle","parent_id":"TR-D-20-003","province_id":"TR-P-20","district_id":"TR-D-20-003","name":"Hadim","source_raw_name":"HADİM","source":"Kamuya açık veri ve kent rehberi servisleri","source_label":"Kamuya açık veri ve kent rehberi servisleri","source_name":"Denizli Adres Bilgi Sistemi - Mahalle Sınırları"},"geometry":{"type":"Polygon","coordinates":[[[29.578249,38.104567],[29.579056,38.104489],[29.582404,38.106568],[29.582405,38.106568],[29.583844,38.106628],[29.584404,38.105665],[29.584788,38.105006],[29.585285,38.104151],[29.586386,38.102259],[29.586393,38.102246],[29.590027,38.096001],[29.590027,38.096001],[29.590043,38.095994],[29.605341,38.101815],[29.606863,38.099237],[29.611655,38.096174],[29.614541,38.097177],[29.619592,38.092426],[29.621608,38.091539],[29.623869,38.091645],[29.626133,38.091255],[29.630908,38.091469],[29.631168,38.089782],[29.631064,38.085411],[29.628298,38.085601],[29.623796,38.081515],[29.628974,38.076267],[29.634257,38.075092],[29.635019,38.073505],[29.640176,38.074053],[29.640998,38.072883],[29.644469,38.072966],[29.643632,38.071533],[29.65052,38.068694],[29.649083,38.066592],[29.649338,38.063827],[29.651751,38.063548],[29.655019,38.0638],[29.653487,38.062884],[29.652144,38.061936],[29.650689,38.061148],[29.650689,38.061148],[29.650688,38.061148],[29.644058,38.063099],[29.637382,38.065064],[29.630851,38.06053],[29.630757,38.060465],[29.627575,38.0594],[29.620117,38.056903],[29.615431,38.055208],[29.615066,38.055076],[29.610441,38.056221],[29.610322,38.056251],[29.60757,38.055108],[29.602516,38.050747],[29.581878,38.054891],[29.581823,38.054974],[29.580415,38.05708],[29.578961,38.059321],[29.578837,38.059512],[29.576768,38.062701],[29.575336,38.064906],[29.575001,38.065423],[29.574967,38.065475],[29.574237,38.0666],[29.574206,38.066648],[29.573355,38.067517],[29.572885,38.068526],[29.572629,38.069077],[29.57245,38.069352],[29.572197,38.069742],[29.571914,38.070178],[29.570505,38.072345],[29.570482,38.072349],[29.569877,38.072458],[29.568771,38.072896],[29.56807,38.073118],[29.567673,38.073244],[29.566205,38.073711],[29.566173,38.073721],[29.564752,38.074172],[29.564239,38.074335],[29.563387,38.074606],[29.561905,38.075068],[29.561868,38.07508],[29.558734,38.075911],[29.55617,38.076344],[29.554086,38.076906],[29.554635,38.078679],[29.554144,38.080576],[29.55285,38.082785],[29.550918,38.084613],[29.548345,38.086374],[29.546336,38.087695],[29.54537,38.088577],[29.543919,38.089237],[29.541812,38.090277],[29.542471,38.091008],[29.54331,38.091628],[29.543938,38.092091],[29.54515,38.092766],[29.54592,38.093497],[29.545509,38.094398],[29.544764,38.095531],[29.543503,38.096954],[29.542759,38.097941],[29.542938,38.098903],[29.543524,38.09943],[29.545263,38.098417],[29.546779,38.097578],[29.547926,38.096796],[29.549071,38.09648],[29.550582,38.096515],[29.550577,38.097331],[29.550904,38.098147],[29.55212,38.098094],[29.552856,38.098271],[29.55407,38.098626],[29.554878,38.09924],[29.55528,38.099679],[29.555497,38.100437],[29.555311,38.100698],[29.554278,38.100869],[29.554282,38.100874],[29.55479,38.10157],[29.555232,38.101659],[29.556376,38.101343],[29.556856,38.101316],[29.557074,38.101695],[29.557072,38.101697],[29.556629,38.10216],[29.55663,38.102165],[29.556663,38.102626],[29.557579,38.103649],[29.55828,38.103448],[29.558655,38.102488],[29.55936,38.101646],[29.560283,38.101387],[29.562013,38.10183],[29.563191,38.102039],[29.563705,38.102419],[29.564032,38.103119],[29.563468,38.103778],[29.562415,38.105007],[29.562352,38.10579],[29.562352,38.10579],[29.562257,38.107235],[29.56222,38.107782],[29.562147,38.108889],[29.562016,38.110792],[29.561943,38.111949],[29.56191,38.112467],[29.56191,38.112467],[29.561812,38.114078],[29.562273,38.114974],[29.562405,38.115231],[29.562762,38.115919],[29.562762,38.115919],[29.563091,38.116544],[29.564654,38.117513],[29.565237,38.116709],[29.565279,38.116642],[29.565285,38.116578],[29.565306,38.116362],[29.565436,38.11501],[29.565454,38.114833],[29.565531,38.114025],[29.565657,38.113115],[29.565717,38.112671],[29.56592,38.111665],[29.565975,38.111388],[29.566307,38.109737],[29.566375,38.109485],[29.566972,38.107272],[29.567221,38.106882],[29.567346,38.106687],[29.568316,38.105214],[29.57118,38.10502],[29.571464,38.105001],[29.572997,38.104973],[29.57497,38.104936],[29.575127,38.104917],[29.576973,38.10469],[29.578249,38.104567]]]}},{"type":"Feature","properties":{"id":"TR-Y-20-003-M-0009","level":"yerlesim","type":"mahalle","parent_id":"TR-D-20-003","province_id":"TR-P-20","district_id":"TR-D-20-003","name":"Hüsamettindede","source_raw_name":"HÜSAMETTİN DEDE","source":"Kamuya açık veri ve kent rehberi servisleri","source_label":"Kamuya açık veri ve kent rehberi servisleri","source_name":"Denizli Adres Bilgi Sistemi - Mahalle Sınırları"},"geometry":{"type":"Polygon","coordinates":[[[29.668973,37.999762],[29.667587,37.994609],[29.66696,37.992711],[29.665848,37.990439],[29.665162,37.988009],[29.666099,37.985922],[29.664543,37.982924],[29.662559,37.979812],[29.66107,37.977718],[29.659232,37.974097],[29.657604,37.971269],[29.657469,37.971047],[29.657127,37.970482],[29.656541,37.969514],[29.655487,37.968217],[29.655423,37.965861],[29.653938,37.965209],[29.65141,37.964907],[29.648808,37.964546],[29.645685,37.964183],[29.642489,37.963702],[29.639961,37.963282],[29.637809,37.962215],[29.633993,37.96168],[29.633943,37.961673],[29.626363,37.968068],[29.616866,37.97003],[29.616226,37.970993],[29.615241,37.972431],[29.614789,37.973012],[29.614419,37.973448],[29.614004,37.97386],[29.613651,37.974123],[29.613333,37.97434],[29.613012,37.974522],[29.612945,37.97456],[29.612816,37.974742],[29.612463,37.974788],[29.612078,37.974838],[29.611863,37.975515],[29.611697,37.97576],[29.611658,37.975818],[29.61154,37.97599],[29.611262,37.975974],[29.611132,37.975966],[29.610969,37.976112],[29.610911,37.976161],[29.610862,37.976191],[29.61073,37.976265],[29.610641,37.976316],[29.610464,37.976416],[29.610441,37.976429],[29.61031,37.976503],[29.61026,37.976466],[29.610221,37.976438],[29.609814,37.976139],[29.609505,37.976288],[29.609138,37.976241],[29.608635,37.976575],[29.608434,37.976712],[29.608394,37.976739],[29.608167,37.976894],[29.607508,37.977683],[29.607505,37.977686],[29.60751,37.977865],[29.607528,37.977877],[29.607526,37.977879],[29.607752,37.978086],[29.60793,37.978354],[29.608059,37.978549],[29.608323,37.978948],[29.608436,37.979119],[29.608629,37.979697],[29.608897,37.980499],[29.60902,37.981065],[29.608964,37.981694],[29.608945,37.98191],[29.608893,37.982507],[29.608856,37.983144],[29.608855,37.983166],[29.608202,37.983871],[29.609085,37.985131],[29.609274,37.985992],[29.608667,37.986158],[29.609287,37.987478],[29.609699,37.987783],[29.609798,37.987856],[29.610008,37.988298],[29.610283,37.988877],[29.610411,37.988991],[29.610827,37.989353],[29.611059,37.989556],[29.611441,37.990101],[29.611441,37.990101],[29.611825,37.990654],[29.612164,37.990877],[29.612585,37.991154],[29.612745,37.991452],[29.612967,37.991868],[29.613102,37.992009],[29.613179,37.99209],[29.613325,37.992243],[29.613532,37.99246],[29.613792,37.992558],[29.614344,37.992765],[29.614786,37.99293],[29.615638,37.993187],[29.616283,37.993371],[29.616708,37.993485],[29.616822,37.993515],[29.617206,37.993641],[29.617625,37.99378],[29.617693,37.993803],[29.617881,37.993883],[29.618103,37.993979],[29.618238,37.994053],[29.618382,37.994133],[29.618538,37.994107],[29.618939,37.994039],[29.618904,37.995142],[29.619009,37.995992],[29.619011,37.995993],[29.628839,38.000002],[29.628926,37.999976],[29.636604,37.997739],[29.636975,37.997631],[29.639785,37.998525],[29.640069,37.998615],[29.640083,37.998619],[29.6432,38.000678],[29.6432,38.000678],[29.64679,38.003047],[29.647336,38.003408],[29.647416,38.003479],[29.659294,38.014005],[29.659296,38.014007],[29.659321,38.013985],[29.659322,38.013984],[29.662145,38.011559],[29.664303,38.008852],[29.670611,38.008507],[29.670385,38.002356],[29.670293,38.001679],[29.669735,38.000651],[29.668973,37.999762]]]}},{"type":"Feature","properties":{"id":"TR-Y-20-003-M-0010","level":"yerlesim","type":"mahalle","parent_id":"TR-D-20-003","province_id":"TR-P-20","district_id":"TR-D-20-003","name":"İcikli","source_raw_name":"İCİKLİ","source":"Kamuya açık veri ve kent rehberi servisleri","source_label":"Kamuya açık veri ve kent rehberi servisleri","source_name":"Denizli Adres Bilgi Sistemi - Mahalle Sınırları"},"geometry":{"type":"Polygon","coordinates":[[[29.534932,38.031349],[29.532745,38.030306],[29.532688,38.030456],[29.532292,38.031495],[29.530549,38.03365],[29.527853,38.036551],[29.524425,38.040551],[29.521779,38.044291],[29.521713,38.044468],[29.521098,38.046097],[29.523156,38.047031],[29.528883,38.050054],[29.531492,38.052006],[29.534327,38.053649],[29.53666,38.055247],[29.53727,38.055955],[29.537041,38.056748],[29.536681,38.057351],[29.534748,38.059305],[29.539534,38.061665],[29.544479,38.064278],[29.548374,38.068596],[29.550514,38.071957],[29.551543,38.073922],[29.554086,38.076906],[29.55617,38.076344],[29.558727,38.075777],[29.561905,38.075068],[29.561996,38.075048],[29.563387,38.074606],[29.564239,38.074335],[29.564752,38.074172],[29.566173,38.073721],[29.566205,38.073711],[29.567673,38.073244],[29.56807,38.073118],[29.568771,38.072896],[29.57048,38.072353],[29.570482,38.072349],[29.571914,38.070178],[29.571939,38.07014],[29.572197,38.069742],[29.57245,38.069352],[29.572885,38.068526],[29.573355,38.067517],[29.574237,38.0666],[29.574967,38.065475],[29.575001,38.065423],[29.575336,38.064906],[29.576768,38.062701],[29.578837,38.059512],[29.581823,38.054974],[29.581023,38.054298],[29.574946,38.050013],[29.569183,38.045919],[29.566694,38.044268],[29.552017,38.034566],[29.548136,38.033873],[29.546075,38.033517],[29.54275,38.032944],[29.536302,38.031831],[29.534932,38.031349]]]}},{"type":"Feature","properties":{"id":"TR-Y-20-003-M-0011","level":"yerlesim","type":"mahalle","parent_id":"TR-D-20-003","province_id":"TR-P-20","district_id":"TR-D-20-003","name":"Kavaklar","source_raw_name":"KAVAKLAR","source":"Kamuya açık veri ve kent rehberi servisleri","source_label":"Kamuya açık veri ve kent rehberi servisleri","source_name":"Denizli Adres Bilgi Sistemi - Mahalle Sınırları"},"geometry":{"type":"Polygon","coordinates":[[[29.579933,38.149313],[29.582153,38.148129],[29.585894,38.144885],[29.583084,38.143604],[29.583201,38.143421],[29.582864,38.143284],[29.582401,38.143096],[29.581442,38.142923],[29.580894,38.140006],[29.579614,38.139582],[29.578999,38.138741],[29.577052,38.138699],[29.57595,38.138101],[29.575338,38.136841],[29.575302,38.135373],[29.574687,38.134532],[29.575159,38.13319],[29.576424,38.132829],[29.577794,38.132866],[29.579936,38.133101],[29.583033,38.131551],[29.586682,38.130583],[29.587913,38.128345],[29.584072,38.127097],[29.580937,38.126876],[29.579581,38.128764],[29.577592,38.128855],[29.575769,38.127625],[29.575247,38.12682],[29.574947,38.126128],[29.575159,38.124329],[29.575159,38.124329],[29.575205,38.122217],[29.576519,38.12148],[29.577,38.121211],[29.578161,38.12056],[29.578753,38.120184],[29.578536,38.119513],[29.577545,38.118723],[29.576847,38.118196],[29.575638,38.116969],[29.575199,38.116355],[29.574438,38.11551],[29.573301,38.11423],[29.577268,38.111678],[29.579596,38.11013],[29.580799,38.109328],[29.581002,38.109193],[29.581127,38.10911],[29.581127,38.10911],[29.581165,38.109075],[29.583844,38.106628],[29.582404,38.106568],[29.579056,38.104489],[29.578249,38.104567],[29.575127,38.104917],[29.572997,38.104973],[29.57118,38.10502],[29.571177,38.10502],[29.568317,38.105213],[29.568316,38.105214],[29.567346,38.106687],[29.567336,38.106703],[29.567221,38.106882],[29.566972,38.107272],[29.56668,38.108349],[29.566376,38.109481],[29.566375,38.109485],[29.565975,38.111388],[29.565936,38.111577],[29.56592,38.111665],[29.565657,38.113115],[29.565577,38.113553],[29.565531,38.114025],[29.565454,38.114833],[29.565436,38.11501],[29.565306,38.116362],[29.565285,38.116578],[29.565279,38.116642],[29.565278,38.116651],[29.565237,38.116709],[29.564654,38.117513],[29.563093,38.116547],[29.563091,38.116544],[29.562762,38.115919],[29.562762,38.115919],[29.562643,38.115694],[29.562405,38.115231],[29.562273,38.114974],[29.561812,38.114078],[29.561809,38.114072],[29.561879,38.112938],[29.56191,38.112467],[29.56191,38.112467],[29.561942,38.111983],[29.561943,38.111949],[29.561957,38.111268],[29.562016,38.110792],[29.562027,38.110706],[29.562055,38.110282],[29.562118,38.109329],[29.562147,38.108889],[29.56222,38.107782],[29.562257,38.107235],[29.562352,38.10579],[29.562352,38.10579],[29.562403,38.105021],[29.562415,38.105007],[29.563468,38.103778],[29.564032,38.103119],[29.563705,38.102419],[29.563191,38.102039],[29.562013,38.10183],[29.560283,38.101387],[29.55936,38.101646],[29.558655,38.102488],[29.55828,38.103448],[29.557579,38.103649],[29.556663,38.102626],[29.556648,38.10242],[29.554129,38.102934],[29.548135,38.109649],[29.543742,38.112786],[29.540738,38.114932],[29.537034,38.117578],[29.533265,38.120269],[29.533509,38.120423],[29.538554,38.123595],[29.54751,38.132656],[29.55503,38.140058],[29.566885,38.149637],[29.567209,38.149323],[29.568166,38.148396],[29.572785,38.150002],[29.575405,38.149297],[29.579523,38.150662],[29.579767,38.149859],[29.579933,38.149313]]]}},{"type":"Feature","properties":{"id":"TR-Y-20-003-M-0012","level":"yerlesim","type":"mahalle","parent_id":"TR-D-20-003","province_id":"TR-P-20","district_id":"TR-D-20-003","name":"Kirazlı","source_raw_name":"KİRAZLI","source":"Kamuya açık veri ve kent rehberi servisleri","source_label":"Kamuya açık veri ve kent rehberi servisleri","source_name":"Denizli Adres Bilgi Sistemi - Mahalle Sınırları"},"geometry":{"type":"Polygon","coordinates":[[[29.60751,37.977865],[29.607505,37.977686],[29.606051,37.975383],[29.606002,37.975307],[29.60599,37.975291],[29.604539,37.973493],[29.604203,37.97319],[29.603818,37.972855],[29.602104,37.972184],[29.600707,37.971695],[29.600677,37.971684],[29.599677,37.970843],[29.599052,37.970305],[29.599047,37.970296],[29.598578,37.969595],[29.598578,37.969595],[29.597864,37.968529],[29.597684,37.96824],[29.596894,37.968039],[29.596429,37.96792],[29.596314,37.96789],[29.595749,37.967746],[29.595721,37.967732],[29.595261,37.967499],[29.595102,37.9674],[29.594742,37.967174],[29.594368,37.966939],[29.593826,37.9666],[29.593455,37.966374],[29.593417,37.966352],[29.593417,37.966352],[29.593108,37.96617],[29.592687,37.965921],[29.592252,37.965664],[29.592251,37.965664],[29.592194,37.96563],[29.59077,37.964788],[29.58976,37.964191],[29.588508,37.963451],[29.587504,37.962902],[29.585059,37.961566],[29.583794,37.960874],[29.583132,37.960534],[29.58088,37.959379],[29.580376,37.958402],[29.580042,37.957753],[29.580075,37.956589],[29.580076,37.956581],[29.580078,37.956542],[29.580119,37.955936],[29.580123,37.955797],[29.580143,37.955124],[29.580112,37.954928],[29.580036,37.954452],[29.579936,37.953822],[29.57964,37.951955],[29.578586,37.951968],[29.57854,37.951956],[29.577213,37.951607],[29.574808,37.950965],[29.574721,37.950881],[29.57472,37.950881],[29.572782,37.949021],[29.570359,37.946054],[29.56943,37.944915],[29.566059,37.944051],[29.565477,37.942826],[29.563519,37.94187],[29.56298,37.94072],[29.561977,37.940106],[29.561505,37.938501],[29.561403,37.938152],[29.560499,37.937819],[29.559162,37.937896],[29.558455,37.938073],[29.558455,37.938073],[29.557959,37.938197],[29.55761,37.938354],[29.557218,37.938533],[29.556843,37.938496],[29.556469,37.93846],[29.555698,37.938386],[29.555032,37.938321],[29.554413,37.938257],[29.55362,37.938089],[29.552812,37.937917],[29.552568,37.937749],[29.551282,37.937028],[29.550939,37.936642],[29.550777,37.936456],[29.550748,37.93649],[29.550719,37.936523],[29.550617,37.936549],[29.55046,37.936556],[29.550243,37.936538],[29.550376,37.935995],[29.550118,37.93595],[29.549891,37.935919],[29.549812,37.935908],[29.549532,37.93587],[29.549466,37.935861],[29.549159,37.935818],[29.548934,37.935907],[29.548581,37.93607],[29.548163,37.936471],[29.547748,37.936886],[29.547462,37.937222],[29.547067,37.937687],[29.546623,37.938209],[29.546452,37.938351],[29.54623,37.938882],[29.545947,37.939575],[29.545818,37.94007],[29.545539,37.941112],[29.545418,37.941514],[29.546339,37.941894],[29.546892,37.941503],[29.547377,37.94116],[29.547673,37.9409],[29.547902,37.940573],[29.549718,37.941372],[29.552541,37.942232],[29.55289,37.942723],[29.55349,37.943567],[29.554087,37.943986],[29.554666,37.944608],[29.5555,37.944887],[29.556243,37.945492],[29.555984,37.946723],[29.559028,37.951325],[29.561089,37.952371],[29.561679,37.95352],[29.56339,37.954482],[29.564082,37.954613],[29.564723,37.955191],[29.56586,37.955652],[29.566361,37.955693],[29.567001,37.955744],[29.567912,37.956132],[29.568462,37.956532],[29.569117,37.956638],[29.571677,37.957055],[29.571947,37.957568],[29.570048,37.95998],[29.568517,37.963168],[29.56736,37.965575],[29.568062,37.967585],[29.566452,37.971749],[29.583139,37.974701],[29.588356,37.975505],[29.596023,37.976872],[29.597727,37.97712],[29.598492,37.977232],[29.599014,37.977308],[29.601666,37.977777],[29.602047,37.977844],[29.602644,37.977681],[29.602831,37.97788],[29.603556,37.977953],[29.60404,37.978002],[29.60487,37.978132],[29.604948,37.978144],[29.605059,37.978509],[29.605675,37.979226],[29.60751,37.977865]]]}},{"type":"Feature","properties":{"id":"TR-Y-20-003-M-0013","level":"yerlesim","type":"mahalle","parent_id":"TR-D-20-003","province_id":"TR-P-20","district_id":"TR-D-20-003","name":"Konak","source_raw_name":"KONAK","source":"Kamuya açık veri ve kent rehberi servisleri","source_label":"Kamuya açık veri ve kent rehberi servisleri","source_name":"Denizli Adres Bilgi Sistemi - Mahalle Sınırları"},"geometry":{"type":"Polygon","coordinates":[[[29.619954,38.051543],[29.622763,38.049496],[29.620964,38.046929],[29.619939,38.045469],[29.619939,38.045468],[29.61767,38.043455],[29.614881,38.037335],[29.61486,38.037288],[29.609761,38.038415],[29.596687,38.027368],[29.598964,38.019474],[29.597025,38.01171],[29.596965,38.011728],[29.582571,38.016167],[29.583646,38.022363],[29.574379,38.021607],[29.572242,38.024351],[29.568667,38.018045],[29.568476,38.017708],[29.568441,38.017737],[29.563067,38.022255],[29.551194,38.012027],[29.549152,38.01767],[29.549148,38.017679],[29.54394,38.013209],[29.541373,38.014784],[29.540519,38.019094],[29.540157,38.020729],[29.539912,38.021837],[29.539826,38.022219],[29.539704,38.022768],[29.539699,38.022789],[29.539625,38.022782],[29.539039,38.022731],[29.538597,38.022697],[29.536793,38.022694],[29.535105,38.023124],[29.533898,38.024924],[29.533359,38.025361],[29.533359,38.025361],[29.532196,38.026302],[29.531768,38.027413],[29.531768,38.027415],[29.532307,38.029113],[29.532745,38.030306],[29.534932,38.031349],[29.536259,38.031824],[29.536302,38.031831],[29.54275,38.032944],[29.546075,38.033517],[29.548136,38.033873],[29.552016,38.034542],[29.555838,38.037074],[29.566694,38.044268],[29.569121,38.045876],[29.569183,38.045919],[29.574946,38.050013],[29.576189,38.050895],[29.579199,38.053033],[29.581023,38.054298],[29.581878,38.054891],[29.590984,38.053031],[29.602507,38.05074],[29.602516,38.050747],[29.60757,38.055108],[29.610441,38.056221],[29.610444,38.056222],[29.615066,38.055076],[29.615127,38.05506],[29.617312,38.053469],[29.619954,38.051543]]]}},{"type":"Feature","properties":{"id":"TR-Y-20-003-M-0014","level":"yerlesim","type":"mahalle","parent_id":"TR-D-20-003","province_id":"TR-P-20","district_id":"TR-D-20-003","name":"Şenyayla","source_raw_name":"ŞENYAYLA","source":"Kamuya açık veri ve kent rehberi servisleri","source_label":"Kamuya açık veri ve kent rehberi servisleri","source_name":"Denizli Adres Bilgi Sistemi - Mahalle Sınırları"},"geometry":{"type":"Polygon","coordinates":[[[29.669184,38.048725],[29.668995,38.037187],[29.67153,38.036431],[29.672662,38.033827],[29.671573,38.031748],[29.671375,38.030965],[29.670371,38.026993],[29.670102,38.023132],[29.670865,38.01806],[29.670931,38.017619],[29.673118,38.01411],[29.676572,38.010063],[29.676659,38.009985],[29.680932,38.006199],[29.67773,38.007186],[29.677243,38.00795],[29.67482,38.008939],[29.672635,38.010884],[29.669728,38.012101],[29.666677,38.012819],[29.664258,38.013042],[29.661692,38.013609],[29.659322,38.013984],[29.65932,38.013985],[29.659321,38.013985],[29.659952,38.015517],[29.660548,38.016961],[29.660552,38.01697],[29.659391,38.017953],[29.658074,38.019067],[29.655826,38.02097],[29.65428,38.022278],[29.651812,38.020925],[29.651097,38.020533],[29.649572,38.019697],[29.648508,38.019059],[29.647902,38.014881],[29.644423,38.014676],[29.644862,38.012762],[29.644864,38.012751],[29.639806,38.010741],[29.635977,38.010776],[29.635947,38.010787],[29.634885,38.011181],[29.633391,38.011734],[29.633387,38.011735],[29.633421,38.012276],[29.633477,38.013189],[29.633476,38.013281],[29.633433,38.016829],[29.632827,38.020544],[29.63264,38.021688],[29.632288,38.023851],[29.632267,38.023978],[29.632042,38.025492],[29.632042,38.025493],[29.631968,38.025985],[29.631919,38.026968],[29.631827,38.028797],[29.631826,38.028823],[29.631769,38.029972],[29.631762,38.030104],[29.631695,38.031434],[29.631692,38.0315],[29.633405,38.032639],[29.634863,38.033608],[29.636119,38.034442],[29.638183,38.035814],[29.638217,38.035836],[29.651062,38.033017],[29.656141,38.036854],[29.656102,38.036934],[29.652734,38.043822],[29.648833,38.039676],[29.644676,38.041959],[29.641808,38.041585],[29.639242,38.041111],[29.639648,38.043112],[29.63999,38.044798],[29.640263,38.046144],[29.640549,38.047553],[29.641048,38.050014],[29.641303,38.051268],[29.64162,38.05283],[29.641871,38.054069],[29.641916,38.054224],[29.641928,38.054234],[29.642983,38.055068],[29.645444,38.057013],[29.646148,38.057569],[29.647371,38.058536],[29.650688,38.061148],[29.650689,38.061148],[29.652144,38.061936],[29.653487,38.062884],[29.655019,38.0638],[29.655609,38.063846],[29.65911,38.062903],[29.660212,38.059283],[29.661792,38.056713],[29.664621,38.053195],[29.666764,38.050529],[29.669184,38.048725]]]}}]}