{"type":"FeatureCollection","name":"turkiye_map.dist.mahalle_geometrileri_by_district.TR-D-20-002","features":[{"type":"Feature","properties":{"id":"KK-Y-20-002-150093","level":"yerlesim","type":"yerlesim","parent_id":"TR-D-20-002","province_id":"TR-P-20","province_name":"Denizli","district_id":"TR-D-20-002","name":"İncilipınar","source_raw_name":"İncilipınar","source":"Kamu kaynak","source_only":true},"geometry":{"type":"MultiPolygon","coordinates":[[[[28.858334,37.849661],[28.8583,37.849261],[28.858161,37.849117],[28.857949,37.848554],[28.857624,37.848344],[28.856993,37.848217],[28.856449,37.848158],[28.856385,37.847971],[28.855347,37.845646],[28.855158,37.845221],[28.855764,37.843256],[28.853863,37.842317],[28.854287,37.842059],[28.853022,37.840321],[28.853435,37.838754],[28.852651,37.837241],[28.850409,37.836375],[28.848363,37.835158],[28.847114,37.835301],[28.847722,37.834687],[28.846219,37.834592],[28.845956,37.833816],[28.845682,37.833817],[28.845706,37.833574],[28.845528,37.8333],[28.844901,37.832931],[28.844773,37.832679],[28.844646,37.832432],[28.845438,37.83219],[28.845021,37.832017],[28.844984,37.831697],[28.844614,37.830869],[28.844183,37.830961],[28.844096,37.830995],[28.843505,37.831032],[28.843203,37.830833],[28.843394,37.830626],[28.84366,37.830741],[28.843905,37.830659],[28.844022,37.830586],[28.843957,37.830384],[28.843736,37.830221],[28.843627,37.829985],[28.843612,37.829393],[28.844138,37.828862],[28.843788,37.828309],[28.843226,37.825345],[28.843032,37.824969],[28.843189,37.824694],[28.841055,37.822181],[28.839702,37.821542],[28.839609,37.821499],[28.839625,37.820663],[28.839301,37.81992],[28.839525,37.819608],[28.839259,37.818974],[28.838408,37.818188],[28.837876,37.818114],[28.838254,37.817837],[28.837853,37.817781],[28.837145,37.817577],[28.837215,37.817063],[28.837101,37.816932],[28.836545,37.816868],[28.836386,37.816243],[28.835613,37.816213],[28.835584,37.815783],[28.835053,37.815996],[28.834964,37.81577],[28.835142,37.815482],[28.835084,37.815435],[28.835083,37.815435],[28.833355,37.815818],[28.83253,37.81604],[28.830818,37.816642],[28.830147,37.816606],[28.83005,37.81713],[28.82951,37.817537],[28.82942,37.818134],[28.829737,37.818405],[28.82949,37.818604],[28.829672,37.81904],[28.830011,37.818997],[28.830008,37.819075],[28.829943,37.819525],[28.82989,37.820003],[28.82985,37.820118],[28.829261,37.819609],[28.82913,37.819684],[28.827634,37.819368],[28.827631,37.819059],[28.827528,37.819132],[28.827522,37.819279],[28.827273,37.819585],[28.827035,37.819502],[28.826946,37.819666],[28.826876,37.819614],[28.826574,37.81917],[28.826303,37.818903],[28.825959,37.818775],[28.825919,37.818833],[28.825496,37.818784],[28.825274,37.818897],[28.82474,37.818554],[28.824567,37.818585],[28.824497,37.818493],[28.824143,37.818696],[28.824273,37.818537],[28.824093,37.818233],[28.824432,37.817989],[28.824285,37.817645],[28.824015,37.817362],[28.824359,37.817087],[28.82447,37.817038],[28.823954,37.816676],[28.823663,37.816896],[28.823192,37.8172],[28.822889,37.817396],[28.822601,37.81767],[28.822282,37.81767],[28.82227,37.817493],[28.822165,37.817492],[28.822044,37.817054],[28.821991,37.816896],[28.821793,37.817022],[28.821634,37.817001],[28.821282,37.817067],[28.82114,37.816747],[28.820563,37.816908],[28.820052,37.817057],[28.819915,37.817069],[28.819237,37.816866],[28.819023,37.816872],[28.818904,37.81695],[28.818785,37.817146],[28.818233,37.817623],[28.818159,37.817671],[28.817863,37.817781],[28.817542,37.817874],[28.817192,37.81791],[28.816842,37.81797],[28.81646,37.818156],[28.816203,37.818431],[28.81601,37.818652],[28.815878,37.818706],[28.815682,37.818756],[28.815168,37.818445],[28.81516,37.818118],[28.815339,37.817187],[28.815385,37.817001],[28.815357,37.816782],[28.815311,37.816571],[28.815011,37.816162],[28.813973,37.815267],[28.813162,37.814568],[28.813106,37.814338],[28.813066,37.81429],[28.812793,37.814264],[28.812687,37.814302],[28.809048,37.812343],[28.80739,37.811322],[28.806694,37.81101],[28.806205,37.811029],[28.802867,37.809471],[28.802481,37.809225],[28.801693,37.808824],[28.801034,37.80788],[28.800837,37.80772],[28.800687,37.806729],[28.800189,37.806778],[28.799619,37.806396],[28.799596,37.80617],[28.80005,37.805195],[28.798946,37.805529],[28.798476,37.805599],[28.798256,37.804688],[28.798029,37.804736],[28.797307,37.804734],[28.797056,37.804911],[28.79401,37.806293],[28.793927,37.806299],[28.793811,37.806287],[28.793388,37.806195],[28.792624,37.805851],[28.791562,37.805283],[28.790465,37.804613],[28.789873,37.80435],[28.788858,37.804187],[28.788745,37.804099],[28.788698,37.80357],[28.788636,37.803176],[28.788469,37.80275],[28.788442,37.802734],[28.787563,37.802805],[28.786765,37.802563],[28.786715,37.802558],[28.786396,37.803088],[28.786351,37.803208],[28.785688,37.803421],[28.785534,37.803585],[28.784443,37.803563],[28.782161,37.803044],[28.781064,37.802707],[28.779906,37.802296],[28.779559,37.802225],[28.779184,37.802094],[28.778648,37.801978],[28.777747,37.802029],[28.777766,37.80203],[28.777553,37.802655],[28.774577,37.807021],[28.778792,37.809363],[28.784719,37.812769],[28.796189,37.819522],[28.79651,37.819622],[28.797057,37.819844],[28.79883,37.820563],[28.800576,37.821226],[28.801254,37.82147],[28.80174,37.821596],[28.801513,37.822114],[28.801616,37.822188],[28.802538,37.822846],[28.802904,37.823944],[28.803169,37.824034],[28.803258,37.823936],[28.803543,37.822936],[28.803127,37.821868],[28.803282,37.821829],[28.804226,37.82205],[28.804182,37.822577],[28.804543,37.822786],[28.804626,37.823612],[28.803661,37.823689],[28.803665,37.824134],[28.803664,37.824135],[28.803665,37.824135],[28.804368,37.824456],[28.80471,37.824601],[28.805284,37.824608],[28.805965,37.824271],[28.806349,37.82409],[28.806365,37.824075],[28.806605,37.82389],[28.808079,37.825324],[28.809908,37.827027],[28.810985,37.828002],[28.812062,37.828989],[28.813312,37.830037],[28.812411,37.830658],[28.813013,37.831265],[28.812976,37.831586],[28.813609,37.832221],[28.813617,37.832214],[28.81464,37.831348],[28.814835,37.831552],[28.815286,37.831991],[28.815882,37.832573],[28.816696,37.833368],[28.817695,37.834334],[28.818237,37.834867],[28.818773,37.835386],[28.819842,37.836438],[28.816155,37.837227],[28.818258,37.840439],[28.824561,37.843834],[28.824825,37.843872],[28.825459,37.84379],[28.82638,37.843536],[28.827738,37.843126],[28.828317,37.843008],[28.828828,37.842968],[28.829889,37.843098],[28.831049,37.84302],[28.831248,37.843055],[28.831557,37.843065],[28.831832,37.843135],[28.832341,37.843281],[28.832697,37.843471],[28.83306,37.843756],[28.83326,37.843866],[28.833337,37.843877],[28.833627,37.843858],[28.834271,37.843633],[28.834472,37.843581],[28.83483,37.843545],[28.835028,37.843568],[28.835394,37.843821],[28.835527,37.843902],[28.835858,37.844064],[28.836022,37.844113],[28.836363,37.844165],[28.836887,37.844286],[28.837457,37.844375],[28.837679,37.844381],[28.838235,37.844218],[28.838948,37.843951],[28.839115,37.843949],[28.83945,37.844086],[28.839666,37.844243],[28.840224,37.844788],[28.840371,37.844967],[28.840655,37.845237],[28.840824,37.845329],[28.840992,37.84534],[28.841588,37.845217],[28.842102,37.845171],[28.842347,37.845214],[28.842608,37.845411],[28.84281,37.845626],[28.843357,37.846572],[28.843751,37.84698],[28.844158,37.847363],[28.844786,37.847994],[28.845224,37.848378],[28.845671,37.848801],[28.846024,37.849069],[28.846477,37.849278],[28.846468,37.849315],[28.847467,37.84942],[28.847829,37.849484],[28.848455,37.84949],[28.851126,37.850955],[28.856007,37.851675],[28.857467,37.851402],[28.859185,37.85064],[28.858615,37.849984],[28.858334,37.849661]]]]}},{"type":"Feature","properties":{"id":"KK-Y-20-002-150099","level":"yerlesim","type":"yerlesim","parent_id":"TR-D-20-002","province_id":"TR-P-20","province_name":"Denizli","district_id":"TR-D-20-002","name":"Mollaahmet","source_raw_name":"Mollaahmet","source":"Kamu kaynak","source_only":true},"geometry":{"type":"MultiPolygon","coordinates":[[[[28.951668,37.873249],[28.951868,37.873224],[28.951986,37.873246],[28.952014,37.873446],[28.952207,37.873532],[28.95236,37.873534],[28.952716,37.873534],[28.952973,37.873636],[28.953192,37.87381],[28.953283,37.873843],[28.953454,37.873872],[28.953735,37.873786],[28.953973,37.873681],[28.95383,37.873539],[28.953621,37.87331],[28.95364,37.872958],[28.953754,37.872473],[28.954154,37.871683],[28.954487,37.871311],[28.955504,37.870558],[28.956169,37.870679],[28.958425,37.872758],[28.959886,37.871442],[28.960546,37.870479],[28.960903,37.870199],[28.961414,37.870223],[28.961968,37.870288],[28.962253,37.870241],[28.962342,37.870134],[28.96308,37.869301],[28.964056,37.868617],[28.964056,37.867867],[28.964127,37.867457],[28.963734,37.8671],[28.963526,37.866898],[28.963473,37.866624],[28.963526,37.866499],[28.963651,37.866297],[28.963574,37.865929],[28.963571,37.865682],[28.963416,37.865405],[28.963193,37.865185],[28.963558,37.86413],[28.963528,37.864118],[28.962575,37.863478],[28.963093,37.862737],[28.963176,37.862535],[28.963429,37.862252],[28.963611,37.862077],[28.963753,37.86189],[28.963828,37.861726],[28.963855,37.86155],[28.963852,37.861244],[28.963828,37.861],[28.963721,37.860572],[28.963649,37.860548],[28.963481,37.860205],[28.963489,37.860205],[28.963269,37.859772],[28.962578,37.858315],[28.962611,37.858091],[28.96279,37.857867],[28.962528,37.85771],[28.962076,37.857603],[28.961951,37.857305],[28.961972,37.857035],[28.962051,37.856653],[28.962992,37.856333],[28.963661,37.855973],[28.963337,37.855491],[28.96298,37.853956],[28.962253,37.853038],[28.961707,37.852701],[28.961654,37.852249],[28.961891,37.85163],[28.96138,37.851487],[28.960839,37.851398],[28.960684,37.851315],[28.960743,37.850875],[28.960827,37.850595],[28.96146,37.850027],[28.962058,37.849691],[28.962474,37.849405],[28.962653,37.848537],[28.962974,37.847145],[28.962861,37.845164],[28.962552,37.843546],[28.962839,37.841111],[28.962272,37.840465],[28.961047,37.840167],[28.960021,37.839798],[28.959902,37.83974],[28.959577,37.839279],[28.959528,37.839138],[28.959429,37.838779],[28.959322,37.83881],[28.959257,37.838803],[28.959074,37.838717],[28.958943,37.838636],[28.958827,37.838534],[28.958618,37.838491],[28.958529,37.838443],[28.958369,37.838314],[28.958248,37.838244],[28.95822,37.838247],[28.958046,37.838229],[28.957945,37.838149],[28.957918,37.837996],[28.957989,37.837927],[28.958035,37.837876],[28.957839,37.837618],[28.957762,37.837575],[28.957565,37.837429],[28.957534,37.83746],[28.957475,37.837506],[28.957297,37.837492],[28.957219,37.837455],[28.957159,37.837372],[28.957093,37.837327],[28.957096,37.837279],[28.957108,37.837249],[28.957148,37.837168],[28.957154,37.837142],[28.957083,37.837057],[28.956983,37.83713],[28.956851,37.837191],[28.956703,37.837221],[28.956604,37.837201],[28.956501,37.837169],[28.956464,37.837192],[28.956388,37.837243],[28.956316,37.837248],[28.956254,37.837217],[28.956029,37.836998],[28.95602,37.837009],[28.955488,37.836928],[28.954443,37.836805],[28.95073,37.836396],[28.951291,37.835074],[28.95133,37.835051],[28.951258,37.834931],[28.951312,37.834803],[28.951405,37.834691],[28.951565,37.834512],[28.951513,37.834369],[28.951487,37.834334],[28.951386,37.834305],[28.951291,37.834246],[28.95123,37.834124],[28.95127,37.834053],[28.951193,37.834016],[28.950974,37.833938],[28.950867,37.833856],[28.950869,37.83382],[28.951066,37.833722],[28.951155,37.833582],[28.951117,37.833392],[28.95108,37.833286],[28.951094,37.833221],[28.950989,37.833],[28.950899,37.832807],[28.950672,37.832491],[28.950469,37.832512],[28.950297,37.832494],[28.949658,37.832702],[28.949614,37.832842],[28.9496,37.832977],[28.949546,37.833137],[28.94939,37.833311],[28.949163,37.833422],[28.949047,37.83345],[28.948951,37.83351],[28.948972,37.833521],[28.948792,37.833551],[28.948599,37.833455],[28.948342,37.833401],[28.947544,37.833304],[28.947312,37.833142],[28.947217,37.833051],[28.947023,37.832907],[28.946876,37.832844],[28.946581,37.832772],[28.9463,37.832652],[28.946137,37.832526],[28.94604,37.832396],[28.946015,37.832363],[28.945946,37.832271],[28.945826,37.832155],[28.945668,37.832114],[28.945493,37.832028],[28.945374,37.831921],[28.945264,37.832094],[28.945195,37.832104],[28.944979,37.832014],[28.944538,37.831916],[28.944367,37.831957],[28.94405,37.831807],[28.943818,37.831528],[28.943605,37.83132],[28.943405,37.831107],[28.942899,37.831284],[28.942898,37.831283],[28.943199,37.830918],[28.943158,37.830586],[28.943088,37.830332],[28.942948,37.830186],[28.942856,37.83013],[28.942787,37.830126],[28.942714,37.830086],[28.942567,37.829983],[28.942569,37.829801],[28.942455,37.82961],[28.942455,37.82961],[28.942113,37.829086],[28.942078,37.82902],[28.942078,37.82902],[28.941924,37.828887],[28.941831,37.828815],[28.941763,37.828626],[28.941714,37.828499],[28.941714,37.828499],[28.94182,37.828239],[28.941824,37.828223],[28.941938,37.827855],[28.941938,37.827855],[28.94303,37.827166],[28.943254,37.826621],[28.94324,37.826551],[28.94324,37.826551],[28.943385,37.826412],[28.943308,37.826337],[28.943098,37.826012],[28.943048,37.825998],[28.942502,37.825787],[28.942289,37.825725],[28.941474,37.825461],[28.941853,37.825265],[28.941932,37.825329],[28.942101,37.825238],[28.942163,37.825262],[28.942328,37.825155],[28.942167,37.825025],[28.942306,37.824628],[28.942485,37.824574],[28.942611,37.824441],[28.942836,37.824294],[28.942907,37.824353],[28.943088,37.824237],[28.943115,37.823752],[28.943106,37.823616],[28.943104,37.82359],[28.943132,37.823438],[28.943144,37.82337],[28.943169,37.823191],[28.943022,37.82314],[28.94244,37.823308],[28.942216,37.823147],[28.941869,37.822718],[28.941869,37.822718],[28.941932,37.822648],[28.942482,37.822392],[28.942692,37.822358],[28.942807,37.82182],[28.942833,37.821696],[28.942833,37.821696],[28.942738,37.821366],[28.942596,37.821226],[28.942569,37.821134],[28.94217,37.821146],[28.942086,37.821063],[28.942086,37.821063],[28.942489,37.820735],[28.942466,37.820473],[28.942466,37.820473],[28.942542,37.820336],[28.942597,37.820213],[28.94263,37.819689],[28.942353,37.819426],[28.942058,37.819042],[28.941943,37.818894],[28.941943,37.818894],[28.942074,37.818331],[28.942171,37.818103],[28.942162,37.818032],[28.941972,37.817897],[28.941972,37.817897],[28.941972,37.817897],[28.941972,37.817897],[28.942069,37.817849],[28.942069,37.817849],[28.94209,37.817689],[28.942288,37.81764],[28.942524,37.817512],[28.942351,37.81755],[28.942351,37.817549],[28.942271,37.817319],[28.942271,37.817319],[28.942262,37.817287],[28.94188,37.816906],[28.941747,37.816606],[28.941734,37.816572],[28.941429,37.815954],[28.941616,37.81583],[28.94179,37.815367],[28.94179,37.815367],[28.941755,37.814934],[28.941755,37.814934],[28.941698,37.814754],[28.941698,37.814754],[28.941746,37.814428],[28.941631,37.8141],[28.940765,37.813667],[28.940765,37.813667],[28.940765,37.813666],[28.941354,37.813211],[28.941264,37.812957],[28.941264,37.812957],[28.941211,37.812674],[28.941211,37.812674],[28.941013,37.812167],[28.941013,37.812167],[28.940961,37.811993],[28.941181,37.81144],[28.941211,37.811241],[28.941347,37.810361],[28.941347,37.810361],[28.941347,37.810357],[28.941361,37.809868],[28.94251,37.810078],[28.942298,37.810666],[28.942501,37.810826],[28.94279,37.810953],[28.94279,37.810953],[28.94415,37.809303],[28.944803,37.808511],[28.944119,37.80659],[28.943766,37.805601],[28.943518,37.804904],[28.941565,37.802154],[28.940712,37.800954],[28.939303,37.79897],[28.939168,37.79902],[28.938259,37.799356],[28.938088,37.799632],[28.938127,37.80004],[28.938162,37.800406],[28.938175,37.800586],[28.938218,37.801018],[28.938268,37.80145],[28.938123,37.801633],[28.937852,37.801641],[28.937057,37.801343],[28.936712,37.801331],[28.936226,37.801064],[28.934544,37.800246],[28.932869,37.799944],[28.932747,37.799826],[28.932574,37.799918],[28.932061,37.799028],[28.931429,37.797933],[28.930699,37.797093],[28.93082,37.7965],[28.930573,37.796321],[28.93027,37.795664],[28.930096,37.794957],[28.92987,37.794389],[28.929503,37.794124],[28.928982,37.793703],[28.928671,37.793196],[28.928297,37.792935],[28.927671,37.792492],[28.927313,37.791872],[28.926889,37.791573],[28.926681,37.791241],[28.926363,37.79096],[28.925771,37.790866],[28.925537,37.790742],[28.925222,37.790313],[28.924738,37.789175],[28.924542,37.788681],[28.924452,37.788455],[28.924122,37.787958],[28.923244,37.787395],[28.922584,37.787095],[28.921884,37.786693],[28.921531,37.786264],[28.921475,37.785999],[28.921328,37.785868],[28.921003,37.78578],[28.920268,37.785703],[28.919584,37.785458],[28.918928,37.785079],[28.917835,37.784372],[28.917335,37.784267],[28.916988,37.784055],[28.916505,37.782879],[28.916783,37.782548],[28.916905,37.782211],[28.916923,37.78194],[28.916779,37.781595],[28.916455,37.78131],[28.916191,37.781198],[28.91598,37.780991],[28.91581,37.780611],[28.915341,37.779959],[28.915181,37.779589],[28.915204,37.779307],[28.915311,37.778739],[28.915203,37.778113],[28.915238,37.777873],[28.915498,37.777557],[28.915563,37.777314],[28.915473,37.777089],[28.915165,37.776643],[28.91492,37.776381],[28.914676,37.776176],[28.9146,37.775842],[28.914454,37.775681],[28.914181,37.775483],[28.914065,37.775266],[28.913937,37.775027],[28.914085,37.774753],[28.914593,37.774375],[28.914831,37.774177],[28.914951,37.774078],[28.915016,37.77385],[28.914841,37.773453],[28.914819,37.773076],[28.914651,37.772883],[28.914208,37.772507],[28.913884,37.772326],[28.913772,37.772185],[28.913304,37.771128],[28.912507,37.770493],[28.911871,37.770042],[28.911558,37.769655],[28.911418,37.769292],[28.911194,37.769014],[28.91079,37.768814],[28.90997,37.768614],[28.909723,37.768466],[28.909682,37.768212],[28.909832,37.767659],[28.910126,37.767275],[28.910615,37.766825],[28.91105,37.766595],[28.911701,37.766332],[28.912401,37.7658],[28.912811,37.765518],[28.912825,37.765482],[28.912938,37.765209],[28.913127,37.764931],[28.913592,37.764688],[28.914092,37.764015],[28.914168,37.763854],[28.91422,37.763464],[28.914021,37.762985],[28.913659,37.762544],[28.913472,37.762267],[28.913423,37.761999],[28.913384,37.761787],[28.913215,37.761717],[28.913026,37.761693],[28.912677,37.761775],[28.91222,37.761736],[28.911865,37.761573],[28.911675,37.76134],[28.91158,37.761063],[28.911473,37.760673],[28.911224,37.760424],[28.910774,37.760252],[28.910242,37.760068],[28.909975,37.759753],[28.909966,37.759307],[28.910002,37.75892],[28.910208,37.758547],[28.910264,37.758179],[28.910111,37.757923],[28.909521,37.757414],[28.909085,37.757027],[28.908902,37.756917],[28.908337,37.756577],[28.907809,37.756319],[28.907314,37.756219],[28.907063,37.756016],[28.906758,37.755528],[28.906404,37.755399],[28.906087,37.755376],[28.905892,37.755188],[28.905461,37.754058],[28.905111,37.753908],[28.905002,37.753775],[28.904899,37.753262],[28.904621,37.752991],[28.904335,37.752679],[28.9042,37.752123],[28.903837,37.75186],[28.903698,37.75171],[28.903698,37.75171],[28.903437,37.75123],[28.903409,37.751034],[28.903143,37.750536],[28.902971,37.750083],[28.902754,37.749369],[28.902332,37.748338],[28.902274,37.748047],[28.902028,37.747723],[28.900985,37.747356],[28.90039,37.746998],[28.899951,37.746477],[28.900577,37.746376],[28.901825,37.746003],[28.902107,37.745485],[28.902202,37.745045],[28.901967,37.744757],[28.901578,37.744283],[28.900493,37.744065],[28.900446,37.743634],[28.901072,37.742966],[28.902211,37.742825],[28.902752,37.7426],[28.902599,37.742306],[28.903595,37.74098],[28.904121,37.740015],[28.904353,37.739398],[28.905467,37.738513],[28.906853,37.736039],[28.906929,37.735096],[28.908189,37.732758],[28.908402,37.730921],[28.908133,37.729276],[28.908232,37.728803],[28.908477,37.727642],[28.910412,37.724524],[28.910687,37.723807],[28.910705,37.723324],[28.910858,37.722929],[28.911155,37.722561],[28.911172,37.722045],[28.911152,37.72149],[28.911443,37.721122],[28.911407,37.720908],[28.910791,37.7201],[28.910429,37.719331],[28.909847,37.718606],[28.909236,37.71842],[28.908761,37.718199],[28.907536,37.718082],[28.907227,37.718015],[28.905285,37.717372],[28.903184,37.716909],[28.900888,37.71609],[28.902395,37.713958],[28.903458,37.71269],[28.901322,37.713858],[28.901322,37.713858],[28.901322,37.713857],[28.901307,37.713864],[28.901306,37.713865],[28.897024,37.715702],[28.89212,37.720029],[28.890661,37.722352],[28.884441,37.725761],[28.878776,37.73008],[28.877571,37.732133],[28.877644,37.732205],[28.886118,37.741646],[28.894173,37.750617],[28.898002,37.755148],[28.901387,37.758851],[28.90663,37.764794],[28.91023,37.774055],[28.913521,37.777325],[28.914461,37.781184],[28.916182,37.783635],[28.908713,37.789879],[28.912997,37.795781],[28.912603,37.796478],[28.911301,37.797713],[28.914241,37.798952],[28.914622,37.802844],[28.915733,37.808737],[28.919978,37.813329],[28.92092,37.814631],[28.921103,37.815131],[28.921203,37.815688],[28.92147,37.816517],[28.921417,37.816907],[28.921865,37.817192],[28.922655,37.817982],[28.923159,37.81851],[28.923211,37.819557],[28.923391,37.819677],[28.925317,37.821008],[28.924567,37.823936],[28.927606,37.823995],[28.929241,37.839263],[28.92973,37.843897],[28.928607,37.844458],[28.930087,37.846714],[28.930497,37.847799],[28.930542,37.849124],[28.928501,37.849734],[28.931122,37.850781],[28.93161,37.850943],[28.932908,37.851493],[28.933943,37.852885],[28.934157,37.85298],[28.934895,37.852826],[28.935133,37.852957],[28.936239,37.854218],[28.936739,37.854551],[28.937167,37.854872],[28.937189,37.855005],[28.937551,37.855362],[28.937879,37.855253],[28.937936,37.855272],[28.938074,37.855286],[28.938079,37.855353],[28.938012,37.855476],[28.938179,37.855553],[28.938302,37.85571],[28.938464,37.855952],[28.938626,37.856076],[28.938712,37.856181],[28.938864,37.856347],[28.939002,37.856423],[28.93915,37.856585],[28.939207,37.856827],[28.93925,37.857091],[28.939535,37.857876],[28.939492,37.85829],[28.939364,37.858961],[28.939449,37.859632],[28.939863,37.860503],[28.939635,37.86116],[28.939392,37.862102],[28.939092,37.862973],[28.938878,37.864815],[28.938621,37.8657],[28.938307,37.866342],[28.938364,37.866956],[28.938564,37.868112],[28.938778,37.869026],[28.939478,37.869297],[28.939821,37.86954],[28.939749,37.870311],[28.939735,37.871382],[28.939821,37.872638],[28.939835,37.873323],[28.939892,37.87438],[28.940063,37.875265],[28.939978,37.875693],[28.939921,37.876107],[28.940292,37.876593],[28.940884,37.876872],[28.941198,37.877057],[28.941377,37.8772],[28.941591,37.877278],[28.941741,37.877335],[28.941769,37.877464],[28.941791,37.877706],[28.941748,37.877971],[28.941648,37.87827],[28.941477,37.878599],[28.941412,37.878742],[28.941511,37.879082],[28.941646,37.879389],[28.941771,37.879604],[28.941955,37.879722],[28.942526,37.879894],[28.942611,37.880123],[28.943002,37.880267],[28.943931,37.879558],[28.944716,37.878972],[28.945801,37.878259],[28.946872,37.877502],[28.947914,37.876588],[28.948585,37.875903],[28.948985,37.875032],[28.949499,37.874304],[28.951155,37.873576],[28.951551,37.873315],[28.951668,37.873249]]]]}},{"type":"Feature","properties":{"id":"TR-Y-20-002-M-0001","level":"yerlesim","type":"mahalle","parent_id":"TR-D-20-002","province_id":"TR-P-20","province_name":"Denizli","district_id":"TR-D-20-002","name":"Ahıllı","source_raw_name":"Ahıllı","source":"Kamu kaynak","source_only":false},"geometry":{"type":"MultiPolygon","coordinates":[[[[28.863689,37.851142],[28.863626,37.850868],[28.863761,37.850814],[28.884185,37.849275],[28.88371,37.848317],[28.883109,37.848439],[28.882698,37.848326],[28.882363,37.847919],[28.881964,37.847768],[28.882319,37.847273],[28.882054,37.846947],[28.881779,37.846897],[28.882065,37.846464],[28.881359,37.845939],[28.880064,37.845175],[28.879712,37.845145],[28.879358,37.844683],[28.879657,37.84434],[28.879148,37.844208],[28.878976,37.843866],[28.878395,37.843589],[28.878687,37.843503],[28.878423,37.843328],[28.878112,37.842406],[28.878238,37.84236],[28.878027,37.842159],[28.877926,37.841994],[28.877695,37.842121],[28.877477,37.841908],[28.877722,37.841811],[28.877407,37.841673],[28.876999,37.841283],[28.877033,37.841031],[28.876802,37.84117],[28.876704,37.840782],[28.876796,37.840543],[28.876589,37.840067],[28.876359,37.839163],[28.876192,37.839003],[28.87547,37.838938],[28.874671,37.839504],[28.87411,37.839493],[28.87353,37.83831],[28.873067,37.838142],[28.873466,37.837408],[28.872625,37.836559],[28.872246,37.836638],[28.870559,37.835149],[28.870161,37.835262],[28.869036,37.835282],[28.86819,37.834944],[28.867499,37.83407],[28.867721,37.833483],[28.867416,37.833111],[28.866538,37.832932],[28.866055,37.832653],[28.8658,37.832684],[28.864875,37.831801],[28.864579,37.83171],[28.864169,37.831585],[28.862959,37.830967],[28.861895,37.8307],[28.861836,37.830343],[28.862124,37.829914],[28.861082,37.829317],[28.861055,37.82906],[28.860604,37.82882],[28.860595,37.82836],[28.860445,37.828115],[28.8604,37.827846],[28.860181,37.827716],[28.85962,37.827205],[28.859293,37.826312],[28.85846,37.82539],[28.857062,37.824379],[28.855766,37.821965],[28.855033,37.820947],[28.853862,37.819776],[28.853396,37.819186],[28.852377,37.818577],[28.852006,37.818263],[28.851473,37.817977],[28.850578,37.817559],[28.849408,37.817083],[28.848751,37.816578],[28.848504,37.815941],[28.848637,37.815322],[28.848561,37.814599],[28.848838,37.813843],[28.848276,37.811859],[28.847431,37.811007],[28.846677,37.810247],[28.845002,37.808665],[28.843679,37.808189],[28.841342,37.808003],[28.8409,37.807978],[28.840764,37.808305],[28.839742,37.808188],[28.839465,37.808269],[28.839448,37.808338],[28.839206,37.808518],[28.83857,37.80856],[28.838011,37.808976],[28.837879,37.809058],[28.837535,37.808912],[28.837385,37.808747],[28.837226,37.808715],[28.837134,37.808778],[28.837105,37.808883],[28.837009,37.809083],[28.837005,37.809497],[28.837232,37.809676],[28.836415,37.809916],[28.835891,37.810168],[28.835839,37.810353],[28.835555,37.810463],[28.83523,37.810967],[28.835158,37.810939],[28.83429,37.810404],[28.833808,37.80992],[28.833502,37.810026],[28.833017,37.810463],[28.833022,37.810964],[28.832887,37.811401],[28.833602,37.811908],[28.831074,37.812479],[28.831048,37.812912],[28.831264,37.813034],[28.831688,37.813012],[28.832276,37.813238],[28.832578,37.813483],[28.832846,37.813486],[28.833026,37.813637],[28.83304,37.813827],[28.833262,37.813839],[28.833357,37.813955],[28.833366,37.814321],[28.83413,37.814911],[28.834184,37.815225],[28.834353,37.815362],[28.834972,37.815345],[28.835084,37.815434],[28.835083,37.815435],[28.835084,37.815435],[28.835142,37.815482],[28.834964,37.81577],[28.835053,37.815996],[28.835584,37.815783],[28.835613,37.816213],[28.836386,37.816243],[28.836545,37.816868],[28.837101,37.816932],[28.837215,37.817063],[28.837145,37.817577],[28.837853,37.817781],[28.838254,37.817837],[28.837876,37.818114],[28.838408,37.818188],[28.839259,37.818974],[28.839525,37.819608],[28.839301,37.81992],[28.839625,37.820663],[28.839609,37.821499],[28.839702,37.821542],[28.841055,37.822181],[28.843189,37.824694],[28.843032,37.824969],[28.843226,37.825345],[28.843788,37.828309],[28.844138,37.828862],[28.843612,37.829393],[28.843627,37.829985],[28.843736,37.830221],[28.843957,37.830384],[28.844022,37.830586],[28.843905,37.830659],[28.84366,37.830741],[28.843394,37.830626],[28.843203,37.830833],[28.843505,37.831032],[28.844096,37.830995],[28.844183,37.830961],[28.844614,37.830869],[28.844984,37.831697],[28.845021,37.832017],[28.845438,37.83219],[28.844646,37.832432],[28.844773,37.832679],[28.844901,37.832931],[28.845528,37.8333],[28.845706,37.833574],[28.845682,37.833817],[28.845956,37.833816],[28.846219,37.834592],[28.847722,37.834687],[28.847114,37.835301],[28.848363,37.835158],[28.850409,37.836375],[28.852651,37.837241],[28.853435,37.838754],[28.853022,37.840321],[28.854287,37.842059],[28.853863,37.842317],[28.855764,37.843256],[28.855158,37.845221],[28.856385,37.847971],[28.856449,37.848158],[28.856993,37.848217],[28.857624,37.848344],[28.857949,37.848554],[28.858161,37.849117],[28.8583,37.849261],[28.858334,37.849661],[28.858615,37.849984],[28.859185,37.85064],[28.860338,37.851135],[28.861105,37.8513],[28.861686,37.851039],[28.862804,37.852176],[28.86394,37.852232],[28.863689,37.851142]]]]}},{"type":"Feature","properties":{"id":"TR-Y-20-002-M-0002","level":"yerlesim","type":"mahalle","parent_id":"TR-D-20-002","province_id":"TR-P-20","province_name":"Denizli","district_id":"TR-D-20-002","name":"Bekirler","source_raw_name":"Bekirler","source":"Kamu kaynak","source_only":false},"geometry":{"type":"MultiPolygon","coordinates":[[[[28.932306,37.887931],[28.932393,37.887796],[28.932835,37.888001],[28.933508,37.887561],[28.93436,37.887455],[28.934306,37.886804],[28.93529,37.886876],[28.936118,37.887097],[28.936775,37.887362],[28.9371,37.887394],[28.937299,37.887356],[28.937934,37.88704],[28.938382,37.887005],[28.938671,37.886766],[28.937964,37.885124],[28.938029,37.884839],[28.937843,37.884425],[28.937608,37.883947],[28.937443,37.88344],[28.937272,37.883147],[28.937258,37.882847],[28.937943,37.882926],[28.938571,37.882555],[28.938428,37.882431],[28.938481,37.882231],[28.938657,37.881969],[28.939197,37.882179],[28.93956,37.881834],[28.939839,37.881738],[28.940298,37.881947],[28.940494,37.881631],[28.940672,37.881536],[28.940839,37.881489],[28.941017,37.881298],[28.941285,37.881144],[28.941725,37.880995],[28.942011,37.880941],[28.942469,37.880674],[28.943002,37.880267],[28.942611,37.880123],[28.942526,37.879894],[28.941955,37.879722],[28.941771,37.879604],[28.941646,37.879389],[28.941511,37.879082],[28.941412,37.878742],[28.941477,37.878599],[28.941648,37.87827],[28.941748,37.877971],[28.941791,37.877706],[28.941769,37.877464],[28.941741,37.877335],[28.941591,37.877278],[28.941377,37.8772],[28.941198,37.877057],[28.940884,37.876872],[28.940292,37.876593],[28.939921,37.876107],[28.939978,37.875693],[28.940063,37.875265],[28.939892,37.87438],[28.939835,37.873323],[28.939821,37.872638],[28.939735,37.871382],[28.939749,37.870311],[28.939821,37.86954],[28.939478,37.869297],[28.938778,37.869026],[28.938564,37.868112],[28.938364,37.866956],[28.938307,37.866342],[28.938621,37.8657],[28.938878,37.864815],[28.939092,37.862973],[28.939392,37.862102],[28.939635,37.86116],[28.939863,37.860503],[28.939449,37.859632],[28.939364,37.858961],[28.939492,37.85829],[28.939535,37.857876],[28.93925,37.857091],[28.939207,37.856827],[28.93915,37.856585],[28.939002,37.856423],[28.938864,37.856347],[28.938712,37.856181],[28.938626,37.856076],[28.938464,37.855952],[28.938302,37.85571],[28.938179,37.855553],[28.938012,37.855476],[28.938079,37.855353],[28.938074,37.855286],[28.937936,37.855272],[28.937879,37.855253],[28.937551,37.855362],[28.937189,37.855005],[28.937167,37.854872],[28.936739,37.854551],[28.936239,37.854218],[28.935133,37.852957],[28.934895,37.852826],[28.934157,37.85298],[28.933943,37.852885],[28.932908,37.851493],[28.93161,37.850943],[28.931122,37.850781],[28.928501,37.849734],[28.930542,37.849124],[28.930497,37.847799],[28.930087,37.846714],[28.928607,37.844458],[28.92973,37.843897],[28.929241,37.839263],[28.927606,37.823995],[28.924567,37.823936],[28.925317,37.821008],[28.923391,37.819677],[28.923211,37.819557],[28.922617,37.819752],[28.921969,37.81999],[28.92064,37.820427],[28.920483,37.820433],[28.920322,37.820453],[28.920179,37.820446],[28.919876,37.820336],[28.919726,37.820279],[28.919527,37.820119],[28.91917,37.820058],[28.919139,37.820037],[28.919116,37.820057],[28.918562,37.820554],[28.918455,37.820757],[28.918348,37.820852],[28.917876,37.820874],[28.917117,37.820909],[28.91663,37.820974],[28.916297,37.821308],[28.915773,37.821869],[28.915143,37.822036],[28.914795,37.82213],[28.914703,37.822155],[28.914369,37.822167],[28.914013,37.821976],[28.913668,37.821964],[28.913511,37.82199],[28.91343,37.821981],[28.913233,37.821935],[28.913225,37.821933],[28.91322,37.822861],[28.913273,37.823394],[28.913353,37.823989],[28.913539,37.824808],[28.913696,37.825869],[28.913777,37.826278],[28.913387,37.82645],[28.913182,37.826464],[28.912897,37.826521],[28.911359,37.827154],[28.910712,37.827563],[28.910598,37.828363],[28.910446,37.829219],[28.910617,37.830038],[28.91115,37.830923],[28.911183,37.831857],[28.911136,37.832352],[28.910945,37.832618],[28.910824,37.833284],[28.910899,37.833428],[28.910657,37.834132],[28.909449,37.836008],[28.909613,37.837173],[28.910538,37.83884],[28.910445,37.84137],[28.909721,37.842663],[28.909917,37.846941],[28.910684,37.846904],[28.910782,37.847512],[28.911012,37.848241],[28.911098,37.848356],[28.911291,37.848558],[28.911726,37.848641],[28.912297,37.848598],[28.912997,37.848441],[28.913953,37.848313],[28.914339,37.848427],[28.914553,37.848398],[28.915061,37.847915],[28.915728,37.847432],[28.916861,37.847699],[28.917879,37.847918],[28.91925,37.848318],[28.919983,37.84866],[28.920163,37.848984],[28.920306,37.849241],[28.920116,37.85024],[28.920068,37.850431],[28.920221,37.850668],[28.920125,37.851097],[28.920097,37.851382],[28.920192,37.85163],[28.920249,37.851839],[28.920363,37.852172],[28.920401,37.852543],[28.920449,37.853067],[28.920889,37.853918],[28.920895,37.854007],[28.920794,37.854165],[28.920755,37.854298],[28.920791,37.854397],[28.920842,37.854605],[28.920833,37.854822],[28.920859,37.854997],[28.92083,37.85514],[28.920809,37.855313],[28.920871,37.855363],[28.920868,37.855548],[28.920782,37.855708],[28.920758,37.855869],[28.920776,37.856035],[28.920859,37.85619],[28.920973,37.856336],[28.921166,37.856559],[28.921312,37.856719],[28.921303,37.856874],[28.921294,37.857044],[28.921249,37.857097],[28.921261,37.857151],[28.921216,37.857228],[28.921276,37.857329],[28.921243,37.857386],[28.921202,37.857475],[28.921225,37.857537],[28.921121,37.857636],[28.921074,37.857802],[28.921074,37.857853],[28.921216,37.858129],[28.921228,37.858233],[28.921178,37.858278],[28.921118,37.85837],[28.921148,37.858504],[28.921109,37.858578],[28.92097,37.858647],[28.920949,37.858798],[28.921091,37.859001],[28.921008,37.859286],[28.920978,37.859715],[28.920913,37.860351],[28.920824,37.860541],[28.920907,37.860708],[28.920889,37.860916],[28.920877,37.861208],[28.92099,37.861499],[28.920955,37.861624],[28.921032,37.861701],[28.92105,37.861898],[28.921103,37.86207],[28.921318,37.862189],[28.92146,37.862457],[28.921633,37.86257],[28.921912,37.862879],[28.92171,37.863028],[28.921597,37.863415],[28.921609,37.863599],[28.92171,37.863831],[28.921817,37.864093],[28.922002,37.864105],[28.922162,37.864355],[28.922216,37.864527],[28.92218,37.864747],[28.922287,37.865033],[28.922394,37.865366],[28.922483,37.865455],[28.922591,37.86558],[28.922507,37.865723],[28.922608,37.865794],[28.922638,37.865907],[28.922549,37.866038],[28.922549,37.866312],[28.922531,37.866544],[28.922608,37.86668],[28.922644,37.866966],[28.922644,37.867317],[28.922573,37.867495],[28.92265,37.867751],[28.922783,37.867983],[28.922932,37.867989],[28.923021,37.868352],[28.923325,37.868786],[28.923723,37.868959],[28.923985,37.869226],[28.924259,37.869381],[28.924538,37.86956],[28.924943,37.869744],[28.925228,37.870006],[28.925401,37.870279],[28.925555,37.870471],[28.926341,37.870685],[28.927122,37.870956],[28.927348,37.871307],[28.927449,37.87159],[28.927476,37.871947],[28.927458,37.872184],[28.927411,37.872723],[28.927417,37.87333],[28.927464,37.87366],[28.927497,37.874046],[28.927493,37.874439],[28.927324,37.875061],[28.927148,37.875426],[28.927095,37.875789],[28.927178,37.876206],[28.927511,37.877152],[28.927701,37.878222],[28.927928,37.879156],[28.928029,37.879924],[28.928058,37.880947],[28.928154,37.881333],[28.928576,37.882535],[28.928695,37.883136],[28.928778,37.883653],[28.928731,37.884299],[28.928692,37.884686],[28.928737,37.884944],[28.928885,37.88523],[28.929388,37.886],[28.929626,37.886473],[28.929679,37.886729],[28.92967,37.887098],[28.929675,37.887749],[28.929722,37.888425],[28.929827,37.888748],[28.930027,37.888939],[28.93096,37.889377],[28.93157,37.889881],[28.931665,37.889801],[28.931829,37.889756],[28.932123,37.889566],[28.93207,37.889426],[28.932045,37.889264],[28.932627,37.889186],[28.932569,37.888369],[28.932306,37.887931]]]]}},{"type":"Feature","properties":{"id":"TR-Y-20-002-M-0003","level":"yerlesim","type":"mahalle","parent_id":"TR-D-20-002","province_id":"TR-P-20","province_name":"Denizli","district_id":"TR-D-20-002","name":"Cumhuriyet","source_raw_name":"Cumhuriyet","source":"Kamu kaynak","source_only":false},"geometry":{"type":"MultiPolygon","coordinates":[[[[28.85027,37.811482],[28.850255,37.811097],[28.849956,37.811144],[28.849645,37.811117],[28.84932,37.811024],[28.849119,37.810837],[28.84873,37.810805],[28.848487,37.810682],[28.848773,37.81037],[28.849393,37.810394],[28.84954,37.810436],[28.849519,37.810135],[28.849541,37.810004],[28.849645,37.809547],[28.84983,37.809151],[28.849996,37.809217],[28.850288,37.809339],[28.850499,37.809366],[28.850689,37.809443],[28.850793,37.809446],[28.850868,37.809432],[28.851201,37.809402],[28.851329,37.809432],[28.851465,37.809461],[28.851671,37.809437],[28.851891,37.809387],[28.852028,37.809381],[28.852129,37.809405],[28.852441,37.809366],[28.852738,37.809417],[28.852988,37.809226],[28.852976,37.809066],[28.853063,37.808849],[28.853196,37.808694],[28.853256,37.808611],[28.853283,37.808509],[28.85328,37.808417],[28.853256,37.808215],[28.853286,37.808084],[28.853321,37.808022],[28.853768,37.808156],[28.853872,37.808105],[28.854065,37.807793],[28.85424,37.807534],[28.854404,37.807504],[28.854568,37.807451],[28.854669,37.807403],[28.854814,37.807344],[28.854927,37.807219],[28.855044,37.807117],[28.855551,37.807609],[28.855801,37.807472],[28.855893,37.807418],[28.855976,37.807398],[28.85606,37.807369],[28.856075,37.807496],[28.856078,37.807713],[28.855986,37.807998],[28.855982,37.808007],[28.856232,37.808224],[28.856669,37.808433],[28.856762,37.808436],[28.856765,37.808168],[28.856656,37.807356],[28.856656,37.807356],[28.856656,37.807355],[28.856912,37.807316],[28.857119,37.807235],[28.85735,37.807117],[28.857406,37.807078],[28.857426,37.807014],[28.857497,37.806992],[28.857239,37.806882],[28.857148,37.806813],[28.85698,37.806916],[28.856918,37.806833],[28.856945,37.80681],[28.856946,37.806754],[28.856875,37.806673],[28.856764,37.806567],[28.856778,37.80649],[28.856771,37.806414],[28.856745,37.806411],[28.856745,37.806399],[28.85671,37.806403],[28.856693,37.806307],[28.856638,37.806316],[28.856651,37.806255],[28.856719,37.806099],[28.856682,37.805989],[28.856644,37.806008],[28.856613,37.805934],[28.856498,37.805909],[28.856478,37.80591],[28.856418,37.805958],[28.856335,37.80585],[28.856281,37.805763],[28.856304,37.805651],[28.856291,37.805617],[28.85632,37.805542],[28.856358,37.805548],[28.856385,37.805499],[28.856414,37.805463],[28.856421,37.805423],[28.856711,37.805214],[28.856951,37.805194],[28.857116,37.805148],[28.857087,37.805005],[28.856943,37.804997],[28.856948,37.804969],[28.856849,37.804878],[28.856838,37.804851],[28.857033,37.804867],[28.857063,37.804844],[28.857118,37.804848],[28.857127,37.804802],[28.857051,37.804737],[28.856999,37.804713],[28.856985,37.804706],[28.856965,37.804705],[28.856899,37.804651],[28.856844,37.804707],[28.856717,37.804587],[28.856701,37.804615],[28.856631,37.804588],[28.856608,37.80459],[28.856524,37.804464],[28.856504,37.804412],[28.856535,37.804403],[28.856414,37.804276],[28.856303,37.804414],[28.856252,37.804434],[28.856201,37.804402],[28.856175,37.804403],[28.85615,37.804381],[28.856131,37.804277],[28.856044,37.804184],[28.856172,37.804093],[28.856182,37.80403],[28.856306,37.803966],[28.856307,37.803864],[28.856579,37.803701],[28.856577,37.803696],[28.856232,37.803528],[28.856135,37.803485],[28.856253,37.803318],[28.856268,37.803288],[28.856173,37.803154],[28.85628,37.80304],[28.856291,37.80303],[28.856289,37.802942],[28.856289,37.802765],[28.856218,37.802554],[28.856165,37.802468],[28.856063,37.802351],[28.85597,37.802225],[28.856018,37.802125],[28.856346,37.801939],[28.856441,37.801792],[28.856508,37.801611],[28.856498,37.801421],[28.85647,37.801344],[28.85627,37.80114],[28.856175,37.801059],[28.856213,37.800921],[28.856413,37.800978],[28.85657,37.801064],[28.856774,37.801092],[28.856798,37.801059],[28.856773,37.800791],[28.856602,37.800706],[28.856221,37.800516],[28.8559,37.800331],[28.855671,37.799853],[28.855529,37.799431],[28.855557,37.799075],[28.855357,37.798732],[28.855294,37.798379],[28.855032,37.798037],[28.854852,37.797922],[28.854771,37.79788],[28.85439,37.797841],[28.854418,37.797675],[28.854466,37.797599],[28.854509,37.797427],[28.854457,37.797308],[28.854347,37.797032],[28.854347,37.79679],[28.854333,37.796414],[28.854314,37.796252],[28.854276,37.795971],[28.854114,37.795809],[28.853943,37.795438],[28.853828,37.795162],[28.854038,37.794791],[28.854052,37.794567],[28.854019,37.794115],[28.854081,37.793882],[28.854314,37.793406],[28.854752,37.792155],[28.854833,37.791741],[28.855009,37.791479],[28.855018,37.79136],[28.85517,37.790884],[28.855128,37.790618],[28.854737,37.789876],[28.854396,37.789034],[28.855997,37.788314],[28.856075,37.787952],[28.856227,37.7878],[28.856531,37.787305],[28.856893,37.786906],[28.857455,37.78622],[28.857864,37.785392],[28.857873,37.785126],[28.857873,37.784612],[28.858006,37.783437],[28.857686,37.781061],[28.86548,37.772062],[28.866792,37.769861],[28.867485,37.768681],[28.86793,37.767951],[28.868656,37.766381],[28.868134,37.765417],[28.868133,37.764374],[28.868331,37.763116],[28.867532,37.761772],[28.86759,37.760515],[28.867565,37.76002],[28.867,37.758854],[28.866137,37.756985],[28.865537,37.755962],[28.864682,37.754912],[28.864419,37.754572],[28.864131,37.753271],[28.863792,37.752478],[28.863474,37.75127],[28.862268,37.751787],[28.860686,37.753399],[28.857276,37.754192],[28.853471,37.755047],[28.851745,37.757706],[28.849894,37.75936],[28.847758,37.761234],[28.84591,37.762666],[28.835861,37.767695],[28.831625,37.769103],[28.827111,37.770395],[28.824589,37.770888],[28.825272,37.771403],[28.828869,37.777683],[28.828886,37.777726],[28.831391,37.7821],[28.832109,37.783443],[28.832569,37.784424],[28.832646,37.785016],[28.832982,37.786029],[28.833692,37.787026],[28.834434,37.787816],[28.834913,37.78854],[28.835209,37.789415],[28.835665,37.791256],[28.836057,37.79299],[28.836469,37.794061],[28.836838,37.795854],[28.836706,37.797082],[28.836514,37.797886],[28.836187,37.798761],[28.836417,37.80039],[28.837985,37.801004],[28.838306,37.802316],[28.838594,37.802895],[28.838474,37.803589],[28.83809,37.804158],[28.841287,37.805437],[28.84145,37.805504],[28.84189,37.805809],[28.842545,37.806683],[28.843727,37.808206],[28.845002,37.808665],[28.846677,37.810247],[28.847431,37.811007],[28.847836,37.810955],[28.848775,37.811384],[28.848995,37.811428],[28.849249,37.811482],[28.849672,37.811468],[28.849987,37.81156],[28.85027,37.811482]]]]}},{"type":"Feature","properties":{"id":"TR-Y-20-002-M-0004","level":"yerlesim","type":"mahalle","parent_id":"TR-D-20-002","province_id":"TR-P-20","province_name":"Denizli","district_id":"TR-D-20-002","name":"Demirli","source_raw_name":"Demirli","source":"Kamu kaynak","source_only":false},"geometry":{"type":"MultiPolygon","coordinates":[[[[28.835084,37.815434],[28.834972,37.815345],[28.834353,37.815362],[28.834184,37.815225],[28.83413,37.814911],[28.833366,37.814321],[28.833357,37.813955],[28.833262,37.813839],[28.83304,37.813827],[28.833026,37.813637],[28.832846,37.813486],[28.832578,37.813483],[28.832276,37.813238],[28.831688,37.813012],[28.831264,37.813034],[28.831048,37.812912],[28.831074,37.812479],[28.833602,37.811908],[28.832887,37.811401],[28.833022,37.810964],[28.833017,37.810463],[28.833502,37.810026],[28.833808,37.80992],[28.83429,37.810404],[28.835158,37.810939],[28.83523,37.810967],[28.835555,37.810463],[28.835839,37.810353],[28.835891,37.810168],[28.836415,37.809916],[28.837232,37.809676],[28.837005,37.809497],[28.837009,37.809083],[28.837105,37.808883],[28.837134,37.808778],[28.837226,37.808715],[28.837385,37.808747],[28.837535,37.808912],[28.837879,37.809058],[28.838011,37.808976],[28.83857,37.80856],[28.839206,37.808518],[28.839448,37.808338],[28.839465,37.808269],[28.839742,37.808188],[28.840764,37.808305],[28.8409,37.807978],[28.841342,37.808003],[28.843679,37.808189],[28.843727,37.808206],[28.842545,37.806683],[28.84189,37.805809],[28.84145,37.805504],[28.841287,37.805437],[28.83809,37.804158],[28.838474,37.803589],[28.838594,37.802895],[28.838306,37.802316],[28.837985,37.801004],[28.836417,37.80039],[28.836187,37.798761],[28.836514,37.797886],[28.836706,37.797082],[28.836838,37.795854],[28.836469,37.794061],[28.836057,37.79299],[28.835665,37.791256],[28.835209,37.789415],[28.834913,37.78854],[28.834434,37.787816],[28.833692,37.787026],[28.832982,37.786029],[28.832646,37.785016],[28.832569,37.784424],[28.832109,37.783443],[28.831391,37.7821],[28.828886,37.777726],[28.828869,37.777683],[28.825272,37.771403],[28.824589,37.770888],[28.823307,37.771138],[28.819352,37.772227],[28.817431,37.771471],[28.815097,37.772307],[28.811985,37.773503],[28.808502,37.775522],[28.809404,37.78049],[28.810175,37.782447],[28.810158,37.783997],[28.810331,37.786761],[28.810738,37.78859],[28.811243,37.790528],[28.811343,37.790944],[28.811673,37.791919],[28.812452,37.793633],[28.813397,37.795186],[28.813689,37.795219],[28.814249,37.795897],[28.814688,37.795851],[28.814648,37.795951],[28.815522,37.796519],[28.815947,37.796748],[28.816414,37.797022],[28.816599,37.797185],[28.816753,37.797295],[28.817039,37.797334],[28.817324,37.797251],[28.817269,37.797452],[28.816907,37.797696],[28.816886,37.798091],[28.816474,37.798922],[28.815361,37.798981],[28.815486,37.799192],[28.815541,37.801091],[28.816065,37.801594],[28.816299,37.801755],[28.816397,37.802025],[28.820168,37.804895],[28.820248,37.805169],[28.820335,37.80524],[28.820312,37.805459],[28.820537,37.805404],[28.821095,37.8056],[28.821566,37.805457],[28.824347,37.806082],[28.824615,37.806257],[28.824676,37.807209],[28.824663,37.807857],[28.82477,37.808299],[28.825681,37.808821],[28.825153,37.80959],[28.82466,37.810325],[28.823753,37.811683],[28.824263,37.811685],[28.824568,37.811427],[28.824998,37.811025],[28.82543,37.81136],[28.825811,37.811163],[28.82606,37.811468],[28.825706,37.81169],[28.825313,37.812533],[28.82561,37.812515],[28.825785,37.812502],[28.825935,37.812544],[28.825881,37.812608],[28.826315,37.812733],[28.826606,37.812765],[28.827147,37.812527],[28.827225,37.812483],[28.827494,37.812517],[28.828016,37.812476],[28.82832,37.812492],[28.828463,37.812559],[28.828406,37.812643],[28.828972,37.813533],[28.829641,37.813643],[28.829369,37.814204],[28.829227,37.814329],[28.829572,37.814689],[28.8298,37.815609],[28.829645,37.815728],[28.829708,37.816015],[28.829829,37.816057],[28.830263,37.816429],[28.830263,37.816429],[28.830147,37.816606],[28.830818,37.816642],[28.83253,37.81604],[28.833355,37.815818],[28.835083,37.815435],[28.835084,37.815434]]]]}},{"type":"Feature","properties":{"id":"TR-Y-20-002-M-0005","level":"yerlesim","type":"mahalle","parent_id":"TR-D-20-002","province_id":"TR-P-20","province_name":"Denizli","district_id":"TR-D-20-002","name":"Gazi","source_raw_name":"Gazi","source":"Kamu kaynak","source_only":false},"geometry":{"type":"MultiPolygon","coordinates":[[[[28.884427,37.848506],[28.884786,37.84797],[28.884799,37.847817],[28.88502,37.847643],[28.884884,37.847553],[28.884749,37.847436],[28.884099,37.847286],[28.883865,37.847326],[28.883805,37.847321],[28.883733,37.847111],[28.882884,37.84644],[28.883366,37.845679],[28.883472,37.845049],[28.883261,37.844965],[28.882613,37.845413],[28.88159,37.844953],[28.88127,37.844348],[28.882302,37.842514],[28.881889,37.842151],[28.880371,37.842656],[28.879895,37.842424],[28.879534,37.841962],[28.879113,37.84151],[28.879016,37.841005],[28.878577,37.840471],[28.877974,37.83993],[28.877574,37.839252],[28.877934,37.838508],[28.87731,37.837793],[28.877352,37.837355],[28.877491,37.836558],[28.877724,37.835771],[28.877593,37.835403],[28.877664,37.835162],[28.877804,37.834847],[28.877867,37.834582],[28.877977,37.834422],[28.877956,37.834166],[28.878447,37.833804],[28.878158,37.833308],[28.87834,37.832959],[28.878551,37.831207],[28.877655,37.828977],[28.877761,37.828746],[28.877356,37.828578],[28.877379,37.828291],[28.877267,37.828013],[28.876848,37.827335],[28.876568,37.827053],[28.875674,37.826685],[28.875573,37.825998],[28.875962,37.824492],[28.876016,37.824274],[28.876103,37.823294],[28.876513,37.822916],[28.876608,37.822625],[28.876528,37.82202],[28.876618,37.821823],[28.876511,37.82157],[28.875848,37.82113],[28.875672,37.820984],[28.875333,37.820844],[28.875238,37.820793],[28.874866,37.820481],[28.874379,37.82008],[28.874199,37.819928],[28.873861,37.819478],[28.873816,37.81895],[28.873883,37.81867],[28.874123,37.818217],[28.874193,37.818109],[28.87403,37.81813],[28.873848,37.817971],[28.873412,37.817918],[28.873204,37.817749],[28.873069,37.817478],[28.8733,37.817504],[28.873463,37.8174],[28.87333,37.81717],[28.873234,37.816908],[28.873484,37.816722],[28.873415,37.8165],[28.873293,37.816208],[28.87317,37.815897],[28.872946,37.815607],[28.872987,37.815241],[28.872651,37.815044],[28.871124,37.813712],[28.870571,37.813053],[28.869988,37.812697],[28.869917,37.812507],[28.869079,37.811565],[28.86891,37.811015],[28.868418,37.810787],[28.867711,37.810404],[28.86699,37.810473],[28.866594,37.810336],[28.866413,37.809871],[28.866346,37.809803],[28.866171,37.809749],[28.865975,37.809743],[28.865856,37.809672],[28.865764,37.809661],[28.865641,37.810114],[28.865219,37.810126],[28.864249,37.81053],[28.863505,37.810584],[28.863024,37.810988],[28.862268,37.810923],[28.861428,37.810924],[28.86093,37.81105],[28.860597,37.811166],[28.860216,37.811255],[28.859866,37.811428],[28.859567,37.811178],[28.859449,37.811071],[28.859405,37.811013],[28.859402,37.810924],[28.859452,37.810806],[28.859489,37.810719],[28.859424,37.810655],[28.859382,37.810602],[28.859342,37.810544],[28.859161,37.810594],[28.859056,37.810632],[28.85884,37.810563],[28.858853,37.810211],[28.858861,37.810145],[28.85872,37.809999],[28.858044,37.809028],[28.857967,37.808931],[28.857891,37.808884],[28.857838,37.808884],[28.857735,37.808908],[28.857476,37.808958],[28.85734,37.808973],[28.857125,37.808939],[28.857028,37.808882],[28.856803,37.80855],[28.856762,37.808436],[28.856669,37.808433],[28.856232,37.808224],[28.855982,37.808007],[28.855986,37.807998],[28.856078,37.807713],[28.856075,37.807496],[28.85606,37.807369],[28.855976,37.807398],[28.855893,37.807418],[28.855801,37.807472],[28.855551,37.807609],[28.855044,37.807117],[28.854927,37.807219],[28.854814,37.807344],[28.854669,37.807403],[28.854568,37.807451],[28.854404,37.807504],[28.85424,37.807534],[28.854065,37.807793],[28.853872,37.808105],[28.853768,37.808156],[28.853321,37.808022],[28.853286,37.808084],[28.853256,37.808215],[28.85328,37.808417],[28.853283,37.808509],[28.853256,37.808611],[28.853196,37.808694],[28.853063,37.808849],[28.852976,37.809066],[28.852988,37.809226],[28.852738,37.809417],[28.852441,37.809366],[28.852129,37.809405],[28.852028,37.809381],[28.851891,37.809387],[28.851671,37.809437],[28.851465,37.809461],[28.851329,37.809432],[28.851201,37.809402],[28.850868,37.809432],[28.850793,37.809446],[28.850689,37.809443],[28.850499,37.809366],[28.850288,37.809339],[28.849996,37.809217],[28.84983,37.809151],[28.849645,37.809547],[28.849541,37.810004],[28.849519,37.810135],[28.84954,37.810436],[28.849393,37.810394],[28.848773,37.81037],[28.848487,37.810682],[28.84873,37.810805],[28.849119,37.810837],[28.84932,37.811024],[28.849645,37.811117],[28.849956,37.811144],[28.850255,37.811097],[28.85027,37.811482],[28.849987,37.81156],[28.849672,37.811468],[28.849249,37.811482],[28.848995,37.811428],[28.848775,37.811384],[28.847836,37.810955],[28.847431,37.811007],[28.848276,37.811859],[28.848838,37.813843],[28.848561,37.814599],[28.848637,37.815322],[28.848504,37.815941],[28.848751,37.816578],[28.849408,37.817083],[28.850578,37.817559],[28.851473,37.817977],[28.852006,37.818263],[28.852377,37.818577],[28.853396,37.819186],[28.853862,37.819776],[28.855033,37.820947],[28.855766,37.821965],[28.857062,37.824379],[28.85846,37.82539],[28.859293,37.826312],[28.85962,37.827205],[28.860181,37.827716],[28.8604,37.827846],[28.860445,37.828115],[28.860595,37.82836],[28.860604,37.82882],[28.861055,37.82906],[28.861082,37.829317],[28.862124,37.829914],[28.861836,37.830343],[28.861895,37.8307],[28.862959,37.830967],[28.864169,37.831585],[28.864579,37.83171],[28.864875,37.831801],[28.8658,37.832684],[28.866055,37.832653],[28.866538,37.832932],[28.867416,37.833111],[28.867721,37.833483],[28.867499,37.83407],[28.86819,37.834944],[28.869036,37.835282],[28.870161,37.835262],[28.870559,37.835149],[28.872246,37.836638],[28.872625,37.836559],[28.873466,37.837408],[28.873067,37.838142],[28.87353,37.83831],[28.87411,37.839493],[28.874671,37.839504],[28.87547,37.838938],[28.876192,37.839003],[28.876359,37.839163],[28.876589,37.840067],[28.876796,37.840543],[28.876704,37.840782],[28.876802,37.84117],[28.877033,37.841031],[28.876999,37.841283],[28.877407,37.841673],[28.877722,37.841811],[28.877477,37.841908],[28.877695,37.842121],[28.877926,37.841994],[28.878027,37.842159],[28.878238,37.84236],[28.878112,37.842406],[28.878423,37.843328],[28.878687,37.843503],[28.878395,37.843589],[28.878976,37.843866],[28.879148,37.844208],[28.879657,37.84434],[28.879358,37.844683],[28.879712,37.845145],[28.880064,37.845175],[28.881359,37.845939],[28.882065,37.846464],[28.881779,37.846897],[28.882054,37.846947],[28.882319,37.847273],[28.881964,37.847768],[28.882363,37.847919],[28.882698,37.848326],[28.883109,37.848439],[28.88371,37.848317],[28.884185,37.849275],[28.884231,37.849262],[28.884389,37.849028],[28.88426,37.848509],[28.884427,37.848506]]]]}},{"type":"Feature","properties":{"id":"TR-Y-20-002-M-0006","level":"yerlesim","type":"mahalle","parent_id":"TR-D-20-002","province_id":"TR-P-20","province_name":"Denizli","district_id":"TR-D-20-002","name":"Gündoğdu","source_raw_name":"Gündoğdu","source":"Kamu kaynak","source_only":false},"geometry":{"type":"MultiPolygon","coordinates":[[[[28.861428,37.810924],[28.862268,37.810923],[28.863024,37.810988],[28.863505,37.810584],[28.864249,37.81053],[28.865219,37.810126],[28.865641,37.810114],[28.865764,37.809661],[28.865856,37.809672],[28.865975,37.809743],[28.866171,37.809749],[28.866346,37.809803],[28.866413,37.809871],[28.866594,37.810336],[28.866674,37.810166],[28.866648,37.809619],[28.866291,37.809541],[28.866049,37.809414],[28.866226,37.809338],[28.866583,37.809451],[28.867209,37.809305],[28.867462,37.809005],[28.86739,37.808887],[28.867663,37.808401],[28.867912,37.808527],[28.868304,37.808153],[28.867906,37.807547],[28.867261,37.806251],[28.867101,37.805464],[28.867033,37.804058],[28.866791,37.804164],[28.866591,37.803938],[28.86578,37.804124],[28.865702,37.803966],[28.865715,37.803342],[28.864858,37.802208],[28.864519,37.802183],[28.863505,37.801778],[28.862982,37.801077],[28.863435,37.800655],[28.864183,37.80035],[28.865612,37.799955],[28.866871,37.79989],[28.867605,37.7994],[28.868178,37.799595],[28.868828,37.798976],[28.870858,37.797113],[28.871141,37.796157],[28.870995,37.794924],[28.870771,37.794654],[28.868612,37.793038],[28.868516,37.792682],[28.868469,37.790874],[28.868663,37.790496],[28.868733,37.789726],[28.868707,37.7892],[28.868498,37.788514],[28.86768,37.787658],[28.867562,37.787215],[28.867486,37.787145],[28.867387,37.786885],[28.867159,37.78644],[28.866391,37.784828],[28.866401,37.784235],[28.866087,37.782934],[28.865196,37.78148],[28.865218,37.77828],[28.866425,37.775548],[28.866769,37.772009],[28.867312,37.769763],[28.86793,37.767951],[28.867485,37.768681],[28.866792,37.769861],[28.86548,37.772062],[28.857686,37.781061],[28.858006,37.783437],[28.857873,37.784612],[28.857873,37.785126],[28.857864,37.785392],[28.857455,37.78622],[28.856893,37.786906],[28.856531,37.787305],[28.856227,37.7878],[28.856075,37.787952],[28.855997,37.788314],[28.854396,37.789034],[28.854737,37.789876],[28.855128,37.790618],[28.85517,37.790884],[28.855018,37.79136],[28.855009,37.791479],[28.854833,37.791741],[28.854752,37.792155],[28.854314,37.793406],[28.854081,37.793882],[28.854019,37.794115],[28.854052,37.794567],[28.854038,37.794791],[28.853828,37.795162],[28.853943,37.795438],[28.854114,37.795809],[28.854276,37.795971],[28.854314,37.796252],[28.854333,37.796414],[28.854347,37.79679],[28.854347,37.797032],[28.854457,37.797308],[28.854509,37.797427],[28.854466,37.797599],[28.854418,37.797675],[28.85439,37.797841],[28.854771,37.79788],[28.854852,37.797922],[28.855032,37.798037],[28.855294,37.798379],[28.855357,37.798732],[28.855557,37.799075],[28.855529,37.799431],[28.855671,37.799853],[28.8559,37.800331],[28.856221,37.800516],[28.856602,37.800706],[28.856773,37.800791],[28.856798,37.801059],[28.856774,37.801092],[28.85657,37.801064],[28.856413,37.800978],[28.856213,37.800921],[28.856175,37.801059],[28.85627,37.80114],[28.85647,37.801344],[28.856498,37.801421],[28.856508,37.801611],[28.856441,37.801792],[28.856346,37.801939],[28.856018,37.802125],[28.85597,37.802225],[28.856063,37.802351],[28.856165,37.802468],[28.856218,37.802554],[28.856289,37.802765],[28.856289,37.802942],[28.856291,37.80303],[28.85628,37.80304],[28.856173,37.803154],[28.856268,37.803288],[28.856253,37.803318],[28.856135,37.803485],[28.856232,37.803528],[28.856577,37.803696],[28.856579,37.803701],[28.856307,37.803864],[28.856306,37.803966],[28.856182,37.80403],[28.856172,37.804093],[28.856044,37.804184],[28.856131,37.804277],[28.85615,37.804381],[28.856175,37.804403],[28.856201,37.804402],[28.856252,37.804434],[28.856303,37.804414],[28.856414,37.804276],[28.856535,37.804403],[28.856504,37.804412],[28.856524,37.804464],[28.856608,37.80459],[28.856631,37.804588],[28.856701,37.804615],[28.856717,37.804587],[28.856844,37.804707],[28.856899,37.804651],[28.856965,37.804705],[28.856985,37.804706],[28.856999,37.804713],[28.857051,37.804737],[28.857127,37.804802],[28.857118,37.804848],[28.857063,37.804844],[28.857033,37.804867],[28.856838,37.804851],[28.856849,37.804878],[28.856948,37.804969],[28.856943,37.804997],[28.857087,37.805005],[28.857116,37.805148],[28.856951,37.805194],[28.856711,37.805214],[28.856421,37.805423],[28.856414,37.805463],[28.856385,37.805499],[28.856358,37.805548],[28.85632,37.805542],[28.856291,37.805617],[28.856304,37.805651],[28.856281,37.805763],[28.856335,37.80585],[28.856418,37.805958],[28.856478,37.80591],[28.856498,37.805909],[28.856613,37.805934],[28.856644,37.806008],[28.856682,37.805989],[28.856719,37.806099],[28.856651,37.806255],[28.856638,37.806316],[28.856693,37.806307],[28.85671,37.806403],[28.856745,37.806399],[28.856745,37.806411],[28.856771,37.806414],[28.856778,37.80649],[28.856764,37.806567],[28.856875,37.806673],[28.856946,37.806754],[28.856945,37.80681],[28.856918,37.806833],[28.85698,37.806916],[28.857148,37.806813],[28.857239,37.806882],[28.857497,37.806992],[28.857426,37.807014],[28.857406,37.807078],[28.85735,37.807117],[28.857119,37.807235],[28.856912,37.807316],[28.856656,37.807355],[28.856656,37.807356],[28.856656,37.807356],[28.856765,37.808168],[28.856762,37.808436],[28.856803,37.80855],[28.857028,37.808882],[28.857125,37.808939],[28.85734,37.808973],[28.857476,37.808958],[28.857735,37.808908],[28.857838,37.808884],[28.857891,37.808884],[28.857967,37.808931],[28.858044,37.809028],[28.85872,37.809999],[28.858861,37.810145],[28.858853,37.810211],[28.85884,37.810563],[28.859056,37.810632],[28.859161,37.810594],[28.859342,37.810544],[28.859382,37.810602],[28.859424,37.810655],[28.859489,37.810719],[28.859452,37.810806],[28.859402,37.810924],[28.859405,37.811013],[28.859449,37.811071],[28.859567,37.811178],[28.859866,37.811428],[28.860216,37.811255],[28.860597,37.811166],[28.86093,37.81105],[28.861428,37.810924]]]]}},{"type":"Feature","properties":{"id":"TR-Y-20-002-M-0008","level":"yerlesim","type":"mahalle","parent_id":"TR-D-20-002","province_id":"TR-P-20","province_name":"Denizli","district_id":"TR-D-20-002","name":"Kelleci","source_raw_name":"Kelleci","source":"Kamu kaynak","source_only":false},"geometry":{"type":"MultiPolygon","coordinates":[[[[28.931783,37.894593],[28.931692,37.894076],[28.931604,37.893617],[28.931372,37.89292],[28.931243,37.892663],[28.931108,37.892477],[28.931056,37.892357],[28.931366,37.891698],[28.93161,37.890975],[28.931743,37.890451],[28.931701,37.890194],[28.931639,37.890018],[28.93157,37.889881],[28.93096,37.889377],[28.930027,37.888939],[28.929827,37.888748],[28.929722,37.888425],[28.929675,37.887749],[28.92967,37.887098],[28.929679,37.886729],[28.929626,37.886473],[28.929388,37.886],[28.928885,37.88523],[28.928737,37.884944],[28.928692,37.884686],[28.928731,37.884299],[28.928778,37.883653],[28.928695,37.883136],[28.928576,37.882535],[28.928154,37.881333],[28.928058,37.880947],[28.928029,37.879924],[28.927928,37.879156],[28.927701,37.878222],[28.927511,37.877152],[28.927178,37.876206],[28.927095,37.875789],[28.927148,37.875426],[28.927324,37.875061],[28.927493,37.874439],[28.927497,37.874046],[28.927464,37.87366],[28.927417,37.87333],[28.927411,37.872723],[28.927458,37.872184],[28.927476,37.871947],[28.927449,37.87159],[28.927348,37.871307],[28.927122,37.870956],[28.926341,37.870685],[28.925555,37.870471],[28.925401,37.870279],[28.925228,37.870006],[28.924943,37.869744],[28.924538,37.86956],[28.924259,37.869381],[28.923985,37.869226],[28.923723,37.868959],[28.923325,37.868786],[28.923021,37.868352],[28.922932,37.867989],[28.922783,37.867983],[28.92265,37.867751],[28.922573,37.867495],[28.922644,37.867317],[28.922644,37.866966],[28.922608,37.86668],[28.922531,37.866544],[28.922549,37.866312],[28.922549,37.866038],[28.922638,37.865907],[28.922608,37.865794],[28.922507,37.865723],[28.922591,37.86558],[28.922483,37.865455],[28.922394,37.865366],[28.922287,37.865033],[28.92218,37.864747],[28.922216,37.864527],[28.922162,37.864355],[28.922002,37.864105],[28.921817,37.864093],[28.92171,37.863831],[28.921609,37.863599],[28.921597,37.863415],[28.92171,37.863028],[28.921912,37.862879],[28.921633,37.86257],[28.92146,37.862457],[28.921318,37.862189],[28.921103,37.86207],[28.92105,37.861898],[28.921032,37.861701],[28.920955,37.861624],[28.92099,37.861499],[28.920877,37.861208],[28.920889,37.860916],[28.920907,37.860708],[28.920824,37.860541],[28.920913,37.860351],[28.920978,37.859715],[28.921008,37.859286],[28.921091,37.859001],[28.920949,37.858798],[28.92097,37.858647],[28.921109,37.858578],[28.921148,37.858504],[28.921118,37.85837],[28.921178,37.858278],[28.921228,37.858233],[28.921216,37.858129],[28.921074,37.857853],[28.921074,37.857802],[28.921121,37.857636],[28.921225,37.857537],[28.921202,37.857475],[28.921243,37.857386],[28.921276,37.857329],[28.921216,37.857228],[28.921261,37.857151],[28.921249,37.857097],[28.921294,37.857044],[28.921303,37.856874],[28.921312,37.856719],[28.921166,37.856559],[28.920973,37.856336],[28.920859,37.85619],[28.920776,37.856035],[28.920758,37.855869],[28.920782,37.855708],[28.920868,37.855548],[28.920871,37.855363],[28.920809,37.855313],[28.92083,37.85514],[28.920859,37.854997],[28.920833,37.854822],[28.920842,37.854605],[28.920791,37.854397],[28.920755,37.854298],[28.920794,37.854165],[28.920895,37.854007],[28.920889,37.853918],[28.920449,37.853067],[28.920401,37.852543],[28.920363,37.852172],[28.920249,37.851839],[28.920192,37.85163],[28.920097,37.851382],[28.920125,37.851097],[28.920221,37.850668],[28.920068,37.850431],[28.920116,37.85024],[28.920306,37.849241],[28.920163,37.848984],[28.919983,37.84866],[28.91925,37.848318],[28.917879,37.847918],[28.916861,37.847699],[28.915728,37.847432],[28.915061,37.847915],[28.914553,37.848398],[28.914339,37.848427],[28.913953,37.848313],[28.912997,37.848441],[28.912297,37.848598],[28.911726,37.848641],[28.911291,37.848558],[28.911098,37.848356],[28.911012,37.848241],[28.910782,37.847512],[28.910684,37.846904],[28.909917,37.846941],[28.909721,37.842663],[28.910445,37.84137],[28.910538,37.83884],[28.909613,37.837173],[28.909449,37.836008],[28.910657,37.834132],[28.910899,37.833428],[28.910824,37.833284],[28.910945,37.832618],[28.911136,37.832352],[28.911183,37.831857],[28.91115,37.830923],[28.910617,37.830038],[28.910446,37.829219],[28.910598,37.828363],[28.910712,37.827563],[28.911359,37.827154],[28.912897,37.826521],[28.913182,37.826464],[28.913387,37.82645],[28.913777,37.826278],[28.913696,37.825869],[28.913539,37.824808],[28.913353,37.823989],[28.913273,37.823394],[28.91322,37.822861],[28.913225,37.821933],[28.913233,37.821935],[28.91343,37.821981],[28.913511,37.82199],[28.913668,37.821964],[28.914013,37.821976],[28.914369,37.822167],[28.914703,37.822155],[28.914795,37.82213],[28.915143,37.822036],[28.915773,37.821869],[28.916297,37.821308],[28.91663,37.820974],[28.917117,37.820909],[28.917876,37.820874],[28.918348,37.820852],[28.918455,37.820757],[28.918562,37.820554],[28.919116,37.820057],[28.919139,37.820037],[28.91917,37.820058],[28.919527,37.820119],[28.919726,37.820279],[28.919876,37.820336],[28.920179,37.820446],[28.920322,37.820453],[28.920483,37.820433],[28.92064,37.820427],[28.921969,37.81999],[28.922617,37.819752],[28.923211,37.819557],[28.923159,37.81851],[28.922655,37.817982],[28.921865,37.817192],[28.921417,37.816907],[28.92147,37.816517],[28.921203,37.815688],[28.921103,37.815131],[28.92092,37.814631],[28.919978,37.813329],[28.915733,37.808737],[28.914622,37.802844],[28.914241,37.798952],[28.911301,37.797713],[28.912603,37.796478],[28.912997,37.795781],[28.908713,37.789879],[28.916182,37.783635],[28.914461,37.781184],[28.913521,37.777325],[28.91023,37.774055],[28.90663,37.764794],[28.901387,37.758851],[28.898002,37.755148],[28.894173,37.750617],[28.886118,37.741646],[28.877644,37.732205],[28.877571,37.732133],[28.877412,37.732404],[28.876588,37.73321],[28.875599,37.733736],[28.8747,37.734546],[28.873187,37.737497],[28.872086,37.739431],[28.869552,37.740987],[28.867394,37.741987],[28.865899,37.743674],[28.865191,37.745952],[28.864575,37.748231],[28.865321,37.749454],[28.864497,37.750832],[28.863474,37.75127],[28.863792,37.752478],[28.864131,37.753271],[28.864419,37.754572],[28.864682,37.754912],[28.865537,37.755962],[28.866137,37.756985],[28.867,37.758854],[28.867565,37.76002],[28.86759,37.760515],[28.867532,37.761772],[28.868331,37.763116],[28.868133,37.764374],[28.868134,37.765417],[28.868656,37.766381],[28.868656,37.766381],[28.868656,37.766381],[28.869458,37.76666],[28.869951,37.766758],[28.870937,37.766898],[28.872131,37.767265],[28.872886,37.767628],[28.874841,37.769265],[28.876094,37.77032],[28.877004,37.771329],[28.877219,37.771774],[28.877419,37.773083],[28.877715,37.773889],[28.879264,37.775756],[28.879995,37.777015],[28.880256,37.777308],[28.880723,37.778157],[28.880903,37.778796],[28.881454,37.780107],[28.882108,37.781452],[28.882848,37.78267],[28.883427,37.783319],[28.883514,37.783578],[28.883668,37.78483],[28.883971,37.785765],[28.884439,37.786919],[28.884732,37.787329],[28.885301,37.787884],[28.885718,37.788378],[28.885795,37.788708],[28.885815,37.789113],[28.885489,37.790001],[28.885265,37.790482],[28.885491,37.791684],[28.885209,37.792234],[28.883593,37.792689],[28.8832,37.792848],[28.883002,37.793131],[28.882978,37.794194],[28.883148,37.795179],[28.883237,37.79645],[28.883054,37.797247],[28.883249,37.798016],[28.883617,37.798572],[28.884151,37.798829],[28.883718,37.799261],[28.884651,37.800049],[28.88479,37.800359],[28.884576,37.801277],[28.884723,37.802425],[28.885328,37.8042],[28.885406,37.805058],[28.885417,37.807437],[28.885372,37.807755],[28.885713,37.808259],[28.886955,37.809155],[28.886638,37.809262],[28.886583,37.809569],[28.887134,37.809653],[28.887232,37.80983],[28.887502,37.810025],[28.887706,37.810245],[28.887703,37.810442],[28.886794,37.810714],[28.885277,37.812184],[28.88344,37.813515],[28.882246,37.814582],[28.882581,37.815063],[28.882719,37.815186],[28.883004,37.815415],[28.883104,37.815686],[28.88339,37.816029],[28.88319,37.816157],[28.883061,37.816628],[28.883461,37.816828],[28.883461,37.817199],[28.883432,37.817556],[28.883804,37.817885],[28.884218,37.818085],[28.884462,37.819104],[28.884991,37.819205],[28.88511,37.819378],[28.885253,37.819687],[28.885735,37.82005],[28.8863,37.820276],[28.886996,37.820627],[28.887537,37.820752],[28.888489,37.821055],[28.888632,37.820936],[28.888828,37.821109],[28.889209,37.821269],[28.889756,37.821567],[28.890178,37.821733],[28.890434,37.821757],[28.890666,37.821793],[28.890737,37.821864],[28.890642,37.822013],[28.890565,37.822174],[28.890666,37.822257],[28.890839,37.822251],[28.890993,37.822174],[28.89119,37.822245],[28.891326,37.822168],[28.891392,37.822007],[28.891392,37.821864],[28.891529,37.821769],[28.891832,37.821835],[28.892141,37.821918],[28.892534,37.822019],[28.893153,37.82209],[28.893664,37.822049],[28.893759,37.822209],[28.89373,37.822376],[28.893628,37.822584],[28.89367,37.822739],[28.894021,37.822929],[28.894271,37.82325],[28.89436,37.823494],[28.894437,37.823691],[28.894646,37.823774],[28.894884,37.823798],[28.895056,37.823762],[28.895157,37.823655],[28.895318,37.823464],[28.895544,37.823363],[28.895746,37.823363],[28.896163,37.823405],[28.896585,37.8235],[28.89674,37.823595],[28.8969,37.823661],[28.897025,37.823649],[28.897269,37.823613],[28.897358,37.823792],[28.897477,37.824279],[28.897578,37.824702],[28.897804,37.824839],[28.898054,37.824851],[28.898165,37.824848],[28.898612,37.82501],[28.898603,37.825162],[28.898441,37.825448],[28.898079,37.825762],[28.897299,37.826114],[28.896328,37.826755],[28.895889,37.82743],[28.895193,37.828418],[28.894911,37.828629],[28.894865,37.828804],[28.894893,37.829025],[28.894961,37.829278],[28.89495,37.829521],[28.895229,37.82996],[28.895396,37.830842],[28.895362,37.830875],[28.895583,37.830884],[28.895974,37.830859],[28.896307,37.830873],[28.896307,37.830873],[28.8964,37.831225],[28.896519,37.831337],[28.896635,37.831445],[28.89675,37.831655],[28.89675,37.831655],[28.896721,37.83177],[28.896641,37.831884],[28.896641,37.831884],[28.896759,37.832153],[28.898338,37.834236],[28.898366,37.834273],[28.898474,37.834416],[28.898932,37.83502],[28.899154,37.835293],[28.899486,37.83597],[28.899303,37.836075],[28.89924,37.836099],[28.899345,37.836243],[28.899604,37.836964],[28.899821,37.83713],[28.899925,37.837437],[28.900003,37.837586],[28.900003,37.837586],[28.900085,37.837659],[28.900162,37.837851],[28.900224,37.838145],[28.900544,37.838656],[28.900814,37.838757],[28.901017,37.83897],[28.901199,37.839623],[28.901348,37.839985],[28.901442,37.840299],[28.901442,37.840299],[28.901531,37.840592],[28.901639,37.840893],[28.901639,37.840893],[28.901839,37.841363],[28.901839,37.841363],[28.902218,37.842806],[28.902218,37.842806],[28.902053,37.843505],[28.902052,37.843508],[28.902052,37.843508],[28.902208,37.84374],[28.902211,37.844043],[28.902211,37.844043],[28.902497,37.845124],[28.902731,37.846015],[28.902731,37.846015],[28.9029,37.846437],[28.90314,37.846735],[28.903296,37.846855],[28.903424,37.847104],[28.903424,37.847104],[28.903479,37.847275],[28.903479,37.847275],[28.903441,37.847463],[28.903417,37.847564],[28.903417,37.847564],[28.903378,37.847908],[28.903266,37.848492],[28.903934,37.849603],[28.903934,37.849603],[28.904264,37.850676],[28.904472,37.851443],[28.904472,37.851443],[28.904415,37.852187],[28.904415,37.852187],[28.904057,37.852631],[28.904012,37.853529],[28.904012,37.853529],[28.906783,37.855255],[28.907916,37.857106],[28.908384,37.857869],[28.908669,37.857904],[28.908782,37.858137],[28.908928,37.858279],[28.908948,37.858397],[28.908948,37.858397],[28.908906,37.858628],[28.908906,37.858628],[28.909002,37.858726],[28.909203,37.858792],[28.909293,37.859021],[28.909293,37.859021],[28.909134,37.859706],[28.909134,37.859706],[28.909115,37.860225],[28.909115,37.860225],[28.909897,37.862635],[28.909897,37.862635],[28.910428,37.863567],[28.911122,37.864304],[28.911275,37.865543],[28.912265,37.866255],[28.913135,37.867077],[28.91469,37.867923],[28.914841,37.868189],[28.914865,37.868375],[28.914886,37.868598],[28.914924,37.868875],[28.914996,37.869149],[28.915003,37.869562],[28.915197,37.869577],[28.915539,37.869676],[28.915406,37.870212],[28.91541,37.870521],[28.915117,37.870548],[28.915112,37.871028],[28.915385,37.871021],[28.915501,37.870915],[28.915671,37.870821],[28.915756,37.871047],[28.9157,37.871208],[28.915584,37.871385],[28.915374,37.871501],[28.915466,37.87178],[28.91575,37.871946],[28.916091,37.871907],[28.916314,37.872135],[28.916567,37.872389],[28.916664,37.872589],[28.916977,37.872807],[28.917019,37.872911],[28.917136,37.873024],[28.917281,37.873153],[28.917421,37.873239],[28.917584,37.873403],[28.917709,37.873571],[28.917812,37.873746],[28.917925,37.873859],[28.918312,37.873843],[28.918401,37.874117],[28.918459,37.87429],[28.918716,37.874719],[28.918755,37.874841],[28.918735,37.875068],[28.918744,37.875272],[28.918552,37.875548],[28.918595,37.875552],[28.918717,37.875711],[28.918885,37.875917],[28.91911,37.876145],[28.919294,37.876293],[28.919415,37.876445],[28.919531,37.876633],[28.919729,37.876907],[28.91993,37.877176],[28.920048,37.877473],[28.919985,37.877638],[28.919794,37.878025],[28.91961,37.878132],[28.919358,37.87808],[28.919196,37.878192],[28.91905,37.878177],[28.918817,37.878343],[28.918745,37.878361],[28.91857,37.878314],[28.918458,37.878301],[28.91832,37.878248],[28.918173,37.878308],[28.917927,37.878357],[28.917798,37.878276],[28.91753,37.878267],[28.91731,37.87813],[28.917324,37.878182],[28.917489,37.878631],[28.917789,37.879188],[28.917675,37.879464],[28.917443,37.879824],[28.917199,37.880208],[28.917193,37.880321],[28.91739,37.880695],[28.917422,37.880847],[28.917458,37.881121],[28.917547,37.881948],[28.917802,37.882281],[28.918468,37.882481],[28.918961,37.88315],[28.919389,37.883742],[28.91936,37.884271],[28.919518,37.884899],[28.919139,37.885584],[28.919418,37.886148],[28.920067,37.886633],[28.920695,37.886869],[28.920988,37.887354],[28.921195,37.887554],[28.921502,37.887654],[28.922166,37.888125],[28.922409,37.888311],[28.922673,37.888682],[28.922737,37.888968],[28.922965,37.889182],[28.923015,37.889974],[28.923015,37.890188],[28.924157,37.890545],[28.925157,37.890674],[28.9252,37.891559],[28.925856,37.892201],[28.926413,37.893172],[28.926827,37.893586],[28.927098,37.893929],[28.927712,37.894214],[28.928383,37.894428],[28.928797,37.894514],[28.929226,37.894486],[28.929557,37.894405],[28.929842,37.894917],[28.9299,37.895019],[28.930191,37.895084],[28.931394,37.894709],[28.931783,37.894593]]]]}},{"type":"Feature","properties":{"id":"TR-Y-20-002-M-0009","level":"yerlesim","type":"mahalle","parent_id":"TR-D-20-002","province_id":"TR-P-20","province_name":"Denizli","district_id":"TR-D-20-002","name":"Kıranyer","source_raw_name":"Kıranyer","source":"Kamu kaynak","source_only":false},"geometry":{"type":"MultiPolygon","coordinates":[[[[28.82989,37.820003],[28.829943,37.819525],[28.830008,37.819075],[28.830011,37.818997],[28.829672,37.81904],[28.82949,37.818604],[28.829737,37.818405],[28.82942,37.818134],[28.82951,37.817537],[28.83005,37.81713],[28.830147,37.816606],[28.830263,37.816429],[28.830263,37.816429],[28.829829,37.816057],[28.829708,37.816015],[28.829645,37.815728],[28.8298,37.815609],[28.829572,37.814689],[28.829227,37.814329],[28.829369,37.814204],[28.829641,37.813643],[28.828972,37.813533],[28.828406,37.812643],[28.828463,37.812559],[28.82832,37.812492],[28.828016,37.812476],[28.827494,37.812517],[28.827225,37.812483],[28.827147,37.812527],[28.826606,37.812765],[28.826315,37.812733],[28.825881,37.812608],[28.825935,37.812544],[28.825785,37.812502],[28.82561,37.812515],[28.825313,37.812533],[28.825706,37.81169],[28.82606,37.811468],[28.825811,37.811163],[28.82543,37.81136],[28.824998,37.811025],[28.824568,37.811427],[28.824263,37.811685],[28.823753,37.811683],[28.82466,37.810325],[28.825153,37.80959],[28.825681,37.808821],[28.82477,37.808299],[28.824663,37.807857],[28.824676,37.807209],[28.824615,37.806257],[28.824347,37.806082],[28.821566,37.805457],[28.821095,37.8056],[28.820537,37.805404],[28.820312,37.805459],[28.820335,37.80524],[28.820248,37.805169],[28.820168,37.804895],[28.816397,37.802025],[28.816299,37.801755],[28.816065,37.801594],[28.815541,37.801091],[28.815486,37.799192],[28.815361,37.798981],[28.816474,37.798922],[28.816886,37.798091],[28.816907,37.797696],[28.817269,37.797452],[28.817324,37.797251],[28.817039,37.797334],[28.816753,37.797295],[28.816599,37.797185],[28.816414,37.797022],[28.815947,37.796748],[28.815522,37.796519],[28.814648,37.795951],[28.814688,37.795851],[28.814249,37.795897],[28.813689,37.795219],[28.813397,37.795186],[28.812452,37.793633],[28.811673,37.791919],[28.811343,37.790944],[28.811243,37.790528],[28.810738,37.78859],[28.810331,37.786761],[28.810158,37.783997],[28.810175,37.782447],[28.809404,37.78049],[28.808502,37.775522],[28.807926,37.775856],[28.806052,37.777003],[28.803396,37.778633],[28.7992,37.77988],[28.797526,37.780235],[28.797174,37.779951],[28.79672,37.779853],[28.795884,37.779391],[28.795036,37.779391],[28.794713,37.779105],[28.793541,37.779772],[28.792168,37.780566],[28.791197,37.781092],[28.789501,37.780972],[28.789388,37.780941],[28.788817,37.781386],[28.788213,37.781945],[28.788137,37.781915],[28.788129,37.781909],[28.787721,37.782362],[28.787205,37.782612],[28.786235,37.783362],[28.785679,37.783792],[28.7838,37.785184],[28.782237,37.78615],[28.781613,37.786777],[28.780665,37.78773],[28.77862,37.789796],[28.776028,37.792163],[28.77382,37.794718],[28.771312,37.796717],[28.769598,37.799058],[28.769452,37.799331],[28.769514,37.799339],[28.769572,37.799416],[28.769625,37.799636],[28.769909,37.799923],[28.770228,37.800647],[28.770423,37.800959],[28.770547,37.801078],[28.771019,37.801311],[28.771471,37.801402],[28.77154,37.801439],[28.771825,37.801537],[28.77301,37.802526],[28.773392,37.802734],[28.774154,37.803066],[28.774784,37.803104],[28.775223,37.803063],[28.775502,37.802989],[28.775752,37.80285],[28.775977,37.802695],[28.776958,37.802258],[28.777061,37.802202],[28.777229,37.802094],[28.777601,37.802008],[28.777747,37.802029],[28.778648,37.801978],[28.779184,37.802094],[28.779559,37.802225],[28.779906,37.802296],[28.781064,37.802707],[28.782161,37.803044],[28.784443,37.803563],[28.785534,37.803585],[28.785688,37.803421],[28.786351,37.803208],[28.786396,37.803088],[28.786715,37.802558],[28.786765,37.802563],[28.787563,37.802805],[28.788442,37.802734],[28.788469,37.80275],[28.788636,37.803176],[28.788698,37.80357],[28.788745,37.804099],[28.788858,37.804187],[28.789873,37.80435],[28.790465,37.804613],[28.791562,37.805283],[28.792624,37.805851],[28.793388,37.806195],[28.793811,37.806287],[28.793927,37.806299],[28.79401,37.806293],[28.797056,37.804911],[28.797307,37.804734],[28.798029,37.804736],[28.798256,37.804688],[28.798476,37.805599],[28.798946,37.805529],[28.80005,37.805195],[28.799596,37.80617],[28.799619,37.806396],[28.800189,37.806778],[28.800687,37.806729],[28.800837,37.80772],[28.801034,37.80788],[28.801693,37.808824],[28.802481,37.809225],[28.802867,37.809471],[28.806205,37.811029],[28.806694,37.81101],[28.80739,37.811322],[28.809048,37.812343],[28.812687,37.814302],[28.812793,37.814264],[28.813066,37.81429],[28.813106,37.814338],[28.813162,37.814568],[28.813973,37.815267],[28.815011,37.816162],[28.815311,37.816571],[28.815357,37.816782],[28.815385,37.817001],[28.815339,37.817187],[28.81516,37.818118],[28.815168,37.818445],[28.815682,37.818756],[28.815878,37.818706],[28.81601,37.818652],[28.816203,37.818431],[28.81646,37.818156],[28.816842,37.81797],[28.817192,37.81791],[28.817542,37.817874],[28.817863,37.817781],[28.818159,37.817671],[28.818233,37.817623],[28.818785,37.817146],[28.818904,37.81695],[28.819023,37.816872],[28.819237,37.816866],[28.819915,37.817069],[28.820052,37.817057],[28.820563,37.816908],[28.82114,37.816747],[28.821282,37.817067],[28.821634,37.817001],[28.821793,37.817022],[28.821991,37.816896],[28.822044,37.817054],[28.822165,37.817492],[28.82227,37.817493],[28.822282,37.81767],[28.822601,37.81767],[28.822889,37.817396],[28.823192,37.8172],[28.823663,37.816896],[28.823954,37.816676],[28.82447,37.817038],[28.824359,37.817087],[28.824015,37.817362],[28.824285,37.817645],[28.824432,37.817989],[28.824093,37.818233],[28.824273,37.818537],[28.824143,37.818696],[28.824497,37.818493],[28.824567,37.818585],[28.82474,37.818554],[28.825274,37.818897],[28.825496,37.818784],[28.825919,37.818833],[28.825959,37.818775],[28.826303,37.818903],[28.826574,37.81917],[28.826876,37.819614],[28.826946,37.819666],[28.827035,37.819502],[28.827273,37.819585],[28.827522,37.819279],[28.827528,37.819132],[28.827631,37.819059],[28.827634,37.819368],[28.82913,37.819684],[28.829261,37.819609],[28.82985,37.820118],[28.82989,37.820003]]]]}},{"type":"Feature","properties":{"id":"TR-Y-20-002-M-0011","level":"yerlesim","type":"mahalle","parent_id":"TR-D-20-002","province_id":"TR-P-20","province_name":"Denizli","district_id":"TR-D-20-002","name":"Oğuzlar","source_raw_name":"Oğuzlar","source":"Kamu kaynak","source_only":false},"geometry":{"type":"MultiPolygon","coordinates":[[[[28.909868,37.87553],[28.910254,37.875026],[28.910464,37.87468],[28.910442,37.874469],[28.910545,37.87422],[28.911389,37.874075],[28.912332,37.873449],[28.91305,37.87256],[28.913886,37.872349],[28.914168,37.872233],[28.914347,37.872535],[28.914629,37.872544],[28.91466,37.872532],[28.914813,37.873178],[28.916009,37.874352],[28.91541,37.874394],[28.915173,37.874804],[28.915206,37.875294],[28.915613,37.875551],[28.915769,37.875876],[28.916133,37.876336],[28.916334,37.876459],[28.916453,37.876576],[28.916592,37.87685],[28.916752,37.877073],[28.917033,37.877468],[28.917056,37.877605],[28.917001,37.877795],[28.917102,37.877956],[28.917193,37.878055],[28.91731,37.87813],[28.91753,37.878267],[28.917798,37.878276],[28.917927,37.878357],[28.918173,37.878308],[28.91832,37.878248],[28.918458,37.878301],[28.91857,37.878314],[28.918745,37.878361],[28.918817,37.878343],[28.91905,37.878177],[28.919196,37.878192],[28.919358,37.87808],[28.91961,37.878132],[28.919794,37.878025],[28.919985,37.877638],[28.920048,37.877473],[28.91993,37.877176],[28.919729,37.876907],[28.919531,37.876633],[28.919415,37.876445],[28.919294,37.876293],[28.91911,37.876145],[28.918885,37.875917],[28.918717,37.875711],[28.918595,37.875552],[28.918552,37.875548],[28.918744,37.875272],[28.918735,37.875068],[28.918755,37.874841],[28.918716,37.874719],[28.918459,37.87429],[28.918401,37.874117],[28.918312,37.873843],[28.917925,37.873859],[28.917812,37.873746],[28.917709,37.873571],[28.917584,37.873403],[28.917421,37.873239],[28.917281,37.873153],[28.917136,37.873024],[28.917019,37.872911],[28.916977,37.872807],[28.916664,37.872589],[28.916567,37.872389],[28.916314,37.872135],[28.916091,37.871907],[28.91575,37.871946],[28.915466,37.87178],[28.915374,37.871501],[28.915584,37.871385],[28.9157,37.871208],[28.915756,37.871047],[28.915671,37.870821],[28.915501,37.870915],[28.915385,37.871021],[28.915112,37.871028],[28.915117,37.870548],[28.91541,37.870521],[28.915406,37.870212],[28.915539,37.869676],[28.915197,37.869577],[28.915003,37.869562],[28.914996,37.869149],[28.914924,37.868875],[28.914886,37.868598],[28.914865,37.868375],[28.914841,37.868189],[28.91469,37.867923],[28.913135,37.867077],[28.912265,37.866255],[28.911275,37.865543],[28.911122,37.864304],[28.910428,37.863567],[28.909897,37.862635],[28.909897,37.862635],[28.909115,37.860225],[28.909115,37.860225],[28.909134,37.859706],[28.909134,37.859706],[28.909293,37.859021],[28.909293,37.859021],[28.909203,37.858792],[28.909002,37.858726],[28.908906,37.858628],[28.908906,37.858628],[28.908948,37.858397],[28.908948,37.858397],[28.908928,37.858279],[28.908782,37.858137],[28.908669,37.857904],[28.908384,37.857869],[28.907916,37.857106],[28.906783,37.855255],[28.904012,37.853529],[28.904012,37.853529],[28.904057,37.852631],[28.904415,37.852187],[28.904415,37.852187],[28.904472,37.851443],[28.904472,37.851443],[28.904264,37.850676],[28.903934,37.849603],[28.903934,37.849603],[28.903266,37.848492],[28.903378,37.847908],[28.903417,37.847564],[28.903417,37.847564],[28.903441,37.847463],[28.903479,37.847275],[28.903479,37.847275],[28.903424,37.847104],[28.903424,37.847104],[28.903296,37.846855],[28.90314,37.846735],[28.9029,37.846437],[28.902731,37.846015],[28.902731,37.846015],[28.902497,37.845124],[28.902211,37.844043],[28.902211,37.844043],[28.902208,37.84374],[28.902052,37.843508],[28.902052,37.843508],[28.902053,37.843505],[28.902218,37.842806],[28.902218,37.842806],[28.901839,37.841363],[28.901839,37.841363],[28.901639,37.840893],[28.901639,37.840893],[28.901531,37.840592],[28.901442,37.840299],[28.901442,37.840299],[28.901348,37.839985],[28.901199,37.839623],[28.901017,37.83897],[28.900814,37.838757],[28.900544,37.838656],[28.900224,37.838145],[28.900162,37.837851],[28.900085,37.837659],[28.900003,37.837586],[28.900003,37.837586],[28.899925,37.837437],[28.899821,37.83713],[28.899604,37.836964],[28.899345,37.836243],[28.89924,37.836099],[28.899303,37.836075],[28.899486,37.83597],[28.899154,37.835293],[28.898932,37.83502],[28.898474,37.834416],[28.898366,37.834273],[28.898338,37.834236],[28.896759,37.832153],[28.896641,37.831884],[28.896641,37.831884],[28.896721,37.83177],[28.89675,37.831655],[28.89675,37.831655],[28.896635,37.831445],[28.896519,37.831337],[28.8964,37.831225],[28.896307,37.830873],[28.896307,37.830873],[28.895974,37.830859],[28.895583,37.830884],[28.895362,37.830875],[28.895396,37.830842],[28.895229,37.82996],[28.89495,37.829521],[28.894961,37.829278],[28.894893,37.829025],[28.894865,37.828804],[28.894911,37.828629],[28.895193,37.828418],[28.895889,37.82743],[28.896328,37.826755],[28.897299,37.826114],[28.898079,37.825762],[28.898441,37.825448],[28.898603,37.825162],[28.898612,37.82501],[28.898165,37.824848],[28.898054,37.824851],[28.897804,37.824839],[28.897578,37.824702],[28.897477,37.824279],[28.897358,37.823792],[28.897269,37.823613],[28.897025,37.823649],[28.8969,37.823661],[28.89674,37.823595],[28.896585,37.8235],[28.896163,37.823405],[28.895746,37.823363],[28.895544,37.823363],[28.895318,37.823464],[28.895157,37.823655],[28.895056,37.823762],[28.894884,37.823798],[28.894646,37.823774],[28.894437,37.823691],[28.89436,37.823494],[28.894271,37.82325],[28.894021,37.822929],[28.89367,37.822739],[28.893628,37.822584],[28.89373,37.822376],[28.893759,37.822209],[28.893664,37.822049],[28.893153,37.82209],[28.892534,37.822019],[28.892141,37.821918],[28.891832,37.821835],[28.891529,37.821769],[28.891392,37.821864],[28.891392,37.822007],[28.891326,37.822168],[28.89119,37.822245],[28.890993,37.822174],[28.890839,37.822251],[28.890666,37.822257],[28.890565,37.822174],[28.890642,37.822013],[28.890737,37.821864],[28.890666,37.821793],[28.890434,37.821757],[28.890178,37.821733],[28.889756,37.821567],[28.889209,37.821269],[28.888828,37.821109],[28.888632,37.820936],[28.888489,37.821055],[28.887537,37.820752],[28.886996,37.820627],[28.8863,37.820276],[28.885735,37.82005],[28.885253,37.819687],[28.88511,37.819378],[28.884991,37.819205],[28.884462,37.819104],[28.884218,37.818085],[28.883804,37.817885],[28.883432,37.817556],[28.883461,37.817199],[28.883461,37.816828],[28.883061,37.816628],[28.88319,37.816157],[28.88339,37.816029],[28.883104,37.815686],[28.883004,37.815415],[28.882719,37.815186],[28.882581,37.815063],[28.882246,37.814582],[28.880379,37.814238],[28.879515,37.814367],[28.879217,37.814277],[28.876793,37.815779],[28.875863,37.815856],[28.875303,37.816124],[28.875894,37.816585],[28.875875,37.816874],[28.876164,37.81714],[28.875607,37.817381],[28.875281,37.817506],[28.875288,37.81752],[28.874627,37.817856],[28.874381,37.818003],[28.874193,37.818109],[28.874123,37.818217],[28.873883,37.81867],[28.873816,37.81895],[28.873861,37.819478],[28.874199,37.819928],[28.874379,37.82008],[28.874866,37.820481],[28.875238,37.820793],[28.875333,37.820844],[28.875672,37.820984],[28.875848,37.82113],[28.876511,37.82157],[28.876618,37.821823],[28.876528,37.82202],[28.876608,37.822625],[28.876513,37.822916],[28.876103,37.823294],[28.876016,37.824274],[28.875962,37.824492],[28.875573,37.825998],[28.875674,37.826685],[28.876568,37.827053],[28.876848,37.827335],[28.877267,37.828013],[28.877379,37.828291],[28.877356,37.828578],[28.877761,37.828746],[28.877655,37.828977],[28.878551,37.831207],[28.87834,37.832959],[28.878158,37.833308],[28.878447,37.833804],[28.877956,37.834166],[28.877977,37.834422],[28.877867,37.834582],[28.877804,37.834847],[28.877664,37.835162],[28.877593,37.835403],[28.877724,37.835771],[28.877491,37.836558],[28.877352,37.837355],[28.87731,37.837793],[28.877934,37.838508],[28.877574,37.839252],[28.877974,37.83993],[28.878577,37.840471],[28.879016,37.841005],[28.879113,37.84151],[28.879534,37.841962],[28.879895,37.842424],[28.880371,37.842656],[28.881889,37.842151],[28.882302,37.842514],[28.88127,37.844348],[28.88159,37.844953],[28.882613,37.845413],[28.883261,37.844965],[28.883472,37.845049],[28.883366,37.845679],[28.882884,37.84644],[28.883733,37.847111],[28.883805,37.847321],[28.883865,37.847326],[28.884099,37.847286],[28.884749,37.847436],[28.884884,37.847553],[28.88502,37.847643],[28.884799,37.847817],[28.884786,37.84797],[28.884427,37.848506],[28.88426,37.848509],[28.884389,37.849028],[28.884526,37.849011],[28.884654,37.848703],[28.885083,37.849348],[28.885319,37.849448],[28.885883,37.849334],[28.88636,37.849443],[28.886651,37.84961],[28.886674,37.850217],[28.886324,37.850853],[28.885937,37.851442],[28.885414,37.851722],[28.885622,37.851936],[28.886205,37.851811],[28.886363,37.852035],[28.88627,37.852334],[28.886776,37.852388],[28.887145,37.852715],[28.887187,37.852935],[28.887002,37.853239],[28.887674,37.853917],[28.887072,37.85447],[28.886827,37.854897],[28.887194,37.855065],[28.887496,37.854994],[28.887799,37.855112],[28.887706,37.855465],[28.887259,37.856088],[28.887403,37.856297],[28.887702,37.856378],[28.887716,37.856921],[28.888011,37.85743],[28.888468,37.857335],[28.889434,37.85841],[28.889829,37.858567],[28.890186,37.858301],[28.890291,37.857923],[28.891149,37.858324],[28.891769,37.858348],[28.89198,37.858556],[28.892257,37.858612],[28.89298,37.858514],[28.893356,37.858533],[28.893191,37.858972],[28.893603,37.859043],[28.893774,37.859933],[28.894452,37.860987],[28.895259,37.861413],[28.894859,37.861804],[28.895392,37.861999],[28.895516,37.862313],[28.895668,37.862451],[28.896625,37.862684],[28.897296,37.863066],[28.897359,37.86317],[28.897246,37.863441],[28.897347,37.863573],[28.897746,37.864018],[28.897685,37.864298],[28.897632,37.864432],[28.897579,37.864569],[28.897427,37.86482],[28.897417,37.864847],[28.89746,37.864978],[28.89767,37.865164],[28.897599,37.865214],[28.897575,37.865225],[28.898258,37.865562],[28.898662,37.865178],[28.899342,37.86523],[28.899199,37.865668],[28.899509,37.86583],[28.899739,37.866167],[28.899475,37.866429],[28.899554,37.866739],[28.900482,37.867086],[28.900601,37.867262],[28.900153,37.867759],[28.901383,37.868516],[28.900986,37.869446],[28.901909,37.86964],[28.902577,37.870268],[28.902452,37.870668],[28.901942,37.870861],[28.901734,37.87119],[28.901835,37.871478],[28.902491,37.872099],[28.902734,37.872553],[28.902495,37.873006],[28.903105,37.873713],[28.902702,37.873788],[28.902124,37.874023],[28.902013,37.87458],[28.902115,37.87483],[28.902131,37.875023],[28.901912,37.875251],[28.901917,37.87549],[28.902501,37.875549],[28.903091,37.875325],[28.903343,37.875321],[28.903688,37.875528],[28.904064,37.875591],[28.904094,37.876049],[28.904308,37.876633],[28.904469,37.877156],[28.90451,37.877418],[28.904397,37.878185],[28.904942,37.878573],[28.905379,37.879084],[28.905493,37.879646],[28.905429,37.880236],[28.90528,37.880586],[28.905762,37.88105],[28.906095,37.881282],[28.906505,37.881169],[28.907378,37.880222],[28.907796,37.880182],[28.907969,37.879932],[28.908153,37.879843],[28.908503,37.879044],[28.908883,37.87899],[28.908601,37.878067],[28.908727,37.877892],[28.908696,37.877586],[28.909119,37.877501],[28.909121,37.877293],[28.909642,37.877186],[28.909629,37.876896],[28.909245,37.876578],[28.909398,37.876399],[28.909407,37.876277],[28.909461,37.876237],[28.909593,37.876208],[28.909717,37.875818],[28.909635,37.875667],[28.909868,37.87553]]]]}},{"type":"Feature","properties":{"id":"TR-Y-20-002-M-0012","level":"yerlesim","type":"mahalle","parent_id":"TR-D-20-002","province_id":"TR-P-20","province_name":"Denizli","district_id":"TR-D-20-002","name":"Yeniköy","source_raw_name":"Yeniköy","source":"Kamu kaynak","source_only":false},"geometry":{"type":"MultiPolygon","coordinates":[[[[28.874627,37.817856],[28.875288,37.81752],[28.875281,37.817506],[28.875607,37.817381],[28.876164,37.81714],[28.875875,37.816874],[28.875894,37.816585],[28.875303,37.816124],[28.875863,37.815856],[28.876793,37.815779],[28.879217,37.814277],[28.879515,37.814367],[28.880379,37.814238],[28.882246,37.814582],[28.88344,37.813515],[28.885277,37.812184],[28.886794,37.810714],[28.887703,37.810442],[28.887706,37.810245],[28.887502,37.810025],[28.887232,37.80983],[28.887134,37.809653],[28.886583,37.809569],[28.886638,37.809262],[28.886955,37.809155],[28.885713,37.808259],[28.885372,37.807755],[28.885417,37.807437],[28.885406,37.805058],[28.885328,37.8042],[28.884723,37.802425],[28.884576,37.801277],[28.88479,37.800359],[28.884651,37.800049],[28.883718,37.799261],[28.884151,37.798829],[28.883617,37.798572],[28.883249,37.798016],[28.883054,37.797247],[28.883237,37.79645],[28.883148,37.795179],[28.882978,37.794194],[28.883002,37.793131],[28.8832,37.792848],[28.883593,37.792689],[28.885209,37.792234],[28.885491,37.791684],[28.885265,37.790482],[28.885489,37.790001],[28.885815,37.789113],[28.885795,37.788708],[28.885718,37.788378],[28.885301,37.787884],[28.884732,37.787329],[28.884439,37.786919],[28.883971,37.785765],[28.883668,37.78483],[28.883514,37.783578],[28.883427,37.783319],[28.882848,37.78267],[28.882108,37.781452],[28.881454,37.780107],[28.880903,37.778796],[28.880723,37.778157],[28.880256,37.777308],[28.879995,37.777015],[28.879264,37.775756],[28.877715,37.773889],[28.877419,37.773083],[28.877219,37.771774],[28.877004,37.771329],[28.876094,37.77032],[28.874841,37.769265],[28.872886,37.767628],[28.872131,37.767265],[28.870937,37.766898],[28.869951,37.766758],[28.869458,37.76666],[28.868656,37.766381],[28.868656,37.766381],[28.86793,37.767951],[28.867312,37.769763],[28.866769,37.772009],[28.866425,37.775548],[28.865218,37.77828],[28.865196,37.78148],[28.866087,37.782934],[28.866401,37.784235],[28.866391,37.784828],[28.867159,37.78644],[28.867387,37.786885],[28.867486,37.787145],[28.867562,37.787215],[28.86768,37.787658],[28.868498,37.788514],[28.868707,37.7892],[28.868733,37.789726],[28.868663,37.790496],[28.868469,37.790874],[28.868516,37.792682],[28.868612,37.793038],[28.870771,37.794654],[28.870995,37.794924],[28.871141,37.796157],[28.870858,37.797113],[28.868828,37.798976],[28.868178,37.799595],[28.867605,37.7994],[28.866871,37.79989],[28.865612,37.799955],[28.864183,37.80035],[28.863435,37.800655],[28.862982,37.801077],[28.863505,37.801778],[28.864519,37.802183],[28.864858,37.802208],[28.865715,37.803342],[28.865702,37.803966],[28.86578,37.804124],[28.866591,37.803938],[28.866791,37.804164],[28.867033,37.804058],[28.867101,37.805464],[28.867261,37.806251],[28.867906,37.807547],[28.868304,37.808153],[28.867912,37.808527],[28.867663,37.808401],[28.86739,37.808887],[28.867462,37.809005],[28.867209,37.809305],[28.866583,37.809451],[28.866226,37.809338],[28.866049,37.809414],[28.866291,37.809541],[28.866648,37.809619],[28.866674,37.810166],[28.866594,37.810336],[28.86699,37.810473],[28.867711,37.810404],[28.868418,37.810787],[28.86891,37.811015],[28.869079,37.811565],[28.869917,37.812507],[28.869988,37.812697],[28.870571,37.813053],[28.871124,37.813712],[28.872651,37.815044],[28.872987,37.815241],[28.872946,37.815607],[28.87317,37.815897],[28.873293,37.816208],[28.873415,37.8165],[28.873484,37.816722],[28.873234,37.816908],[28.87333,37.81717],[28.873463,37.8174],[28.8733,37.817504],[28.873069,37.817478],[28.873204,37.817749],[28.873412,37.817918],[28.873848,37.817971],[28.87403,37.81813],[28.874193,37.818109],[28.874381,37.818003],[28.874627,37.817856]]]]}}]}