{"type":"FeatureCollection","name":"turkiye_map.dist.mahalle_geometrileri_by_district.TR-D-34-012","features":[{"type":"Feature","properties":{"id":"TR-Y-34-012-M-0001","level":"yerlesim","type":"mahalle","parent_id":"TR-D-34-012","province_id":"TR-P-34","district_id":"TR-D-34-012","name":"Adnan Kahveci","source_raw_name":"ADNAN KAHVECİ","source":"Kullanıcı tarafından sağlanan KML","source_label":"Kullanıcı tarafından sağlanan KML","source_name":"Istanbul Mahalle KML"},"geometry":{"type":"Polygon","coordinates":[[[28.642765,40.992805],[28.643082,40.991917],[28.643121,40.991283],[28.64301,40.990303],[28.640178,40.990702],[28.638998,40.99051],[28.637088,40.990479],[28.635973,40.990223],[28.635744,40.990221],[28.633798,40.990592],[28.632922,40.990928],[28.632328,40.991138],[28.631246,40.989912],[28.631941,40.989444],[28.632193,40.988169],[28.632362,40.987616],[28.632399,40.987411],[28.632219,40.986554],[28.631975,40.985395],[28.630075,40.98599],[28.629321,40.98623],[28.628412,40.986484],[28.627948,40.986593],[28.627757,40.986635],[28.62688,40.986809],[28.626458,40.986881],[28.62632,40.98692],[28.626185,40.986972],[28.625395,40.987271],[28.624519,40.987637],[28.623339,40.988073],[28.622084,40.988565],[28.621385,40.988856],[28.620857,40.989083],[28.620446,40.989257],[28.620322,40.989321],[28.619822,40.989495],[28.61932,40.989622],[28.61861,40.989575],[28.618122,40.989602],[28.617792,40.989679],[28.616968,40.990106],[28.616696,40.990203],[28.616361,40.99029],[28.615957,40.990383],[28.615666,40.99046],[28.615119,40.990643],[28.614842,40.99083],[28.614598,40.991006],[28.614045,40.991422],[28.613884,40.991569],[28.613793,40.991607],[28.613411,40.991663],[28.613339,40.991661],[28.613028,40.991668],[28.612643,40.991732],[28.612655,40.991749],[28.612814,40.991969],[28.613352,40.992349],[28.6141,40.992877],[28.614155,40.993128],[28.614663,40.995764],[28.614737,40.99626],[28.614826,40.996414],[28.615075,40.996718],[28.616358,40.998025],[28.617628,40.99937],[28.617895,40.99971],[28.619046,41.00233],[28.6192,41.002578],[28.620058,41.003979],[28.620116,41.004044],[28.624961,41.008804],[28.625512,41.009417],[28.625724,41.009478],[28.625899,41.009521],[28.625909,41.009807],[28.625915,41.010279],[28.625941,41.011524],[28.625988,41.014486],[28.625997,41.014849],[28.626583,41.016739],[28.63179,41.016449],[28.631782,41.016401],[28.632597,41.014925],[28.633589,41.013601],[28.633647,41.013291],[28.633691,41.012886],[28.633933,41.012318],[28.63418,41.011219],[28.634542,41.010294],[28.635421,41.008069],[28.635456,41.006371],[28.635475,41.005849],[28.635681,41.005492],[28.63614,41.004753],[28.636194,41.004471],[28.63639,41.003985],[28.636476,41.003743],[28.636512,41.003456],[28.636624,41.002722],[28.636679,41.002498],[28.636977,41.001893],[28.637751,41.001004],[28.638793,41.000326],[28.639673,40.998933],[28.640144,40.998181],[28.641228,40.997451],[28.641708,40.996967],[28.641851,40.996257],[28.64191,40.996247],[28.642101,40.995321],[28.64243,40.993965],[28.642765,40.992805]]]}},{"type":"Feature","properties":{"id":"TR-Y-34-012-M-0002","level":"yerlesim","type":"mahalle","parent_id":"TR-D-34-012","province_id":"TR-P-34","district_id":"TR-D-34-012","name":"Barış","source_raw_name":"BARIŞ","source":"Kullanıcı tarafından sağlanan KML","source_label":"Kullanıcı tarafından sağlanan KML","source_name":"Istanbul Mahalle KML"},"geometry":{"type":"Polygon","coordinates":[[[28.659137,41.00867],[28.659145,41.008454],[28.659253,41.008078],[28.659341,41.007895],[28.659353,41.006735],[28.659327,41.00616],[28.659341,41.005601],[28.659335,41.005277],[28.659338,41.004563],[28.659376,41.003146],[28.659046,41.002076],[28.659033,41.001672],[28.659031,41.001538],[28.659037,41.001283],[28.658929,41.001153],[28.658406,41.000579],[28.65748,40.999626],[28.657031,40.999015],[28.656848,40.998443],[28.656443,40.997467],[28.656265,40.997162],[28.655884,40.99681],[28.655498,40.996189],[28.655001,40.995669],[28.65441,40.994783],[28.654068,40.993982],[28.654104,40.993714],[28.65436,40.993722],[28.654185,40.993442],[28.653979,40.993113],[28.653033,40.991469],[28.652008,40.990029],[28.650216,40.987429],[28.649405,40.986107],[28.649076,40.985412],[28.648873,40.985211],[28.648041,40.985328],[28.647469,40.986075],[28.646091,40.987161],[28.644872,40.988211],[28.643721,40.989918],[28.64301,40.990303],[28.643121,40.991283],[28.643082,40.991917],[28.642765,40.992805],[28.64243,40.993965],[28.642101,40.995321],[28.64191,40.996247],[28.642491,40.996775],[28.642829,40.997082],[28.643194,40.997495],[28.643541,40.997911],[28.644141,40.998512],[28.644201,40.99852],[28.644431,40.998734],[28.64485,40.999128],[28.645161,40.999419],[28.645714,40.999953],[28.646129,41.000352],[28.64729,41.001442],[28.648746,41.002806],[28.649248,41.003793],[28.649794,41.004843],[28.650117,41.005448],[28.649578,41.006704],[28.649406,41.007104],[28.649314,41.007463],[28.649298,41.007715],[28.649408,41.008723],[28.649462,41.009047],[28.650192,41.010714],[28.650614,41.011772],[28.650746,41.011895],[28.659137,41.00867]]]}},{"type":"Feature","properties":{"id":"TR-Y-34-012-M-0003","level":"yerlesim","type":"mahalle","parent_id":"TR-D-34-012","province_id":"TR-P-34","district_id":"TR-D-34-012","name":"Büyükşehir","source_raw_name":"BÜYÜKŞEHİR","source":"Kullanıcı tarafından sağlanan KML","source_label":"Kullanıcı tarafından sağlanan KML","source_name":"Istanbul Mahalle KML"},"geometry":{"type":"Polygon","coordinates":[[[28.644592,41.014257],[28.645863,41.01377],[28.64684,41.013396],[28.650746,41.011895],[28.650614,41.011772],[28.650192,41.010714],[28.649462,41.009047],[28.649408,41.008723],[28.649298,41.007715],[28.649314,41.007463],[28.649406,41.007104],[28.649578,41.006704],[28.650117,41.005448],[28.649794,41.004843],[28.649248,41.003793],[28.648746,41.002806],[28.64729,41.001442],[28.646129,41.000352],[28.645714,40.999953],[28.645161,40.999419],[28.64485,40.999128],[28.644431,40.998734],[28.644201,40.99852],[28.644141,40.998512],[28.643541,40.997911],[28.643194,40.997495],[28.642829,40.997082],[28.642491,40.996775],[28.64191,40.996247],[28.641851,40.996257],[28.641708,40.996967],[28.641228,40.997451],[28.640144,40.998181],[28.639673,40.998933],[28.638793,41.000326],[28.637751,41.001004],[28.636977,41.001893],[28.636679,41.002498],[28.636624,41.002722],[28.636512,41.003456],[28.63746,41.004003],[28.638118,41.003406],[28.63869,41.002848],[28.639295,41.002446],[28.640528,41.001794],[28.641253,41.001414],[28.641731,41.001147],[28.642016,41.001026],[28.642757,41.002443],[28.643426,41.003645],[28.643585,41.004071],[28.643649,41.004448],[28.643631,41.004944],[28.643555,41.0063],[28.643457,41.007519],[28.643347,41.009047],[28.643534,41.009667],[28.643661,41.010088],[28.643805,41.010565],[28.644169,41.011687],[28.644345,41.012245],[28.64303,41.012751],[28.643303,41.013158],[28.643986,41.014286],[28.644088,41.01445],[28.644163,41.014421],[28.644166,41.01442],[28.644592,41.014257]]]}},{"type":"Feature","properties":{"id":"TR-Y-34-012-M-0004","level":"yerlesim","type":"mahalle","parent_id":"TR-D-34-012","province_id":"TR-P-34","district_id":"TR-D-34-012","name":"Cumhuriyet","source_raw_name":"CUMHURİYET","source":"Kullanıcı tarafından sağlanan KML","source_label":"Kullanıcı tarafından sağlanan KML","source_name":"Istanbul Mahalle KML"},"geometry":{"type":"Polygon","coordinates":[[[28.644088,41.01445],[28.643986,41.014286],[28.643303,41.013158],[28.64303,41.012751],[28.644345,41.012245],[28.644169,41.011687],[28.643805,41.010565],[28.643661,41.010088],[28.643534,41.009667],[28.643347,41.009047],[28.643457,41.007519],[28.643555,41.0063],[28.643631,41.004944],[28.643649,41.004448],[28.643585,41.004071],[28.643426,41.003645],[28.642757,41.002443],[28.642016,41.001026],[28.641731,41.001147],[28.641253,41.001414],[28.640528,41.001794],[28.639295,41.002446],[28.63869,41.002848],[28.638118,41.003406],[28.63746,41.004003],[28.636512,41.003456],[28.636476,41.003743],[28.63639,41.003985],[28.636194,41.004471],[28.63614,41.004753],[28.635681,41.005492],[28.635475,41.005849],[28.635456,41.006371],[28.635421,41.008069],[28.634542,41.010294],[28.63418,41.011219],[28.633933,41.012318],[28.633691,41.012886],[28.633647,41.013291],[28.633589,41.013601],[28.632597,41.014925],[28.631782,41.016401],[28.63179,41.016449],[28.631885,41.017068],[28.632207,41.017536],[28.633083,41.018489],[28.633243,41.018623],[28.633245,41.018625],[28.633935,41.018363],[28.644088,41.01445]]]}},{"type":"Feature","properties":{"id":"TR-Y-34-012-M-0005","level":"yerlesim","type":"mahalle","parent_id":"TR-D-34-012","province_id":"TR-P-34","district_id":"TR-D-34-012","name":"Dereağzı","source_raw_name":"DEREAĞZI","source":"Kullanıcı tarafından sağlanan KML","source_label":"Kullanıcı tarafından sağlanan KML","source_name":"Istanbul Mahalle KML"},"geometry":{"type":"Polygon","coordinates":[[[28.614842,40.99083],[28.615119,40.990643],[28.615666,40.99046],[28.615957,40.990383],[28.616361,40.99029],[28.616696,40.990203],[28.616968,40.990106],[28.617792,40.989679],[28.618122,40.989602],[28.61861,40.989575],[28.61932,40.989622],[28.619822,40.989495],[28.620322,40.989321],[28.620446,40.989257],[28.620857,40.989083],[28.621385,40.988856],[28.622084,40.988565],[28.623339,40.988073],[28.624519,40.987637],[28.625395,40.987271],[28.626185,40.986972],[28.62632,40.98692],[28.626458,40.986881],[28.62688,40.986809],[28.627757,40.986635],[28.627948,40.986593],[28.628412,40.986484],[28.629321,40.98623],[28.630075,40.98599],[28.631975,40.985395],[28.631258,40.984627],[28.631523,40.984474],[28.63163,40.984305],[28.631433,40.984075],[28.631202,40.983583],[28.630296,40.982091],[28.630108,40.981937],[28.629675,40.981617],[28.629087,40.981345],[28.629102,40.980826],[28.629143,40.979641],[28.629895,40.979674],[28.629224,40.979192],[28.62893,40.978577],[28.629243,40.978512],[28.629818,40.978486],[28.629838,40.978404],[28.629784,40.978042],[28.629734,40.977898],[28.629651,40.977478],[28.629627,40.97735],[28.629571,40.97691],[28.629546,40.976823],[28.629519,40.976666],[28.629416,40.976471],[28.629226,40.97622],[28.629023,40.97592],[28.628876,40.975795],[28.629367,40.975191],[28.629666,40.974854],[28.630055,40.974403],[28.630284,40.974148],[28.630717,40.973655],[28.630901,40.973454],[28.631151,40.972907],[28.631154,40.972754],[28.63119,40.972171],[28.631382,40.971606],[28.631436,40.971447],[28.631713,40.971099],[28.632086,40.970624],[28.632182,40.970444],[28.631693,40.970232],[28.631524,40.969823],[28.632163,40.969418],[28.632829,40.969041],[28.632167,40.968654],[28.632014,40.968562],[28.632113,40.968469],[28.632489,40.968261],[28.632512,40.968235],[28.632666,40.968219],[28.632794,40.968216],[28.632873,40.968141],[28.633013,40.967944],[28.633193,40.967706],[28.633271,40.96762],[28.633348,40.967563],[28.633623,40.96745],[28.633603,40.967406],[28.633601,40.967404],[28.633565,40.967353],[28.633419,40.967148],[28.633316,40.96701],[28.63314,40.966818],[28.632993,40.966702],[28.63273,40.966599],[28.632307,40.966514],[28.632609,40.966241],[28.633307,40.965729],[28.633093,40.965574],[28.632665,40.965262],[28.632315,40.965088],[28.632168,40.965015],[28.63287,40.964279],[28.633198,40.963946],[28.633028,40.963854],[28.63222,40.96348],[28.631685,40.963296],[28.631166,40.962627],[28.630993,40.962255],[28.630512,40.962058],[28.630287,40.961759],[28.630249,40.961438],[28.630179,40.961426],[28.630086,40.961419],[28.629566,40.961529],[28.628762,40.961665],[28.62803,40.961726],[28.627735,40.96171],[28.627378,40.961702],[28.627271,40.961718],[28.627081,40.961734],[28.627085,40.961788],[28.626208,40.96185],[28.626025,40.961858],[28.625752,40.961825],[28.625539,40.961768],[28.625236,40.96164],[28.624991,40.961527],[28.624969,40.961494],[28.62484,40.961429],[28.624607,40.961406],[28.624163,40.961402],[28.623655,40.961325],[28.623442,40.961321],[28.623055,40.961212],[28.622804,40.961074],[28.622665,40.961036],[28.622544,40.961033],[28.622433,40.961026],[28.622325,40.960968],[28.622226,40.960931],[28.622044,40.960902],[28.621857,40.960905],[28.621603,40.960865],[28.621533,40.960788],[28.62148,40.960785],[28.621484,40.96072],[28.62144,40.960723],[28.621433,40.960783],[28.621021,40.960754],[28.620756,40.960802],[28.619875,40.961008],[28.619474,40.961119],[28.619169,40.961294],[28.618534,40.96154],[28.617691,40.961795],[28.616921,40.961922],[28.616661,40.961927],[28.616504,40.961928],[28.616325,40.961779],[28.616197,40.961751],[28.616024,40.961739],[28.615763,40.961767],[28.615294,40.961885],[28.614985,40.961967],[28.614803,40.962066],[28.614548,40.962227],[28.614343,40.962334],[28.613796,40.962492],[28.613129,40.962676],[28.612632,40.962837],[28.611785,40.963227],[28.611155,40.963476],[28.610962,40.963509],[28.610631,40.963562],[28.610284,40.963614],[28.609842,40.963713],[28.609482,40.963804],[28.609209,40.963902],[28.608852,40.964094],[28.608307,40.964561],[28.608098,40.964707],[28.607688,40.964948],[28.607038,40.965235],[28.606666,40.965361],[28.606275,40.965436],[28.605947,40.965433],[28.605509,40.965344],[28.605099,40.965229],[28.604702,40.965042],[28.603734,40.964346],[28.603605,40.964298],[28.603482,40.964271],[28.601964,40.964194],[28.601893,40.96421],[28.601859,40.96425],[28.601861,40.964296],[28.602283,40.964808],[28.600672,40.96555],[28.600358,40.965145],[28.60018,40.965223],[28.60049,40.965623],[28.599684,40.965988],[28.599379,40.965585],[28.599192,40.965675],[28.599502,40.966069],[28.59882,40.966383],[28.59849,40.965986],[28.598304,40.966064],[28.598617,40.966473],[28.598113,40.966714],[28.597199,40.965547],[28.600273,40.964167],[28.600182,40.964017],[28.597084,40.965429],[28.596353,40.964488],[28.596296,40.964401],[28.596326,40.964292],[28.596403,40.9642],[28.599505,40.962785],[28.600179,40.962477],[28.600582,40.96239],[28.600872,40.962426],[28.601199,40.962567],[28.601403,40.962742],[28.601425,40.96282],[28.601427,40.962933],[28.601607,40.963138],[28.601704,40.963201],[28.601841,40.963221],[28.601948,40.963163],[28.602001,40.963098],[28.602019,40.962973],[28.601547,40.962422],[28.601342,40.962297],[28.601132,40.962211],[28.60085,40.962151],[28.600536,40.962118],[28.600181,40.962179],[28.597753,40.963258],[28.596397,40.963876],[28.59615,40.964004],[28.595986,40.964177],[28.595962,40.964371],[28.595982,40.964559],[28.596726,40.965565],[28.597985,40.967361],[28.59822,40.967745],[28.598207,40.967978],[28.598091,40.968116],[28.597599,40.968503],[28.597427,40.968653],[28.597342,40.968777],[28.597284,40.968898],[28.597412,40.969567],[28.597366,40.969659],[28.597373,40.969736],[28.597454,40.9698],[28.597536,40.969825],[28.59763,40.969811],[28.59771,40.969764],[28.597739,40.969678],[28.597701,40.969609],[28.597577,40.96953],[28.59749,40.969005],[28.597489,40.968877],[28.597518,40.968794],[28.597619,40.968658],[28.597831,40.968488],[28.598126,40.96828],[28.598675,40.968005],[28.598638,40.967909],[28.598819,40.967894],[28.599121,40.968864],[28.59909,40.969017],[28.598674,40.969294],[28.598511,40.969842],[28.598626,40.969867],[28.597801,40.971402],[28.597697,40.97152],[28.59735,40.971727],[28.597143,40.971782],[28.597744,40.972135],[28.597765,40.972145],[28.597792,40.972167],[28.597805,40.972171],[28.597821,40.972184],[28.59787,40.972203],[28.597904,40.97222],[28.597937,40.972233],[28.597957,40.972247],[28.597989,40.972261],[28.598018,40.972279],[28.598035,40.972293],[28.598079,40.972314],[28.59816,40.972383],[28.598209,40.972401],[28.598228,40.972401],[28.598269,40.972408],[28.598301,40.972409],[28.598316,40.972414],[28.598366,40.97242],[28.598394,40.972417],[28.598418,40.972408],[28.598506,40.972415],[28.598545,40.972427],[28.59859,40.972436],[28.598599,40.972443],[28.598601,40.972454],[28.598629,40.972455],[28.598638,40.972462],[28.598664,40.972467],[28.598689,40.972464],[28.598732,40.972468],[28.598752,40.972475],[28.598762,40.972482],[28.598784,40.972488],[28.598813,40.972492],[28.598849,40.9725],[28.598874,40.972509],[28.598934,40.972529],[28.598953,40.972545],[28.598978,40.972559],[28.598988,40.972569],[28.599008,40.97258],[28.599011,40.972598],[28.599043,40.972623],[28.599101,40.972691],[28.599122,40.97272],[28.599198,40.972796],[28.599252,40.972844],[28.599294,40.972864],[28.599315,40.972877],[28.599369,40.972926],[28.599398,40.97294],[28.599491,40.973007],[28.599496,40.973021],[28.59952,40.973047],[28.599543,40.973066],[28.599568,40.973087],[28.599595,40.9731],[28.599625,40.973106],[28.599645,40.973117],[28.599684,40.973144],[28.599809,40.973213],[28.599911,40.973253],[28.599994,40.973274],[28.600059,40.973296],[28.600123,40.973302],[28.600181,40.973324],[28.600252,40.973368],[28.600275,40.973418],[28.600317,40.97347],[28.600324,40.973527],[28.600381,40.973585],[28.600443,40.973628],[28.60057,40.973688],[28.600636,40.973711],[28.600668,40.973733],[28.600713,40.973752],[28.600822,40.97375],[28.600861,40.973738],[28.600961,40.973738],[28.601022,40.973751],[28.601053,40.973771],[28.601093,40.973785],[28.601174,40.97383],[28.601197,40.973876],[28.601204,40.973898],[28.601213,40.973953],[28.601228,40.973997],[28.601259,40.974053],[28.60127,40.974095],[28.601289,40.974142],[28.601312,40.97423],[28.601352,40.974291],[28.601885,40.974777],[28.602204,40.975079],[28.602458,40.975422],[28.602756,40.975504],[28.603141,40.975753],[28.603193,40.975909],[28.60331,40.976056],[28.60376,40.976428],[28.604056,40.97668],[28.604386,40.976876],[28.604444,40.976981],[28.604538,40.977043],[28.604548,40.977059],[28.604551,40.977086],[28.604586,40.977121],[28.604609,40.97714],[28.604642,40.977172],[28.604692,40.977259],[28.60475,40.977315],[28.60481,40.977339],[28.604844,40.977371],[28.604842,40.977391],[28.604891,40.977467],[28.604946,40.977502],[28.604975,40.977524],[28.605009,40.977574],[28.605054,40.977604],[28.605109,40.977632],[28.605159,40.977654],[28.605257,40.977685],[28.605309,40.977712],[28.605407,40.977782],[28.605479,40.977806],[28.605528,40.977878],[28.605592,40.977904],[28.605653,40.977909],[28.605718,40.97793],[28.605787,40.977966],[28.605812,40.977985],[28.605859,40.97802],[28.605903,40.978119],[28.605929,40.978187],[28.605964,40.97826],[28.606003,40.978314],[28.606027,40.978398],[28.606015,40.978476],[28.606069,40.978539],[28.606127,40.97859],[28.60617,40.978657],[28.606183,40.978716],[28.60617,40.978792],[28.606179,40.97883],[28.606248,40.97886],[28.606274,40.978892],[28.606292,40.978935],[28.606369,40.978997],[28.60645,40.979052],[28.606511,40.979076],[28.606583,40.979136],[28.606619,40.979221],[28.606688,40.979338],[28.606678,40.979457],[28.60672,40.979619],[28.606705,40.979676],[28.606711,40.979717],[28.606813,40.979787],[28.606959,40.979828],[28.607053,40.979874],[28.60709,40.979903],[28.607104,40.97993],[28.607087,40.979964],[28.607096,40.980172],[28.607105,40.980224],[28.607166,40.980365],[28.60734,40.98058],[28.60739,40.98065],[28.607361,40.980736],[28.607377,40.980881],[28.607897,40.981336],[28.608341,40.981596],[28.608456,40.981702],[28.608603,40.981781],[28.608677,40.981849],[28.60886,40.982086],[28.608835,40.98215],[28.608862,40.982199],[28.608922,40.982249],[28.608993,40.982262],[28.609039,40.98235],[28.60906,40.982475],[28.60904,40.982715],[28.609089,40.982805],[28.609196,40.982996],[28.609238,40.983111],[28.609315,40.983167],[28.609453,40.983147],[28.609558,40.983186],[28.609578,40.983279],[28.609563,40.983461],[28.6095,40.983553],[28.609524,40.983752],[28.609612,40.984074],[28.609763,40.984191],[28.609914,40.984587],[28.609984,40.984807],[28.610047,40.985001],[28.610127,40.985427],[28.610169,40.985779],[28.610251,40.98621],[28.610222,40.986354],[28.610335,40.986492],[28.610632,40.986986],[28.610694,40.987084],[28.610915,40.987389],[28.611086,40.987609],[28.611358,40.987907],[28.611541,40.988065],[28.612075,40.988487],[28.61246,40.988651],[28.612781,40.988752],[28.612944,40.988824],[28.612929,40.989174],[28.612934,40.989347],[28.612953,40.989433],[28.612998,40.989633],[28.613171,40.990001],[28.613151,40.990087],[28.613178,40.990185],[28.613344,40.990406],[28.613731,40.99083],[28.614042,40.990651],[28.614056,40.991045],[28.614045,40.991422],[28.614598,40.991006],[28.614842,40.99083]]]}},{"type":"Feature","properties":{"id":"TR-Y-34-012-M-0006","level":"yerlesim","type":"mahalle","parent_id":"TR-D-34-012","province_id":"TR-P-34","district_id":"TR-D-34-012","name":"Gürpınar","source_raw_name":"GÜRPINAR","source":"Kullanıcı tarafından sağlanan KML","source_label":"Kullanıcı tarafından sağlanan KML","source_name":"Istanbul Mahalle KML"},"geometry":{"type":"Polygon","coordinates":[[[28.612643,40.991732],[28.613028,40.991668],[28.613339,40.991661],[28.613411,40.991663],[28.613793,40.991607],[28.613884,40.991569],[28.614045,40.991422],[28.614056,40.991045],[28.614042,40.990651],[28.613731,40.99083],[28.613344,40.990406],[28.613178,40.990185],[28.613151,40.990087],[28.613171,40.990001],[28.612998,40.989633],[28.612953,40.989433],[28.612934,40.989347],[28.612929,40.989174],[28.612944,40.988824],[28.612781,40.988752],[28.61246,40.988651],[28.612075,40.988487],[28.611541,40.988065],[28.611358,40.987907],[28.611086,40.987609],[28.610915,40.987389],[28.610694,40.987084],[28.610632,40.986986],[28.610335,40.986492],[28.610222,40.986354],[28.610251,40.98621],[28.610169,40.985779],[28.610127,40.985427],[28.610047,40.985001],[28.609984,40.984807],[28.609914,40.984587],[28.609763,40.984191],[28.609612,40.984074],[28.609524,40.983752],[28.6095,40.983553],[28.609563,40.983461],[28.609578,40.983279],[28.609558,40.983186],[28.609453,40.983147],[28.609315,40.983167],[28.609238,40.983111],[28.609196,40.982996],[28.609089,40.982805],[28.60904,40.982715],[28.60906,40.982475],[28.609039,40.98235],[28.608993,40.982262],[28.608922,40.982249],[28.608862,40.982199],[28.608835,40.98215],[28.60886,40.982086],[28.608677,40.981849],[28.608603,40.981781],[28.608456,40.981702],[28.608341,40.981596],[28.607897,40.981336],[28.607377,40.980881],[28.607361,40.980736],[28.60739,40.98065],[28.60734,40.98058],[28.607166,40.980365],[28.607105,40.980224],[28.607096,40.980172],[28.607087,40.979964],[28.607104,40.97993],[28.60709,40.979903],[28.607053,40.979874],[28.606959,40.979828],[28.606813,40.979787],[28.606711,40.979717],[28.606705,40.979676],[28.60672,40.979619],[28.606678,40.979457],[28.606688,40.979338],[28.606619,40.979221],[28.606583,40.979136],[28.606511,40.979076],[28.60645,40.979052],[28.606369,40.978997],[28.606292,40.978935],[28.606274,40.978892],[28.606248,40.97886],[28.606179,40.97883],[28.60617,40.978792],[28.606183,40.978716],[28.60617,40.978657],[28.606127,40.97859],[28.606069,40.978539],[28.606015,40.978476],[28.606027,40.978398],[28.606003,40.978314],[28.605964,40.97826],[28.605929,40.978187],[28.605903,40.978119],[28.605859,40.97802],[28.605812,40.977985],[28.605787,40.977966],[28.605718,40.97793],[28.605653,40.977909],[28.605592,40.977904],[28.605528,40.977878],[28.605479,40.977806],[28.605407,40.977782],[28.605309,40.977712],[28.605257,40.977685],[28.605159,40.977654],[28.605109,40.977632],[28.605054,40.977604],[28.605009,40.977574],[28.604975,40.977524],[28.604946,40.977502],[28.604891,40.977467],[28.604842,40.977391],[28.604844,40.977371],[28.60481,40.977339],[28.60475,40.977315],[28.604692,40.977259],[28.604642,40.977172],[28.604609,40.97714],[28.604586,40.977121],[28.604551,40.977086],[28.604548,40.977059],[28.604538,40.977043],[28.604444,40.976981],[28.604386,40.976876],[28.604056,40.97668],[28.60376,40.976428],[28.60331,40.976056],[28.603193,40.975909],[28.603141,40.975753],[28.602756,40.975504],[28.602458,40.975422],[28.602204,40.975079],[28.601885,40.974777],[28.601352,40.974291],[28.601312,40.97423],[28.601289,40.974142],[28.60127,40.974095],[28.601259,40.974053],[28.601228,40.973997],[28.601213,40.973953],[28.601204,40.973898],[28.601197,40.973876],[28.601174,40.97383],[28.601093,40.973785],[28.601053,40.973771],[28.601022,40.973751],[28.600961,40.973738],[28.600861,40.973738],[28.600822,40.97375],[28.600713,40.973752],[28.600668,40.973733],[28.600636,40.973711],[28.60057,40.973688],[28.600443,40.973628],[28.600381,40.973585],[28.600324,40.973527],[28.600317,40.97347],[28.600275,40.973418],[28.600252,40.973368],[28.600181,40.973324],[28.600123,40.973302],[28.600059,40.973296],[28.599994,40.973274],[28.599911,40.973253],[28.599809,40.973213],[28.599684,40.973144],[28.599645,40.973117],[28.599625,40.973106],[28.599595,40.9731],[28.599568,40.973087],[28.599543,40.973066],[28.59952,40.973047],[28.599496,40.973021],[28.599491,40.973007],[28.599398,40.97294],[28.599369,40.972926],[28.599315,40.972877],[28.599294,40.972864],[28.599252,40.972844],[28.599198,40.972796],[28.599122,40.97272],[28.599101,40.972691],[28.599043,40.972623],[28.599011,40.972598],[28.599008,40.97258],[28.598988,40.972569],[28.598978,40.972559],[28.598953,40.972545],[28.598934,40.972529],[28.598874,40.972509],[28.598849,40.9725],[28.598813,40.972492],[28.598784,40.972488],[28.598762,40.972482],[28.598752,40.972475],[28.598732,40.972468],[28.598689,40.972464],[28.598664,40.972467],[28.598638,40.972462],[28.598629,40.972455],[28.598601,40.972454],[28.598599,40.972443],[28.59859,40.972436],[28.598545,40.972427],[28.598506,40.972415],[28.598418,40.972408],[28.598394,40.972417],[28.598366,40.97242],[28.598316,40.972414],[28.598301,40.972409],[28.598269,40.972408],[28.598228,40.972401],[28.598209,40.972401],[28.59816,40.972383],[28.598079,40.972314],[28.598035,40.972293],[28.598018,40.972279],[28.597989,40.972261],[28.597957,40.972247],[28.597937,40.972233],[28.597904,40.97222],[28.59787,40.972203],[28.597821,40.972184],[28.597805,40.972171],[28.597792,40.972167],[28.597765,40.972145],[28.597744,40.972135],[28.597143,40.971782],[28.596638,40.97185],[28.596419,40.971942],[28.59619,40.972072],[28.595962,40.972246],[28.595765,40.972398],[28.595017,40.973581],[28.595029,40.97373],[28.595106,40.973939],[28.595373,40.974945],[28.595702,40.975656],[28.596017,40.976286],[28.596149,40.976519],[28.596251,40.976677],[28.596415,40.976907],[28.59651,40.977116],[28.596595,40.977297],[28.596685,40.977449],[28.596762,40.977519],[28.596822,40.977609],[28.596897,40.977706],[28.596978,40.977803],[28.597034,40.977888],[28.597082,40.977984],[28.597152,40.978082],[28.597225,40.978136],[28.597247,40.978167],[28.597303,40.978251],[28.597361,40.978348],[28.597438,40.978429],[28.597515,40.978527],[28.597576,40.978628],[28.597646,40.978717],[28.59772,40.978808],[28.597787,40.978903],[28.597827,40.978969],[28.597869,40.979033],[28.597884,40.979094],[28.597907,40.97912],[28.597944,40.979137],[28.597969,40.979158],[28.597995,40.979199],[28.598029,40.979267],[28.598096,40.979342],[28.598184,40.979424],[28.598274,40.9795],[28.598316,40.979556],[28.598336,40.979613],[28.598342,40.979675],[28.598351,40.979742],[28.598374,40.979803],[28.598471,40.979964],[28.598584,40.980233],[28.598627,40.980319],[28.598831,40.980683],[28.598881,40.980877],[28.598914,40.981049],[28.598884,40.981219],[28.598837,40.981459],[28.598828,40.981504],[28.59882,40.981537],[28.598797,40.981581],[28.598774,40.981607],[28.598721,40.981654],[28.598696,40.981674],[28.598387,40.982551],[28.598353,40.982639],[28.59821,40.982961],[28.598096,40.9832],[28.598054,40.983313],[28.598037,40.983355],[28.598026,40.98339],[28.597984,40.983457],[28.597942,40.983495],[28.597932,40.98351],[28.597827,40.983779],[28.597744,40.984075],[28.597622,40.984372],[28.597488,40.984829],[28.597441,40.985174],[28.597338,40.985561],[28.59734,40.985576],[28.597346,40.985584],[28.597362,40.985592],[28.597405,40.985602],[28.597419,40.985604],[28.597425,40.985613],[28.597424,40.985632],[28.597418,40.985646],[28.597374,40.985711],[28.59736,40.985728],[28.59733,40.985739],[28.59731,40.98574],[28.597283,40.98574],[28.59726,40.985741],[28.597236,40.985744],[28.597219,40.985753],[28.597205,40.985767],[28.597116,40.985985],[28.597112,40.986007],[28.597109,40.986036],[28.597108,40.98606],[28.597106,40.986094],[28.597105,40.986111],[28.597102,40.986121],[28.597093,40.986132],[28.597071,40.986141],[28.597055,40.986144],[28.597039,40.986146],[28.597021,40.986153],[28.596994,40.98617],[28.59696,40.986199],[28.59692,40.986274],[28.596769,40.9866],[28.596596,40.986964],[28.596439,40.987256],[28.596307,40.987478],[28.596231,40.987653],[28.596172,40.987871],[28.596158,40.987939],[28.596155,40.988013],[28.596162,40.988108],[28.596172,40.98847],[28.596179,40.988485],[28.596188,40.988494],[28.596204,40.988501],[28.596219,40.988504],[28.596238,40.988509],[28.596257,40.988519],[28.59627,40.988526],[28.59628,40.988535],[28.596285,40.988546],[28.596286,40.988569],[28.596286,40.988599],[28.596282,40.988684],[28.59628,40.988721],[28.596277,40.988741],[28.596266,40.988759],[28.596255,40.988763],[28.596239,40.988767],[28.596221,40.988771],[28.596209,40.988774],[28.596203,40.98878],[28.596206,40.988813],[28.596216,40.988828],[28.596232,40.988843],[28.596241,40.988846],[28.596262,40.988852],[28.596285,40.988857],[28.596305,40.988863],[28.596321,40.988874],[28.596336,40.988889],[28.596354,40.988911],[28.596373,40.988942],[28.596387,40.988975],[28.596391,40.989007],[28.596391,40.98906],[28.596409,40.989227],[28.596425,40.989537],[28.596443,40.989681],[28.596461,40.9898],[28.596465,40.989901],[28.596463,40.989991],[28.596447,40.990386],[28.596457,40.9904],[28.596463,40.990404],[28.596476,40.990409],[28.596485,40.990411],[28.596509,40.990411],[28.596528,40.990412],[28.596541,40.990412],[28.596557,40.99041],[28.596571,40.990411],[28.596594,40.990414],[28.596616,40.990426],[28.59663,40.990435],[28.596647,40.990463],[28.59668,40.990543],[28.59669,40.990585],[28.596689,40.99061],[28.596682,40.990641],[28.596625,40.990739],[28.596613,40.99075],[28.596605,40.99075],[28.596594,40.990741],[28.596589,40.990732],[28.596582,40.990716],[28.59657,40.990694],[28.596558,40.990675],[28.596545,40.990661],[28.596529,40.990649],[28.596511,40.990644],[28.596493,40.990644],[28.596482,40.990647],[28.596474,40.990654],[28.596471,40.990665],[28.596476,40.990734],[28.596482,40.990787],[28.5965,40.990864],[28.596509,40.990909],[28.59656,40.991093],[28.596593,40.991298],[28.596646,40.991561],[28.596662,40.991711],[28.596701,40.991875],[28.596714,40.991932],[28.59673,40.991963],[28.596752,40.991995],[28.596777,40.992031],[28.596795,40.992066],[28.596883,40.992354],[28.596889,40.992383],[28.596887,40.9924],[28.596875,40.992411],[28.596857,40.99242],[28.596845,40.992425],[28.596836,40.992444],[28.596831,40.99247],[28.5969,40.992783],[28.596966,40.992987],[28.596973,40.993015],[28.596986,40.993038],[28.597001,40.993066],[28.597011,40.993132],[28.597005,40.993205],[28.597,40.993297],[28.597004,40.993397],[28.597057,40.993646],[28.597169,40.99402],[28.597228,40.994201],[28.597313,40.994546],[28.597302,40.994658],[28.59727,40.994788],[28.597264,40.994934],[28.597244,40.9951],[28.597246,40.995173],[28.597227,40.995466],[28.597206,40.995802],[28.597193,40.996008],[28.597198,40.996238],[28.597195,40.99658],[28.597194,40.996726],[28.5972,40.996957],[28.597204,40.996984],[28.597209,40.996986],[28.597575,40.997027],[28.598139,40.997066],[28.600004,40.997179],[28.6003,40.997333],[28.600394,40.997411],[28.600438,40.997472],[28.600652,40.997825],[28.600727,40.997885],[28.600848,40.997946],[28.600934,40.997972],[28.601072,40.997999],[28.60126,40.998027],[28.601522,40.998054],[28.601655,40.998061],[28.601794,40.998058],[28.601904,40.998035],[28.602006,40.998002],[28.602108,40.99793],[28.602132,40.9979],[28.602178,40.99784],[28.602197,40.997779],[28.602204,40.997697],[28.602198,40.997631],[28.602174,40.997545],[28.602096,40.997445],[28.602063,40.997394],[28.602041,40.997324],[28.602039,40.997229],[28.60205,40.997181],[28.602082,40.997127],[28.602675,40.99639],[28.602826,40.996495],[28.60335,40.996934],[28.603554,40.997165],[28.60365,40.997257],[28.603762,40.997324],[28.603874,40.997382],[28.604021,40.997422],[28.604414,40.997513],[28.604568,40.997526],[28.604784,40.997499],[28.60496,40.997404],[28.605274,40.997117],[28.605769,40.996668],[28.606116,40.996278],[28.606312,40.996057],[28.606527,40.99576],[28.607285,40.9948],[28.607439,40.994672],[28.608336,40.994009],[28.608411,40.993883],[28.608628,40.993653],[28.608871,40.99346],[28.610506,40.992388],[28.611143,40.991936],[28.611179,40.991858],[28.611321,40.991873],[28.611487,40.991854],[28.61184,40.991796],[28.612419,40.991716],[28.61253,40.991734],[28.612643,40.991732]]]}},{"type":"Feature","properties":{"id":"TR-Y-34-012-M-0007","level":"yerlesim","type":"mahalle","parent_id":"TR-D-34-012","province_id":"TR-P-34","district_id":"TR-D-34-012","name":"Kavaklı","source_raw_name":"KAVAKLI","source":"Kullanıcı tarafından sağlanan KML","source_label":"Kullanıcı tarafından sağlanan KML","source_name":"Istanbul Mahalle KML"},"geometry":{"type":"Polygon","coordinates":[[[28.666193,40.984968],[28.665987,40.984817],[28.66564,40.984451],[28.665458,40.983985],[28.664854,40.983108],[28.664228,40.982469],[28.664226,40.982407],[28.664011,40.982166],[28.663391,40.981663],[28.66239,40.981036],[28.661546,40.980326],[28.660916,40.979696],[28.65997,40.978731],[28.659868,40.978382],[28.659682,40.977748],[28.659383,40.976322],[28.65925,40.975865],[28.659006,40.975532],[28.658585,40.975655],[28.657768,40.975865],[28.65689,40.976074],[28.65633,40.976218],[28.656049,40.976291],[28.655721,40.976359],[28.655214,40.976465],[28.655062,40.976488],[28.654494,40.976572],[28.654418,40.976583],[28.653527,40.976729],[28.653337,40.976791],[28.652944,40.97692],[28.652688,40.977116],[28.651726,40.977989],[28.651258,40.978494],[28.65078,40.978992],[28.650574,40.979484],[28.650312,40.979964],[28.650183,40.980068],[28.64985,40.980049],[28.649287,40.980091],[28.648315,40.980158],[28.647957,40.979184],[28.647785,40.978616],[28.647757,40.978126],[28.647563,40.977404],[28.647331,40.976667],[28.647292,40.976542],[28.647395,40.97603],[28.647473,40.975684],[28.647584,40.975496],[28.647731,40.975345],[28.648068,40.974904],[28.648152,40.974667],[28.648189,40.974538],[28.648194,40.97439],[28.648195,40.974319],[28.648212,40.974254],[28.648243,40.974178],[28.648314,40.974089],[28.648375,40.974026],[28.648439,40.973959],[28.648491,40.973896],[28.648525,40.973743],[28.648543,40.973522],[28.648518,40.973236],[28.648508,40.973073],[28.648525,40.973007],[28.648469,40.972848],[28.648466,40.972771],[28.648348,40.972471],[28.648307,40.972354],[28.648338,40.972222],[28.648451,40.972094],[28.648647,40.971945],[28.648271,40.971709],[28.647985,40.971565],[28.647531,40.97135],[28.646952,40.971081],[28.64673,40.970976],[28.646336,40.970785],[28.645893,40.970531],[28.645442,40.970217],[28.645099,40.969982],[28.644835,40.96976],[28.644364,40.969481],[28.644158,40.969379],[28.643991,40.969249],[28.643564,40.968898],[28.643449,40.968801],[28.643205,40.968579],[28.643059,40.96837],[28.642944,40.968137],[28.642706,40.967707],[28.642349,40.967394],[28.642054,40.967347],[28.641671,40.96735],[28.639522,40.967126],[28.638619,40.967047],[28.638412,40.966906],[28.638057,40.966687],[28.637769,40.966496],[28.636724,40.965805],[28.636171,40.965652],[28.635609,40.965622],[28.635282,40.965736],[28.634733,40.966083],[28.634329,40.966486],[28.634149,40.966508],[28.633982,40.966658],[28.633861,40.966773],[28.633752,40.966926],[28.633693,40.967045],[28.633655,40.967182],[28.633601,40.967403],[28.633601,40.967404],[28.633603,40.967406],[28.633623,40.96745],[28.633348,40.967563],[28.633271,40.96762],[28.633193,40.967706],[28.633013,40.967944],[28.632873,40.968141],[28.632794,40.968216],[28.632666,40.968219],[28.632512,40.968235],[28.632489,40.968261],[28.632113,40.968469],[28.632014,40.968562],[28.632167,40.968654],[28.632829,40.969041],[28.632163,40.969418],[28.631524,40.969823],[28.631693,40.970232],[28.632182,40.970444],[28.632086,40.970624],[28.631713,40.971099],[28.631436,40.971447],[28.631382,40.971606],[28.63119,40.972171],[28.631154,40.972754],[28.631151,40.972907],[28.630901,40.973454],[28.630717,40.973655],[28.630284,40.974148],[28.630055,40.974403],[28.629666,40.974854],[28.629367,40.975191],[28.628876,40.975795],[28.629023,40.97592],[28.629226,40.97622],[28.629416,40.976471],[28.629519,40.976666],[28.629546,40.976823],[28.629571,40.97691],[28.629627,40.97735],[28.629651,40.977478],[28.629734,40.977898],[28.629784,40.978042],[28.629838,40.978404],[28.629818,40.978486],[28.629243,40.978512],[28.62893,40.978577],[28.629224,40.979192],[28.629895,40.979674],[28.629143,40.979641],[28.629102,40.980826],[28.629087,40.981345],[28.629675,40.981617],[28.630108,40.981937],[28.630296,40.982091],[28.631202,40.983583],[28.631433,40.984075],[28.63163,40.984305],[28.631523,40.984474],[28.631258,40.984627],[28.631975,40.985395],[28.632219,40.986554],[28.632399,40.987411],[28.632362,40.987616],[28.632193,40.988169],[28.631941,40.989444],[28.631246,40.989912],[28.632328,40.991138],[28.632922,40.990928],[28.633798,40.990592],[28.635744,40.990221],[28.635973,40.990223],[28.637088,40.990479],[28.638998,40.99051],[28.640178,40.990702],[28.64301,40.990303],[28.643721,40.989918],[28.644872,40.988211],[28.646091,40.987161],[28.647469,40.986075],[28.648041,40.985328],[28.648873,40.985211],[28.649076,40.985412],[28.649405,40.986107],[28.650216,40.987429],[28.652008,40.990029],[28.653033,40.991469],[28.653979,40.993113],[28.654185,40.993442],[28.65436,40.993722],[28.655334,40.993614],[28.655037,40.992724],[28.655022,40.991213],[28.65533,40.990966],[28.655689,40.990804],[28.656077,40.990567],[28.656407,40.990023],[28.657743,40.989881],[28.662163,40.98975],[28.664697,40.989549],[28.664642,40.988671],[28.66476,40.987667],[28.66492,40.987159],[28.665118,40.986531],[28.665366,40.985823],[28.665578,40.985022],[28.666193,40.984968]]]}},{"type":"Feature","properties":{"id":"TR-Y-34-012-M-0008","level":"yerlesim","type":"mahalle","parent_id":"TR-D-34-012","province_id":"TR-P-34","district_id":"TR-D-34-012","name":"Marmara","source_raw_name":"MARMARA","source":"Kullanıcı tarafından sağlanan KML","source_label":"Kullanıcı tarafından sağlanan KML","source_name":"Istanbul Mahalle KML"},"geometry":{"type":"Polygon","coordinates":[[[28.671252,40.985156],[28.672227,40.984935],[28.672799,40.984807],[28.673113,40.984797],[28.673777,40.984585],[28.674379,40.984344],[28.675026,40.984052],[28.67547,40.983857],[28.675628,40.983821],[28.675981,40.983787],[28.676332,40.983791],[28.677143,40.983805],[28.677419,40.983808],[28.678194,40.983802],[28.679326,40.983826],[28.679565,40.983818],[28.679969,40.983528],[28.680695,40.983013],[28.680909,40.982931],[28.681335,40.982821],[28.682535,40.982552],[28.682831,40.982378],[28.683084,40.981242],[28.683437,40.978557],[28.683506,40.978051],[28.683591,40.977436],[28.683871,40.976557],[28.68407,40.976004],[28.684491,40.974991],[28.684955,40.973938],[28.685097,40.973635],[28.685798,40.972755],[28.68574,40.972632],[28.685763,40.972511],[28.686279,40.971801],[28.686315,40.971519],[28.68631,40.971276],[28.685874,40.970456],[28.685916,40.970335],[28.685807,40.969638],[28.685771,40.969405],[28.685756,40.969312],[28.685866,40.969056],[28.686,40.968747],[28.686016,40.968675],[28.685911,40.968674],[28.685852,40.968671],[28.685812,40.968665],[28.685774,40.968669],[28.685767,40.968672],[28.685767,40.968663],[28.685769,40.968556],[28.685733,40.968555],[28.685733,40.968617],[28.685732,40.968683],[28.685707,40.968691],[28.685646,40.968732],[28.685591,40.968786],[28.685558,40.968832],[28.685502,40.968883],[28.685447,40.968915],[28.68536,40.968946],[28.685266,40.968955],[28.68518,40.968961],[28.685048,40.968944],[28.684647,40.968861],[28.68507,40.964549],[28.684592,40.964415],[28.684671,40.963755],[28.68446,40.963695],[28.684515,40.962874],[28.684138,40.962862],[28.683786,40.966845],[28.681942,40.966717],[28.682307,40.962981],[28.681939,40.962958],[28.681526,40.966695],[28.68032,40.966618],[28.680322,40.96652],[28.679999,40.966513],[28.680339,40.963343],[28.679937,40.9633],[28.679575,40.966601],[28.679101,40.966579],[28.679007,40.967763],[28.678612,40.967747],[28.678593,40.967973],[28.678409,40.967955],[28.678413,40.967755],[28.677971,40.967723],[28.678053,40.966845],[28.678131,40.965892],[28.678415,40.962808],[28.678135,40.962788],[28.677832,40.965935],[28.677588,40.965921],[28.677578,40.966055],[28.676577,40.966012],[28.67658,40.965972],[28.676169,40.96595],[28.676557,40.961359],[28.676237,40.961341],[28.675921,40.964804],[28.67562,40.964787],[28.674811,40.964641],[28.674666,40.964617],[28.67439,40.964605],[28.674666,40.961433],[28.672668,40.961328],[28.672419,40.964079],[28.671594,40.964035],[28.671605,40.963816],[28.670834,40.963792],[28.670908,40.961279],[28.670654,40.961274],[28.670596,40.963668],[28.670459,40.963669],[28.670231,40.963657],[28.670077,40.963667],[28.669906,40.963669],[28.669906,40.963456],[28.669894,40.963388],[28.669866,40.963344],[28.669827,40.963312],[28.669736,40.96329],[28.669565,40.963285],[28.669369,40.963289],[28.669372,40.963216],[28.669061,40.963213],[28.669066,40.963055],[28.669083,40.962386],[28.669095,40.961949],[28.669149,40.959626],[28.671203,40.958576],[28.672126,40.958092],[28.671978,40.957929],[28.672104,40.957876],[28.672202,40.957812],[28.672286,40.957716],[28.672371,40.957597],[28.672366,40.957491],[28.672321,40.957393],[28.67221,40.957251],[28.672124,40.957217],[28.671914,40.957166],[28.671749,40.957172],[28.671391,40.957201],[28.670845,40.957262],[28.670325,40.957302],[28.66994,40.957309],[28.669284,40.957411],[28.666966,40.957947],[28.666843,40.958029],[28.666769,40.95818],[28.666765,40.958401],[28.666844,40.960891],[28.666206,40.960985],[28.66551,40.961007],[28.66538,40.96095],[28.665073,40.960986],[28.664979,40.960951],[28.664039,40.960913],[28.663234,40.960882],[28.663232,40.96088],[28.663019,40.960895],[28.660992,40.961147],[28.660386,40.961238],[28.660273,40.961219],[28.659644,40.961296],[28.658937,40.96145],[28.658057,40.961624],[28.657742,40.961678],[28.657677,40.961701],[28.657632,40.961732],[28.657613,40.961772],[28.657615,40.961809],[28.657633,40.961841],[28.65769,40.961875],[28.657738,40.961882],[28.657978,40.96185],[28.658405,40.961762],[28.658808,40.961681],[28.659537,40.961536],[28.659978,40.961475],[28.661326,40.961311],[28.662515,40.961155],[28.663269,40.961074],[28.663468,40.961063],[28.663599,40.961066],[28.663751,40.961092],[28.663861,40.961118],[28.664015,40.961157],[28.664584,40.961182],[28.664588,40.961219],[28.664824,40.961194],[28.664848,40.961255],[28.664601,40.961288],[28.664609,40.961337],[28.664628,40.961334],[28.664908,40.962692],[28.662722,40.962987],[28.662252,40.963047],[28.66219,40.962789],[28.660072,40.963077],[28.659907,40.963097],[28.65989,40.962986],[28.659815,40.963022],[28.659809,40.963053],[28.659803,40.963045],[28.659397,40.9631],[28.658938,40.963183],[28.658838,40.9633],[28.658727,40.963557],[28.658267,40.963611],[28.658059,40.963613],[28.657553,40.963602],[28.657148,40.963604],[28.656979,40.963551],[28.656824,40.963466],[28.656642,40.963361],[28.65643,40.963263],[28.656154,40.963128],[28.655911,40.963033],[28.655747,40.962947],[28.655611,40.962895],[28.655556,40.962881],[28.655519,40.962884],[28.655484,40.96288],[28.655443,40.962887],[28.655433,40.962897],[28.655413,40.962897],[28.6554,40.962939],[28.655391,40.96296],[28.655407,40.962991],[28.655465,40.96304],[28.655596,40.963151],[28.655669,40.963206],[28.655708,40.963265],[28.65572,40.963328],[28.655721,40.963358],[28.655691,40.963443],[28.655668,40.96347],[28.655641,40.963492],[28.655631,40.96351],[28.655527,40.963572],[28.655402,40.963601],[28.655327,40.963614],[28.65524,40.963618],[28.655139,40.963624],[28.655021,40.963636],[28.654972,40.963636],[28.654915,40.963626],[28.654891,40.963601],[28.654902,40.963572],[28.654911,40.963544],[28.654899,40.963524],[28.654944,40.963494],[28.654943,40.963477],[28.654927,40.963466],[28.65491,40.963474],[28.654906,40.963489],[28.654879,40.963491],[28.654866,40.963479],[28.654848,40.963467],[28.654833,40.963467],[28.654807,40.963485],[28.654798,40.963496],[28.654758,40.963502],[28.654746,40.963514],[28.654763,40.963537],[28.654754,40.963541],[28.654706,40.963545],[28.654679,40.963551],[28.654666,40.963539],[28.654644,40.963566],[28.654627,40.963568],[28.654625,40.96356],[28.654576,40.963563],[28.654419,40.963547],[28.654346,40.963528],[28.654282,40.963487],[28.654222,40.963457],[28.654153,40.96341],[28.654096,40.963363],[28.654066,40.963285],[28.65407,40.963246],[28.654081,40.963209],[28.654117,40.963129],[28.654173,40.963086],[28.654229,40.963151],[28.654625,40.962942],[28.654604,40.962917],[28.65462,40.962908],[28.6546,40.96289],[28.654816,40.962786],[28.654849,40.96275],[28.654914,40.962637],[28.654968,40.962553],[28.654984,40.962558],[28.656113,40.9613],[28.656073,40.961282],[28.656141,40.961182],[28.656343,40.960989],[28.656617,40.960932],[28.656929,40.960896],[28.657566,40.960875],[28.657727,40.960844],[28.657766,40.960766],[28.657688,40.960658],[28.657529,40.960624],[28.657108,40.960687],[28.656682,40.960743],[28.656327,40.960814],[28.656185,40.960884],[28.656022,40.960996],[28.655849,40.961155],[28.65578,40.961294],[28.654758,40.962458],[28.65469,40.962556],[28.654525,40.96269],[28.65438,40.962786],[28.654283,40.962843],[28.654114,40.962899],[28.653724,40.962902],[28.653283,40.962942],[28.652764,40.962953],[28.651839,40.962915],[28.65186,40.963322],[28.652084,40.964795],[28.652231,40.965616],[28.652365,40.966641],[28.652398,40.966743],[28.650791,40.966762],[28.65064,40.966764],[28.650667,40.966832],[28.650848,40.967297],[28.650903,40.967438],[28.650912,40.96762],[28.650856,40.967755],[28.650646,40.968004],[28.650534,40.968124],[28.650259,40.968421],[28.650176,40.968532],[28.650129,40.968606],[28.650106,40.968766],[28.650178,40.969144],[28.65047,40.970123],[28.650572,40.97032],[28.651179,40.970776],[28.652022,40.971408],[28.652047,40.971509],[28.652194,40.972114],[28.652228,40.972396],[28.65215,40.972814],[28.652112,40.973273],[28.652099,40.973625],[28.653076,40.973768],[28.653463,40.97376],[28.654816,40.973886],[28.656219,40.97406],[28.657137,40.974207],[28.65809,40.974349],[28.658676,40.975258],[28.659006,40.975532],[28.65925,40.975865],[28.659383,40.976322],[28.659682,40.977748],[28.659868,40.978382],[28.65997,40.978731],[28.660916,40.979696],[28.661546,40.980326],[28.66239,40.981036],[28.663391,40.981663],[28.664011,40.982166],[28.664226,40.982407],[28.664228,40.982469],[28.664854,40.983108],[28.665458,40.983985],[28.66564,40.984451],[28.665987,40.984817],[28.666193,40.984968],[28.667099,40.984961],[28.668855,40.985041],[28.66899,40.985048],[28.670785,40.985164],[28.671252,40.985156]]]}},{"type":"Feature","properties":{"id":"TR-Y-34-012-M-0009","level":"yerlesim","type":"mahalle","parent_id":"TR-D-34-012","province_id":"TR-P-34","district_id":"TR-D-34-012","name":"Sahil","source_raw_name":"SAHİL","source":"Kullanıcı tarafından sağlanan KML","source_label":"Kullanıcı tarafından sağlanan KML","source_name":"Istanbul Mahalle KML"},"geometry":{"type":"Polygon","coordinates":[[[28.659006,40.975532],[28.658676,40.975258],[28.65809,40.974349],[28.657137,40.974207],[28.656219,40.97406],[28.654816,40.973886],[28.653463,40.97376],[28.653076,40.973768],[28.652099,40.973625],[28.652112,40.973273],[28.65215,40.972814],[28.652228,40.972396],[28.652194,40.972114],[28.652047,40.971509],[28.652022,40.971408],[28.651179,40.970776],[28.650572,40.97032],[28.65047,40.970123],[28.650178,40.969144],[28.650106,40.968766],[28.650129,40.968606],[28.650176,40.968532],[28.650259,40.968421],[28.650534,40.968124],[28.650646,40.968004],[28.650856,40.967755],[28.650912,40.96762],[28.650903,40.967438],[28.650848,40.967297],[28.650667,40.966832],[28.65064,40.966764],[28.650791,40.966762],[28.652398,40.966743],[28.652365,40.966641],[28.652231,40.965616],[28.652084,40.964795],[28.65186,40.963322],[28.651839,40.962915],[28.651326,40.962863],[28.650829,40.962845],[28.650192,40.962781],[28.650119,40.962793],[28.650027,40.962804],[28.649971,40.962804],[28.649848,40.962807],[28.64975,40.962805],[28.649531,40.962791],[28.649406,40.962789],[28.649252,40.962783],[28.649055,40.962788],[28.648957,40.962793],[28.648865,40.962799],[28.648593,40.962844],[28.648443,40.96287],[28.648324,40.962881],[28.648234,40.962896],[28.648169,40.962905],[28.648063,40.962909],[28.647962,40.962904],[28.647791,40.962883],[28.647701,40.962873],[28.6476,40.962864],[28.647481,40.962855],[28.64739,40.962855],[28.647282,40.962871],[28.647233,40.962881],[28.647182,40.962887],[28.646997,40.962898],[28.646799,40.962899],[28.64658,40.962885],[28.646403,40.962871],[28.646297,40.962855],[28.64619,40.962831],[28.646131,40.962814],[28.645796,40.962748],[28.645655,40.962713],[28.645602,40.962702],[28.645522,40.962681],[28.645414,40.96265],[28.645363,40.962634],[28.645252,40.962588],[28.645133,40.962537],[28.645028,40.962509],[28.644967,40.962498],[28.644798,40.962482],[28.644693,40.962464],[28.644655,40.962451],[28.644609,40.962439],[28.644508,40.962423],[28.644459,40.962421],[28.644393,40.962423],[28.644313,40.962427],[28.644174,40.962444],[28.644033,40.96245],[28.643899,40.962457],[28.643731,40.962465],[28.643647,40.962463],[28.643458,40.962453],[28.643311,40.962451],[28.643154,40.962448],[28.643042,40.962451],[28.64289,40.962451],[28.642805,40.962441],[28.642719,40.962431],[28.642625,40.962416],[28.642532,40.962416],[28.642458,40.96242],[28.642403,40.962422],[28.642299,40.962435],[28.642196,40.962443],[28.642045,40.962449],[28.641656,40.962493],[28.641475,40.962514],[28.641218,40.962538],[28.641068,40.962544],[28.640985,40.962545],[28.640898,40.962544],[28.640856,40.962533],[28.640815,40.962531],[28.640756,40.962523],[28.640718,40.962502],[28.640688,40.962501],[28.640645,40.962507],[28.640594,40.962499],[28.640524,40.962475],[28.640452,40.962462],[28.640369,40.962441],[28.640343,40.962432],[28.640313,40.962433],[28.640265,40.962422],[28.640225,40.96241],[28.640224,40.962367],[28.64021,40.962304],[28.640032,40.962388],[28.639977,40.962383],[28.639836,40.962377],[28.639753,40.962389],[28.639693,40.962393],[28.639666,40.96239],[28.639651,40.962406],[28.639519,40.962412],[28.63924,40.962435],[28.63919,40.962442],[28.63911,40.962456],[28.63906,40.96246],[28.63896,40.962458],[28.638825,40.962461],[28.638744,40.962472],[28.638711,40.962474],[28.638667,40.962479],[28.638633,40.962478],[28.638524,40.962473],[28.638481,40.962471],[28.638447,40.962468],[28.638375,40.962477],[28.638316,40.962473],[28.638279,40.962465],[28.63825,40.962466],[28.63814,40.962471],[28.638111,40.962468],[28.638073,40.962463],[28.638038,40.962447],[28.638009,40.962441],[28.637995,40.962441],[28.63798,40.962455],[28.637938,40.962454],[28.637903,40.96245],[28.637881,40.962443],[28.637878,40.962425],[28.637858,40.962412],[28.637827,40.962408],[28.637788,40.962401],[28.637762,40.962366],[28.637746,40.962351],[28.63772,40.96237],[28.637685,40.962358],[28.637666,40.962368],[28.637627,40.962368],[28.637616,40.962371],[28.637586,40.962377],[28.637549,40.962383],[28.637473,40.962382],[28.637435,40.962377],[28.637361,40.962352],[28.637343,40.962351],[28.637323,40.962346],[28.637304,40.962321],[28.637293,40.962309],[28.637273,40.962313],[28.637237,40.962297],[28.637184,40.962285],[28.637153,40.962277],[28.63707,40.962271],[28.63705,40.962292],[28.637008,40.962309],[28.636981,40.96232],[28.636974,40.962304],[28.636966,40.962284],[28.636945,40.962283],[28.636944,40.962296],[28.636934,40.962303],[28.636184,40.962149],[28.635763,40.962139],[28.635436,40.961983],[28.635029,40.961902],[28.634079,40.961781],[28.633563,40.961801],[28.632962,40.961809],[28.632559,40.961752],[28.632231,40.961681],[28.63183,40.961631],[28.630794,40.961495],[28.630434,40.961439],[28.630367,40.961443],[28.630249,40.961438],[28.630287,40.961759],[28.630512,40.962058],[28.630993,40.962255],[28.631166,40.962627],[28.631685,40.963296],[28.63222,40.96348],[28.633028,40.963854],[28.633198,40.963946],[28.63287,40.964279],[28.632168,40.965015],[28.632315,40.965088],[28.632665,40.965262],[28.633093,40.965574],[28.633307,40.965729],[28.632609,40.966241],[28.632307,40.966514],[28.63273,40.966599],[28.632993,40.966702],[28.63314,40.966818],[28.633316,40.96701],[28.633419,40.967148],[28.633565,40.967353],[28.633601,40.967404],[28.633601,40.967403],[28.633655,40.967182],[28.633693,40.967045],[28.633752,40.966926],[28.633861,40.966773],[28.633982,40.966658],[28.634149,40.966508],[28.634329,40.966486],[28.634733,40.966083],[28.635282,40.965736],[28.635609,40.965622],[28.636171,40.965652],[28.636724,40.965805],[28.637769,40.966496],[28.638057,40.966687],[28.638412,40.966906],[28.638619,40.967047],[28.639522,40.967126],[28.641671,40.96735],[28.642054,40.967347],[28.642349,40.967394],[28.642706,40.967707],[28.642944,40.968137],[28.643059,40.96837],[28.643205,40.968579],[28.643449,40.968801],[28.643564,40.968898],[28.643991,40.969249],[28.644158,40.969379],[28.644364,40.969481],[28.644835,40.96976],[28.645099,40.969982],[28.645442,40.970217],[28.645893,40.970531],[28.646336,40.970785],[28.64673,40.970976],[28.646952,40.971081],[28.647531,40.97135],[28.647985,40.971565],[28.648271,40.971709],[28.648647,40.971945],[28.648451,40.972094],[28.648338,40.972222],[28.648307,40.972354],[28.648348,40.972471],[28.648466,40.972771],[28.648469,40.972848],[28.648525,40.973007],[28.648508,40.973073],[28.648518,40.973236],[28.648543,40.973522],[28.648525,40.973743],[28.648491,40.973896],[28.648439,40.973959],[28.648375,40.974026],[28.648314,40.974089],[28.648243,40.974178],[28.648212,40.974254],[28.648195,40.974319],[28.648194,40.97439],[28.648189,40.974538],[28.648152,40.974667],[28.648068,40.974904],[28.647731,40.975345],[28.647584,40.975496],[28.647473,40.975684],[28.647395,40.97603],[28.647292,40.976542],[28.647331,40.976667],[28.647563,40.977404],[28.647757,40.978126],[28.647785,40.978616],[28.647957,40.979184],[28.648315,40.980158],[28.649287,40.980091],[28.64985,40.980049],[28.650183,40.980068],[28.650312,40.979964],[28.650574,40.979484],[28.65078,40.978992],[28.651258,40.978494],[28.651726,40.977989],[28.652688,40.977116],[28.652944,40.97692],[28.653337,40.976791],[28.653527,40.976729],[28.654418,40.976583],[28.654494,40.976572],[28.655062,40.976488],[28.655214,40.976465],[28.655721,40.976359],[28.656049,40.976291],[28.65633,40.976218],[28.65689,40.976074],[28.657768,40.975865],[28.658585,40.975655],[28.659006,40.975532]]]}},{"type":"Feature","properties":{"id":"TR-Y-34-012-M-0010","level":"yerlesim","type":"mahalle","parent_id":"TR-D-34-012","province_id":"TR-P-34","district_id":"TR-D-34-012","name":"Yakuplu","source_raw_name":"YAKUPLU","source":"Kullanıcı tarafından sağlanan KML","source_label":"Kullanıcı tarafından sağlanan KML","source_name":"Istanbul Mahalle KML"},"geometry":{"type":"Polygon","coordinates":[[[28.677906,41.00588],[28.677918,41.005879],[28.679576,41.005839],[28.680602,41.005791],[28.68173,41.005624],[28.682008,41.005551],[28.682851,41.00533],[28.683884,41.004976],[28.68436,41.004733],[28.684597,41.004612],[28.685089,41.004361],[28.685574,41.004051],[28.685709,41.003965],[28.68581,41.003881],[28.68596,41.003791],[28.687075,41.002873],[28.68783,41.002251],[28.687803,41.00224],[28.687524,41.002126],[28.68429,41.001148],[28.684308,41.000434],[28.68431,41.000418],[28.684437,40.999236],[28.684449,40.99913],[28.684493,40.999026],[28.684666,40.998499],[28.685012,40.997453],[28.685298,40.996964],[28.685433,40.996733],[28.685879,40.995522],[28.686011,40.99517],[28.686031,40.995118],[28.686349,40.994273],[28.686842,40.993286],[28.687318,40.992332],[28.687476,40.991745],[28.687516,40.991595],[28.687577,40.991378],[28.687618,40.991224],[28.687626,40.991193],[28.687735,40.990968],[28.687752,40.990743],[28.687738,40.990348],[28.687732,40.990168],[28.687943,40.989937],[28.688668,40.989223],[28.68898,40.988969],[28.689083,40.988886],[28.689377,40.988736],[28.689731,40.988588],[28.689866,40.988517],[28.690162,40.988769],[28.690388,40.988571],[28.690827,40.988202],[28.691218,40.987953],[28.691662,40.987718],[28.692104,40.987562],[28.692203,40.987527],[28.692284,40.987499],[28.692394,40.987424],[28.692514,40.98725],[28.692738,40.987112],[28.692815,40.987109],[28.692978,40.986786],[28.693009,40.986734],[28.693391,40.986395],[28.693456,40.986337],[28.693844,40.98621],[28.694052,40.986142],[28.694449,40.986007],[28.694581,40.985913],[28.694621,40.985864],[28.694647,40.985834],[28.69468,40.985805],[28.694983,40.985616],[28.695174,40.985453],[28.695371,40.985238],[28.695394,40.985202],[28.695598,40.984898],[28.695666,40.984815],[28.695976,40.984471],[28.696356,40.984048],[28.696826,40.983479],[28.697031,40.983044],[28.697092,40.982913],[28.697076,40.982912],[28.697229,40.982516],[28.697437,40.98226],[28.697539,40.982134],[28.697631,40.982021],[28.697705,40.981926],[28.697762,40.981833],[28.697816,40.981741],[28.697898,40.981644],[28.697971,40.981579],[28.698339,40.981098],[28.698689,40.980705],[28.699142,40.980252],[28.699421,40.979973],[28.699478,40.979917],[28.699741,40.979654],[28.700091,40.978851],[28.69998,40.97874],[28.699877,40.978571],[28.69992,40.977776],[28.699942,40.977384],[28.69996,40.977022],[28.699833,40.976911],[28.699529,40.97665],[28.699446,40.976581],[28.699388,40.976531],[28.698657,40.975905],[28.69866,40.975703],[28.698747,40.975012],[28.698802,40.974575],[28.698822,40.974416],[28.698832,40.974333],[28.698849,40.974207],[28.698867,40.974105],[28.699078,40.974093],[28.69925,40.974112],[28.699252,40.974112],[28.699419,40.974109],[28.699461,40.973954],[28.699466,40.973943],[28.699469,40.973916],[28.699473,40.973863],[28.699474,40.973798],[28.699474,40.973798],[28.699486,40.973658],[28.699355,40.973657],[28.698828,40.973663],[28.69844,40.973646],[28.697856,40.973603],[28.697386,40.973536],[28.697315,40.973581],[28.6969,40.973485],[28.69686,40.973386],[28.696834,40.97336],[28.696823,40.973338],[28.696821,40.973317],[28.696826,40.973302],[28.696816,40.97327],[28.696806,40.973249],[28.696793,40.973223],[28.696782,40.973205],[28.696771,40.97319],[28.69674,40.973163],[28.696716,40.973153],[28.696685,40.973141],[28.696654,40.973129],[28.696621,40.973115],[28.696603,40.973105],[28.696579,40.973093],[28.696561,40.973077],[28.696548,40.973066],[28.696534,40.973058],[28.69652,40.973054],[28.696549,40.973013],[28.696532,40.973007],[28.696509,40.973043],[28.696483,40.973044],[28.696476,40.973044],[28.696466,40.973044],[28.696457,40.973043],[28.696437,40.973041],[28.696426,40.973038],[28.696404,40.973032],[28.696383,40.973024],[28.696357,40.973016],[28.696335,40.973005],[28.6963,40.972995],[28.696238,40.972967],[28.696226,40.972959],[28.696206,40.972949],[28.696172,40.972935],[28.696149,40.972925],[28.696124,40.972914],[28.696104,40.972903],[28.69608,40.97289],[28.696068,40.972881],[28.696048,40.97287],[28.696032,40.972863],[28.696035,40.972852],[28.696035,40.972849],[28.695992,40.972831],[28.695987,40.97284],[28.695974,40.972839],[28.695967,40.972837],[28.695961,40.972833],[28.695943,40.972824],[28.695907,40.972808],[28.695894,40.9728],[28.69587,40.972789],[28.695857,40.972782],[28.695835,40.972771],[28.695808,40.972756],[28.695779,40.97274],[28.695754,40.972721],[28.69571,40.972703],[28.695667,40.972678],[28.695634,40.972664],[28.695597,40.972649],[28.695556,40.972627],[28.69553,40.972613],[28.695489,40.972589],[28.695459,40.972576],[28.695448,40.972572],[28.695431,40.972567],[28.695409,40.972551],[28.695371,40.972533],[28.695354,40.972522],[28.69533,40.972514],[28.695308,40.972507],[28.695287,40.972494],[28.695276,40.972488],[28.695264,40.972479],[28.695248,40.972465],[28.695241,40.972453],[28.695243,40.972448],[28.695248,40.972445],[28.695253,40.972438],[28.695252,40.972427],[28.695244,40.972414],[28.69523,40.972395],[28.695231,40.972354],[28.695202,40.972353],[28.695202,40.972274],[28.695131,40.972269],[28.695235,40.971003],[28.695258,40.971004],[28.695262,40.970923],[28.69515,40.970918],[28.695145,40.970989],[28.695158,40.970991],[28.695054,40.972247],[28.695037,40.972255],[28.695029,40.972323],[28.695025,40.972336],[28.69501,40.972356],[28.694998,40.972364],[28.694962,40.972372],[28.694934,40.972375],[28.694902,40.972376],[28.694868,40.972376],[28.694827,40.972376],[28.694761,40.972367],[28.694685,40.972358],[28.694596,40.972348],[28.694535,40.972339],[28.694484,40.972332],[28.694416,40.972325],[28.694363,40.972316],[28.694337,40.972314],[28.694331,40.972316],[28.69434,40.972336],[28.694245,40.972305],[28.694234,40.972291],[28.694208,40.972274],[28.69417,40.972254],[28.694136,40.972246],[28.69407,40.972245],[28.693865,40.972248],[28.693777,40.97226],[28.693586,40.972283],[28.693501,40.97229],[28.693369,40.972304],[28.693248,40.97232],[28.693136,40.972328],[28.693124,40.972329],[28.69312,40.971739],[28.693101,40.971739],[28.693098,40.972331],[28.693083,40.972332],[28.693037,40.972333],[28.692966,40.972332],[28.692865,40.972333],[28.692721,40.972324],[28.692613,40.972311],[28.692539,40.972304],[28.69228,40.972285],[28.692034,40.972261],[28.691858,40.972238],[28.691705,40.972218],[28.691593,40.972196],[28.691497,40.972174],[28.691337,40.972146],[28.691127,40.972099],[28.691024,40.97208],[28.690942,40.972066],[28.690827,40.972037],[28.690724,40.972015],[28.690626,40.971994],[28.69055,40.971976],[28.690478,40.97195],[28.690418,40.971923],[28.690339,40.97188],[28.690295,40.971853],[28.690249,40.971822],[28.690186,40.971785],[28.690147,40.971753],[28.690118,40.971701],[28.690094,40.971646],[28.690077,40.971581],[28.690073,40.971513],[28.690075,40.971455],[28.690066,40.97142],[28.690032,40.971382],[28.689963,40.971324],[28.689882,40.971271],[28.689814,40.971221],[28.68976,40.971148],[28.689709,40.971071],[28.68967,40.971013],[28.689603,40.970915],[28.689541,40.970864],[28.68948,40.970824],[28.689419,40.970797],[28.689329,40.970787],[28.689217,40.97078],[28.689119,40.970779],[28.689004,40.970775],[28.68893,40.970766],[28.688822,40.970756],[28.688727,40.97074],[28.688228,40.970633],[28.687944,40.970543],[28.687846,40.970519],[28.68775,40.970484],[28.687609,40.970441],[28.68748,40.970402],[28.687384,40.970375],[28.687293,40.970335],[28.687214,40.970292],[28.687157,40.970262],[28.687007,40.970163],[28.686955,40.970123],[28.686908,40.970068],[28.686877,40.970031],[28.686866,40.969983],[28.686868,40.969939],[28.686896,40.96989],[28.686923,40.969852],[28.686942,40.969811],[28.686946,40.969691],[28.686931,40.969638],[28.686895,40.969588],[28.686881,40.969542],[28.686871,40.969483],[28.686879,40.969426],[28.686922,40.969344],[28.686936,40.969256],[28.686946,40.969186],[28.686934,40.969109],[28.686922,40.969012],[28.686896,40.9689],[28.686891,40.968856],[28.686891,40.968807],[28.686918,40.968761],[28.686922,40.968733],[28.686924,40.968687],[28.686858,40.968571],[28.686854,40.968545],[28.686842,40.968522],[28.686837,40.968493],[28.68683,40.968467],[28.686802,40.968454],[28.68677,40.968474],[28.686733,40.968503],[28.686695,40.968564],[28.686666,40.968622],[28.686641,40.968661],[28.686608,40.968674],[28.686541,40.968681],[28.686459,40.968681],[28.686392,40.968661],[28.686374,40.968635],[28.686371,40.968609],[28.686326,40.968618],[28.686286,40.968638],[28.68622,40.968664],[28.686171,40.968673],[28.686103,40.968675],[28.686016,40.968675],[28.686,40.968747],[28.685866,40.969056],[28.685756,40.969312],[28.685771,40.969405],[28.685807,40.969638],[28.685916,40.970335],[28.685874,40.970456],[28.68631,40.971276],[28.686315,40.971519],[28.686279,40.971801],[28.685763,40.972511],[28.68574,40.972632],[28.685798,40.972755],[28.685097,40.973635],[28.684955,40.973938],[28.684491,40.974991],[28.68407,40.976004],[28.683871,40.976557],[28.683591,40.977436],[28.683506,40.978051],[28.683437,40.978557],[28.683084,40.981242],[28.682831,40.982378],[28.682535,40.982552],[28.681335,40.982821],[28.680909,40.982931],[28.680695,40.983013],[28.679969,40.983528],[28.679565,40.983818],[28.679326,40.983826],[28.678194,40.983802],[28.677419,40.983808],[28.677143,40.983805],[28.676332,40.983791],[28.675981,40.983787],[28.675628,40.983821],[28.67547,40.983857],[28.675026,40.984052],[28.674379,40.984344],[28.673777,40.984585],[28.673113,40.984797],[28.672799,40.984807],[28.672227,40.984935],[28.671252,40.985156],[28.670785,40.985164],[28.66899,40.985048],[28.668855,40.985041],[28.667099,40.984961],[28.666193,40.984968],[28.665578,40.985022],[28.665366,40.985823],[28.665118,40.986531],[28.66492,40.987159],[28.66476,40.987667],[28.664642,40.988671],[28.664697,40.989549],[28.665642,40.989417],[28.66566,40.990929],[28.665546,40.991137],[28.66539,40.991704],[28.665033,40.992363],[28.664985,40.992567],[28.665213,40.992657],[28.665744,40.992731],[28.6656,40.993112],[28.665549,40.993136],[28.665465,40.993297],[28.665443,40.993327],[28.667073,40.993825],[28.667115,40.994095],[28.666897,40.995317],[28.666852,40.995981],[28.66726,40.997293],[28.667413,40.99738],[28.667656,40.998039],[28.667894,40.998691],[28.668328,40.998526],[28.669194,40.998075],[28.669066,40.998486],[28.668843,40.999303],[28.668852,40.999607],[28.668842,41.000611],[28.668759,41.001033],[28.668619,41.00179],[28.668524,41.002105],[28.668363,41.002334],[28.667997,41.002729],[28.666756,41.003399],[28.66543,41.003978],[28.664451,41.004492],[28.662812,41.005532],[28.661306,41.006493],[28.660684,41.006989],[28.65973,41.008015],[28.659515,41.008055],[28.659341,41.007895],[28.659253,41.008078],[28.659145,41.008454],[28.659137,41.00867],[28.659452,41.00855],[28.659684,41.008461],[28.663023,41.007228],[28.664119,41.006903],[28.664607,41.006758],[28.667071,41.006283],[28.668414,41.006143],[28.669417,41.006093],[28.677906,41.00588]]]}},{"type":"Feature","properties":{"id":"TR-Y-34-012-OSB-BEYLIKDUZUOSB","level":"yerlesim","type":"mahalle","parent_id":"TR-D-34-012","province_id":"TR-P-34","district_id":"TR-D-34-012","name":"Beylikdüzüosb","source_raw_name":"Beylikdüzüosb","source":"Kullanıcı tarafından sağlanan KML","source_label":"Kullanıcı tarafından sağlanan KML","source_name":"Istanbul Mahalle KML","source_only":true,"osb":true},"geometry":{"type":"Polygon","coordinates":[[[28.667997,41.002729],[28.668363,41.002334],[28.668524,41.002105],[28.668619,41.00179],[28.668759,41.001033],[28.668842,41.000611],[28.668852,40.999607],[28.668843,40.999303],[28.669066,40.998486],[28.669194,40.998075],[28.668328,40.998526],[28.667894,40.998691],[28.667656,40.998039],[28.667413,40.99738],[28.66726,40.997293],[28.666852,40.995981],[28.666897,40.995317],[28.667115,40.994095],[28.667073,40.993825],[28.665443,40.993327],[28.665465,40.993297],[28.665549,40.993136],[28.6656,40.993112],[28.665744,40.992731],[28.665213,40.992657],[28.664985,40.992567],[28.665033,40.992363],[28.66539,40.991704],[28.665546,40.991137],[28.66566,40.990929],[28.665642,40.989417],[28.664697,40.989549],[28.662163,40.98975],[28.657743,40.989881],[28.657742,40.989881],[28.656407,40.990023],[28.656076,40.990568],[28.655688,40.990805],[28.65533,40.990966],[28.655022,40.991213],[28.655022,40.991213],[28.655037,40.992724],[28.655334,40.993614],[28.65436,40.993722],[28.654104,40.993714],[28.654068,40.993982],[28.65441,40.994783],[28.655001,40.995669],[28.655498,40.996189],[28.655884,40.99681],[28.656265,40.997162],[28.656443,40.997467],[28.656848,40.998443],[28.657031,40.999015],[28.65748,40.999626],[28.658406,41.000579],[28.658929,41.001153],[28.659037,41.001283],[28.659031,41.001538],[28.659033,41.001672],[28.659046,41.002076],[28.659376,41.003146],[28.659338,41.004563],[28.659335,41.005277],[28.659341,41.005601],[28.659327,41.00616],[28.659353,41.006735],[28.659341,41.007895],[28.659515,41.008055],[28.65973,41.008015],[28.660684,41.006989],[28.661306,41.006493],[28.662812,41.005532],[28.664451,41.004492],[28.66543,41.003978],[28.666756,41.003399],[28.667997,41.002729]]]}}]}