{"type":"FeatureCollection","name":"turkiye_map.dist.mahalle_geometrileri_by_district.TR-D-34-003","features":[{"type":"Feature","properties":{"id":"TR-Y-34-003-M-0001","level":"yerlesim","type":"mahalle","parent_id":"TR-D-34-003","province_id":"TR-P-34","district_id":"TR-D-34-003","name":"Aşık Veysel","source_raw_name":"AŞIKVEYSEL","source":"Kullanıcı tarafından sağlanan KML","source_label":"Kullanıcı tarafından sağlanan KML","source_name":"Istanbul Mahalle KML"},"geometry":{"type":"Polygon","coordinates":[[[29.088512,40.997092],[29.088489,40.99708],[29.088323,40.997325],[29.088309,40.999683],[29.088571,41.000969],[29.088652,41.002516],[29.089138,41.003783],[29.089962,41.004827],[29.090983,41.005709],[29.090947,41.00704],[29.090511,41.0074],[29.090091,41.008064],[29.089517,41.008527],[29.089125,41.009243],[29.088942,41.009485],[29.088914,41.009527],[29.089436,41.009502],[29.090226,41.00943],[29.090502,41.009398],[29.090847,41.009353],[29.091183,41.009302],[29.091476,41.009257],[29.091843,41.009191],[29.092508,41.009055],[29.093125,41.008893],[29.093604,41.008756],[29.094264,41.008548],[29.094694,41.008389],[29.095063,41.008253],[29.095323,41.008142],[29.095409,41.008105],[29.095805,41.007935],[29.096252,41.007723],[29.096618,41.007542],[29.097039,41.007322],[29.097231,41.007219],[29.096435,41.006173],[29.095493,41.005491],[29.094673,41.004764],[29.093843,41.004353],[29.093456,41.004084],[29.093235,41.003795],[29.092257,41.002129],[29.091598,41.001242],[29.090981,41.000307],[29.090388,40.999714],[29.089899,40.999026],[29.089802,40.998276],[29.089389,40.997536],[29.088512,40.997092]]]}},{"type":"Feature","properties":{"id":"TR-Y-34-003-M-0002","level":"yerlesim","type":"mahalle","parent_id":"TR-D-34-003","province_id":"TR-P-34","district_id":"TR-D-34-003","name":"Atatürk","source_raw_name":"ATATÜRK","source":"Kullanıcı tarafından sağlanan KML","source_label":"Kullanıcı tarafından sağlanan KML","source_name":"Istanbul Mahalle KML"},"geometry":{"type":"Polygon","coordinates":[[[29.146661,40.989205],[29.146636,40.989191],[29.146503,40.98913],[29.144245,40.988102],[29.142219,40.987178],[29.14207,40.987125],[29.141932,40.987089],[29.141779,40.987065],[29.14159,40.98705],[29.140447,40.987031],[29.139918,40.98701],[29.139715,40.986996],[29.139617,40.986981],[29.139536,40.986962],[29.139461,40.986942],[29.139348,40.986892],[29.139149,40.986789],[29.138975,40.986681],[29.138654,40.986451],[29.138484,40.98631],[29.136692,40.984608],[29.136411,40.984316],[29.136335,40.984216],[29.136123,40.983898],[29.135827,40.983477],[29.135706,40.983328],[29.135485,40.983131],[29.135073,40.982839],[29.134735,40.982621],[29.134553,40.982517],[29.134028,40.982901],[29.1334,40.983496],[29.132682,40.984286],[29.132618,40.984363],[29.132207,40.984686],[29.131242,40.985297],[29.130021,40.985987],[29.129013,40.986513],[29.12807,40.987],[29.126188,40.988018],[29.12567,40.988183],[29.124348,40.988476],[29.123938,40.988493],[29.123644,40.988481],[29.12347,40.988469],[29.123095,40.988425],[29.122805,40.988371],[29.122505,40.988301],[29.12225,40.988222],[29.121924,40.988116],[29.121179,40.987872],[29.120903,40.987789],[29.120681,40.987754],[29.120484,40.987734],[29.120057,40.987726],[29.118288,40.987687],[29.11672,40.987656],[29.11658,40.987663],[29.11605,40.987708],[29.115582,40.98772],[29.114472,40.987678],[29.113923,40.987638],[29.11218,40.987417],[29.110833,40.987241],[29.110299,40.987169],[29.109664,40.987096],[29.109186,40.987154],[29.108724,40.986571],[29.108392,40.98596],[29.108185,40.985538],[29.108039,40.985383],[29.107893,40.985255],[29.107681,40.985149],[29.107056,40.984863],[29.106624,40.984622],[29.106068,40.985389],[29.105717,40.98569],[29.105649,40.985749],[29.106028,40.986003],[29.106731,40.986493],[29.107233,40.986859],[29.108233,40.987635],[29.108939,40.988221],[29.10979,40.988972],[29.110647,40.989787],[29.111485,40.99067],[29.111985,40.991227],[29.112408,40.991711],[29.112786,40.992143],[29.11616,40.995957],[29.116523,40.995906],[29.118235,40.995737],[29.119156,40.995743],[29.120525,40.995751],[29.121896,40.995807],[29.122978,40.995897],[29.123797,40.995965],[29.124632,40.996068],[29.125729,40.996205],[29.127919,40.996494],[29.129765,40.996727],[29.130016,40.996758],[29.130792,40.996832],[29.130877,40.994627],[29.132157,40.99368],[29.134176,40.993418],[29.135197,40.993692],[29.136776,40.993704],[29.136831,40.993588],[29.137383,40.992842],[29.138207,40.992877],[29.138513,40.99285],[29.1391,40.992974],[29.13994,40.993065],[29.140286,40.993064],[29.140502,40.993018],[29.142599,40.992292],[29.143155,40.992288],[29.143355,40.992259],[29.143607,40.992193],[29.14378,40.992121],[29.14404,40.991989],[29.144364,40.991908],[29.144706,40.991914],[29.145135,40.991659],[29.145246,40.99157],[29.145845,40.990882],[29.146143,40.990543],[29.146218,40.990423],[29.146361,40.990084],[29.146421,40.989816],[29.146527,40.989401],[29.146661,40.989205]]]}},{"type":"Feature","properties":{"id":"TR-Y-34-003-M-0003","level":"yerlesim","type":"mahalle","parent_id":"TR-D-34-003","province_id":"TR-P-34","district_id":"TR-D-34-003","name":"Barbaros","source_raw_name":"BARBAROS","source":"Kullanıcı tarafından sağlanan KML","source_label":"Kullanıcı tarafından sağlanan KML","source_name":"Istanbul Mahalle KML"},"geometry":{"type":"Polygon","coordinates":[[[29.11616,40.995957],[29.112786,40.992143],[29.112408,40.991711],[29.111985,40.991227],[29.111485,40.99067],[29.110647,40.989787],[29.10979,40.988972],[29.108939,40.988221],[29.108233,40.987635],[29.107233,40.986859],[29.106731,40.986493],[29.106028,40.986003],[29.105649,40.985749],[29.104466,40.984979],[29.10277,40.98386],[29.101626,40.98319],[29.101318,40.98304],[29.100885,40.982844],[29.100194,40.982581],[29.099602,40.982401],[29.099151,40.982292],[29.098415,40.982132],[29.09748,40.98196],[29.097206,40.98191],[29.096315,40.98176],[29.095434,40.981594],[29.094882,40.981506],[29.094853,40.981501],[29.093389,40.98286],[29.092352,40.983779],[29.091891,40.984132],[29.091206,40.984657],[29.090489,40.985157],[29.089719,40.985654],[29.089653,40.985696],[29.089676,40.985716],[29.089735,40.98577],[29.08986,40.985929],[29.090038,40.985994],[29.091489,40.986146],[29.092187,40.986237],[29.092641,40.986299],[29.09298,40.98631],[29.093259,40.986312],[29.093442,40.986353],[29.093781,40.986448],[29.094251,40.986591],[29.094763,40.986793],[29.09518,40.986935],[29.095381,40.987009],[29.095382,40.98701],[29.095381,40.987011],[29.095298,40.987071],[29.094477,40.987803],[29.09415,40.988184],[29.093851,40.988444],[29.093705,40.988619],[29.093493,40.988947],[29.093201,40.989357],[29.09283,40.989747],[29.092532,40.989968],[29.092324,40.990169],[29.092118,40.990549],[29.091886,40.990903],[29.091635,40.99109],[29.091807,40.991328],[29.091912,40.991522],[29.092439,40.99182],[29.092595,40.991978],[29.092825,40.992114],[29.092906,40.992203],[29.09275,40.992823],[29.092695,40.993077],[29.092679,40.993251],[29.092703,40.993384],[29.092869,40.99381],[29.092992,40.993978],[29.093231,40.994149],[29.093077,40.994568],[29.093076,40.994762],[29.093004,40.995009],[29.093018,40.995122],[29.092974,40.995187],[29.09287,40.995395],[29.092862,40.995608],[29.092837,40.995674],[29.092747,40.995786],[29.092577,40.99585],[29.092319,40.995659],[29.092118,40.995456],[29.092022,40.995398],[29.091947,40.995377],[29.09166,40.995312],[29.091588,40.995282],[29.091196,40.995038],[29.090985,40.994927],[29.090862,40.994875],[29.090422,40.994928],[29.090406,40.99493],[29.090409,40.994936],[29.090485,40.995115],[29.090661,40.995769],[29.090731,40.995911],[29.090807,40.996033],[29.090899,40.996149],[29.091049,40.996294],[29.092122,40.997122],[29.092283,40.997217],[29.092348,40.99728],[29.092466,40.997379],[29.092532,40.997487],[29.092801,40.997638],[29.09313,40.997816],[29.093506,40.997976],[29.093679,40.998067],[29.093946,40.998239],[29.094032,40.998311],[29.094201,40.998452],[29.094427,40.998702],[29.094488,40.998753],[29.094562,40.998822],[29.094661,40.998888],[29.095067,40.999106],[29.095111,40.999148],[29.095224,40.99923],[29.095364,40.999304],[29.095534,40.999363],[29.095589,40.999397],[29.095639,40.999437],[29.095701,40.999465],[29.095767,40.999455],[29.095847,40.999459],[29.096171,40.999524],[29.096622,40.999666],[29.096886,40.999836],[29.097159,41.000033],[29.097515,41.000272],[29.097713,41.000421],[29.097893,41.000584],[29.098192,41.000818],[29.098376,41.000941],[29.098561,41.001047],[29.09903,41.001229],[29.099551,41.001418],[29.09978,41.001537],[29.100088,41.001769],[29.100211,41.001874],[29.100343,41.001952],[29.100728,41.00208],[29.101107,41.002284],[29.101331,41.002417],[29.101738,41.002813],[29.101891,41.002971],[29.101927,41.00302],[29.102035,41.00314],[29.102265,41.003383],[29.102446,41.00352],[29.103022,41.003057],[29.104882,41.001577],[29.105953,41.000737],[29.106741,41.000119],[29.107732,40.999412],[29.108858,40.998684],[29.110483,40.99778],[29.111408,40.997341],[29.112752,40.996799],[29.113849,40.996444],[29.114615,40.996243],[29.115551,40.996044],[29.11616,40.995957]]]}},{"type":"Feature","properties":{"id":"TR-Y-34-003-M-0004","level":"yerlesim","type":"mahalle","parent_id":"TR-D-34-003","province_id":"TR-P-34","district_id":"TR-D-34-003","name":"Esatpaşa","source_raw_name":"ESATPAŞA","source":"Kullanıcı tarafından sağlanan KML","source_label":"Kullanıcı tarafından sağlanan KML","source_name":"Istanbul Mahalle KML"},"geometry":{"type":"Polygon","coordinates":[[[29.078411,41.006993],[29.078744,41.007116],[29.079836,41.007574],[29.080811,41.007976],[29.082002,41.008433],[29.082517,41.008612],[29.083026,41.008772],[29.083762,41.008979],[29.084268,41.00909],[29.084565,41.00916],[29.085018,41.00925],[29.085599,41.009343],[29.086016,41.009401],[29.086477,41.009448],[29.086795,41.009477],[29.087178,41.009501],[29.087661,41.009525],[29.08782,41.009529],[29.087906,41.009532],[29.088106,41.009531],[29.088314,41.00953],[29.088846,41.009527],[29.088914,41.009527],[29.088942,41.009485],[29.089125,41.009243],[29.089517,41.008527],[29.090091,41.008064],[29.090511,41.0074],[29.090947,41.00704],[29.090983,41.005709],[29.089962,41.004827],[29.089138,41.003783],[29.088652,41.002516],[29.088571,41.000969],[29.088309,40.999683],[29.088323,40.997325],[29.088489,40.99708],[29.088498,40.997066],[29.088514,40.997043],[29.088486,40.997022],[29.088346,40.996928],[29.088089,40.996628],[29.088005,40.996534],[29.087835,40.996354],[29.087748,40.99626],[29.087565,40.996117],[29.087322,40.996017],[29.086923,40.995969],[29.086922,40.995969],[29.086903,40.995974],[29.08672,40.996028],[29.086685,40.996031],[29.086414,40.996058],[29.086104,40.995999],[29.085949,40.995932],[29.085645,40.995755],[29.085642,40.99576],[29.085395,40.996127],[29.084914,40.996685],[29.084463,40.99716],[29.083971,40.997635],[29.083465,40.997967],[29.083255,40.99807],[29.082843,40.998463],[29.082706,40.998513],[29.082352,40.99865],[29.08217,40.999789],[29.082145,41.00022],[29.082129,41.000412],[29.082201,41.000486],[29.082234,41.000717],[29.082214,41.000761],[29.082162,41.000815],[29.082101,41.000891],[29.081835,41.001002],[29.081545,41.001124],[29.081421,41.001188],[29.08103,41.001468],[29.080521,41.002047],[29.080514,41.002047],[29.080492,41.002283],[29.080492,41.002283],[29.080083,41.002599],[29.07986,41.00277],[29.079861,41.002772],[29.079953,41.002922],[29.079728,41.00341],[29.079434,41.003977],[29.079269,41.004293],[29.079298,41.004598],[29.079108,41.005763],[29.079025,41.00595],[29.078896,41.00628],[29.078841,41.006361],[29.078411,41.006993]]]}},{"type":"Feature","properties":{"id":"TR-Y-34-003-M-0005","level":"yerlesim","type":"mahalle","parent_id":"TR-D-34-003","province_id":"TR-P-34","district_id":"TR-D-34-003","name":"Ferhatpaşa","source_raw_name":"FERHATPAŞA","source":"Kullanıcı tarafından sağlanan KML","source_label":"Kullanıcı tarafından sağlanan KML","source_name":"Istanbul Mahalle KML"},"geometry":{"type":"Polygon","coordinates":[[[29.162382,40.980773],[29.162835,40.980915],[29.163255,40.980825],[29.163586,40.980661],[29.163892,40.980627],[29.1642,40.980702],[29.164787,40.981237],[29.165172,40.981687],[29.165327,40.98205],[29.165781,40.982911],[29.165667,40.983199],[29.165716,40.983459],[29.165765,40.983548],[29.165823,40.983703],[29.166408,40.984338],[29.166442,40.984845],[29.166539,40.985005],[29.166543,40.985022],[29.166644,40.985426],[29.166707,40.985486],[29.166773,40.986014],[29.166933,40.986616],[29.167068,40.986897],[29.167195,40.987087],[29.167405,40.987455],[29.167437,40.987854],[29.167515,40.988217],[29.167509,40.988761],[29.167456,40.989064],[29.16733,40.989823],[29.167366,40.990426],[29.168163,40.99171],[29.168442,40.992359],[29.168615,40.993307],[29.168912,40.993219],[29.170322,40.992776],[29.171571,40.992371],[29.172978,40.991926],[29.173756,40.991685],[29.174897,40.991373],[29.175754,40.991163],[29.176402,40.991026],[29.17705,40.99091],[29.177584,40.9908],[29.178102,40.990726],[29.178693,40.990641],[29.179606,40.990542],[29.180614,40.990455],[29.181574,40.990406],[29.18256,40.990391],[29.183596,40.990385],[29.184221,40.990378],[29.184786,40.990371],[29.185502,40.990362],[29.186201,40.990354],[29.186774,40.990346],[29.187406,40.990279],[29.188053,40.990209],[29.18871,40.990111],[29.189668,40.989925],[29.190388,40.989759],[29.190737,40.989677],[29.191406,40.989432],[29.192267,40.989126],[29.192724,40.988938],[29.193583,40.988485],[29.194224,40.988144],[29.194409,40.988019],[29.194698,40.98786],[29.194747,40.987833],[29.197877,40.985684],[29.198424,40.985343],[29.198402,40.985321],[29.198607,40.985196],[29.199143,40.984895],[29.19915,40.984891],[29.199534,40.984686],[29.199985,40.984458],[29.200792,40.984095],[29.201476,40.98382],[29.201558,40.98379],[29.202029,40.983619],[29.202193,40.983561],[29.202542,40.983448],[29.202901,40.983335],[29.203507,40.983159],[29.203668,40.983119],[29.203515,40.983],[29.203207,40.982852],[29.202798,40.982711],[29.20225,40.982425],[29.201768,40.98215],[29.201574,40.982028],[29.201047,40.981935],[29.200356,40.98192],[29.200016,40.981953],[29.199828,40.981996],[29.199596,40.981951],[29.199167,40.981771],[29.198898,40.98162],[29.19877,40.981518],[29.198551,40.981432],[29.198199,40.981335],[29.198097,40.981307],[29.197264,40.980929],[29.197282,40.980893],[29.197183,40.980601],[29.196857,40.980376],[29.196593,40.980404],[29.196402,40.980325],[29.196059,40.980132],[29.19607,40.979844],[29.195797,40.979741],[29.195142,40.979674],[29.194967,40.979557],[29.194488,40.979574],[29.194355,40.97952],[29.194155,40.9792],[29.193706,40.979265],[29.193537,40.979212],[29.192974,40.979027],[29.19227,40.978897],[29.191775,40.978938],[29.190751,40.978904],[29.190616,40.978704],[29.190312,40.978508],[29.189904,40.978494],[29.18943,40.978413],[29.189222,40.978435],[29.188545,40.978585],[29.187587,40.978543],[29.187299,40.97838],[29.186416,40.978061],[29.186073,40.977851],[29.185888,40.977582],[29.185322,40.977016],[29.184727,40.976259],[29.183997,40.975626],[29.183715,40.975558],[29.183443,40.97563],[29.183162,40.975585],[29.182504,40.975393],[29.181912,40.975447],[29.181714,40.97539],[29.181561,40.975277],[29.18046,40.975042],[29.180273,40.974953],[29.180096,40.97482],[29.179732,40.97463],[29.179519,40.974552],[29.179559,40.974697],[29.179816,40.975108],[29.179809,40.975384],[29.179515,40.976083],[29.179326,40.976385],[29.178921,40.976703],[29.178679,40.976846],[29.178305,40.977044],[29.177952,40.977175],[29.177612,40.977264],[29.177309,40.977325],[29.177201,40.977324],[29.17707,40.977341],[29.176826,40.977339],[29.176641,40.977338],[29.176475,40.977264],[29.176302,40.977118],[29.176019,40.976931],[29.175688,40.976767],[29.175187,40.976606],[29.174752,40.97645],[29.174572,40.976349],[29.174375,40.976199],[29.174225,40.976117],[29.174047,40.976084],[29.173956,40.976091],[29.173367,40.976173],[29.173184,40.976222],[29.173004,40.976307],[29.172918,40.976367],[29.172826,40.976429],[29.172751,40.976464],[29.172594,40.976594],[29.172506,40.976698],[29.172449,40.976843],[29.172412,40.977072],[29.172396,40.977326],[29.172437,40.97761],[29.172437,40.97764],[29.172422,40.977715],[29.172387,40.977764],[29.172181,40.977926],[29.171684,40.978239],[29.171461,40.978354],[29.171309,40.978393],[29.171204,40.978403],[29.171107,40.978399],[29.171016,40.97838],[29.170855,40.978338],[29.170706,40.978291],[29.170481,40.978293],[29.170386,40.978292],[29.170251,40.978313],[29.169595,40.978479],[29.168931,40.978667],[29.168723,40.97874],[29.168265,40.978961],[29.167651,40.979265],[29.167496,40.979308],[29.167187,40.979368],[29.166659,40.979382],[29.166417,40.979374],[29.166022,40.979355],[29.165926,40.979357],[29.165753,40.979368],[29.165554,40.979393],[29.16538,40.979427],[29.165137,40.979496],[29.164922,40.979576],[29.16485,40.979619],[29.164556,40.97979],[29.164335,40.979895],[29.164235,40.979928],[29.163998,40.980085],[29.163894,40.980148],[29.163536,40.980298],[29.162995,40.980575],[29.162721,40.980675],[29.162482,40.980733],[29.162382,40.980773]]]}},{"type":"Feature","properties":{"id":"TR-Y-34-003-M-0006","level":"yerlesim","type":"mahalle","parent_id":"TR-D-34-003","province_id":"TR-P-34","district_id":"TR-D-34-003","name":"Fetih","source_raw_name":"FETİH","source":"Kullanıcı tarafından sağlanan KML","source_label":"Kullanıcı tarafından sağlanan KML","source_name":"Istanbul Mahalle KML"},"geometry":{"type":"Polygon","coordinates":[[[29.073018,41.005676],[29.073191,41.00569],[29.074224,41.005827],[29.074636,41.005891],[29.07514,41.005998],[29.075486,41.006066],[29.076022,41.006204],[29.076708,41.006394],[29.077372,41.006606],[29.077655,41.006703],[29.078411,41.006993],[29.078841,41.006361],[29.078896,41.00628],[29.079025,41.00595],[29.079108,41.005763],[29.079298,41.004598],[29.079269,41.004293],[29.079434,41.003977],[29.079728,41.00341],[29.079953,41.002922],[29.079861,41.002772],[29.07986,41.00277],[29.080083,41.002599],[29.080492,41.002283],[29.080488,41.002279],[29.080481,41.002272],[29.080062,41.00181],[29.07967,41.001626],[29.078536,41.001398],[29.077929,41.001183],[29.077798,41.001111],[29.077617,41.001007],[29.077527,41.000955],[29.077495,41.00084],[29.07734,41.00071],[29.077434,41.000493],[29.075447,40.998795],[29.074309,40.997045],[29.074125,40.997043],[29.074005,40.997042],[29.074005,40.997043],[29.073975,40.997219],[29.073806,40.998212],[29.073731,40.998568],[29.073678,40.998849],[29.073615,40.999559],[29.073585,40.999703],[29.073134,41.001055],[29.07258,41.001954],[29.072546,41.002002],[29.072541,41.002009],[29.072539,41.002013],[29.072536,41.002017],[29.072534,41.00202],[29.072531,41.002024],[29.072527,41.002031],[29.072524,41.002036],[29.072521,41.002041],[29.072517,41.002046],[29.072513,41.002053],[29.07251,41.002058],[29.072506,41.002065],[29.072503,41.002068],[29.0725,41.002073],[29.072498,41.002078],[29.072493,41.002085],[29.072491,41.002089],[29.072487,41.002095],[29.072484,41.0021],[29.072481,41.002106],[29.072478,41.002111],[29.072473,41.002119],[29.07247,41.002125],[29.072467,41.002131],[29.072462,41.002138],[29.072459,41.002145],[29.072456,41.002149],[29.072453,41.002155],[29.072451,41.002159],[29.072448,41.002164],[29.072445,41.00217],[29.072443,41.002174],[29.072439,41.002181],[29.072437,41.002185],[29.072435,41.002189],[29.072432,41.002194],[29.07243,41.002199],[29.072428,41.002203],[29.072426,41.002207],[29.072423,41.002212],[29.07242,41.002218],[29.072418,41.002222],[29.072415,41.002228],[29.072413,41.002232],[29.072411,41.002238],[29.072407,41.002245],[29.072405,41.00225],[29.072403,41.002254],[29.0724,41.00226],[29.072399,41.002263],[29.072397,41.002266],[29.072395,41.00227],[29.072393,41.002275],[29.072391,41.002279],[29.07239,41.002282],[29.072387,41.002288],[29.072386,41.00229],[29.072383,41.002297],[29.07238,41.002304],[29.072378,41.002309],[29.072375,41.002316],[29.072374,41.002319],[29.072372,41.002325],[29.07237,41.002328],[29.072368,41.002332],[29.072367,41.002337],[29.072364,41.002342],[29.072362,41.002348],[29.07236,41.002353],[29.072358,41.00236],[29.072355,41.002366],[29.072353,41.002372],[29.072351,41.002377],[29.072349,41.002382],[29.072347,41.002387],[29.072344,41.002396],[29.072341,41.002404],[29.072339,41.002409],[29.072338,41.002412],[29.072337,41.002416],[29.072333,41.002425],[29.072331,41.002432],[29.07233,41.002435],[29.072328,41.00244],[29.072327,41.002444],[29.072325,41.002449],[29.072323,41.002457],[29.072321,41.002462],[29.072319,41.002469],[29.072316,41.002477],[29.072314,41.002483],[29.072312,41.002492],[29.07231,41.002499],[29.072307,41.002507],[29.072306,41.002513],[29.072304,41.002518],[29.072302,41.002525],[29.072301,41.00253],[29.0723,41.002535],[29.072298,41.002543],[29.072296,41.00255],[29.072294,41.002556],[29.072292,41.002564],[29.072291,41.002569],[29.07229,41.002573],[29.072289,41.002577],[29.072288,41.002581],[29.072287,41.002584],[29.072286,41.00259],[29.072284,41.002596],[29.072282,41.002605],[29.07228,41.002613],[29.072279,41.002621],[29.072277,41.002629],[29.072259,41.002853],[29.072259,41.002914],[29.072342,41.00378],[29.072423,41.004617],[29.072559,41.005301],[29.072644,41.005583],[29.072648,41.005597],[29.072659,41.005633],[29.072697,41.005637],[29.072916,41.005659],[29.073,41.005673],[29.073014,41.005676],[29.073018,41.005676]]]}},{"type":"Feature","properties":{"id":"TR-Y-34-003-M-0007","level":"yerlesim","type":"mahalle","parent_id":"TR-D-34-003","province_id":"TR-P-34","district_id":"TR-D-34-003","name":"İçerenköy","source_raw_name":"İÇERENKÖY","source":"Kullanıcı tarafından sağlanan KML","source_label":"Kullanıcı tarafından sağlanan KML","source_name":"Istanbul Mahalle KML"},"geometry":{"type":"Polygon","coordinates":[[[29.107871,40.979056],[29.108129,40.979057],[29.108507,40.979072],[29.109029,40.979111],[29.109527,40.97912],[29.110404,40.979063],[29.111118,40.979015],[29.113008,40.978911],[29.113841,40.978892],[29.115368,40.978684],[29.119158,40.978416],[29.119843,40.97835],[29.122975,40.977979],[29.123132,40.977968],[29.123301,40.977969],[29.123391,40.977981],[29.123669,40.978039],[29.123799,40.97808],[29.124157,40.978231],[29.125261,40.978857],[29.125291,40.978874],[29.126025,40.979222],[29.126337,40.978891],[29.126031,40.978414],[29.126351,40.977884],[29.126788,40.977287],[29.127005,40.976905],[29.127118,40.976599],[29.127122,40.976464],[29.127061,40.976439],[29.126993,40.976415],[29.126956,40.976401],[29.126917,40.976382],[29.126881,40.976363],[29.126855,40.976347],[29.126835,40.97633],[29.12682,40.976312],[29.126808,40.976292],[29.126796,40.976275],[29.126794,40.976257],[29.126796,40.976231],[29.126797,40.976215],[29.126781,40.9762],[29.126765,40.976188],[29.126741,40.976175],[29.126724,40.976173],[29.126705,40.976174],[29.12668,40.976169],[29.126644,40.976156],[29.126586,40.976131],[29.126551,40.976112],[29.126482,40.976073],[29.126427,40.976036],[29.126391,40.976024],[29.126354,40.976011],[29.126308,40.975992],[29.126284,40.975973],[29.126251,40.975938],[29.126224,40.975893],[29.126204,40.975851],[29.126166,40.975806],[29.126126,40.975767],[29.126068,40.975726],[29.126027,40.9757],[29.125984,40.975689],[29.125928,40.975668],[29.125897,40.975651],[29.125877,40.975629],[29.125862,40.975595],[29.125853,40.975566],[29.125834,40.975531],[29.125811,40.97551],[29.125774,40.975497],[29.125728,40.975483],[29.125679,40.975463],[29.125655,40.975442],[29.12563,40.975419],[29.125616,40.975385],[29.1256,40.975353],[29.125559,40.975311],[29.125511,40.975269],[29.125469,40.975239],[29.125428,40.975169],[29.125417,40.975139],[29.125407,40.975086],[29.125396,40.975045],[29.125382,40.975017],[29.125373,40.97498],[29.125359,40.974923],[29.125331,40.974871],[29.125318,40.974827],[29.125298,40.974806],[29.125268,40.974779],[29.125232,40.974753],[29.125216,40.974725],[29.125205,40.974683],[29.125184,40.974639],[29.125177,40.974606],[29.125179,40.974566],[29.125186,40.974537],[29.125202,40.974504],[29.125206,40.974441],[29.125196,40.974402],[29.125191,40.974372],[29.125186,40.974357],[29.125175,40.974337],[29.125162,40.974315],[29.125152,40.974305],[29.125147,40.974299],[29.125138,40.974291],[29.125126,40.974267],[29.125125,40.974244],[29.125136,40.974217],[29.125149,40.974179],[29.125155,40.974139],[29.125182,40.974098],[29.125212,40.974065],[29.125252,40.974043],[29.125266,40.974035],[29.125283,40.974026],[29.125312,40.973996],[29.125334,40.973963],[29.125344,40.97394],[29.125542,40.973684],[29.125592,40.973645],[29.125602,40.973617],[29.12562,40.973585],[29.12562,40.973542],[29.125616,40.973524],[29.125596,40.973491],[29.125584,40.973463],[29.12558,40.973437],[29.125583,40.973404],[29.125587,40.973364],[29.125592,40.973331],[29.125597,40.97329],[29.125606,40.973266],[29.125623,40.973251],[29.125661,40.973239],[29.125669,40.973221],[29.125666,40.973191],[29.125662,40.973153],[29.12566,40.973118],[29.12565,40.973089],[29.125639,40.973067],[29.125633,40.973054],[29.12563,40.97304],[29.125619,40.972995],[29.125612,40.97298],[29.125602,40.972959],[29.125589,40.972936],[29.125583,40.972912],[29.125582,40.972893],[29.125575,40.972873],[29.125566,40.97286],[29.125552,40.972837],[29.125549,40.972814],[29.125546,40.972786],[29.125548,40.972776],[29.125548,40.972767],[29.125546,40.972744],[29.125548,40.972719],[29.125547,40.972691],[29.125548,40.972665],[29.125547,40.972643],[29.125546,40.972628],[29.125563,40.9726],[29.125589,40.972585],[29.12562,40.972576],[29.125637,40.972571],[29.125654,40.972567],[29.125675,40.972563],[29.125696,40.972556],[29.125711,40.972549],[29.125716,40.972547],[29.12579,40.972461],[29.125677,40.972319],[29.125564,40.972209],[29.125541,40.972187],[29.125507,40.972145],[29.125408,40.972048],[29.125359,40.972016],[29.125331,40.971994],[29.125278,40.971944],[29.125256,40.97193],[29.125212,40.971909],[29.125106,40.971869],[29.125072,40.971851],[29.125029,40.971822],[29.124998,40.971793],[29.124908,40.971715],[29.124881,40.971695],[29.124804,40.97165],[29.124666,40.971582],[29.124614,40.97155],[29.124551,40.971498],[29.124516,40.971454],[29.124451,40.971382],[29.124412,40.971349],[29.124326,40.971301],[29.124205,40.971251],[29.12412,40.971226],[29.124071,40.971208],[29.12385,40.971078],[29.123796,40.971043],[29.12377,40.971016],[29.123746,40.970983],[29.123551,40.970877],[29.12336,40.970753],[29.123284,40.970676],[29.123239,40.970604],[29.123208,40.970535],[29.123195,40.970459],[29.123164,40.970296],[29.123141,40.970245],[29.123085,40.970147],[29.122996,40.970029],[29.122923,40.969932],[29.122752,40.969743],[29.122731,40.969701],[29.122708,40.969632],[29.122663,40.969514],[29.122614,40.969448],[29.122593,40.969366],[29.122598,40.969275],[29.122565,40.969007],[29.122718,40.968746],[29.122762,40.968661],[29.122762,40.968592],[29.122744,40.968498],[29.122743,40.968469],[29.12278,40.968267],[29.122782,40.968214],[29.122778,40.968115],[29.122776,40.968089],[29.122738,40.968],[29.12264,40.967814],[29.122581,40.967727],[29.122569,40.967694],[29.122495,40.967648],[29.122446,40.967611],[29.122359,40.967561],[29.122295,40.967516],[29.122245,40.967458],[29.122194,40.967438],[29.122127,40.967426],[29.122062,40.967418],[29.121953,40.967414],[29.121893,40.967405],[29.121824,40.967384],[29.121739,40.967352],[29.121685,40.967324],[29.121574,40.967291],[29.12145,40.967229],[29.121336,40.967138],[29.1213,40.967099],[29.121282,40.967054],[29.121264,40.966996],[29.12125,40.966951],[29.121234,40.966905],[29.121193,40.966874],[29.121156,40.966828],[29.121122,40.966766],[29.121079,40.966712],[29.121037,40.96666],[29.121008,40.966621],[29.120957,40.966542],[29.120926,40.966497],[29.12078,40.966377],[29.120726,40.966354],[29.120684,40.96634],[29.120528,40.966332],[29.120344,40.966328],[29.120286,40.966313],[29.120224,40.966274],[29.120121,40.966186],[29.119996,40.966049],[29.119859,40.965985],[29.119824,40.965946],[29.119815,40.965896],[29.119787,40.965842],[29.119695,40.965723],[29.119582,40.965592],[29.119507,40.965462],[29.119455,40.965275],[29.11934,40.96518],[29.11928,40.965104],[29.119189,40.965008],[29.11918,40.964965],[29.11917,40.964917],[29.119094,40.964764],[29.119037,40.96467],[29.119018,40.964621],[29.118984,40.964516],[29.118945,40.964442],[29.118915,40.964404],[29.118852,40.964345],[29.118765,40.964281],[29.118695,40.964238],[29.118506,40.964155],[29.118283,40.964025],[29.118128,40.963908],[29.117851,40.963622],[29.117758,40.963529],[29.117604,40.963389],[29.117573,40.963361],[29.117549,40.963313],[29.117523,40.963254],[29.117495,40.963209],[29.117456,40.963167],[29.117365,40.963078],[29.117341,40.963035],[29.117333,40.962996],[29.117339,40.962947],[29.117342,40.962884],[29.117334,40.962819],[29.117317,40.962734],[29.117314,40.962666],[29.117329,40.962574],[29.117331,40.9625],[29.117323,40.962429],[29.117306,40.962367],[29.117255,40.96226],[29.117208,40.962196],[29.117135,40.962126],[29.116828,40.96189],[29.116807,40.961854],[29.116818,40.961793],[29.116814,40.961752],[29.116806,40.961713],[29.116788,40.961677],[29.116719,40.961602],[29.116687,40.961551],[29.11663,40.961481],[29.116577,40.961385],[29.116525,40.961296],[29.116466,40.961221],[29.116141,40.960934],[29.116077,40.960865],[29.115833,40.960575],[29.115807,40.960547],[29.115788,40.960534],[29.115745,40.960535],[29.115679,40.960563],[29.115606,40.960575],[29.115497,40.96058],[29.115408,40.960569],[29.115339,40.960541],[29.11529,40.96051],[29.11527,40.960478],[29.115067,40.960371],[29.114802,40.960209],[29.114698,40.960106],[29.114562,40.959909],[29.114446,40.959854],[29.114367,40.959836],[29.114322,40.959834],[29.114266,40.959825],[29.114164,40.959802],[29.114085,40.959798],[29.113875,40.959842],[29.113743,40.959847],[29.113582,40.959841],[29.11344,40.959816],[29.113388,40.95979],[29.113191,40.959716],[29.113058,40.959662],[29.112861,40.959632],[29.112654,40.959609],[29.112471,40.95961],[29.112342,40.959611],[29.11229,40.959612],[29.112086,40.95959],[29.112051,40.959577],[29.11197,40.959547],[29.111801,40.959467],[29.111578,40.959278],[29.111269,40.959031],[29.111179,40.959117],[29.111154,40.95914],[29.110976,40.959304],[29.108502,40.961594],[29.108285,40.961794],[29.107576,40.96245],[29.106979,40.963019],[29.106235,40.963794],[29.105303,40.964813],[29.104738,40.965583],[29.104668,40.965677],[29.10466,40.965688],[29.103928,40.96669],[29.103027,40.968153],[29.101742,40.970461],[29.097891,40.977399],[29.097866,40.977446],[29.097062,40.978723],[29.096495,40.979511],[29.095897,40.980253],[29.094888,40.981459],[29.094853,40.981501],[29.094882,40.981506],[29.095434,40.981594],[29.096315,40.98176],[29.097206,40.98191],[29.09748,40.98196],[29.097848,40.981756],[29.098578,40.981341],[29.099154,40.981198],[29.099869,40.980938],[29.100444,40.980766],[29.101612,40.980459],[29.103727,40.979866],[29.104236,40.979561],[29.104714,40.979542],[29.107414,40.979094],[29.107617,40.979064],[29.107871,40.979056]]]}},{"type":"Feature","properties":{"id":"TR-Y-34-003-M-0008","level":"yerlesim","type":"mahalle","parent_id":"TR-D-34-003","province_id":"TR-P-34","district_id":"TR-D-34-003","name":"İnönü","source_raw_name":"İNÖNÜ","source":"Kullanıcı tarafından sağlanan KML","source_label":"Kullanıcı tarafından sağlanan KML","source_name":"Istanbul Mahalle KML"},"geometry":{"type":"Polygon","coordinates":[[[29.154078,40.97462],[29.154032,40.974589],[29.154566,40.974269],[29.154642,40.974189],[29.154741,40.973897],[29.154481,40.973879],[29.154311,40.973909],[29.154227,40.973938],[29.153951,40.974061],[29.153723,40.974136],[29.153451,40.974213],[29.153159,40.974212],[29.152751,40.974179],[29.152546,40.974212],[29.151957,40.974007],[29.151654,40.973915],[29.151155,40.973704],[29.151129,40.973689],[29.150906,40.973558],[29.150049,40.972886],[29.149869,40.972733],[29.149595,40.972509],[29.149578,40.972495],[29.149443,40.972513],[29.14927,40.972582],[29.149048,40.972701],[29.148973,40.972711],[29.148901,40.97274],[29.148874,40.972754],[29.148853,40.972761],[29.148813,40.972771],[29.148779,40.972782],[29.148743,40.972794],[29.148723,40.972799],[29.14869,40.972811],[29.14866,40.972818],[29.148641,40.972824],[29.148617,40.972828],[29.148592,40.97283],[29.148567,40.972832],[29.148541,40.972831],[29.148521,40.972833],[29.148501,40.972837],[29.148472,40.972841],[29.148455,40.972844],[29.148431,40.972848],[29.148405,40.972854],[29.148376,40.972858],[29.14835,40.972864],[29.148327,40.972869],[29.148297,40.972881],[29.148278,40.97289],[29.148258,40.972899],[29.148243,40.97291],[29.148231,40.972924],[29.148217,40.972937],[29.1482,40.972952],[29.148183,40.972968],[29.14817,40.972986],[29.14816,40.972989],[29.148127,40.973],[29.148039,40.973024],[29.147999,40.97303],[29.147941,40.973037],[29.147876,40.973039],[29.147804,40.973054],[29.147362,40.973042],[29.14711,40.973049],[29.146864,40.973131],[29.146508,40.973152],[29.146299,40.97316],[29.14609,40.973195],[29.145666,40.973257],[29.145119,40.973276],[29.144862,40.973264],[29.144845,40.973315],[29.144838,40.973317],[29.144797,40.973333],[29.144758,40.97335],[29.144746,40.973356],[29.144729,40.973366],[29.144709,40.973372],[29.144682,40.973379],[29.144635,40.973385],[29.144606,40.97339],[29.144565,40.973395],[29.144536,40.973397],[29.144504,40.973396],[29.144478,40.973388],[29.144443,40.973384],[29.144398,40.973375],[29.144366,40.973367],[29.144328,40.973357],[29.144301,40.973348],[29.144283,40.973339],[29.144265,40.973331],[29.144243,40.973332],[29.144225,40.973328],[29.1442,40.973319],[29.14418,40.973311],[29.144163,40.973302],[29.144145,40.973294],[29.144133,40.973286],[29.144114,40.973278],[29.144098,40.973268],[29.144087,40.973258],[29.144062,40.973245],[29.144043,40.973239],[29.144024,40.973226],[29.144012,40.973212],[29.14399,40.973204],[29.14397,40.97319],[29.143941,40.973174],[29.143911,40.973151],[29.143877,40.973133],[29.14386,40.973124],[29.143847,40.973118],[29.143827,40.973111],[29.143801,40.973098],[29.143787,40.973092],[29.143764,40.973069],[29.143752,40.97305],[29.143743,40.973029],[29.143746,40.973016],[29.143748,40.973005],[29.143768,40.972993],[29.143781,40.972988],[29.143782,40.972978],[29.143782,40.972964],[29.143779,40.97295],[29.143777,40.972933],[29.143775,40.972921],[29.143759,40.972917],[29.143748,40.97292],[29.14374,40.972924],[29.143728,40.972927],[29.143706,40.972924],[29.143697,40.972918],[29.143684,40.972915],[29.143659,40.972916],[29.14364,40.972918],[29.143628,40.972922],[29.143613,40.972926],[29.143592,40.972923],[29.14357,40.972921],[29.143555,40.97292],[29.14352,40.972918],[29.143494,40.972917],[29.14346,40.972917],[29.143445,40.972914],[29.143433,40.972913],[29.143418,40.972914],[29.143399,40.972914],[29.143363,40.972914],[29.143348,40.972915],[29.143333,40.972921],[29.143322,40.972931],[29.143315,40.972937],[29.143311,40.97294],[29.143285,40.972949],[29.143263,40.972946],[29.143239,40.972941],[29.143224,40.972936],[29.143202,40.972933],[29.143187,40.972936],[29.143165,40.972939],[29.143142,40.972938],[29.14312,40.972936],[29.143097,40.972932],[29.143066,40.972932],[29.143055,40.972933],[29.143021,40.972932],[29.143007,40.972931],[29.142984,40.972934],[29.14296,40.97294],[29.142933,40.972942],[29.142921,40.972944],[29.142901,40.972951],[29.142867,40.97295],[29.142829,40.97295],[29.142811,40.972949],[29.142791,40.972939],[29.142783,40.972927],[29.142767,40.972918],[29.142746,40.972916],[29.142713,40.972925],[29.142691,40.972937],[29.142668,40.972941],[29.14264,40.972939],[29.14262,40.97294],[29.142598,40.97294],[29.142574,40.972941],[29.142536,40.972941],[29.142507,40.97294],[29.14247,40.972938],[29.142439,40.972936],[29.142394,40.972931],[29.142354,40.972926],[29.14232,40.972922],[29.142307,40.97292],[29.142298,40.972938],[29.142283,40.972958],[29.142263,40.972973],[29.142231,40.972988],[29.142195,40.972995],[29.142157,40.972998],[29.142126,40.972999],[29.142115,40.972999],[29.142098,40.972999],[29.142081,40.972996],[29.142048,40.972994],[29.142035,40.972998],[29.142021,40.97301],[29.142012,40.973022],[29.141999,40.973034],[29.141979,40.973045],[29.141949,40.973051],[29.141928,40.973052],[29.141908,40.973051],[29.141878,40.973066],[29.141848,40.973076],[29.141807,40.973087],[29.141777,40.973094],[29.141741,40.973104],[29.141718,40.973113],[29.141683,40.973129],[29.14134,40.973347],[29.141105,40.973549],[29.141096,40.973557],[29.14107,40.973577],[29.141037,40.973591],[29.141009,40.973605],[29.140979,40.973615],[29.140946,40.973631],[29.140918,40.973648],[29.140882,40.973672],[29.14085,40.973689],[29.140812,40.973706],[29.140798,40.97372],[29.14078,40.973734],[29.140769,40.973751],[29.140756,40.973763],[29.140743,40.973777],[29.140726,40.973784],[29.140722,40.973786],[29.140714,40.97379],[29.140712,40.97379],[29.140692,40.973798],[29.140677,40.973807],[29.140654,40.97381],[29.140629,40.973807],[29.140602,40.973803],[29.140583,40.973803],[29.140569,40.9738],[29.140557,40.973799],[29.140544,40.973801],[29.140529,40.973804],[29.140514,40.973812],[29.140472,40.973821],[29.140436,40.973826],[29.140409,40.973831],[29.140387,40.973836],[29.140363,40.973839],[29.140326,40.973834],[29.140305,40.973836],[29.140287,40.973842],[29.14026,40.973844],[29.140226,40.973839],[29.140197,40.973836],[29.140167,40.973838],[29.140123,40.973841],[29.140108,40.973841],[29.14008,40.973839],[29.140051,40.973836],[29.140029,40.973834],[29.140009,40.973829],[29.139983,40.973826],[29.139958,40.973825],[29.139865,40.97382],[29.139825,40.973817],[29.139787,40.97381],[29.139753,40.973804],[29.139714,40.973797],[29.139678,40.97379],[29.139645,40.973785],[29.139605,40.973781],[29.139567,40.973777],[29.139544,40.973775],[29.139514,40.973773],[29.139487,40.973774],[29.139474,40.973782],[29.139467,40.973787],[29.139456,40.973791],[29.139444,40.973792],[29.139428,40.973789],[29.139419,40.973787],[29.139401,40.973782],[29.139375,40.973779],[29.139354,40.973777],[29.139344,40.973775],[29.139326,40.973771],[29.139312,40.973765],[29.139303,40.973762],[29.139291,40.97376],[29.13928,40.973758],[29.139271,40.973758],[29.139253,40.973758],[29.139233,40.97376],[29.139199,40.973764],[29.139172,40.973769],[29.139138,40.973775],[29.139095,40.973782],[29.139072,40.973786],[29.139045,40.973792],[29.139017,40.973798],[29.138995,40.973809],[29.138969,40.973819],[29.138951,40.973824],[29.138931,40.973827],[29.138915,40.973829],[29.138889,40.973829],[29.138858,40.973822],[29.13884,40.973813],[29.138834,40.97381],[29.138813,40.973808],[29.138798,40.973813],[29.138775,40.973819],[29.138744,40.973821],[29.138717,40.973822],[29.138697,40.973818],[29.138685,40.973812],[29.138676,40.973807],[29.138663,40.973802],[29.138641,40.973799],[29.138607,40.973803],[29.13858,40.973812],[29.138552,40.973816],[29.13851,40.973814],[29.138487,40.973812],[29.13846,40.97381],[29.138439,40.973807],[29.138418,40.973806],[29.138386,40.973806],[29.138362,40.973808],[29.138332,40.973812],[29.138314,40.973816],[29.13829,40.973818],[29.138264,40.973819],[29.138239,40.973821],[29.138214,40.973826],[29.138199,40.973833],[29.13816,40.973841],[29.138125,40.973851],[29.138098,40.973862],[29.13807,40.973879],[29.138047,40.973889],[29.13802,40.973905],[29.137974,40.973921],[29.137944,40.973925],[29.137914,40.973928],[29.137883,40.973933],[29.137861,40.973938],[29.137834,40.973943],[29.137791,40.973951],[29.137767,40.973962],[29.137737,40.973979],[29.137709,40.97399],[29.137697,40.974004],[29.137694,40.974016],[29.137675,40.974035],[29.137537,40.974071],[29.137493,40.974082],[29.137454,40.974088],[29.137268,40.974101],[29.13723,40.974106],[29.137123,40.974109],[29.137022,40.974083],[29.136909,40.974064],[29.136868,40.97406],[29.136749,40.974056],[29.136688,40.974052],[29.136611,40.974045],[29.136514,40.974023],[29.136466,40.974035],[29.136449,40.974027],[29.136405,40.973999],[29.136376,40.973984],[29.136357,40.973975],[29.136339,40.973965],[29.136304,40.973947],[29.136279,40.973934],[29.136275,40.973921],[29.136257,40.973906],[29.136244,40.973895],[29.136232,40.973876],[29.136221,40.973861],[29.136204,40.973852],[29.136195,40.973848],[29.136179,40.973832],[29.136165,40.973818],[29.136143,40.973803],[29.136126,40.973789],[29.13611,40.973779],[29.136078,40.973774],[29.136065,40.973772],[29.136021,40.97377],[29.135986,40.973762],[29.135958,40.973745],[29.135945,40.973725],[29.135935,40.973711],[29.135914,40.973698],[29.135893,40.973686],[29.13586,40.973668],[29.135833,40.973651],[29.135806,40.973637],[29.135784,40.973625],[29.135771,40.973613],[29.135748,40.973606],[29.135725,40.973593],[29.135713,40.973586],[29.135688,40.973575],[29.135661,40.973567],[29.135632,40.973555],[29.135603,40.973543],[29.135578,40.973534],[29.135554,40.973525],[29.135535,40.973515],[29.135508,40.973504],[29.135477,40.973492],[29.135454,40.973481],[29.13542,40.973468],[29.135382,40.973444],[29.135361,40.973429],[29.135344,40.97342],[29.135311,40.973418],[29.135287,40.973422],[29.135261,40.973422],[29.135235,40.973415],[29.135223,40.973408],[29.135202,40.973405],[29.13518,40.973401],[29.135157,40.973396],[29.135137,40.973392],[29.135089,40.973394],[29.135064,40.973393],[29.135032,40.973381],[29.135018,40.973367],[29.135008,40.973347],[29.134993,40.973329],[29.134979,40.973313],[29.134955,40.973281],[29.134932,40.973253],[29.134918,40.973242],[29.134897,40.973239],[29.13487,40.973223],[29.13485,40.973206],[29.134835,40.973183],[29.134812,40.973162],[29.134792,40.973144],[29.134773,40.973128],[29.134737,40.973102],[29.1347,40.973079],[29.134674,40.973064],[29.134646,40.973054],[29.134604,40.973045],[29.134568,40.97304],[29.1345,40.973033],[29.134481,40.973024],[29.134463,40.973015],[29.134416,40.973001],[29.134391,40.972987],[29.13435,40.972964],[29.134289,40.972935],[29.134262,40.972921],[29.134229,40.972906],[29.134204,40.972901],[29.134155,40.972892],[29.134103,40.972888],[29.134078,40.97289],[29.134058,40.972894],[29.134032,40.972897],[29.13399,40.972897],[29.133964,40.972891],[29.133956,40.972906],[29.133944,40.972916],[29.133919,40.972924],[29.133885,40.972927],[29.133783,40.972948],[29.133751,40.972956],[29.133626,40.972995],[29.133526,40.973022],[29.133482,40.973025],[29.133423,40.973031],[29.133357,40.973049],[29.133326,40.973057],[29.133283,40.973071],[29.133234,40.973094],[29.133192,40.973103],[29.133152,40.973111],[29.133128,40.973118],[29.133101,40.973127],[29.133076,40.973128],[29.133048,40.97313],[29.133022,40.973139],[29.132988,40.973143],[29.132937,40.973141],[29.1329,40.973142],[29.132875,40.973147],[29.132817,40.973158],[29.132775,40.973156],[29.132734,40.973159],[29.132698,40.973159],[29.132644,40.973156],[29.132574,40.973144],[29.132533,40.973135],[29.132489,40.973124],[29.132464,40.973117],[29.132377,40.973102],[29.132323,40.973097],[29.132224,40.973088],[29.132107,40.973085],[29.132035,40.973099],[29.131976,40.97313],[29.131913,40.97316],[29.131859,40.973186],[29.131845,40.973192],[29.131807,40.973201],[29.13174,40.973217],[29.131564,40.973226],[29.131397,40.973214],[29.13127,40.973194],[29.131233,40.973191],[29.13113,40.973185],[29.131086,40.973182],[29.131049,40.973183],[29.131004,40.973183],[29.130963,40.973182],[29.130922,40.973181],[29.13089,40.973183],[29.130846,40.973185],[29.130815,40.973179],[29.13081,40.973178],[29.130778,40.973169],[29.130741,40.973161],[29.130696,40.973153],[29.130667,40.973144],[29.130658,40.973142],[29.130628,40.97313],[29.130606,40.973124],[29.130588,40.973116],[29.130559,40.973115],[29.130535,40.973115],[29.130515,40.973118],[29.130482,40.97313],[29.130453,40.973133],[29.130422,40.97314],[29.130409,40.973149],[29.13038,40.973161],[29.130338,40.97316],[29.130312,40.973156],[29.130289,40.973149],[29.130256,40.97315],[29.130238,40.973161],[29.130218,40.97317],[29.130187,40.973173],[29.130161,40.973167],[29.13014,40.973158],[29.130114,40.973155],[29.130096,40.973158],[29.130076,40.973159],[29.130056,40.973156],[29.130036,40.973153],[29.129989,40.973152],[29.129945,40.973146],[29.129913,40.973141],[29.129874,40.973133],[29.129862,40.973129],[29.129819,40.973117],[29.129769,40.973105],[29.129699,40.973085],[29.129622,40.973062],[29.129567,40.973049],[29.129506,40.973023],[29.129452,40.973012],[29.129432,40.973005],[29.129386,40.972992],[29.129327,40.972989],[29.129267,40.972985],[29.129235,40.972983],[29.129188,40.972981],[29.129151,40.97298],[29.129105,40.972984],[29.129067,40.97299],[29.129002,40.972998],[29.128937,40.973008],[29.128898,40.973008],[29.128857,40.973023],[29.128816,40.973032],[29.128772,40.973038],[29.128719,40.973036],[29.12869,40.973029],[29.128668,40.973026],[29.128642,40.973027],[29.128626,40.97304],[29.128611,40.973045],[29.128582,40.973047],[29.128557,40.973043],[29.128526,40.973042],[29.128499,40.973045],[29.128467,40.973038],[29.128438,40.973032],[29.128406,40.973032],[29.128373,40.973033],[29.128341,40.973035],[29.128303,40.973037],[29.12828,40.973036],[29.128254,40.973032],[29.128234,40.973025],[29.128208,40.973024],[29.128186,40.973026],[29.128161,40.973032],[29.128133,40.973037],[29.128118,40.973041],[29.128094,40.973049],[29.128075,40.973053],[29.128058,40.973057],[29.128039,40.97306],[29.128027,40.973068],[29.128013,40.973081],[29.127996,40.973098],[29.12797,40.973099],[29.127939,40.973099],[29.127917,40.973103],[29.12789,40.973104],[29.127864,40.973103],[29.127849,40.973103],[29.127814,40.973102],[29.127793,40.973097],[29.127771,40.97309],[29.127746,40.973082],[29.127733,40.973073],[29.127717,40.973067],[29.1277,40.973068],[29.127686,40.973074],[29.127661,40.973077],[29.127647,40.973068],[29.12764,40.973058],[29.127633,40.973041],[29.127629,40.97303],[29.127616,40.973018],[29.127603,40.973014],[29.127565,40.973014],[29.127552,40.973014],[29.12752,40.973012],[29.127498,40.973006],[29.12745,40.972982],[29.127429,40.972971],[29.127409,40.972962],[29.127385,40.972957],[29.127357,40.972957],[29.127332,40.972956],[29.127302,40.972955],[29.127272,40.972958],[29.127257,40.972961],[29.127218,40.972963],[29.127203,40.972964],[29.127173,40.972963],[29.127143,40.972958],[29.127121,40.972948],[29.127103,40.972942],[29.127081,40.97294],[29.127046,40.97294],[29.127018,40.972941],[29.126991,40.972941],[29.126962,40.972941],[29.126935,40.972939],[29.126919,40.972937],[29.126902,40.972935],[29.126886,40.972932],[29.126841,40.972927],[29.12679,40.97292],[29.126743,40.972909],[29.12671,40.972904],[29.126676,40.972897],[29.126635,40.972886],[29.126605,40.97288],[29.126598,40.972878],[29.126554,40.972862],[29.126517,40.97285],[29.126486,40.972839],[29.126444,40.972826],[29.126405,40.972816],[29.126359,40.972806],[29.126329,40.972798],[29.12629,40.97279],[29.126253,40.972784],[29.126221,40.972775],[29.1262,40.972762],[29.126183,40.972748],[29.126177,40.972734],[29.126176,40.972713],[29.126168,40.972702],[29.126149,40.972691],[29.126127,40.972679],[29.126095,40.972664],[29.126067,40.972646],[29.126044,40.97263],[29.126022,40.972621],[29.125993,40.972615],[29.125972,40.97261],[29.12596,40.972603],[29.125944,40.972591],[29.125936,40.972579],[29.125932,40.972563],[29.125919,40.972544],[29.125917,40.972543],[29.125894,40.97252],[29.125848,40.972492],[29.12579,40.972461],[29.125716,40.972547],[29.125711,40.972549],[29.125696,40.972556],[29.125675,40.972563],[29.125654,40.972567],[29.125637,40.972571],[29.12562,40.972576],[29.125589,40.972585],[29.125563,40.9726],[29.125546,40.972628],[29.125547,40.972643],[29.125548,40.972665],[29.125547,40.972691],[29.125548,40.972719],[29.125546,40.972744],[29.125548,40.972767],[29.125548,40.972776],[29.125546,40.972786],[29.125549,40.972814],[29.125552,40.972837],[29.125566,40.97286],[29.125575,40.972873],[29.125582,40.972893],[29.125583,40.972912],[29.125589,40.972936],[29.125602,40.972959],[29.125612,40.97298],[29.125619,40.972995],[29.12563,40.97304],[29.125633,40.973054],[29.125639,40.973067],[29.12565,40.973089],[29.12566,40.973118],[29.125662,40.973153],[29.125666,40.973191],[29.125669,40.973221],[29.125661,40.973239],[29.125623,40.973251],[29.125606,40.973266],[29.125597,40.97329],[29.125592,40.973331],[29.125587,40.973364],[29.125583,40.973404],[29.12558,40.973437],[29.125584,40.973463],[29.125596,40.973491],[29.125616,40.973524],[29.12562,40.973542],[29.12562,40.973585],[29.125602,40.973617],[29.125592,40.973645],[29.125542,40.973684],[29.125344,40.97394],[29.125334,40.973963],[29.125312,40.973996],[29.125283,40.974026],[29.125266,40.974035],[29.125252,40.974043],[29.125212,40.974065],[29.125182,40.974098],[29.125155,40.974139],[29.125149,40.974179],[29.125136,40.974217],[29.125125,40.974244],[29.125126,40.974267],[29.125138,40.974291],[29.125147,40.974299],[29.125152,40.974305],[29.125162,40.974315],[29.125175,40.974337],[29.125186,40.974357],[29.125191,40.974372],[29.125196,40.974402],[29.125206,40.974441],[29.125202,40.974504],[29.125186,40.974537],[29.125179,40.974566],[29.125177,40.974606],[29.125184,40.974639],[29.125205,40.974683],[29.125216,40.974725],[29.125232,40.974753],[29.125268,40.974779],[29.125298,40.974806],[29.125318,40.974827],[29.125331,40.974871],[29.125359,40.974923],[29.125373,40.97498],[29.125382,40.975017],[29.125396,40.975045],[29.125407,40.975086],[29.125417,40.975139],[29.125428,40.975169],[29.125469,40.975239],[29.125511,40.975269],[29.125559,40.975311],[29.1256,40.975353],[29.125616,40.975385],[29.12563,40.975419],[29.125655,40.975442],[29.125679,40.975463],[29.125728,40.975483],[29.125774,40.975497],[29.125811,40.97551],[29.125834,40.975531],[29.125853,40.975566],[29.125862,40.975595],[29.125877,40.975629],[29.125897,40.975651],[29.125928,40.975668],[29.125984,40.975689],[29.126027,40.9757],[29.126068,40.975726],[29.126126,40.975767],[29.126166,40.975806],[29.126204,40.975851],[29.126224,40.975893],[29.126251,40.975938],[29.126284,40.975973],[29.126308,40.975992],[29.126354,40.976011],[29.126391,40.976024],[29.126427,40.976036],[29.126482,40.976073],[29.126551,40.976112],[29.126586,40.976131],[29.126644,40.976156],[29.12668,40.976169],[29.126705,40.976174],[29.126724,40.976173],[29.126741,40.976175],[29.126765,40.976188],[29.126781,40.9762],[29.126797,40.976215],[29.126796,40.976231],[29.126794,40.976257],[29.126796,40.976275],[29.126808,40.976292],[29.12682,40.976312],[29.126835,40.97633],[29.126855,40.976347],[29.126881,40.976363],[29.126917,40.976382],[29.126956,40.976401],[29.126993,40.976415],[29.127061,40.976439],[29.127122,40.976464],[29.127118,40.976599],[29.127005,40.976905],[29.126788,40.977287],[29.126351,40.977884],[29.126031,40.978414],[29.126337,40.978891],[29.126581,40.978932],[29.127828,40.979143],[29.12963,40.979156],[29.131329,40.979115],[29.131515,40.979104],[29.134143,40.978791],[29.134624,40.978735],[29.135097,40.978695],[29.135815,40.978667],[29.137662,40.978668],[29.138348,40.978634],[29.141906,40.978375],[29.142798,40.978289],[29.143182,40.97824],[29.143579,40.978172],[29.14716,40.977466],[29.149854,40.976887],[29.150338,40.976768],[29.150578,40.976688],[29.150937,40.976539],[29.154033,40.974679],[29.154078,40.97462]]]}},{"type":"Feature","properties":{"id":"TR-Y-34-003-M-0009","level":"yerlesim","type":"mahalle","parent_id":"TR-D-34-003","province_id":"TR-P-34","district_id":"TR-D-34-003","name":"Kayışdağı","source_raw_name":"KAYIŞDAĞI","source":"Kullanıcı tarafından sağlanan KML","source_label":"Kullanıcı tarafından sağlanan KML","source_name":"Istanbul Mahalle KML"},"geometry":{"type":"Polygon","coordinates":[[[29.156571,40.98195],[29.156552,40.98187],[29.156698,40.981821],[29.157075,40.981911],[29.157617,40.981644],[29.157809,40.981559],[29.157894,40.981506],[29.157981,40.981457],[29.158249,40.981387],[29.158604,40.98133],[29.158795,40.981295],[29.159952,40.981053],[29.16032,40.981027],[29.160646,40.980179],[29.160745,40.979861],[29.160894,40.97951],[29.160892,40.979461],[29.160654,40.979424],[29.16044,40.979418],[29.159447,40.979388],[29.158849,40.979379],[29.158438,40.979358],[29.158311,40.979339],[29.158103,40.979293],[29.157842,40.979214],[29.157661,40.97915],[29.157556,40.97909],[29.157441,40.978995],[29.15705,40.978519],[29.156583,40.977935],[29.156157,40.97741],[29.155961,40.977044],[29.155687,40.976299],[29.155404,40.975667],[29.155257,40.975467],[29.15513,40.97534],[29.155018,40.975241],[29.154806,40.975068],[29.154632,40.974954],[29.154368,40.974799],[29.154201,40.974698],[29.154078,40.97462],[29.154033,40.974679],[29.150937,40.976539],[29.150578,40.976688],[29.150338,40.976768],[29.149854,40.976887],[29.14716,40.977466],[29.143579,40.978172],[29.143182,40.97824],[29.142798,40.978289],[29.141906,40.978375],[29.138348,40.978634],[29.137662,40.978668],[29.135815,40.978667],[29.135097,40.978695],[29.134624,40.978735],[29.134143,40.978791],[29.131515,40.979104],[29.131329,40.979115],[29.12963,40.979156],[29.127828,40.979143],[29.126581,40.978932],[29.126337,40.978891],[29.126025,40.979222],[29.126261,40.979334],[29.126582,40.979485],[29.127161,40.979712],[29.127527,40.97983],[29.128604,40.980122],[29.128818,40.98017],[29.13036,40.980478],[29.130758,40.980573],[29.13123,40.980729],[29.131512,40.980855],[29.132824,40.981562],[29.133782,40.982091],[29.134553,40.982517],[29.134735,40.982621],[29.135073,40.982839],[29.135485,40.983131],[29.135706,40.983328],[29.135827,40.983477],[29.136123,40.983898],[29.136335,40.984216],[29.136411,40.984316],[29.136692,40.984608],[29.138484,40.98631],[29.138654,40.986451],[29.138975,40.986681],[29.139149,40.986789],[29.139348,40.986892],[29.139461,40.986942],[29.139536,40.986962],[29.139617,40.986981],[29.139715,40.986996],[29.139918,40.98701],[29.140447,40.987031],[29.14159,40.98705],[29.141779,40.987065],[29.141932,40.987089],[29.14207,40.987125],[29.142219,40.987178],[29.144245,40.988102],[29.146503,40.98913],[29.146636,40.989191],[29.146661,40.989205],[29.146687,40.98912],[29.14683,40.988662],[29.146894,40.988333],[29.146978,40.987936],[29.147435,40.987569],[29.147708,40.987012],[29.148006,40.986775],[29.148154,40.986648],[29.148944,40.985746],[29.150285,40.984434],[29.150754,40.983822],[29.151659,40.983062],[29.151992,40.982843],[29.152463,40.982596],[29.153269,40.981967],[29.153949,40.982002],[29.15467,40.981948],[29.155254,40.981938],[29.155662,40.982015],[29.156571,40.98195]]]}},{"type":"Feature","properties":{"id":"TR-Y-34-003-M-0010","level":"yerlesim","type":"mahalle","parent_id":"TR-D-34-003","province_id":"TR-P-34","district_id":"TR-D-34-003","name":"Küçükbakkalköy","source_raw_name":"KÜÇÜKBAKKALKÖY","source":"Kullanıcı tarafından sağlanan KML","source_label":"Kullanıcı tarafından sağlanan KML","source_name":"Istanbul Mahalle KML"},"geometry":{"type":"Polygon","coordinates":[[[29.105649,40.985749],[29.105717,40.98569],[29.106068,40.985389],[29.106624,40.984622],[29.107056,40.984863],[29.107681,40.985149],[29.107893,40.985255],[29.108039,40.985383],[29.108185,40.985538],[29.108392,40.98596],[29.108724,40.986571],[29.109186,40.987154],[29.109664,40.987096],[29.110299,40.987169],[29.110833,40.987241],[29.11218,40.987417],[29.113923,40.987638],[29.114472,40.987678],[29.115582,40.98772],[29.11605,40.987708],[29.11658,40.987663],[29.11672,40.987656],[29.118288,40.987687],[29.120057,40.987726],[29.120484,40.987734],[29.120681,40.987754],[29.120903,40.987789],[29.121179,40.987872],[29.121924,40.988116],[29.12225,40.988222],[29.122505,40.988301],[29.122805,40.988371],[29.123095,40.988425],[29.12347,40.988469],[29.123644,40.988481],[29.123938,40.988493],[29.124348,40.988476],[29.12567,40.988183],[29.126188,40.988018],[29.12807,40.987],[29.129013,40.986513],[29.130021,40.985987],[29.131242,40.985297],[29.132207,40.984686],[29.132618,40.984363],[29.132682,40.984286],[29.1334,40.983496],[29.134028,40.982901],[29.134553,40.982517],[29.133782,40.982091],[29.132824,40.981562],[29.131512,40.980855],[29.13123,40.980729],[29.130758,40.980573],[29.13036,40.980478],[29.128818,40.98017],[29.128604,40.980122],[29.127527,40.97983],[29.127161,40.979712],[29.126582,40.979485],[29.126261,40.979334],[29.126025,40.979222],[29.125291,40.978874],[29.125261,40.978857],[29.124157,40.978231],[29.123799,40.97808],[29.123669,40.978039],[29.123391,40.977981],[29.123301,40.977969],[29.123132,40.977968],[29.122975,40.977979],[29.119843,40.97835],[29.119158,40.978416],[29.115368,40.978684],[29.113841,40.978892],[29.113008,40.978911],[29.111118,40.979015],[29.110404,40.979063],[29.109527,40.97912],[29.109029,40.979111],[29.108507,40.979072],[29.108129,40.979057],[29.107871,40.979056],[29.107617,40.979064],[29.107414,40.979094],[29.104714,40.979542],[29.104236,40.979561],[29.103727,40.979866],[29.101612,40.980459],[29.100444,40.980766],[29.099869,40.980938],[29.099154,40.981198],[29.098578,40.981341],[29.097848,40.981756],[29.09748,40.98196],[29.098415,40.982132],[29.099151,40.982292],[29.099602,40.982401],[29.100194,40.982581],[29.100885,40.982844],[29.101318,40.98304],[29.101626,40.98319],[29.10277,40.98386],[29.104466,40.984979],[29.105649,40.985749]]]}},{"type":"Feature","properties":{"id":"TR-Y-34-003-M-0011","level":"yerlesim","type":"mahalle","parent_id":"TR-D-34-003","province_id":"TR-P-34","district_id":"TR-D-34-003","name":"Mevlana","source_raw_name":"MEVLANA","source":"Kullanıcı tarafından sağlanan KML","source_label":"Kullanıcı tarafından sağlanan KML","source_name":"Istanbul Mahalle KML"},"geometry":{"type":"Polygon","coordinates":[[[29.156571,40.98195],[29.155662,40.982015],[29.155254,40.981938],[29.15467,40.981948],[29.153949,40.982002],[29.153269,40.981967],[29.152463,40.982596],[29.151992,40.982843],[29.151659,40.983062],[29.150754,40.983822],[29.150285,40.984434],[29.148944,40.985746],[29.148154,40.986648],[29.148006,40.986775],[29.147708,40.987012],[29.147435,40.987569],[29.146978,40.987936],[29.146894,40.988333],[29.14683,40.988662],[29.146687,40.98912],[29.146661,40.989205],[29.153661,40.992675],[29.153691,40.992639],[29.154898,40.991132],[29.15865,40.991164],[29.15969,40.990181],[29.159079,40.989329],[29.158713,40.988501],[29.158492,40.986391],[29.157946,40.986375],[29.15738,40.984601],[29.156952,40.983549],[29.156609,40.98211],[29.156571,40.98195]]]}},{"type":"Feature","properties":{"id":"TR-Y-34-003-M-0012","level":"yerlesim","type":"mahalle","parent_id":"TR-D-34-003","province_id":"TR-P-34","district_id":"TR-D-34-003","name":"Mimar Sinan","source_raw_name":"MİMAR SİNAN","source":"Kullanıcı tarafından sağlanan KML","source_label":"Kullanıcı tarafından sağlanan KML","source_name":"Istanbul Mahalle KML"},"geometry":{"type":"Polygon","coordinates":[[[29.16205,40.985561],[29.16228,40.985514],[29.163551,40.985338],[29.166539,40.985005],[29.166442,40.984845],[29.166408,40.984338],[29.165823,40.983703],[29.165765,40.983548],[29.165716,40.983459],[29.165667,40.983199],[29.165781,40.982911],[29.165327,40.98205],[29.165172,40.981687],[29.164787,40.981237],[29.1642,40.980702],[29.163892,40.980627],[29.163586,40.980661],[29.163255,40.980825],[29.162835,40.980915],[29.162382,40.980773],[29.162382,40.980773],[29.162308,40.980701],[29.162151,40.980596],[29.162063,40.980532],[29.161883,40.980396],[29.161765,40.980287],[29.161582,40.980092],[29.161478,40.979956],[29.161266,40.979662],[29.161235,40.979617],[29.161184,40.979572],[29.161134,40.979535],[29.161079,40.979508],[29.160969,40.979476],[29.160892,40.979461],[29.160894,40.97951],[29.160745,40.979861],[29.160646,40.980179],[29.16032,40.981027],[29.159952,40.981053],[29.158795,40.981295],[29.158604,40.98133],[29.158249,40.981387],[29.157981,40.981457],[29.157894,40.981506],[29.157809,40.981559],[29.157617,40.981644],[29.157075,40.981911],[29.156698,40.981821],[29.156552,40.98187],[29.156571,40.98195],[29.156609,40.98211],[29.156952,40.983549],[29.15738,40.984601],[29.157946,40.986375],[29.158492,40.986391],[29.158713,40.988501],[29.159079,40.989329],[29.15969,40.990181],[29.159816,40.990098],[29.160214,40.989837],[29.161964,40.989182],[29.161994,40.989155],[29.16201,40.989114],[29.162,40.988925],[29.161995,40.988528],[29.162004,40.987812],[29.162006,40.987756],[29.161958,40.987419],[29.161996,40.987308],[29.162035,40.986117],[29.162041,40.985619],[29.16205,40.985561]]]}},{"type":"Feature","properties":{"id":"TR-Y-34-003-M-0013","level":"yerlesim","type":"mahalle","parent_id":"TR-D-34-003","province_id":"TR-P-34","district_id":"TR-D-34-003","name":"Mustafa Kemal","source_raw_name":"MUSTAFA KEMAL","source":"Kullanıcı tarafından sağlanan KML","source_label":"Kullanıcı tarafından sağlanan KML","source_name":"Istanbul Mahalle KML"},"geometry":{"type":"Polygon","coordinates":[[[29.102446,41.00352],[29.102265,41.003383],[29.102035,41.00314],[29.101927,41.00302],[29.101891,41.002971],[29.101738,41.002813],[29.101331,41.002417],[29.101107,41.002284],[29.100728,41.00208],[29.100343,41.001952],[29.100211,41.001874],[29.100088,41.001769],[29.09978,41.001537],[29.099551,41.001418],[29.09903,41.001229],[29.098561,41.001047],[29.098376,41.000941],[29.098192,41.000818],[29.097893,41.000584],[29.097713,41.000421],[29.097515,41.000272],[29.097159,41.000033],[29.096886,40.999836],[29.096622,40.999666],[29.096171,40.999524],[29.095847,40.999459],[29.095767,40.999455],[29.095701,40.999465],[29.095639,40.999437],[29.095589,40.999397],[29.095534,40.999363],[29.095364,40.999304],[29.095224,40.99923],[29.095111,40.999148],[29.095067,40.999106],[29.094661,40.998888],[29.094562,40.998822],[29.094488,40.998753],[29.094427,40.998702],[29.094201,40.998452],[29.094032,40.998311],[29.093946,40.998239],[29.093679,40.998067],[29.093506,40.997976],[29.09313,40.997816],[29.092801,40.997638],[29.092532,40.997487],[29.092466,40.997379],[29.092348,40.99728],[29.092283,40.997217],[29.092122,40.997122],[29.091049,40.996294],[29.090899,40.996149],[29.090807,40.996033],[29.090731,40.995911],[29.090661,40.995769],[29.090485,40.995115],[29.090409,40.994936],[29.090406,40.99493],[29.090296,40.994807],[29.090236,40.99477],[29.090094,40.994713],[29.089647,40.99453],[29.089421,40.9944],[29.089402,40.994383],[29.089373,40.994357],[29.08933,40.994318],[29.088848,40.995014],[29.088858,40.995649],[29.088862,40.996094],[29.088718,40.996396],[29.088585,40.996558],[29.088599,40.996918],[29.088514,40.997043],[29.088498,40.997066],[29.088489,40.99708],[29.088512,40.997092],[29.089389,40.997536],[29.089802,40.998276],[29.089899,40.999026],[29.090388,40.999714],[29.090981,41.000307],[29.091598,41.001242],[29.092257,41.002129],[29.093235,41.003795],[29.093456,41.004084],[29.093843,41.004353],[29.094673,41.004764],[29.095493,41.005491],[29.096435,41.006173],[29.097231,41.007219],[29.097574,41.007027],[29.097965,41.0068],[29.098381,41.006548],[29.098824,41.006264],[29.099218,41.005999],[29.099696,41.005678],[29.100131,41.005363],[29.100527,41.005078],[29.100954,41.004738],[29.101377,41.004391],[29.101731,41.004101],[29.102275,41.003655],[29.102446,41.00352]]]}},{"type":"Feature","properties":{"id":"TR-Y-34-003-M-0014","level":"yerlesim","type":"mahalle","parent_id":"TR-D-34-003","province_id":"TR-P-34","district_id":"TR-D-34-003","name":"Örnek","source_raw_name":"ÖRNEK","source":"Kullanıcı tarafından sağlanan KML","source_label":"Kullanıcı tarafından sağlanan KML","source_name":"Istanbul Mahalle KML"},"geometry":{"type":"Polygon","coordinates":[[[29.073663,40.993672],[29.073777,40.994148],[29.073838,40.994494],[29.073884,40.994849],[29.074036,40.996261],[29.074052,40.996571],[29.074039,40.996803],[29.074005,40.997042],[29.074125,40.997043],[29.074309,40.997045],[29.075447,40.998795],[29.077434,41.000493],[29.07734,41.00071],[29.077495,41.00084],[29.077527,41.000955],[29.077617,41.001007],[29.077798,41.001111],[29.077929,41.001183],[29.078536,41.001398],[29.07967,41.001626],[29.080062,41.00181],[29.080481,41.002272],[29.080488,41.002279],[29.080492,41.002283],[29.080492,41.002283],[29.080514,41.002047],[29.080521,41.002047],[29.08103,41.001468],[29.081421,41.001188],[29.081545,41.001124],[29.081835,41.001002],[29.082101,41.000891],[29.082162,41.000815],[29.082214,41.000761],[29.082234,41.000717],[29.082201,41.000486],[29.082129,41.000412],[29.082145,41.00022],[29.08217,40.999789],[29.082352,40.99865],[29.082706,40.998513],[29.082843,40.998463],[29.083255,40.99807],[29.083465,40.997967],[29.083971,40.997635],[29.084463,40.99716],[29.084914,40.996685],[29.085395,40.996127],[29.085642,40.99576],[29.085645,40.995755],[29.085949,40.995932],[29.086104,40.995999],[29.086414,40.996058],[29.086685,40.996031],[29.08672,40.996028],[29.086903,40.995974],[29.086922,40.995969],[29.086923,40.995969],[29.087322,40.996017],[29.087565,40.996117],[29.087748,40.99626],[29.087835,40.996354],[29.088005,40.996534],[29.088089,40.996628],[29.088346,40.996928],[29.088486,40.997022],[29.088514,40.997043],[29.088599,40.996918],[29.088585,40.996558],[29.088718,40.996396],[29.088862,40.996094],[29.088858,40.995649],[29.088848,40.995014],[29.08933,40.994318],[29.089216,40.994189],[29.088962,40.993852],[29.088809,40.993649],[29.088702,40.993541],[29.088033,40.99287],[29.087941,40.992777],[29.08775,40.992591],[29.087301,40.992155],[29.087275,40.99214],[29.087197,40.992092],[29.086887,40.991971],[29.086738,40.991951],[29.086656,40.991932],[29.086565,40.991931],[29.086285,40.991929],[29.085546,40.991945],[29.084585,40.991943],[29.084141,40.991956],[29.083651,40.992034],[29.083193,40.992124],[29.083047,40.992131],[29.082935,40.992114],[29.082827,40.992093],[29.082715,40.992055],[29.082576,40.991977],[29.082432,40.99187],[29.082294,40.991763],[29.082065,40.991618],[29.081888,40.991547],[29.081711,40.991513],[29.081513,40.991504],[29.081414,40.991524],[29.081218,40.991571],[29.08121,40.991573],[29.080953,40.991656],[29.080758,40.991727],[29.080547,40.991804],[29.08045,40.991841],[29.08044,40.991842],[29.080333,40.991858],[29.080149,40.99189],[29.079914,40.991914],[29.079708,40.991966],[29.079464,40.991943],[29.079437,40.991935],[29.07895,40.991781],[29.078543,40.991758],[29.078491,40.991606],[29.078347,40.991564],[29.078129,40.991597],[29.077431,40.991547],[29.076436,40.991433],[29.076265,40.991413],[29.075949,40.991532],[29.075429,40.991728],[29.074852,40.991945],[29.07342,40.992485],[29.073361,40.992507],[29.073612,40.993417],[29.073658,40.993667],[29.073663,40.993672]]]}},{"type":"Feature","properties":{"id":"TR-Y-34-003-M-0015","level":"yerlesim","type":"mahalle","parent_id":"TR-D-34-003","province_id":"TR-P-34","district_id":"TR-D-34-003","name":"Yeni Çamlıca","source_raw_name":"YENİ ÇAMLICA","source":"Kullanıcı tarafından sağlanan KML","source_label":"Kullanıcı tarafından sağlanan KML","source_name":"Istanbul Mahalle KML"},"geometry":{"type":"Polygon","coordinates":[[[29.157072,40.994643],[29.157916,40.994643],[29.15855,40.994643],[29.159878,40.994643],[29.160896,40.994598],[29.162443,40.994512],[29.16345,40.994409],[29.165079,40.994168],[29.166308,40.993922],[29.167822,40.993532],[29.168615,40.993307],[29.168442,40.992359],[29.168163,40.99171],[29.167366,40.990426],[29.16733,40.989823],[29.167456,40.989064],[29.167509,40.988761],[29.167515,40.988217],[29.167437,40.987854],[29.167405,40.987455],[29.167195,40.987087],[29.167068,40.986897],[29.166933,40.986616],[29.166773,40.986014],[29.166707,40.985486],[29.166644,40.985426],[29.166543,40.985022],[29.166539,40.985005],[29.163551,40.985338],[29.16228,40.985514],[29.16205,40.985561],[29.162041,40.985619],[29.162035,40.986117],[29.161996,40.987308],[29.161958,40.987419],[29.162006,40.987756],[29.162004,40.987812],[29.161995,40.988528],[29.162,40.988925],[29.16201,40.989114],[29.161994,40.989155],[29.161964,40.989182],[29.160214,40.989837],[29.159816,40.990098],[29.15969,40.990181],[29.15865,40.991164],[29.154898,40.991132],[29.153691,40.992639],[29.153661,40.992675],[29.15492,40.993161],[29.155362,40.993364],[29.155299,40.99464],[29.157072,40.994643]]]}},{"type":"Feature","properties":{"id":"TR-Y-34-003-M-0016","level":"yerlesim","type":"mahalle","parent_id":"TR-D-34-003","province_id":"TR-P-34","district_id":"TR-D-34-003","name":"Yenisahra","source_raw_name":"YENİSAHRA","source":"Kullanıcı tarafından sağlanan KML","source_label":"Kullanıcı tarafından sağlanan KML","source_name":"Istanbul Mahalle KML"},"geometry":{"type":"Polygon","coordinates":[[[29.089653,40.985696],[29.089481,40.985807],[29.088201,40.986555],[29.087253,40.987074],[29.0858,40.987772],[29.08442,40.988351],[29.079677,40.99013],[29.079654,40.990137],[29.07962,40.990149],[29.076265,40.991413],[29.076436,40.991433],[29.077431,40.991547],[29.078129,40.991597],[29.078347,40.991564],[29.078491,40.991606],[29.078543,40.991758],[29.07895,40.991781],[29.079437,40.991935],[29.079464,40.991943],[29.079708,40.991966],[29.079914,40.991914],[29.080149,40.99189],[29.080333,40.991858],[29.08044,40.991842],[29.08045,40.991841],[29.080547,40.991804],[29.080758,40.991727],[29.080953,40.991656],[29.08121,40.991573],[29.081218,40.991571],[29.081414,40.991524],[29.081513,40.991504],[29.081711,40.991513],[29.081888,40.991547],[29.082065,40.991618],[29.082294,40.991763],[29.082432,40.99187],[29.082576,40.991977],[29.082715,40.992055],[29.082827,40.992093],[29.082935,40.992114],[29.083047,40.992131],[29.083193,40.992124],[29.083651,40.992034],[29.084141,40.991956],[29.084585,40.991943],[29.085546,40.991945],[29.086285,40.991929],[29.086565,40.991931],[29.086656,40.991932],[29.086738,40.991951],[29.086887,40.991971],[29.087197,40.992092],[29.087275,40.99214],[29.087301,40.992155],[29.08775,40.992591],[29.087941,40.992777],[29.088033,40.99287],[29.088702,40.993541],[29.088809,40.993649],[29.088962,40.993852],[29.089216,40.994189],[29.08933,40.994318],[29.089373,40.994357],[29.089402,40.994383],[29.089421,40.9944],[29.089647,40.99453],[29.090094,40.994713],[29.090236,40.99477],[29.090296,40.994807],[29.090406,40.99493],[29.090422,40.994928],[29.090862,40.994875],[29.090985,40.994927],[29.091196,40.995038],[29.091588,40.995282],[29.09166,40.995312],[29.091947,40.995377],[29.092022,40.995398],[29.092118,40.995456],[29.092319,40.995659],[29.092577,40.99585],[29.092747,40.995786],[29.092837,40.995674],[29.092862,40.995608],[29.09287,40.995395],[29.092974,40.995187],[29.093018,40.995122],[29.093004,40.995009],[29.093076,40.994762],[29.093077,40.994568],[29.093231,40.994149],[29.092992,40.993978],[29.092869,40.99381],[29.092703,40.993384],[29.092679,40.993251],[29.092695,40.993077],[29.09275,40.992823],[29.092906,40.992203],[29.092825,40.992114],[29.092595,40.991978],[29.092439,40.99182],[29.091912,40.991522],[29.091807,40.991328],[29.091635,40.99109],[29.091886,40.990903],[29.092118,40.990549],[29.092324,40.990169],[29.092532,40.989968],[29.09283,40.989747],[29.093201,40.989357],[29.093493,40.988947],[29.093705,40.988619],[29.093851,40.988444],[29.09415,40.988184],[29.094477,40.987803],[29.095298,40.987071],[29.095381,40.987011],[29.095382,40.98701],[29.095381,40.987009],[29.09518,40.986935],[29.094763,40.986793],[29.094251,40.986591],[29.093781,40.986448],[29.093442,40.986353],[29.093259,40.986312],[29.09298,40.98631],[29.092641,40.986299],[29.092187,40.986237],[29.091489,40.986146],[29.090038,40.985994],[29.08986,40.985929],[29.089735,40.98577],[29.089676,40.985716],[29.089653,40.985696]]]}},{"type":"Feature","properties":{"id":"TR-Y-34-003-M-0017","level":"yerlesim","type":"mahalle","parent_id":"TR-D-34-003","province_id":"TR-P-34","district_id":"TR-D-34-003","name":"Yenişehir","source_raw_name":"YENİŞEHİR","source":"Kullanıcı tarafından sağlanan KML","source_label":"Kullanıcı tarafından sağlanan KML","source_name":"Istanbul Mahalle KML"},"geometry":{"type":"Polygon","coordinates":[[[29.141507,40.996286],[29.144103,40.99578],[29.146586,40.995311],[29.147743,40.995118],[29.149164,40.994924],[29.150584,40.994778],[29.151554,40.994712],[29.153952,40.994621],[29.155299,40.99464],[29.155362,40.993364],[29.15492,40.993161],[29.153661,40.992675],[29.146661,40.989205],[29.146527,40.989401],[29.146421,40.989816],[29.146361,40.990084],[29.146218,40.990423],[29.146143,40.990543],[29.145845,40.990882],[29.145246,40.99157],[29.145135,40.991659],[29.144706,40.991914],[29.144364,40.991908],[29.14404,40.991989],[29.14378,40.992121],[29.143607,40.992193],[29.143355,40.992259],[29.143155,40.992288],[29.142599,40.992292],[29.140502,40.993018],[29.140286,40.993064],[29.13994,40.993065],[29.1391,40.992974],[29.138513,40.99285],[29.138207,40.992877],[29.137383,40.992842],[29.136831,40.993588],[29.136776,40.993704],[29.135197,40.993692],[29.134176,40.993418],[29.132157,40.99368],[29.130877,40.994627],[29.130792,40.996832],[29.132472,40.996982],[29.133705,40.997039],[29.135685,40.997024],[29.136677,40.996968],[29.138687,40.996754],[29.139097,40.996686],[29.141507,40.996286]]]}}]}