{"type":"FeatureCollection","name":"turkiye_map.dist.mahalle_geometrileri_by_district.TR-D-35-010","features":[{"type":"Feature","properties":{"id":"TR-Y-35-010-M-0001","level":"yerlesim","type":"mahalle","parent_id":"TR-D-35-010","province_id":"TR-P-35","district_id":"TR-D-35-010","name":"Ahmet Efendi","source_raw_name":"AHMET EFENDİ","source":"Kullanıcı tarafından sağlanan KML","source_label":"Kullanıcı tarafından sağlanan KML","source_name":"Izmir Mahalle KML - kullanici tarafindan saglandi"},"geometry":{"type":"Polygon","coordinates":[[[27.039631,38.522287],[27.040183,38.522329],[27.04014,38.523496],[27.040853,38.523459],[27.041288,38.523404],[27.041319,38.523085],[27.041127,38.522685],[27.041132,38.522535],[27.041233,38.522246],[27.041248,38.522],[27.040887,38.521489],[27.040927,38.521223],[27.04097,38.520961],[27.041044,38.520659],[27.041159,38.520231],[27.041179,38.520188],[27.040819,38.519938],[27.040436,38.519679],[27.040052,38.519436],[27.039578,38.51919],[27.039206,38.519042],[27.038611,38.518905],[27.0378,38.518818],[27.036723,38.518726],[27.03622,38.518675],[27.034727,38.520473],[27.034439,38.520812],[27.03243,38.523126],[27.03141,38.524373],[27.030693,38.525584],[27.030372,38.526188],[27.031017,38.526508],[27.031094,38.526546],[27.031148,38.526436],[27.031472,38.525922],[27.031927,38.525411],[27.035273,38.522673],[27.035852,38.5222],[27.035985,38.522204],[27.037862,38.522247],[27.039156,38.522276],[27.039423,38.522282],[27.039631,38.522287]]]}},{"type":"Feature","properties":{"id":"TR-Y-35-010-M-0002","level":"yerlesim","type":"mahalle","parent_id":"TR-D-35-010","province_id":"TR-P-35","district_id":"TR-D-35-010","name":"Ataşehir","source_raw_name":"ATAŞEHİR","source":"Kullanıcı tarafından sağlanan KML","source_label":"Kullanıcı tarafından sağlanan KML","source_name":"Izmir Mahalle KML - kullanici tarafindan saglandi"},"geometry":{"type":"Polygon","coordinates":[[[27.062974,38.493354],[27.063603,38.492923],[27.063713,38.492848],[27.063805,38.492785],[27.064153,38.492578],[27.064639,38.492307],[27.064832,38.492199],[27.064899,38.492162],[27.065105,38.492043],[27.065644,38.491731],[27.065935,38.491562],[27.066296,38.491354],[27.067619,38.490574],[27.067961,38.490373],[27.068156,38.490263],[27.068653,38.489984],[27.069709,38.489409],[27.070266,38.489161],[27.07079,38.488928],[27.070806,38.488921],[27.071214,38.488779],[27.071728,38.488599],[27.072002,38.488504],[27.072435,38.488353],[27.072821,38.488221],[27.073668,38.487932],[27.073812,38.487882],[27.074265,38.487728],[27.074461,38.48766],[27.074487,38.487652],[27.075102,38.487436],[27.077238,38.486687],[27.078366,38.4863],[27.08059,38.485543],[27.080944,38.485412],[27.08121,38.485314],[27.081748,38.485115],[27.082104,38.484983],[27.0824,38.484874],[27.082822,38.483812],[27.08299,38.483385],[27.083383,38.482361],[27.083509,38.482092],[27.083767,38.481711],[27.08325,38.481147],[27.082347,38.481585],[27.081316,38.481939],[27.080371,38.482009],[27.076204,38.48152],[27.07567,38.48113],[27.074577,38.480271],[27.073447,38.47937],[27.072863,38.478904],[27.07258,38.478683],[27.071443,38.477792],[27.069594,38.476345],[27.06709,38.476221],[27.066824,38.476502],[27.066695,38.476651],[27.066214,38.476649],[27.06551,38.477153],[27.06199,38.47937],[27.059411,38.481233],[27.05858,38.481009],[27.057695,38.480742],[27.055876,38.480164],[27.054984,38.479857],[27.054776,38.479761],[27.054469,38.479638],[27.053966,38.479405],[27.053855,38.479688],[27.053414,38.480314],[27.053129,38.480637],[27.05296,38.480777],[27.052845,38.481009],[27.052815,38.481327],[27.052827,38.48164],[27.052958,38.481877],[27.053755,38.482324],[27.053081,38.482483],[27.052888,38.482756],[27.052727,38.483344],[27.051929,38.484234],[27.050942,38.485792],[27.051288,38.486596],[27.050995,38.487522],[27.050713,38.487813],[27.05019,38.488097],[27.047467,38.492156],[27.04721,38.492549],[27.046963,38.493088],[27.046948,38.493557],[27.047201,38.49355],[27.048374,38.493539],[27.049437,38.49352],[27.050257,38.493498],[27.050915,38.493465],[27.051663,38.493432],[27.052182,38.493405],[27.052578,38.493385],[27.052693,38.493378],[27.053005,38.493365],[27.0533,38.493348],[27.053925,38.493303],[27.054698,38.493247],[27.054968,38.493228],[27.055283,38.493203],[27.055551,38.493189],[27.055918,38.493161],[27.056543,38.493118],[27.057295,38.49306],[27.05764,38.49303],[27.058356,38.493003],[27.059045,38.493018],[27.059396,38.492965],[27.059591,38.492961],[27.059579,38.493144],[27.059602,38.49319],[27.059671,38.493219],[27.059902,38.493297],[27.06003,38.493347],[27.060374,38.493489],[27.060583,38.493575],[27.061031,38.493759],[27.061061,38.493772],[27.061649,38.494026],[27.061911,38.494139],[27.061939,38.494113],[27.06237,38.493782],[27.062435,38.493732],[27.062529,38.493659],[27.062974,38.493354]]]}},{"type":"Feature","properties":{"id":"TR-Y-35-010-M-0003","level":"yerlesim","type":"mahalle","parent_id":"TR-D-35-010","province_id":"TR-P-35","district_id":"TR-D-35-010","name":"Atatürk","source_raw_name":"ATATÜRK","source":"Kullanıcı tarafından sağlanan KML","source_label":"Kullanıcı tarafından sağlanan KML","source_name":"Izmir Mahalle KML - kullanici tarafindan saglandi"},"geometry":{"type":"Polygon","coordinates":[[[27.066759,38.517367],[27.066465,38.517535],[27.066417,38.517555],[27.065665,38.517899],[27.065371,38.51752],[27.065335,38.517094],[27.065306,38.516623],[27.065248,38.516034],[27.065196,38.515698],[27.065098,38.515333],[27.064843,38.514498],[27.064832,38.514463],[27.064722,38.514097],[27.064584,38.513879],[27.064302,38.513555],[27.064169,38.513442],[27.064162,38.513394],[27.064146,38.513295],[27.064186,38.513084],[27.064109,38.512808],[27.064039,38.512738],[27.063991,38.512652],[27.063282,38.511935],[27.062599,38.512327],[27.062094,38.512526],[27.061476,38.512669],[27.060411,38.512865],[27.059964,38.513151],[27.058951,38.514016],[27.058598,38.514945],[27.058566,38.515031],[27.058458,38.516124],[27.058389,38.516521],[27.05836,38.516683],[27.058277,38.516984],[27.058241,38.517272],[27.058218,38.517506],[27.05821,38.518093],[27.058181,38.518284],[27.058172,38.518344],[27.058103,38.518652],[27.058062,38.518805],[27.057967,38.519363],[27.058393,38.520487],[27.058739,38.521178],[27.05622,38.523183],[27.056006,38.52336],[27.057441,38.523377],[27.058491,38.523435],[27.0598,38.523705],[27.061186,38.524194],[27.062243,38.523901],[27.064077,38.523409],[27.065196,38.52311],[27.065555,38.522947],[27.06582,38.522398],[27.067323,38.522271],[27.06782,38.522507],[27.068917,38.523047],[27.069778,38.523063],[27.072653,38.52072],[27.073515,38.520018],[27.072449,38.517856],[27.072204,38.517566],[27.071925,38.517237],[27.0714,38.517597],[27.071299,38.517667],[27.068174,38.517128],[27.066766,38.517367],[27.066766,38.517367],[27.066759,38.517367],[27.066759,38.517367]]]}},{"type":"Feature","properties":{"id":"TR-Y-35-010-M-0004","level":"yerlesim","type":"mahalle","parent_id":"TR-D-35-010","province_id":"TR-P-35","district_id":"TR-D-35-010","name":"Aydınlıkevler","source_raw_name":"AYDINLIKEVLER","source":"Kullanıcı tarafından sağlanan KML","source_label":"Kullanıcı tarafından sağlanan KML","source_name":"Izmir Mahalle KML - kullanici tarafindan saglandi"},"geometry":{"type":"Polygon","coordinates":[[[27.0824,38.484874],[27.082104,38.484983],[27.081748,38.485115],[27.08121,38.485314],[27.080944,38.485412],[27.08059,38.485543],[27.078366,38.4863],[27.077238,38.486687],[27.075102,38.487436],[27.076207,38.488161],[27.076443,38.488313],[27.076713,38.48852],[27.076866,38.488636],[27.076995,38.488735],[27.07707,38.48884],[27.077135,38.489486],[27.077208,38.490577],[27.077225,38.490705],[27.077259,38.490957],[27.077328,38.491134],[27.077385,38.49128],[27.077593,38.491608],[27.078022,38.492197],[27.078193,38.492296],[27.078867,38.492573],[27.079469,38.49282],[27.079548,38.492855],[27.079728,38.492936],[27.080167,38.49313],[27.080534,38.493244],[27.081051,38.49339],[27.081358,38.493477],[27.081906,38.49366],[27.082284,38.493849],[27.082434,38.494068],[27.082534,38.494391],[27.082647,38.494434],[27.082779,38.494464],[27.082868,38.494484],[27.083084,38.494452],[27.083465,38.494265],[27.083586,38.494206],[27.084031,38.494002],[27.08408,38.4941],[27.084077,38.494748],[27.084089,38.49514],[27.084428,38.495074],[27.084525,38.495024],[27.084684,38.494671],[27.08484,38.494327],[27.08527,38.493996],[27.085445,38.493917],[27.085691,38.493775],[27.086222,38.493503],[27.086299,38.493469],[27.086436,38.493407],[27.086691,38.493293],[27.087295,38.493078],[27.088523,38.492642],[27.088454,38.492568],[27.08813,38.492284],[27.087982,38.492154],[27.087935,38.492114],[27.087649,38.491864],[27.08757,38.491794],[27.087464,38.491701],[27.087097,38.491377],[27.087004,38.491292],[27.087439,38.490593],[27.087589,38.490353],[27.087806,38.490006],[27.088126,38.489511],[27.088921,38.489101],[27.087542,38.488576],[27.087352,38.488503],[27.085179,38.487201],[27.08365,38.486199],[27.0824,38.484874]]]}},{"type":"Feature","properties":{"id":"TR-Y-35-010-M-0005","level":"yerlesim","type":"mahalle","parent_id":"TR-D-35-010","province_id":"TR-P-35","district_id":"TR-D-35-010","name":"Balatcık","source_raw_name":"BALATÇIK","source":"Kullanıcı tarafından sağlanan KML","source_label":"Kullanıcı tarafından sağlanan KML","source_name":"Izmir Mahalle KML - kullanici tarafindan saglandi"},"geometry":{"type":"Polygon","coordinates":[[[27.030693,38.525584],[27.03141,38.524373],[27.03243,38.523126],[27.034439,38.520812],[27.034727,38.520473],[27.03622,38.518675],[27.036723,38.518726],[27.0378,38.518818],[27.038611,38.518905],[27.039206,38.519042],[27.039578,38.51919],[27.040052,38.519436],[27.040436,38.519679],[27.040819,38.519938],[27.041179,38.520188],[27.041572,38.520477],[27.042078,38.520821],[27.04225,38.520964],[27.042421,38.521183],[27.043069,38.521791],[27.043585,38.521967],[27.044817,38.521944],[27.04478,38.521004],[27.045047,38.517568],[27.04519,38.517113],[27.045241,38.516885],[27.046883,38.516994],[27.048672,38.517155],[27.048545,38.513592],[27.049352,38.513175],[27.050754,38.512728],[27.050609,38.511967],[27.050266,38.511845],[27.050069,38.511775],[27.04924,38.511352],[27.04852,38.510914],[27.04792,38.510336],[27.047148,38.509694],[27.046845,38.509436],[27.046996,38.509138],[27.047296,38.508545],[27.047598,38.508107],[27.047801,38.507812],[27.047997,38.507535],[27.048028,38.507501],[27.047858,38.50737],[27.047778,38.507308],[27.047386,38.507038],[27.047335,38.507001],[27.047275,38.506957],[27.046946,38.506715],[27.046844,38.506638],[27.046767,38.506579],[27.046811,38.506521],[27.046884,38.506412],[27.046949,38.506337],[27.047191,38.506059],[27.047317,38.505911],[27.047473,38.505727],[27.047571,38.505627],[27.047892,38.505298],[27.047841,38.505273],[27.047773,38.50524],[27.047617,38.505145],[27.04754,38.50509],[27.047326,38.504935],[27.047218,38.504858],[27.046981,38.504687],[27.046745,38.504527],[27.046425,38.504309],[27.046403,38.504294],[27.046248,38.504189],[27.046107,38.504102],[27.046076,38.504082],[27.045769,38.503892],[27.045694,38.503846],[27.045394,38.50375],[27.044571,38.503711],[27.044462,38.503704],[27.044399,38.5037],[27.043953,38.503686],[27.043652,38.503676],[27.043564,38.504247],[27.043534,38.50444],[27.043009,38.505575],[27.041031,38.505629],[27.040606,38.505629],[27.04044,38.505669],[27.040321,38.505751],[27.040275,38.505832],[27.040215,38.506149],[27.040201,38.506221],[27.040044,38.506328],[27.038999,38.506381],[27.037667,38.507939],[27.037057,38.509027],[27.035496,38.509063],[27.035007,38.508286],[27.032523,38.50842],[27.028066,38.508418],[27.027286,38.508735],[27.026894,38.508861],[27.02596,38.517049],[27.026122,38.519866],[27.026686,38.522304],[27.026148,38.522775],[27.026976,38.523565],[27.027392,38.524216],[27.027608,38.524822],[27.028337,38.524395],[27.028679,38.524786],[27.028913,38.525026],[27.02954,38.525629],[27.029853,38.525875],[27.030372,38.526188],[27.030693,38.525584]]]}},{"type":"Feature","properties":{"id":"TR-Y-35-010-M-0006","level":"yerlesim","type":"mahalle","parent_id":"TR-D-35-010","province_id":"TR-P-35","district_id":"TR-D-35-010","name":"Çağdaş","source_raw_name":"ÇAĞDAŞ","source":"Kullanıcı tarafından sağlanan KML","source_label":"Kullanıcı tarafından sağlanan KML","source_name":"Izmir Mahalle KML - kullanici tarafindan saglandi"},"geometry":{"type":"Polygon","coordinates":[[[27.060228,38.504581],[27.060599,38.504141],[27.060569,38.50405],[27.060482,38.503775],[27.060364,38.503471],[27.060187,38.503109],[27.060121,38.502856],[27.060069,38.502602],[27.060139,38.502562],[27.060224,38.50248],[27.060399,38.502313],[27.06107,38.501603],[27.061172,38.501495],[27.061426,38.501251],[27.06152,38.501199],[27.061604,38.501152],[27.061858,38.501128],[27.062185,38.501123],[27.062384,38.501166],[27.062635,38.501257],[27.062724,38.501303],[27.063719,38.501802],[27.063849,38.501845],[27.064044,38.501909],[27.064128,38.501937],[27.065021,38.502325],[27.065122,38.502377],[27.065445,38.5022],[27.066306,38.501776],[27.065895,38.501405],[27.065632,38.500821],[27.065128,38.500367],[27.064807,38.499942],[27.064384,38.499447],[27.064129,38.499244],[27.063791,38.499044],[27.063507,38.498912],[27.063442,38.498882],[27.063039,38.498614],[27.062595,38.498201],[27.062497,38.498107],[27.062257,38.498315],[27.062213,38.498354],[27.061471,38.499001],[27.06142,38.49904],[27.061051,38.499316],[27.060468,38.499734],[27.060114,38.500046],[27.059949,38.500191],[27.059194,38.500816],[27.058852,38.501101],[27.058496,38.5014],[27.057782,38.502006],[27.057582,38.502172],[27.057221,38.502474],[27.056576,38.503042],[27.056263,38.503317],[27.056515,38.503485],[27.05683,38.503599],[27.057076,38.503644],[27.057244,38.50367],[27.056148,38.504784],[27.055917,38.505171],[27.055551,38.505714],[27.05549,38.505837],[27.054782,38.506927],[27.055107,38.507126],[27.055416,38.507131],[27.055441,38.507163],[27.055582,38.507269],[27.055696,38.507345],[27.055777,38.507399],[27.056047,38.507495],[27.056153,38.507526],[27.056396,38.507598],[27.056517,38.507666],[27.056793,38.50785],[27.056917,38.50791],[27.057103,38.508],[27.057327,38.50809],[27.057479,38.508152],[27.057867,38.508224],[27.057904,38.508116],[27.058139,38.507425],[27.05823,38.507218],[27.058584,38.506423],[27.058676,38.506298],[27.05892,38.505968],[27.059277,38.505574],[27.059501,38.505326],[27.059669,38.505141],[27.05979,38.505019],[27.060126,38.504682],[27.060228,38.504581]]]}},{"type":"Feature","properties":{"id":"TR-Y-35-010-M-0007","level":"yerlesim","type":"mahalle","parent_id":"TR-D-35-010","province_id":"TR-P-35","district_id":"TR-D-35-010","name":"Cumhuriyet","source_raw_name":"CUMHURİYET","source":"Kullanıcı tarafından sağlanan KML","source_label":"Kullanıcı tarafından sağlanan KML","source_name":"Izmir Mahalle KML - kullanici tarafindan saglandi"},"geometry":{"type":"Polygon","coordinates":[[[27.085075,38.555739],[27.084654,38.554846],[27.086097,38.554516],[27.087749,38.554138],[27.090289,38.55278],[27.091358,38.551399],[27.091692,38.550468],[27.092383,38.55041],[27.10137,38.54342],[27.102925,38.543031],[27.105181,38.542468],[27.111041,38.541224],[27.110972,38.537786],[27.112413,38.536546],[27.114713,38.536847],[27.115915,38.533617],[27.082635,38.535545],[27.078052,38.533903],[27.077214,38.533762],[27.076131,38.533814],[27.075914,38.533332],[27.076029,38.532838],[27.076512,38.532019],[27.076209,38.531859],[27.075528,38.531508],[27.07414,38.531203],[27.0729,38.530536],[27.072464,38.530358],[27.070144,38.5296],[27.069012,38.529343],[27.068786,38.52936],[27.068796,38.52945],[27.067008,38.530009],[27.068639,38.532302],[27.067088,38.53396],[27.06188,38.533371],[27.061445,38.533405],[27.060945,38.533647],[27.060149,38.534222],[27.059301,38.534633],[27.058713,38.534684],[27.057776,38.534546],[27.056683,38.534299],[27.056141,38.534239],[27.055657,38.534268],[27.055471,38.53431],[27.055064,38.534403],[27.054694,38.534467],[27.054419,38.534514],[27.054075,38.534573],[27.053584,38.534697],[27.053393,38.534914],[27.053087,38.535007],[27.052107,38.534965],[27.052185,38.535504],[27.052181,38.535693],[27.052071,38.535732],[27.051992,38.535766],[27.051908,38.535815],[27.051859,38.535864],[27.05182,38.535942],[27.051791,38.536015],[27.051747,38.536119],[27.051665,38.536211],[27.051586,38.536282],[27.051509,38.536323],[27.051427,38.536349],[27.05129,38.536363],[27.051164,38.536389],[27.051023,38.536442],[27.050835,38.536535],[27.050731,38.536598],[27.050665,38.536622],[27.050573,38.536638],[27.050526,38.536634],[27.050484,38.536624],[27.050367,38.536591],[27.050299,38.536577],[27.050261,38.536577],[27.050226,38.536591],[27.050179,38.536624],[27.050076,38.536721],[27.050071,38.536766],[27.050064,38.536886],[27.050082,38.537006],[27.050115,38.537409],[27.04998,38.537822],[27.049839,38.53825],[27.049797,38.538819],[27.049853,38.539897],[27.049859,38.540204],[27.04895,38.543605],[27.048798,38.543974],[27.049446,38.544388],[27.0507,38.544801],[27.051878,38.545248],[27.052183,38.5454],[27.053075,38.545844],[27.053693,38.54667],[27.053947,38.546596],[27.054704,38.546966],[27.056146,38.548273],[27.058904,38.548706],[27.060126,38.549513],[27.060737,38.549773],[27.061349,38.550263],[27.06232,38.550616],[27.062652,38.550824],[27.063345,38.551658],[27.063563,38.551829],[27.064777,38.551851],[27.065147,38.552051],[27.06529,38.552349],[27.06529,38.552349],[27.065641,38.55255],[27.066562,38.553436],[27.067102,38.553361],[27.067443,38.553204],[27.067795,38.553733],[27.068136,38.553993],[27.068273,38.554812],[27.068323,38.555086],[27.068953,38.555252],[27.069267,38.555046],[27.071858,38.555143],[27.074619,38.555243],[27.078172,38.555589],[27.080535,38.555161],[27.082456,38.556268],[27.085075,38.555739]]]}},{"type":"Feature","properties":{"id":"TR-Y-35-010-M-0008","level":"yerlesim","type":"mahalle","parent_id":"TR-D-35-010","province_id":"TR-P-35","district_id":"TR-D-35-010","name":"Egekent","source_raw_name":"EGEKENT","source":"Kullanıcı tarafından sağlanan KML","source_label":"Kullanıcı tarafından sağlanan KML","source_name":"Izmir Mahalle KML - kullanici tarafindan saglandi"},"geometry":{"type":"Polygon","coordinates":[[[27.060228,38.504581],[27.060126,38.504682],[27.05979,38.505019],[27.059669,38.505141],[27.059501,38.505326],[27.059277,38.505574],[27.05892,38.505968],[27.058676,38.506298],[27.058584,38.506423],[27.05823,38.507218],[27.058139,38.507425],[27.057904,38.508116],[27.057867,38.508224],[27.058055,38.508248],[27.059023,38.508404],[27.058883,38.508597],[27.060458,38.509304],[27.06072,38.509022],[27.061096,38.508618],[27.061525,38.508222],[27.061617,38.508137],[27.061761,38.50802],[27.062079,38.50776],[27.062551,38.507404],[27.062785,38.507167],[27.063128,38.506885],[27.063444,38.506624],[27.063714,38.5064],[27.063899,38.506321],[27.064579,38.50628],[27.064784,38.5063],[27.064905,38.506312],[27.065335,38.506538],[27.065539,38.506681],[27.06596,38.506975],[27.066853,38.507733],[27.06737,38.508149],[27.067753,38.50851],[27.067769,38.50862],[27.069482,38.508626],[27.069284,38.507621],[27.069352,38.507178],[27.069429,38.506675],[27.068779,38.506021],[27.068515,38.505426],[27.068091,38.504912],[27.067979,38.504564],[27.067921,38.504383],[27.067635,38.503479],[27.067417,38.503088],[27.067242,38.502724],[27.066672,38.502107],[27.066306,38.501776],[27.065445,38.5022],[27.065122,38.502377],[27.065021,38.502325],[27.064128,38.501937],[27.064044,38.501909],[27.063849,38.501845],[27.063719,38.501802],[27.062724,38.501303],[27.062635,38.501257],[27.062384,38.501166],[27.062185,38.501123],[27.061858,38.501128],[27.061604,38.501152],[27.06152,38.501199],[27.061426,38.501251],[27.061172,38.501495],[27.06107,38.501603],[27.060399,38.502313],[27.060224,38.50248],[27.060139,38.502562],[27.060069,38.502602],[27.060121,38.502856],[27.060187,38.503109],[27.060364,38.503471],[27.060482,38.503775],[27.060569,38.50405],[27.060599,38.504141],[27.060228,38.504581]]]}},{"type":"Feature","properties":{"id":"TR-Y-35-010-M-0009","level":"yerlesim","type":"mahalle","parent_id":"TR-D-35-010","province_id":"TR-P-35","district_id":"TR-D-35-010","name":"Esentepe","source_raw_name":"ESENTEPE","source":"Kullanıcı tarafından sağlanan KML","source_label":"Kullanıcı tarafından sağlanan KML","source_name":"Izmir Mahalle KML - kullanici tarafindan saglandi"},"geometry":{"type":"Polygon","coordinates":[[[27.058389,38.516521],[27.058458,38.516124],[27.058566,38.515031],[27.058598,38.514945],[27.058951,38.514016],[27.059964,38.513151],[27.060411,38.512865],[27.061476,38.512669],[27.062094,38.512526],[27.062599,38.512327],[27.063282,38.511935],[27.062066,38.510578],[27.061905,38.510396],[27.061316,38.509731],[27.060458,38.509304],[27.058883,38.508597],[27.059023,38.508404],[27.058055,38.508248],[27.057867,38.508224],[27.057479,38.508152],[27.057327,38.50809],[27.057103,38.508],[27.056917,38.50791],[27.056793,38.50785],[27.056517,38.507666],[27.056396,38.507598],[27.056153,38.507526],[27.056047,38.507495],[27.055777,38.507399],[27.055696,38.507345],[27.055582,38.507269],[27.055441,38.507163],[27.055416,38.507131],[27.055107,38.507126],[27.054782,38.506927],[27.054716,38.506686],[27.054434,38.506566],[27.054323,38.506412],[27.053695,38.505997],[27.053541,38.506099],[27.052481,38.505722],[27.052413,38.505729],[27.052291,38.505784],[27.052252,38.505808],[27.052028,38.506005],[27.051611,38.50637],[27.051428,38.50653],[27.050724,38.507143],[27.050596,38.507256],[27.050183,38.506966],[27.049768,38.506675],[27.049302,38.506347],[27.049261,38.506309],[27.048532,38.506949],[27.048028,38.507501],[27.047997,38.507535],[27.047801,38.507812],[27.047598,38.508107],[27.047296,38.508545],[27.046996,38.509138],[27.046845,38.509436],[27.047148,38.509694],[27.04792,38.510336],[27.04852,38.510914],[27.04924,38.511352],[27.050069,38.511775],[27.050266,38.511845],[27.051038,38.51212],[27.051117,38.512148],[27.051936,38.512424],[27.052425,38.512683],[27.053219,38.51327],[27.053934,38.513885],[27.054446,38.514328],[27.055136,38.515038],[27.055609,38.515588],[27.05574,38.51574],[27.055964,38.516071],[27.056038,38.51618],[27.057646,38.516008],[27.057805,38.516309],[27.058042,38.51659],[27.058346,38.516575],[27.058389,38.516521]]]}},{"type":"Feature","properties":{"id":"TR-Y-35-010-M-0010","level":"yerlesim","type":"mahalle","parent_id":"TR-D-35-010","province_id":"TR-P-35","district_id":"TR-D-35-010","name":"Evka 2","source_raw_name":"EVKA-2","source":"Kullanıcı tarafından sağlanan KML","source_label":"Kullanıcı tarafından sağlanan KML","source_name":"Izmir Mahalle KML - kullanici tarafindan saglandi"},"geometry":{"type":"Polygon","coordinates":[[[27.086714,38.497325],[27.086199,38.497291],[27.085919,38.497274],[27.085892,38.497274],[27.085499,38.497291],[27.084697,38.49734],[27.084556,38.497349],[27.083645,38.497419],[27.083306,38.497445],[27.082396,38.497485],[27.08207,38.4975],[27.08205,38.497501],[27.08181,38.497548],[27.081099,38.497588],[27.081151,38.497491],[27.081117,38.497205],[27.081046,38.496805],[27.080519,38.496831],[27.080315,38.496922],[27.080263,38.497067],[27.080126,38.497178],[27.079922,38.497418],[27.079851,38.497566],[27.078674,38.498076],[27.078456,38.497907],[27.078022,38.498134],[27.078063,38.498208],[27.078057,38.49855],[27.07809,38.498704],[27.078187,38.498788],[27.078918,38.499007],[27.07904,38.499126],[27.079076,38.499322],[27.07894,38.499834],[27.07898,38.499977],[27.079117,38.500106],[27.079411,38.500258],[27.079666,38.500377],[27.079824,38.500582],[27.079839,38.500796],[27.079879,38.50097],[27.079958,38.501075],[27.080185,38.501132],[27.080696,38.501213],[27.081047,38.501299],[27.081338,38.501396],[27.081438,38.501489],[27.081517,38.501589],[27.081587,38.501801],[27.081676,38.501954],[27.081964,38.50207],[27.082889,38.502303],[27.08315,38.502334],[27.083381,38.502415],[27.083445,38.502448],[27.083701,38.502328],[27.084079,38.50224],[27.084323,38.502452],[27.084722,38.502841],[27.085019,38.503242],[27.085877,38.504401],[27.086433,38.503965],[27.087017,38.50359],[27.087799,38.503089],[27.087863,38.502975],[27.088047,38.50284],[27.08845,38.502571],[27.088509,38.502532],[27.088602,38.50247],[27.089209,38.502045],[27.089558,38.501844],[27.090006,38.501732],[27.090778,38.501625],[27.091008,38.501694],[27.091023,38.501788],[27.091154,38.501353],[27.091473,38.500296],[27.091776,38.499363],[27.091855,38.499235],[27.091926,38.498962],[27.092097,38.498547],[27.092117,38.498484],[27.092198,38.498229],[27.092215,38.498177],[27.092216,38.498175],[27.092282,38.497873],[27.092806,38.497003],[27.092335,38.496561],[27.092045,38.496893],[27.092002,38.496937],[27.091767,38.497183],[27.091479,38.497415],[27.091341,38.497487],[27.091277,38.49752],[27.090964,38.497672],[27.090447,38.497849],[27.090346,38.497883],[27.090126,38.497954],[27.089796,38.498061],[27.089505,38.498141],[27.089365,38.49818],[27.08899,38.498284],[27.088507,38.498427],[27.088122,38.498565],[27.088062,38.498586],[27.087783,38.498697],[27.087032,38.498765],[27.086826,38.498699],[27.086677,38.498572],[27.086631,38.49816],[27.086679,38.497492],[27.086762,38.497327],[27.086714,38.497325]]]}},{"type":"Feature","properties":{"id":"TR-Y-35-010-M-0011","level":"yerlesim","type":"mahalle","parent_id":"TR-D-35-010","province_id":"TR-P-35","district_id":"TR-D-35-010","name":"Evka 5","source_raw_name":"EVKA-5","source":"Kullanıcı tarafından sağlanan KML","source_label":"Kullanıcı tarafından sağlanan KML","source_name":"Izmir Mahalle KML - kullanici tarafindan saglandi"},"geometry":{"type":"Polygon","coordinates":[[[27.050754,38.512728],[27.049352,38.513175],[27.048545,38.513592],[27.048672,38.517155],[27.04862,38.517223],[27.04862,38.517223],[27.048615,38.517229],[27.047603,38.51853],[27.047681,38.518738],[27.047803,38.518918],[27.047802,38.518918],[27.048086,38.519041],[27.049129,38.519006],[27.050267,38.518753],[27.050629,38.518737],[27.050804,38.518835],[27.05108,38.51899],[27.051726,38.520245],[27.052162,38.52073],[27.053151,38.521385],[27.053488,38.521482],[27.054356,38.521318],[27.055403,38.521187],[27.055466,38.521311],[27.055728,38.522702],[27.05612,38.523099],[27.05622,38.523183],[27.058739,38.521178],[27.058393,38.520487],[27.057967,38.519363],[27.058062,38.518805],[27.058103,38.518652],[27.058172,38.518344],[27.058181,38.518284],[27.05821,38.518093],[27.058218,38.517506],[27.058241,38.517272],[27.058277,38.516984],[27.05836,38.516683],[27.058389,38.516521],[27.058346,38.516575],[27.058042,38.51659],[27.057805,38.516309],[27.057646,38.516008],[27.056038,38.51618],[27.055964,38.516071],[27.05574,38.51574],[27.055609,38.515588],[27.055136,38.515038],[27.054446,38.514328],[27.053934,38.513885],[27.053219,38.51327],[27.052425,38.512683],[27.051936,38.512424],[27.051117,38.512148],[27.051038,38.51212],[27.050609,38.511967],[27.050754,38.512728]]]}},{"type":"Feature","properties":{"id":"TR-Y-35-010-M-0012","level":"yerlesim","type":"mahalle","parent_id":"TR-D-35-010","province_id":"TR-P-35","district_id":"TR-D-35-010","name":"Evka 6","source_raw_name":"EVKA-6","source":"Kullanıcı tarafından sağlanan KML","source_label":"Kullanıcı tarafından sağlanan KML","source_name":"Izmir Mahalle KML - kullanici tarafindan saglandi"},"geometry":{"type":"Polygon","coordinates":[[[27.090523,38.503384],[27.090938,38.502095],[27.090992,38.501902],[27.091023,38.501788],[27.091008,38.501694],[27.090778,38.501625],[27.090006,38.501732],[27.089558,38.501844],[27.089209,38.502045],[27.088602,38.50247],[27.088509,38.502532],[27.08845,38.502571],[27.088047,38.50284],[27.087863,38.502975],[27.087799,38.503089],[27.087017,38.50359],[27.086433,38.503965],[27.085877,38.504401],[27.085266,38.504853],[27.085492,38.505392],[27.085798,38.505562],[27.086443,38.505763],[27.087013,38.505879],[27.087578,38.506076],[27.08813,38.506035],[27.089037,38.505922],[27.089363,38.505985],[27.089792,38.505819],[27.091595,38.505956],[27.091963,38.506086],[27.092307,38.506032],[27.092571,38.506072],[27.092589,38.505942],[27.092227,38.505727],[27.090962,38.505191],[27.090812,38.50485],[27.090763,38.504724],[27.090661,38.504464],[27.090396,38.503723],[27.090479,38.503503],[27.090523,38.503384]]]}},{"type":"Feature","properties":{"id":"TR-Y-35-010-M-0013","level":"yerlesim","type":"mahalle","parent_id":"TR-D-35-010","province_id":"TR-P-35","district_id":"TR-D-35-010","name":"Güzeltepe","source_raw_name":"GÜZELTEPE","source":"Kullanıcı tarafından sağlanan KML","source_label":"Kullanıcı tarafından sağlanan KML","source_name":"Izmir Mahalle KML - kullanici tarafindan saglandi"},"geometry":{"type":"Polygon","coordinates":[[[27.081676,38.501954],[27.081587,38.501801],[27.081517,38.501589],[27.081438,38.501489],[27.081338,38.501396],[27.081047,38.501299],[27.080696,38.501213],[27.080185,38.501132],[27.079958,38.501075],[27.079879,38.50097],[27.079839,38.500796],[27.079824,38.500582],[27.079666,38.500377],[27.079411,38.500258],[27.079117,38.500106],[27.07898,38.499977],[27.07894,38.499834],[27.079076,38.499322],[27.07904,38.499126],[27.078918,38.499007],[27.078187,38.498788],[27.07809,38.498704],[27.078057,38.49855],[27.078063,38.498208],[27.078022,38.498134],[27.077959,38.498049],[27.077739,38.497949],[27.077472,38.497847],[27.077104,38.497683],[27.076539,38.497282],[27.076419,38.497117],[27.076341,38.496905],[27.076306,38.496776],[27.075887,38.496662],[27.075836,38.496695],[27.075083,38.497168],[27.074881,38.497239],[27.074689,38.497235],[27.074408,38.497246],[27.074315,38.497262],[27.074338,38.497419],[27.074362,38.49754],[27.074382,38.497593],[27.074306,38.497605],[27.074018,38.497649],[27.073582,38.497681],[27.073078,38.497719],[27.073027,38.497719],[27.072818,38.497683],[27.072788,38.497531],[27.0728,38.497483],[27.072549,38.497494],[27.072138,38.49753],[27.071971,38.497548],[27.071892,38.497488],[27.071353,38.497606],[27.071272,38.497545],[27.071116,38.497588],[27.070805,38.497645],[27.070731,38.497658],[27.070559,38.497688],[27.070369,38.497715],[27.070317,38.497723],[27.070206,38.497718],[27.070229,38.497797],[27.069708,38.497891],[27.069341,38.497957],[27.069313,38.497878],[27.068778,38.497984],[27.068665,38.497907],[27.06861,38.497891],[27.068364,38.497993],[27.068457,38.498108],[27.068537,38.498205],[27.068767,38.498579],[27.068786,38.498615],[27.068911,38.49885],[27.069168,38.498977],[27.06964,38.499465],[27.06987,38.499686],[27.069923,38.499737],[27.070044,38.499854],[27.070115,38.499929],[27.070313,38.500141],[27.070445,38.500214],[27.070642,38.500323],[27.070727,38.500354],[27.071051,38.500472],[27.071136,38.500503],[27.071178,38.500519],[27.07161,38.500646],[27.071961,38.500724],[27.07218,38.500751],[27.072243,38.500802],[27.072656,38.500999],[27.072819,38.501076],[27.073332,38.501273],[27.073357,38.501282],[27.073377,38.50129],[27.073423,38.501303],[27.073777,38.501399],[27.074463,38.501579],[27.074624,38.501621],[27.074918,38.501698],[27.07515,38.501759],[27.075239,38.501787],[27.075596,38.501898],[27.075768,38.501951],[27.076219,38.502101],[27.07635,38.502144],[27.076594,38.502225],[27.077337,38.502423],[27.077863,38.502467],[27.077912,38.502476],[27.078005,38.502492],[27.078381,38.502558],[27.078535,38.502594],[27.078504,38.503133],[27.078489,38.503397],[27.078471,38.503717],[27.078617,38.503814],[27.078819,38.503878],[27.079506,38.503783],[27.079871,38.504015],[27.080042,38.504115],[27.080588,38.504445],[27.08109,38.504761],[27.081319,38.504863],[27.081633,38.504935],[27.081996,38.504994],[27.082325,38.5051],[27.085259,38.504858],[27.085266,38.504853],[27.085877,38.504401],[27.085019,38.503242],[27.085019,38.503242],[27.084722,38.502841],[27.084722,38.502841],[27.084323,38.502452],[27.084079,38.50224],[27.083701,38.502328],[27.083445,38.502448],[27.083381,38.502415],[27.083151,38.502334],[27.08289,38.502303],[27.081964,38.50207],[27.081676,38.501954]]]}},{"type":"Feature","properties":{"id":"TR-Y-35-010-M-0014","level":"yerlesim","type":"mahalle","parent_id":"TR-D-35-010","province_id":"TR-P-35","district_id":"TR-D-35-010","name":"Harmandalı Gazi Mustafa Kemal Atatürk","source_raw_name":"HARMANDALI GAZİ MUSTAFA KEMAL ATATÜRK","source":"Kullanıcı tarafından sağlanan KML","source_label":"Kullanıcı tarafından sağlanan KML","source_name":"Izmir Mahalle KML - kullanici tarafindan saglandi"},"geometry":{"type":"Polygon","coordinates":[[[27.082635,38.535545],[27.115915,38.533617],[27.116409,38.53229],[27.118959,38.528081],[27.118287,38.52667],[27.086271,38.529838],[27.083757,38.53002],[27.081201,38.530266],[27.079576,38.530053],[27.079385,38.530076],[27.078473,38.530076],[27.077561,38.529978],[27.076417,38.529862],[27.075948,38.529655],[27.074762,38.529096],[27.074427,38.528812],[27.074149,38.528639],[27.073713,38.528468],[27.07353,38.528434],[27.071166,38.527615],[27.07057,38.52768],[27.069875,38.527295],[27.06854,38.527173],[27.065276,38.526908],[27.063873,38.527497],[27.060771,38.526874],[27.060248,38.527169],[27.06007,38.527958],[27.059817,38.528343],[27.060578,38.529205],[27.059447,38.53036],[27.058512,38.530546],[27.057679,38.53023],[27.057379,38.530489],[27.056968,38.530595],[27.056602,38.530342],[27.055334,38.530743],[27.054575,38.531146],[27.053994,38.53021],[27.053455,38.530363],[27.052829,38.53046],[27.052256,38.530697],[27.051969,38.530866],[27.051175,38.53096],[27.050758,38.53101],[27.050487,38.531172],[27.050445,38.531197],[27.04999,38.531344],[27.04953,38.531514],[27.048941,38.531663],[27.048784,38.531796],[27.048843,38.532036],[27.047309,38.532178],[27.046111,38.532357],[27.045836,38.53198],[27.043289,38.532875],[27.043031,38.532589],[27.04142,38.533499],[27.042326,38.534852],[27.043277,38.536167],[27.044064,38.537254],[27.044109,38.537316],[27.044591,38.537982],[27.045628,38.539363],[27.046023,38.539888],[27.046975,38.54123],[27.047126,38.542206],[27.0469,38.542543],[27.047556,38.542938],[27.048192,38.543449],[27.048344,38.543571],[27.048705,38.543914],[27.048798,38.543974],[27.04895,38.543605],[27.049859,38.540204],[27.049853,38.539897],[27.049797,38.538819],[27.049839,38.53825],[27.04998,38.537822],[27.050115,38.537409],[27.050082,38.537006],[27.050064,38.536886],[27.050071,38.536766],[27.050076,38.536721],[27.050179,38.536624],[27.050226,38.536591],[27.050261,38.536577],[27.050299,38.536577],[27.050367,38.536591],[27.050484,38.536624],[27.050526,38.536634],[27.050573,38.536638],[27.050665,38.536622],[27.050731,38.536598],[27.050835,38.536535],[27.051023,38.536442],[27.051164,38.536389],[27.05129,38.536363],[27.051427,38.536349],[27.051509,38.536323],[27.051586,38.536282],[27.051665,38.536211],[27.051747,38.536119],[27.051791,38.536015],[27.05182,38.535942],[27.051859,38.535864],[27.051908,38.535815],[27.051992,38.535766],[27.052071,38.535732],[27.052181,38.535693],[27.052185,38.535504],[27.052107,38.534965],[27.053087,38.535007],[27.053393,38.534914],[27.053584,38.534697],[27.054075,38.534573],[27.054419,38.534514],[27.054694,38.534467],[27.055064,38.534403],[27.055471,38.53431],[27.055657,38.534268],[27.056141,38.534239],[27.056683,38.534299],[27.057776,38.534546],[27.058713,38.534684],[27.059301,38.534633],[27.060149,38.534222],[27.060945,38.533647],[27.061445,38.533405],[27.06188,38.533371],[27.067088,38.53396],[27.068639,38.532302],[27.067008,38.530009],[27.068796,38.52945],[27.068786,38.52936],[27.069012,38.529343],[27.070144,38.5296],[27.072464,38.530358],[27.0729,38.530536],[27.07414,38.531203],[27.075528,38.531508],[27.076209,38.531859],[27.076512,38.532019],[27.076029,38.532838],[27.075914,38.533332],[27.076131,38.533814],[27.077214,38.533762],[27.078052,38.533903],[27.082635,38.535545]]]}},{"type":"Feature","properties":{"id":"TR-Y-35-010-M-0015","level":"yerlesim","type":"mahalle","parent_id":"TR-D-35-010","province_id":"TR-P-35","district_id":"TR-D-35-010","name":"İnönü","source_raw_name":"İNÖNÜ","source":"Kullanıcı tarafından sağlanan KML","source_label":"Kullanıcı tarafından sağlanan KML","source_name":"Izmir Mahalle KML - kullanici tarafindan saglandi"},"geometry":{"type":"Polygon","coordinates":[[[27.056232,38.523363],[27.055871,38.52392],[27.053505,38.524484],[27.052247,38.525224],[27.050712,38.525287],[27.050461,38.525279],[27.050163,38.525741],[27.049452,38.525989],[27.048619,38.526275],[27.04836,38.526331],[27.048277,38.526348],[27.048055,38.526388],[27.047687,38.526455],[27.047073,38.526499],[27.047013,38.526549],[27.046972,38.526551],[27.046763,38.526515],[27.046676,38.526373],[27.044297,38.526955],[27.044,38.526358],[27.042939,38.525943],[27.042851,38.525666],[27.041747,38.525706],[27.041063,38.526086],[27.039455,38.526014],[27.040424,38.527745],[27.038522,38.528876],[27.039848,38.53115],[27.040284,38.531801],[27.04142,38.533499],[27.043031,38.532589],[27.043289,38.532875],[27.045836,38.53198],[27.046111,38.532357],[27.047309,38.532178],[27.048843,38.532036],[27.048784,38.531796],[27.048941,38.531663],[27.04953,38.531514],[27.04999,38.531344],[27.050445,38.531197],[27.050487,38.531172],[27.050758,38.53101],[27.051175,38.53096],[27.051969,38.530866],[27.052256,38.530697],[27.052829,38.53046],[27.053455,38.530363],[27.053994,38.53021],[27.054575,38.531146],[27.055334,38.530743],[27.056602,38.530342],[27.056968,38.530595],[27.057379,38.530489],[27.057679,38.53023],[27.058512,38.530546],[27.059447,38.53036],[27.060578,38.529205],[27.059817,38.528343],[27.06007,38.527958],[27.060248,38.527169],[27.060771,38.526874],[27.063873,38.527497],[27.065276,38.526908],[27.06854,38.527173],[27.069875,38.527295],[27.07057,38.52768],[27.071166,38.527615],[27.07353,38.528434],[27.073713,38.528468],[27.074149,38.528639],[27.074427,38.528812],[27.074762,38.529096],[27.075948,38.529655],[27.076417,38.529862],[27.077561,38.529978],[27.078473,38.530076],[27.079385,38.530076],[27.079576,38.530053],[27.081201,38.530266],[27.083757,38.53002],[27.085014,38.529929],[27.086271,38.529838],[27.118287,38.52667],[27.117503,38.525024],[27.115436,38.52311],[27.113484,38.521657],[27.111293,38.520027],[27.087346,38.520669],[27.072653,38.52072],[27.069778,38.523063],[27.068917,38.523047],[27.06782,38.522507],[27.067323,38.522271],[27.06582,38.522398],[27.065555,38.522947],[27.065196,38.52311],[27.064077,38.523409],[27.062243,38.523901],[27.061186,38.524194],[27.0598,38.523705],[27.058491,38.523435],[27.057441,38.523377],[27.056232,38.523363]]]}},{"type":"Feature","properties":{"id":"TR-Y-35-010-M-0016","level":"yerlesim","type":"mahalle","parent_id":"TR-D-35-010","province_id":"TR-P-35","district_id":"TR-D-35-010","name":"İzkent","source_raw_name":"İZKENT","source":"Kullanıcı tarafından sağlanan KML","source_label":"Kullanıcı tarafından sağlanan KML","source_name":"Izmir Mahalle KML - kullanici tarafindan saglandi"},"geometry":{"type":"Polygon","coordinates":[[[27.065248,38.516034],[27.065306,38.516623],[27.065335,38.517094],[27.065371,38.51752],[27.065665,38.517899],[27.066417,38.517555],[27.066465,38.517535],[27.066759,38.517367],[27.066759,38.517367],[27.066766,38.517367],[27.066766,38.517367],[27.068174,38.517128],[27.071299,38.517667],[27.071374,38.517274],[27.071031,38.51623],[27.070985,38.51512],[27.070436,38.514319],[27.070362,38.512428],[27.069723,38.511903],[27.069507,38.51149],[27.069352,38.510939],[27.069291,38.509472],[27.069482,38.508626],[27.067769,38.50862],[27.067753,38.50851],[27.06737,38.508149],[27.066853,38.507733],[27.06596,38.506975],[27.065539,38.506681],[27.065335,38.506538],[27.064905,38.506312],[27.064784,38.5063],[27.064579,38.50628],[27.063899,38.506321],[27.063714,38.5064],[27.063444,38.506624],[27.063128,38.506885],[27.062785,38.507167],[27.062551,38.507404],[27.062079,38.50776],[27.061761,38.50802],[27.061617,38.508137],[27.061525,38.508222],[27.061096,38.508618],[27.06072,38.509022],[27.060458,38.509304],[27.061316,38.509731],[27.061905,38.510396],[27.062066,38.510578],[27.063282,38.511935],[27.063991,38.512652],[27.064039,38.512738],[27.064109,38.512808],[27.064186,38.513084],[27.064146,38.513295],[27.064162,38.513394],[27.064169,38.513442],[27.064302,38.513555],[27.064584,38.513879],[27.064722,38.514097],[27.064832,38.514463],[27.064843,38.514498],[27.065098,38.515333],[27.065196,38.515698],[27.065248,38.516034]]]}},{"type":"Feature","properties":{"id":"TR-Y-35-010-M-0017","level":"yerlesim","type":"mahalle","parent_id":"TR-D-35-010","province_id":"TR-P-35","district_id":"TR-D-35-010","name":"Kaklıç","source_raw_name":"KAKLIÇ","source":"Kullanıcı tarafından sağlanan KML","source_label":"Kullanıcı tarafından sağlanan KML","source_name":"Izmir Mahalle KML - kullanici tarafindan saglandi"},"geometry":{"type":"Polygon","coordinates":[[[26.991015,38.525388],[26.991037,38.525554],[26.991806,38.526307],[26.992329,38.526818],[26.992401,38.526889],[26.99264,38.527371],[26.992914,38.527925],[26.992371,38.528107],[26.993213,38.529404],[26.993661,38.529079],[26.993805,38.528972],[26.993991,38.52884],[26.994234,38.528629],[26.994465,38.528423],[26.994567,38.528316],[26.994279,38.528396],[26.995053,38.527503],[26.995288,38.526969],[26.995376,38.526574],[26.995409,38.526331],[26.995645,38.526126],[26.995639,38.526071],[26.996537,38.525115],[26.996684,38.524593],[26.996965,38.524081],[26.99699,38.523771],[26.996881,38.523458],[26.999522,38.523158],[27.000585,38.52295],[27.000132,38.521391],[27.000164,38.521228],[27.000208,38.521005],[26.999704,38.520788],[27.000523,38.520496],[27.001166,38.520468],[27.002772,38.520126],[27.003069,38.520003],[27.003682,38.520428],[27.003852,38.523189],[27.004024,38.525151],[27.004184,38.526968],[27.005226,38.529286],[27.007997,38.529454],[27.007731,38.532537],[27.008764,38.532583],[27.009119,38.529593],[27.014542,38.529908],[27.018168,38.526531],[27.023811,38.520675],[27.025833,38.522948],[27.027517,38.524842],[27.027608,38.524822],[27.027392,38.524216],[27.026976,38.523565],[27.026148,38.522775],[27.026686,38.522304],[27.026122,38.519866],[27.02596,38.517049],[27.026894,38.508861],[27.027286,38.508735],[27.028066,38.508418],[27.028067,38.508418],[27.028017,38.508114],[27.028024,38.507745],[27.028032,38.507349],[27.028041,38.506861],[27.02805,38.506391],[27.028057,38.505972],[27.028066,38.505496],[27.028079,38.504816],[27.028093,38.504086],[27.028104,38.503472],[27.028114,38.50298],[27.02812,38.502654],[27.02814,38.502065],[27.028172,38.501332],[27.028196,38.50079],[27.02822,38.500263],[27.028643,38.499819],[27.028477,38.497106],[27.028588,38.496763],[27.02874,38.496294],[27.028928,38.49571],[27.029698,38.494976],[27.029892,38.494821],[27.030553,38.494294],[27.031196,38.494141],[27.032062,38.493995],[27.032079,38.493853],[27.031416,38.493789],[27.031416,38.493789],[27.030916,38.49375],[27.03037,38.493567],[27.030013,38.493214],[27.029624,38.492672],[27.029109,38.49203],[27.029079,38.491766],[27.029078,38.491087],[27.028975,38.490563],[27.029027,38.489462],[27.02984,38.486897],[27.030485,38.485774],[27.030862,38.485166],[27.031337,38.484719],[27.0317,38.48427],[27.032005,38.483537],[27.032005,38.483537],[27.03165,38.483575],[27.031389,38.483448],[27.030682,38.483075],[27.029281,38.483221],[27.029115,38.482452],[27.028977,38.481815],[27.02894,38.481128],[27.028886,38.480147],[27.028722,38.479036],[27.028276,38.475661],[27.028057,38.473995],[27.030517,38.474146],[27.033715,38.473234],[27.036139,38.472593],[27.03997,38.472126],[27.043801,38.471727],[27.043869,38.471675],[27.044366,38.471627],[27.045007,38.47161],[27.04562,38.471627],[27.045977,38.471674],[27.046265,38.472283],[27.046872,38.473415],[27.04691,38.474404],[27.04691,38.474679],[27.046873,38.475],[27.047537,38.475065],[27.04815,38.475146],[27.049713,38.475145],[27.052203,38.475121],[27.053061,38.477339],[27.053224,38.478283],[27.051732,38.478316],[27.05139,38.478727],[27.053855,38.479688],[27.053966,38.479405],[27.054469,38.479638],[27.054776,38.479761],[27.054984,38.479857],[27.055876,38.480164],[27.057695,38.480742],[27.05858,38.481009],[27.059411,38.481233],[27.06199,38.47937],[27.06551,38.477153],[27.066214,38.476649],[27.0655,38.475642],[27.063537,38.475067],[27.062621,38.474512],[27.062699,38.47408],[27.063483,38.473545],[27.064687,38.473236],[27.065366,38.472661],[27.065024,38.468517],[27.066364,38.466716],[27.06783,38.46485],[27.067825,38.464768],[27.068194,38.464305],[27.07205,38.462826],[27.07297,38.461751],[27.073008,38.460577],[27.072193,38.459816],[27.070059,38.458971],[27.066738,38.458552],[27.061908,38.457721],[27.060554,38.45838],[27.055769,38.461345],[27.054736,38.460973],[27.053452,38.461006],[27.051319,38.463817],[27.04734,38.464645],[27.045209,38.464637],[27.04404,38.465152],[27.039674,38.463724],[27.039136,38.459154],[27.038734,38.459273],[27.03939,38.463737],[27.035872,38.462895],[27.032555,38.462778],[27.023846,38.463096],[27.020781,38.463636],[27.019859,38.461451],[27.016877,38.460595],[27.013327,38.460358],[27.011241,38.457942],[27.010334,38.457843],[27.008422,38.460302],[26.999154,38.456944],[26.996153,38.457668],[26.996503,38.453652],[26.988328,38.449328],[26.979994,38.447666],[26.976031,38.442477],[26.977132,38.4397],[26.976727,38.43813],[26.974008,38.436195],[26.972678,38.433032],[26.966544,38.436171],[26.967932,38.437605],[26.970131,38.437082],[26.969289,38.442498],[26.963242,38.441882],[26.954767,38.438511],[26.953205,38.437395],[26.952192,38.43719],[26.952007,38.437478],[26.953186,38.438129],[26.952794,38.439266],[26.952582,38.44083],[26.952823,38.441683],[26.952912,38.442371],[26.953033,38.443128],[26.953751,38.445918],[26.953722,38.446762],[26.951661,38.448632],[26.951485,38.450616],[26.952094,38.451301],[26.953429,38.451005],[26.954561,38.450252],[26.956069,38.449774],[26.957991,38.450225],[26.959044,38.451869],[26.959797,38.453637],[26.959913,38.45513],[26.958444,38.456584],[26.956943,38.456922],[26.955649,38.456557],[26.955226,38.455924],[26.955011,38.455063],[26.953734,38.454417],[26.951744,38.454038],[26.950519,38.454028],[26.949818,38.45464],[26.949739,38.455539],[26.951535,38.456405],[26.951809,38.456953],[26.950929,38.457611],[26.948621,38.458764],[26.948568,38.459397],[26.951652,38.461475],[26.952233,38.461498],[26.953364,38.460973],[26.95425,38.461008],[26.954838,38.462251],[26.95476,38.464265],[26.953541,38.464967],[26.952251,38.465401],[26.950953,38.464869],[26.950071,38.463419],[26.9488,38.46248],[26.946307,38.462172],[26.945813,38.462887],[26.94794,38.465766],[26.949066,38.466923],[26.950773,38.467685],[26.952726,38.467752],[26.954926,38.467427],[26.956657,38.466565],[26.958532,38.465895],[26.960077,38.465975],[26.960888,38.466288],[26.961284,38.467469],[26.960945,38.46952],[26.961561,38.470808],[26.962539,38.473769],[26.962394,38.47592],[26.962563,38.476444],[26.963871,38.47681],[26.96464,38.476711],[26.965019,38.477527],[26.96539,38.480149],[26.96577,38.480043],[26.966588,38.481066],[26.967567,38.482998],[26.9682,38.483496],[26.96956,38.483158],[26.969957,38.483397],[26.96972,38.483941],[26.968698,38.485082],[26.969027,38.48558],[26.969161,38.486211],[26.969481,38.486316],[26.969885,38.488694],[26.969894,38.489437],[26.968375,38.489818],[26.9682,38.490553],[26.968835,38.490708],[26.968041,38.493448],[26.969554,38.493646],[26.969572,38.494546],[26.969828,38.495522],[26.970083,38.496526],[26.969901,38.496827],[26.968216,38.497287],[26.968178,38.497903],[26.967853,38.498893],[26.967795,38.49937],[26.96768,38.500326],[26.967423,38.500901],[26.967247,38.501293],[26.967126,38.501564],[26.966887,38.502269],[26.96682,38.503042],[26.966337,38.503825],[26.966066,38.504266],[26.965558,38.50509],[26.965386,38.505593],[26.965283,38.506203],[26.965329,38.506688],[26.965395,38.507048],[26.965576,38.507536],[26.965761,38.507955],[26.96591,38.508294],[26.965872,38.508421],[26.961911,38.514619],[26.962805,38.514506],[26.96288,38.514608],[26.963033,38.514547],[26.963985,38.514454],[26.965435,38.514265],[26.967296,38.513951],[26.967623,38.514776],[26.967928,38.515868],[26.96809,38.51622],[26.968248,38.516348],[26.968737,38.516337],[26.969178,38.516472],[26.969351,38.517276],[26.968382,38.517582],[26.968643,38.517692],[26.969094,38.517833],[26.969788,38.517939],[26.970124,38.517967],[26.970504,38.51796],[26.971232,38.51792],[26.971995,38.517838],[26.972933,38.517754],[26.973098,38.517739],[26.974548,38.517602],[26.974162,38.516647],[26.976402,38.51597],[26.977719,38.51559],[26.978053,38.515432],[26.978329,38.515273],[26.978475,38.515106],[26.978555,38.514981],[26.978735,38.514821],[26.978868,38.514748],[26.979227,38.514616],[26.97988,38.514391],[26.980362,38.514242],[26.980619,38.51415],[26.980549,38.514757],[26.980597,38.515658],[26.980573,38.516098],[26.980592,38.516416],[26.980636,38.516598],[26.980799,38.516806],[26.981082,38.516888],[26.98132,38.516956],[26.981882,38.517089],[26.982673,38.517326],[26.983878,38.518426],[26.984274,38.518789],[26.984334,38.518844],[26.984383,38.518886],[26.985669,38.520015],[26.986252,38.52047],[26.986867,38.520908],[26.987366,38.521227],[26.987623,38.521391],[26.988139,38.521731],[26.989039,38.522533],[26.989479,38.523295],[26.989974,38.524335],[26.990239,38.52466],[26.991015,38.525388]]]}},{"type":"Feature","properties":{"id":"TR-Y-35-010-M-0018","level":"yerlesim","type":"mahalle","parent_id":"TR-D-35-010","province_id":"TR-P-35","district_id":"TR-D-35-010","name":"Köyiçi","source_raw_name":"KÖYİÇİ","source":"Kullanıcı tarafından sağlanan KML","source_label":"Kullanıcı tarafından sağlanan KML","source_name":"Izmir Mahalle KML - kullanici tarafindan saglandi"},"geometry":{"type":"Polygon","coordinates":[[[27.059935,38.495985],[27.060553,38.496478],[27.061024,38.496853],[27.061665,38.497337],[27.061792,38.497433],[27.062117,38.497743],[27.062293,38.497912],[27.062497,38.498107],[27.062595,38.498201],[27.063039,38.498614],[27.063442,38.498882],[27.063507,38.498912],[27.063791,38.499044],[27.064129,38.499244],[27.064384,38.499447],[27.064807,38.499942],[27.065128,38.500367],[27.065632,38.500821],[27.065895,38.501405],[27.066672,38.502107],[27.067242,38.502724],[27.067417,38.503088],[27.067635,38.503479],[27.067922,38.503544],[27.068173,38.503593],[27.068305,38.50355],[27.068367,38.503475],[27.068438,38.503248],[27.068449,38.503186],[27.068485,38.502985],[27.06857,38.502821],[27.068727,38.502627],[27.068909,38.502427],[27.06901,38.502207],[27.069151,38.501933],[27.069251,38.501806],[27.06942,38.501682],[27.069475,38.501642],[27.069664,38.501494],[27.069669,38.501423],[27.069704,38.50126],[27.06976,38.501113],[27.06976,38.501029],[27.069697,38.500797],[27.069615,38.500647],[27.069543,38.500514],[27.069382,38.500122],[27.069371,38.500096],[27.069237,38.499782],[27.069201,38.499697],[27.06897,38.498961],[27.068911,38.49885],[27.068786,38.498615],[27.068767,38.498579],[27.068537,38.498205],[27.068457,38.498108],[27.068364,38.497993],[27.068209,38.497803],[27.068102,38.49765],[27.068037,38.497556],[27.067984,38.497482],[27.06787,38.497325],[27.067458,38.496754],[27.067341,38.496558],[27.067318,38.49652],[27.067109,38.496235],[27.066847,38.495951],[27.066823,38.495924],[27.066606,38.495669],[27.066367,38.495369],[27.066268,38.495245],[27.06624,38.495209],[27.066174,38.495103],[27.06607,38.494936],[27.065939,38.494728],[27.06579,38.494515],[27.065771,38.494488],[27.065727,38.494425],[27.065493,38.494014],[27.065468,38.493971],[27.065441,38.493886],[27.065349,38.4936],[27.065349,38.49359],[27.065348,38.493527],[27.065346,38.493401],[27.065357,38.49332],[27.065364,38.493264],[27.065373,38.4932],[27.065411,38.492999],[27.065427,38.492912],[27.065461,38.492732],[27.065536,38.492334],[27.065644,38.491731],[27.065105,38.492043],[27.064899,38.492162],[27.064832,38.492199],[27.064639,38.492307],[27.064153,38.492578],[27.063805,38.492785],[27.063713,38.492848],[27.063603,38.492923],[27.062974,38.493354],[27.062529,38.493659],[27.062435,38.493732],[27.06237,38.493782],[27.061939,38.494113],[27.061911,38.494139],[27.061173,38.494826],[27.060911,38.49507],[27.06085,38.495127],[27.060663,38.495303],[27.060398,38.495551],[27.059935,38.495985]]]}},{"type":"Feature","properties":{"id":"TR-Y-35-010-M-0019","level":"yerlesim","type":"mahalle","parent_id":"TR-D-35-010","province_id":"TR-P-35","district_id":"TR-D-35-010","name":"Küçükçiğli","source_raw_name":"KÜÇÜK ÇİĞLİ","source":"Kullanıcı tarafından sağlanan KML","source_label":"Kullanıcı tarafından sağlanan KML","source_name":"Izmir Mahalle KML - kullanici tarafindan saglandi"},"geometry":{"type":"Polygon","coordinates":[[[27.042648,38.502714],[27.042878,38.503009],[27.043172,38.503201],[27.043469,38.503625],[27.043652,38.503676],[27.043953,38.503686],[27.044399,38.5037],[27.044462,38.503704],[27.044571,38.503711],[27.045394,38.50375],[27.045694,38.503846],[27.045769,38.503892],[27.046076,38.504082],[27.046107,38.504102],[27.046248,38.504189],[27.046403,38.504294],[27.046425,38.504309],[27.046745,38.504527],[27.046981,38.504687],[27.047218,38.504858],[27.047326,38.504935],[27.04754,38.50509],[27.047617,38.505145],[27.047773,38.50524],[27.047841,38.505273],[27.047892,38.505298],[27.047571,38.505627],[27.047473,38.505727],[27.047317,38.505911],[27.047191,38.506059],[27.046949,38.506337],[27.046884,38.506412],[27.046811,38.506521],[27.046767,38.506579],[27.046844,38.506638],[27.046946,38.506715],[27.047275,38.506957],[27.047335,38.507001],[27.047386,38.507038],[27.047778,38.507308],[27.047858,38.50737],[27.048028,38.507501],[27.048532,38.506949],[27.049261,38.506309],[27.049302,38.506347],[27.049768,38.506675],[27.050183,38.506966],[27.050596,38.507256],[27.050724,38.507143],[27.051428,38.50653],[27.051611,38.50637],[27.052028,38.506005],[27.052252,38.505808],[27.052291,38.505784],[27.052413,38.505729],[27.052481,38.505722],[27.053541,38.506099],[27.053695,38.505997],[27.054323,38.506412],[27.054434,38.506566],[27.054716,38.506686],[27.054782,38.506927],[27.05549,38.505837],[27.055551,38.505714],[27.055917,38.505171],[27.056148,38.504784],[27.057244,38.50367],[27.057076,38.503644],[27.05683,38.503599],[27.056515,38.503485],[27.056263,38.503317],[27.056576,38.503042],[27.057221,38.502474],[27.057582,38.502172],[27.057782,38.502006],[27.058496,38.5014],[27.058852,38.501101],[27.059194,38.500816],[27.059949,38.500191],[27.060114,38.500046],[27.060468,38.499734],[27.061051,38.499316],[27.06142,38.49904],[27.061471,38.499001],[27.062213,38.498354],[27.062257,38.498315],[27.062497,38.498107],[27.062293,38.497912],[27.062117,38.497743],[27.061792,38.497433],[27.061665,38.497337],[27.061024,38.496853],[27.060553,38.496478],[27.059935,38.495985],[27.059685,38.496219],[27.059423,38.496458],[27.059027,38.496819],[27.058871,38.496961],[27.058828,38.497],[27.05881,38.497015],[27.058253,38.49748],[27.058072,38.497631],[27.057936,38.497744],[27.057847,38.497675],[27.057612,38.497502],[27.057326,38.497285],[27.057131,38.497143],[27.056865,38.496911],[27.056295,38.496444],[27.056008,38.496669],[27.055884,38.496767],[27.055746,38.496878],[27.055495,38.49708],[27.055451,38.497112],[27.055257,38.497254],[27.055101,38.497389],[27.054793,38.497655],[27.054532,38.497882],[27.053973,38.498503],[27.053777,38.498681],[27.053332,38.499083],[27.053197,38.499167],[27.05289,38.499479],[27.052328,38.500061],[27.052121,38.500295],[27.051618,38.500858],[27.051389,38.501113],[27.05133,38.501214],[27.051207,38.501324],[27.050562,38.502056],[27.050413,38.502225],[27.050257,38.50228],[27.049789,38.502061],[27.049203,38.501334],[27.048634,38.500682],[27.048495,38.500522],[27.048251,38.500218],[27.047673,38.499495],[27.048109,38.498502],[27.048253,38.498162],[27.046832,38.49775],[27.046754,38.497727],[27.045406,38.497323],[27.04524,38.497646],[27.044887,38.498331],[27.044857,38.498425],[27.04484,38.498526],[27.044871,38.498671],[27.044632,38.499169],[27.044424,38.499604],[27.044382,38.499692],[27.044214,38.500045],[27.044103,38.500278],[27.043874,38.500728],[27.043843,38.500844],[27.043782,38.501068],[27.043424,38.501586],[27.042565,38.502565],[27.042648,38.502714]]]}},{"type":"Feature","properties":{"id":"TR-Y-35-010-M-0020","level":"yerlesim","type":"mahalle","parent_id":"TR-D-35-010","province_id":"TR-P-35","district_id":"TR-D-35-010","name":"Maltepe","source_raw_name":"MALTEPE","source":"Kullanıcı tarafından sağlanan KML","source_label":"Kullanıcı tarafından sağlanan KML","source_name":"Izmir Mahalle KML - kullanici tarafindan saglandi"},"geometry":{"type":"Polygon","coordinates":[[[27.077389,38.494324],[27.07739,38.494324],[27.078515,38.494382],[27.078547,38.494383],[27.078631,38.494388],[27.079043,38.494416],[27.079354,38.494416],[27.079508,38.494394],[27.079841,38.494305],[27.080065,38.49423],[27.080507,38.494081],[27.081197,38.493888],[27.081416,38.49399],[27.082004,38.494196],[27.082125,38.494238],[27.082534,38.494391],[27.082434,38.494068],[27.082284,38.493849],[27.081906,38.49366],[27.081358,38.493477],[27.081051,38.49339],[27.080534,38.493244],[27.080167,38.49313],[27.079728,38.492936],[27.079548,38.492855],[27.079469,38.49282],[27.078867,38.492573],[27.078193,38.492296],[27.078022,38.492197],[27.077593,38.491608],[27.077385,38.49128],[27.077328,38.491134],[27.077259,38.490957],[27.077225,38.490705],[27.077208,38.490577],[27.077135,38.489486],[27.07707,38.48884],[27.076995,38.488735],[27.076866,38.488636],[27.076713,38.48852],[27.076443,38.488313],[27.076207,38.488161],[27.075102,38.487436],[27.074487,38.487652],[27.074461,38.48766],[27.074265,38.487728],[27.073812,38.487882],[27.073668,38.487932],[27.072821,38.488221],[27.072435,38.488353],[27.072002,38.488504],[27.071728,38.488599],[27.071214,38.488779],[27.070806,38.488921],[27.07079,38.488928],[27.070266,38.489161],[27.069709,38.489409],[27.068653,38.489984],[27.068156,38.490263],[27.067961,38.490373],[27.067619,38.490574],[27.067664,38.490592],[27.06796,38.490709],[27.068305,38.490845],[27.069006,38.491103],[27.069649,38.491338],[27.069757,38.491385],[27.069848,38.491424],[27.070403,38.491662],[27.070557,38.491729],[27.07082,38.491893],[27.070956,38.491977],[27.070993,38.492001],[27.071134,38.492089],[27.071188,38.492124],[27.071411,38.492264],[27.071829,38.492504],[27.071981,38.492591],[27.072034,38.492622],[27.072473,38.492885],[27.072568,38.49294],[27.072707,38.49302],[27.073327,38.493378],[27.073417,38.493433],[27.07383,38.493682],[27.074064,38.493824],[27.07416,38.493887],[27.07423,38.493933],[27.074515,38.494242],[27.074558,38.494289],[27.074768,38.494517],[27.074838,38.494548],[27.074982,38.494611],[27.075274,38.4946],[27.075274,38.4946],[27.075535,38.49462],[27.075593,38.494651],[27.075585,38.494587],[27.075556,38.494422],[27.075524,38.494248],[27.076135,38.494288],[27.076315,38.494292],[27.076722,38.494303],[27.076851,38.494306],[27.077015,38.49431],[27.077187,38.494314],[27.077389,38.494324]]]}},{"type":"Feature","properties":{"id":"TR-Y-35-010-M-0022","level":"yerlesim","type":"mahalle","parent_id":"TR-D-35-010","province_id":"TR-P-35","district_id":"TR-D-35-010","name":"Sasalımerkez","source_raw_name":"SASALI MERKEZ","source":"Kullanıcı tarafından sağlanan KML","source_label":"Kullanıcı tarafından sağlanan KML","source_name":"Izmir Mahalle KML - kullanici tarafindan saglandi"},"geometry":{"type":"Polygon","coordinates":[[[26.936894,38.524111],[26.936961,38.524206],[26.936981,38.524251],[26.937127,38.524344],[26.937184,38.524408],[26.937275,38.524561],[26.93735,38.524696],[26.93747,38.524921],[26.937567,38.525182],[26.937718,38.525146],[26.937866,38.525111],[26.938158,38.525021],[26.938399,38.524886],[26.938594,38.524796],[26.938755,38.524719],[26.938961,38.524584],[26.93903,38.524994],[26.939166,38.526012],[26.939071,38.526611],[26.93901,38.52692],[26.939829,38.526846],[26.9405,38.52667],[26.941479,38.526596],[26.941857,38.526487],[26.943061,38.526161],[26.944382,38.526042],[26.944338,38.525485],[26.944279,38.524751],[26.944242,38.524286],[26.944309,38.523965],[26.944484,38.523941],[26.9447,38.524758],[26.944776,38.52505],[26.944785,38.526005],[26.944694,38.526086],[26.944639,38.526132],[26.944656,38.526489],[26.945217,38.526506],[26.945289,38.525961],[26.946517,38.524282],[26.946753,38.523959],[26.947184,38.523694],[26.947299,38.52346],[26.94733,38.523243],[26.94733,38.523163],[26.94733,38.523163],[26.947387,38.523084],[26.947679,38.522495],[26.948166,38.522418],[26.950472,38.522056],[26.951941,38.521826],[26.953776,38.52173],[26.954675,38.521148],[26.955619,38.52079],[26.956076,38.52079],[26.957391,38.520849],[26.958209,38.520892],[26.958022,38.519944],[26.958833,38.51975],[26.957842,38.517734],[26.95793,38.51771],[26.958242,38.517621],[26.959915,38.517049],[26.960759,38.516615],[26.960954,38.51643],[26.960394,38.516036],[26.960101,38.515778],[26.959979,38.515533],[26.960076,38.515338],[26.960405,38.5152],[26.960815,38.515093],[26.961768,38.51487],[26.961911,38.514619],[26.965872,38.508421],[26.96591,38.508294],[26.965761,38.507955],[26.965576,38.507536],[26.965395,38.507048],[26.965329,38.506688],[26.965283,38.506203],[26.965386,38.505593],[26.965558,38.50509],[26.966066,38.504266],[26.966337,38.503825],[26.96682,38.503042],[26.966887,38.502269],[26.967126,38.501564],[26.967247,38.501293],[26.967423,38.500901],[26.96768,38.500326],[26.967795,38.49937],[26.967853,38.498893],[26.968178,38.497903],[26.968216,38.497287],[26.969901,38.496827],[26.970083,38.496526],[26.969828,38.495522],[26.969572,38.494546],[26.969554,38.493646],[26.968041,38.493448],[26.968835,38.490708],[26.9682,38.490553],[26.968375,38.489818],[26.969894,38.489437],[26.969885,38.488694],[26.969481,38.486316],[26.969161,38.486211],[26.969027,38.48558],[26.968698,38.485082],[26.96972,38.483941],[26.969957,38.483397],[26.96956,38.483158],[26.9682,38.483496],[26.967567,38.482998],[26.966588,38.481066],[26.96577,38.480043],[26.96539,38.480149],[26.965019,38.477527],[26.96464,38.476711],[26.963871,38.47681],[26.962563,38.476444],[26.962394,38.47592],[26.962539,38.473769],[26.961561,38.470808],[26.960945,38.46952],[26.961284,38.467469],[26.960888,38.466288],[26.960077,38.465975],[26.958532,38.465895],[26.956657,38.466565],[26.954926,38.467427],[26.952726,38.467752],[26.950773,38.467685],[26.949066,38.466923],[26.94794,38.465766],[26.945813,38.462887],[26.946307,38.462172],[26.9488,38.46248],[26.950071,38.463419],[26.950953,38.464869],[26.952251,38.465401],[26.953541,38.464967],[26.95476,38.464265],[26.954838,38.462251],[26.95425,38.461008],[26.953364,38.460973],[26.952233,38.461498],[26.951652,38.461475],[26.948568,38.459397],[26.948621,38.458764],[26.950929,38.457611],[26.951809,38.456953],[26.951535,38.456405],[26.949739,38.455539],[26.949818,38.45464],[26.950519,38.454028],[26.951744,38.454038],[26.953734,38.454417],[26.955011,38.455063],[26.955226,38.455924],[26.955649,38.456557],[26.956943,38.456922],[26.958444,38.456584],[26.959913,38.45513],[26.959797,38.453637],[26.959044,38.451869],[26.957991,38.450225],[26.956069,38.449774],[26.954561,38.450252],[26.953429,38.451005],[26.952094,38.451301],[26.951485,38.450616],[26.951661,38.448632],[26.953722,38.446762],[26.953751,38.445918],[26.953033,38.443128],[26.952912,38.442371],[26.952823,38.441683],[26.952582,38.44083],[26.952794,38.439266],[26.953186,38.438129],[26.952007,38.437478],[26.952192,38.43719],[26.947713,38.429792],[26.944012,38.427719],[26.943664,38.428152],[26.947105,38.430042],[26.951035,38.437326],[26.948405,38.441301],[26.938451,38.445819],[26.922191,38.454775],[26.913883,38.459802],[26.909269,38.47018],[26.912559,38.47962],[26.912182,38.482319],[26.911281,38.483758],[26.908193,38.487088],[26.907338,38.487338],[26.903225,38.490132],[26.900456,38.491879],[26.897859,38.493898],[26.89563,38.495565],[26.89494,38.496034],[26.893908,38.496749],[26.892362,38.49801],[26.890835,38.499145],[26.883823,38.504011],[26.884455,38.504943],[26.887384,38.507533],[26.888018,38.509215],[26.888274,38.509324],[26.889082,38.513513],[26.889226,38.514753],[26.890624,38.523209],[26.890952,38.523658],[26.897039,38.530545],[26.89775,38.531339],[26.898242,38.531845],[26.898454,38.532028],[26.898779,38.532222],[26.899104,38.532308],[26.899437,38.532352],[26.899594,38.532354],[26.899998,38.532301],[26.900296,38.532242],[26.900531,38.532175],[26.900803,38.532051],[26.901743,38.531424],[26.902372,38.531011],[26.902944,38.530637],[26.903799,38.530048],[26.908737,38.526755],[26.911734,38.524759],[26.915023,38.522579],[26.917569,38.520838],[26.920883,38.518632],[26.921429,38.518774],[26.922024,38.518876],[26.923472,38.519172],[26.926006,38.519316],[26.926624,38.519361],[26.927912,38.519305],[26.928209,38.5197],[26.928323,38.519813],[26.928386,38.51988],[26.928604,38.519944],[26.928691,38.51998],[26.928764,38.520025],[26.928855,38.520097],[26.929278,38.520502],[26.929392,38.520592],[26.929461,38.520674],[26.929552,38.520773],[26.929644,38.520926],[26.929695,38.520998],[26.929764,38.521079],[26.929838,38.521124],[26.929913,38.521174],[26.930067,38.521255],[26.930279,38.52135],[26.930467,38.521467],[26.930553,38.52153],[26.930639,38.521607],[26.930719,38.521706],[26.930765,38.521764],[26.93081,38.521832],[26.930862,38.521918],[26.93093,38.522098],[26.930976,38.522161],[26.931039,38.522201],[26.931142,38.522251],[26.931222,38.522292],[26.931262,38.522323],[26.931302,38.522346],[26.931433,38.522467],[26.931679,38.522729],[26.931833,38.522864],[26.931954,38.522968],[26.932274,38.523049],[26.932491,38.52309],[26.93268,38.52309],[26.932961,38.523058],[26.93343,38.523059],[26.933465,38.523064],[26.933733,38.523104],[26.933933,38.523113],[26.934408,38.523104],[26.934677,38.5231],[26.934929,38.523064],[26.935112,38.523051],[26.935295,38.52306],[26.935381,38.523091],[26.935553,38.523172],[26.935696,38.523227],[26.935741,38.523353],[26.935838,38.523614],[26.935896,38.523713],[26.935953,38.52374],[26.936061,38.523749],[26.93621,38.523767],[26.936228,38.523768],[26.936307,38.523772],[26.936473,38.523817],[26.93653,38.52384],[26.936656,38.523916],[26.936733,38.523975],[26.936841,38.524053],[26.936894,38.524111]]]}},{"type":"Feature","properties":{"id":"TR-Y-35-010-M-0023","level":"yerlesim","type":"mahalle","parent_id":"TR-D-35-010","province_id":"TR-P-35","district_id":"TR-D-35-010","name":"Şirintepe","source_raw_name":"ŞİRİNTEPE","source":"Kullanıcı tarafından sağlanan KML","source_label":"Kullanıcı tarafından sağlanan KML","source_name":"Izmir Mahalle KML - kullanici tarafindan saglandi"},"geometry":{"type":"Polygon","coordinates":[[[27.078456,38.497907],[27.078456,38.497907],[27.078456,38.497907],[27.078456,38.497907],[27.078674,38.498076],[27.079851,38.497566],[27.079922,38.497418],[27.080126,38.497178],[27.080263,38.497067],[27.080315,38.496922],[27.080085,38.496235],[27.080054,38.496141],[27.07997,38.495892],[27.079827,38.495507],[27.079792,38.495505],[27.079434,38.495456],[27.079359,38.495438],[27.079166,38.495395],[27.078968,38.495337],[27.078617,38.49533],[27.077993,38.495287],[27.077759,38.495279],[27.077615,38.495241],[27.077476,38.495189],[27.077364,38.495113],[27.077292,38.49504],[27.077254,38.494928],[27.077257,38.494801],[27.077254,38.494762],[27.077368,38.494765],[27.077389,38.494324],[27.077187,38.494314],[27.077015,38.49431],[27.076851,38.494306],[27.076722,38.494303],[27.076315,38.494292],[27.076135,38.494288],[27.075524,38.494248],[27.075556,38.494422],[27.075585,38.494587],[27.075593,38.494651],[27.075535,38.49462],[27.075274,38.4946],[27.075274,38.4946],[27.074982,38.494611],[27.074838,38.494548],[27.074768,38.494517],[27.074558,38.494289],[27.074515,38.494242],[27.07423,38.493933],[27.07416,38.493887],[27.074064,38.493824],[27.07383,38.493682],[27.073417,38.493433],[27.073327,38.493378],[27.072707,38.49302],[27.072568,38.49294],[27.072473,38.492885],[27.072034,38.492622],[27.071981,38.492591],[27.071829,38.492504],[27.071411,38.492264],[27.071188,38.492124],[27.071134,38.492089],[27.070993,38.492001],[27.070956,38.491977],[27.07082,38.491893],[27.070557,38.491729],[27.070403,38.491662],[27.069848,38.491424],[27.069757,38.491385],[27.069649,38.491338],[27.069006,38.491103],[27.068305,38.490845],[27.06796,38.490709],[27.067664,38.490592],[27.067619,38.490574],[27.066296,38.491354],[27.065935,38.491562],[27.065644,38.491731],[27.065536,38.492334],[27.065461,38.492732],[27.065427,38.492912],[27.065411,38.492999],[27.065373,38.4932],[27.065364,38.493264],[27.065357,38.49332],[27.065346,38.493401],[27.065348,38.493527],[27.065349,38.49359],[27.065349,38.4936],[27.065441,38.493886],[27.065468,38.493971],[27.065493,38.494014],[27.065727,38.494425],[27.065771,38.494488],[27.06579,38.494515],[27.065939,38.494728],[27.06607,38.494936],[27.066174,38.495103],[27.06624,38.495209],[27.066268,38.495245],[27.066367,38.495369],[27.066606,38.495669],[27.066823,38.495924],[27.066847,38.495951],[27.067109,38.496235],[27.067318,38.49652],[27.067341,38.496558],[27.067458,38.496754],[27.06787,38.497325],[27.067984,38.497482],[27.068037,38.497556],[27.068102,38.49765],[27.068209,38.497803],[27.068364,38.497993],[27.06861,38.497891],[27.068665,38.497907],[27.068778,38.497984],[27.069313,38.497878],[27.069341,38.497957],[27.069708,38.497891],[27.070229,38.497797],[27.070206,38.497718],[27.070317,38.497723],[27.070369,38.497715],[27.070559,38.497688],[27.070731,38.497658],[27.070805,38.497645],[27.071116,38.497588],[27.071272,38.497545],[27.071353,38.497606],[27.071892,38.497488],[27.071971,38.497548],[27.072138,38.49753],[27.072549,38.497494],[27.0728,38.497483],[27.072788,38.497531],[27.072818,38.497683],[27.073027,38.497719],[27.073078,38.497719],[27.073582,38.497681],[27.074018,38.497649],[27.074306,38.497605],[27.074382,38.497593],[27.074362,38.49754],[27.074338,38.497419],[27.074315,38.497262],[27.074408,38.497246],[27.074689,38.497235],[27.074881,38.497239],[27.075083,38.497168],[27.075836,38.496695],[27.075887,38.496662],[27.076306,38.496776],[27.076341,38.496905],[27.076419,38.497117],[27.076539,38.497282],[27.077104,38.497683],[27.077472,38.497847],[27.077739,38.497949],[27.077959,38.498049],[27.078022,38.498134],[27.078022,38.498134],[27.078456,38.497907]]]}},{"type":"Feature","properties":{"id":"TR-Y-35-010-M-0024","level":"yerlesim","type":"mahalle","parent_id":"TR-D-35-010","province_id":"TR-P-35","district_id":"TR-D-35-010","name":"Uğur Mumcu","source_raw_name":"UĞUR MUMCU","source":"Kullanıcı tarafından sağlanan KML","source_label":"Kullanıcı tarafından sağlanan KML","source_name":"Izmir Mahalle KML - kullanici tarafindan saglandi"},"geometry":{"type":"Polygon","coordinates":[[[27.041233,38.522246],[27.041132,38.522535],[27.041127,38.522685],[27.041319,38.523085],[27.041288,38.523404],[27.040853,38.523459],[27.04014,38.523496],[27.040131,38.523723],[27.039909,38.52406],[27.039455,38.526014],[27.041063,38.526086],[27.041747,38.525706],[27.042851,38.525666],[27.042939,38.525943],[27.044,38.526358],[27.044297,38.526955],[27.046676,38.526373],[27.046763,38.526515],[27.046972,38.526551],[27.047013,38.526549],[27.047073,38.526499],[27.047687,38.526455],[27.048055,38.526388],[27.048277,38.526348],[27.04836,38.526331],[27.048619,38.526275],[27.049452,38.525989],[27.050163,38.525741],[27.050461,38.525279],[27.050712,38.525287],[27.052247,38.525224],[27.053505,38.524484],[27.055871,38.52392],[27.056232,38.523363],[27.056006,38.52336],[27.05622,38.523183],[27.05612,38.523099],[27.055728,38.522702],[27.055466,38.521311],[27.055403,38.521187],[27.054356,38.521318],[27.053488,38.521482],[27.053151,38.521385],[27.052162,38.52073],[27.051726,38.520245],[27.05108,38.51899],[27.050804,38.518835],[27.050629,38.518737],[27.050267,38.518753],[27.049129,38.519006],[27.048086,38.519041],[27.047802,38.518918],[27.04768,38.518739],[27.047603,38.51853],[27.048615,38.517229],[27.04862,38.517223],[27.048672,38.517155],[27.046883,38.516994],[27.045241,38.516885],[27.04519,38.517113],[27.045047,38.517568],[27.04478,38.521004],[27.044817,38.521944],[27.043585,38.521967],[27.043069,38.521791],[27.042421,38.521183],[27.04225,38.520964],[27.042078,38.520821],[27.041572,38.520477],[27.041179,38.520188],[27.041159,38.520231],[27.041044,38.520659],[27.04097,38.520961],[27.040927,38.521223],[27.040887,38.521489],[27.041248,38.522],[27.041233,38.522246]]]}},{"type":"Feature","properties":{"id":"TR-Y-35-010-M-0025","level":"yerlesim","type":"mahalle","parent_id":"TR-D-35-010","province_id":"TR-P-35","district_id":"TR-D-35-010","name":"Yakakent","source_raw_name":"YAKAKENT","source":"Kullanıcı tarafından sağlanan KML","source_label":"Kullanıcı tarafından sağlanan KML","source_name":"Izmir Mahalle KML - kullanici tarafindan saglandi"},"geometry":{"type":"Polygon","coordinates":[[[27.111293,38.520027],[27.098692,38.51065],[27.092734,38.50612],[27.092589,38.505942],[27.092571,38.506072],[27.092307,38.506032],[27.091963,38.506086],[27.091595,38.505956],[27.089792,38.505819],[27.089363,38.505985],[27.089037,38.505922],[27.08813,38.506035],[27.087578,38.506076],[27.087013,38.505879],[27.086443,38.505763],[27.085798,38.505562],[27.085492,38.505392],[27.085266,38.504853],[27.085259,38.504858],[27.082325,38.5051],[27.081996,38.504994],[27.081633,38.504935],[27.081319,38.504863],[27.08109,38.504761],[27.080588,38.504445],[27.080042,38.504115],[27.079871,38.504015],[27.079506,38.503783],[27.078819,38.503878],[27.078617,38.503814],[27.078471,38.503717],[27.078489,38.503397],[27.078504,38.503133],[27.078535,38.502594],[27.078381,38.502558],[27.078005,38.502492],[27.077912,38.502476],[27.077863,38.502467],[27.077337,38.502423],[27.076594,38.502225],[27.07635,38.502144],[27.076219,38.502101],[27.075768,38.501951],[27.075596,38.501898],[27.075239,38.501787],[27.07515,38.501759],[27.074918,38.501698],[27.074624,38.501621],[27.074463,38.501579],[27.073777,38.501399],[27.073423,38.501303],[27.073377,38.50129],[27.073357,38.501282],[27.073332,38.501273],[27.072819,38.501076],[27.072656,38.500999],[27.072243,38.500802],[27.07218,38.500751],[27.071961,38.500724],[27.07161,38.500646],[27.071178,38.500519],[27.071136,38.500503],[27.071051,38.500472],[27.070727,38.500354],[27.070642,38.500323],[27.070445,38.500214],[27.070313,38.500141],[27.070115,38.499929],[27.070044,38.499854],[27.069923,38.499737],[27.06987,38.499686],[27.06964,38.499465],[27.069168,38.498977],[27.068911,38.49885],[27.06897,38.498961],[27.069201,38.499697],[27.069237,38.499782],[27.069371,38.500096],[27.069382,38.500122],[27.069543,38.500514],[27.069615,38.500647],[27.069697,38.500797],[27.06976,38.501029],[27.06976,38.501113],[27.069704,38.50126],[27.069669,38.501423],[27.069664,38.501494],[27.069475,38.501642],[27.06942,38.501682],[27.069251,38.501806],[27.069151,38.501933],[27.06901,38.502207],[27.068909,38.502427],[27.068727,38.502627],[27.06857,38.502821],[27.068485,38.502985],[27.068449,38.503186],[27.068438,38.503248],[27.068367,38.503475],[27.068305,38.50355],[27.068173,38.503593],[27.067922,38.503544],[27.067635,38.503479],[27.067921,38.504383],[27.067979,38.504564],[27.068091,38.504912],[27.068515,38.505426],[27.068779,38.506021],[27.069429,38.506675],[27.069352,38.507178],[27.069284,38.507621],[27.069482,38.508626],[27.069291,38.509472],[27.069352,38.510939],[27.069507,38.51149],[27.069723,38.511903],[27.070362,38.512428],[27.070436,38.514319],[27.070985,38.51512],[27.071031,38.51623],[27.071374,38.517274],[27.071299,38.517667],[27.0714,38.517597],[27.071925,38.517237],[27.072204,38.517566],[27.072449,38.517856],[27.073515,38.520018],[27.072653,38.52072],[27.087346,38.520669],[27.111293,38.520027]]]}},{"type":"Feature","properties":{"id":"TR-Y-35-010-M-0026","level":"yerlesim","type":"mahalle","parent_id":"TR-D-35-010","province_id":"TR-P-35","district_id":"TR-D-35-010","name":"Yenimahalle","source_raw_name":"YENİ MAHALLE","source":"Kullanıcı tarafından sağlanan KML","source_label":"Kullanıcı tarafından sağlanan KML","source_name":"Izmir Mahalle KML - kullanici tarafindan saglandi"},"geometry":{"type":"Polygon","coordinates":[[[27.045406,38.497323],[27.046754,38.497727],[27.046832,38.49775],[27.048253,38.498162],[27.048109,38.498502],[27.047673,38.499495],[27.048251,38.500218],[27.048495,38.500522],[27.048634,38.500682],[27.049203,38.501334],[27.049789,38.502061],[27.050257,38.50228],[27.050413,38.502225],[27.050562,38.502056],[27.051207,38.501324],[27.05133,38.501214],[27.051389,38.501113],[27.051618,38.500858],[27.052121,38.500295],[27.052328,38.500061],[27.05289,38.499479],[27.053197,38.499167],[27.053332,38.499083],[27.053777,38.498681],[27.053973,38.498503],[27.054532,38.497882],[27.054793,38.497655],[27.055101,38.497389],[27.055257,38.497254],[27.055451,38.497112],[27.055495,38.49708],[27.055746,38.496878],[27.055884,38.496767],[27.056008,38.496669],[27.056295,38.496444],[27.056865,38.496911],[27.057131,38.497143],[27.057326,38.497285],[27.057612,38.497502],[27.057847,38.497675],[27.057936,38.497744],[27.058072,38.497631],[27.058253,38.49748],[27.05881,38.497015],[27.058828,38.497],[27.058871,38.496961],[27.059027,38.496819],[27.059423,38.496458],[27.059685,38.496219],[27.059935,38.495985],[27.060398,38.495551],[27.060663,38.495303],[27.06085,38.495127],[27.060911,38.49507],[27.061173,38.494826],[27.061911,38.494139],[27.061649,38.494026],[27.061061,38.493772],[27.061031,38.493759],[27.060583,38.493575],[27.060374,38.493489],[27.06003,38.493347],[27.059902,38.493297],[27.059671,38.493219],[27.059602,38.49319],[27.059579,38.493144],[27.059591,38.492961],[27.059396,38.492965],[27.059045,38.493018],[27.058356,38.493003],[27.05764,38.49303],[27.057295,38.49306],[27.056543,38.493118],[27.055918,38.493161],[27.055551,38.493189],[27.055283,38.493203],[27.054968,38.493228],[27.054698,38.493247],[27.053925,38.493303],[27.0533,38.493348],[27.053005,38.493365],[27.052693,38.493378],[27.052578,38.493385],[27.052182,38.493405],[27.051663,38.493432],[27.050915,38.493465],[27.050257,38.493498],[27.049437,38.49352],[27.048374,38.493539],[27.047201,38.49355],[27.046948,38.493557],[27.04692,38.494021],[27.0468,38.494353],[27.045965,38.495994],[27.045406,38.497323]]]}},{"type":"Feature","properties":{"id":"TR-Y-35-010-M-SRC-TRD35010AHMETTANERKISLALI","level":"yerlesim","type":"mahalle","parent_id":"TR-D-35-010","province_id":"TR-P-35","district_id":"TR-D-35-010","name":"Ahmet Taner Kışlalı","source_raw_name":"AHMET TANER KIŞLALI","source":"Kullanıcı tarafından sağlanan KML","source_label":"Kullanıcı tarafından sağlanan KML","source_name":"Izmir Mahalle KML - kullanici tarafindan saglandi","source_only":true,"source_only_keep_separate":true,"source_match_status":"unmatched"},"geometry":{"type":"Polygon","coordinates":[[[27.086714,38.497325],[27.086762,38.497327],[27.086679,38.497492],[27.086631,38.49816],[27.086677,38.498572],[27.086826,38.498699],[27.087032,38.498765],[27.087783,38.498697],[27.088062,38.498586],[27.088122,38.498565],[27.088507,38.498427],[27.08899,38.498284],[27.089365,38.49818],[27.089505,38.498141],[27.089796,38.498061],[27.090126,38.497954],[27.090346,38.497883],[27.090447,38.497849],[27.090964,38.497672],[27.091277,38.49752],[27.091341,38.497487],[27.091479,38.497415],[27.091767,38.497183],[27.092002,38.496937],[27.092045,38.496893],[27.092335,38.496561],[27.092134,38.496318],[27.091871,38.496126],[27.091829,38.496096],[27.091807,38.496081],[27.090971,38.495507],[27.090641,38.495194],[27.090349,38.494713],[27.090179,38.494433],[27.089939,38.494038],[27.089836,38.493867],[27.088996,38.493092],[27.088523,38.492642],[27.087295,38.493078],[27.086691,38.493293],[27.086436,38.493407],[27.086299,38.493469],[27.086222,38.493503],[27.085691,38.493775],[27.085445,38.493917],[27.08527,38.493996],[27.08484,38.494327],[27.084684,38.494671],[27.084525,38.495024],[27.084428,38.495074],[27.084089,38.49514],[27.084077,38.494748],[27.08408,38.4941],[27.084031,38.494002],[27.083586,38.494206],[27.083465,38.494265],[27.083084,38.494452],[27.082868,38.494484],[27.082779,38.494464],[27.082647,38.494434],[27.082534,38.494391],[27.082125,38.494238],[27.082004,38.494196],[27.081416,38.49399],[27.081197,38.493888],[27.080507,38.494081],[27.080065,38.49423],[27.079841,38.494305],[27.079508,38.494394],[27.079354,38.494416],[27.079043,38.494416],[27.078631,38.494388],[27.078547,38.494383],[27.078515,38.494382],[27.07739,38.494324],[27.077389,38.494324],[27.077368,38.494765],[27.077254,38.494762],[27.077257,38.494801],[27.077254,38.494928],[27.077292,38.49504],[27.077364,38.495113],[27.077476,38.495189],[27.077615,38.495241],[27.077759,38.495279],[27.077993,38.495287],[27.078617,38.49533],[27.078968,38.495337],[27.079166,38.495395],[27.079359,38.495438],[27.079434,38.495456],[27.079792,38.495505],[27.079827,38.495507],[27.07997,38.495892],[27.080054,38.496141],[27.080085,38.496235],[27.080315,38.496922],[27.080519,38.496831],[27.081046,38.496805],[27.081117,38.497205],[27.081151,38.497491],[27.081099,38.497588],[27.08181,38.497548],[27.08205,38.497501],[27.08207,38.4975],[27.082396,38.497485],[27.083306,38.497445],[27.083645,38.497419],[27.084556,38.497349],[27.084697,38.49734],[27.085499,38.497291],[27.085892,38.497274],[27.085919,38.497274],[27.086199,38.497291],[27.086714,38.497325]]]}},{"type":"Feature","properties":{"id":"TR-Y-35-010-M-SRC-TRD35010AOSB","level":"yerlesim","type":"mahalle","parent_id":"TR-D-35-010","province_id":"TR-P-35","district_id":"TR-D-35-010","name":"Aosb","source_raw_name":"AOSB","source":"Kullanıcı tarafından sağlanan KML","source_label":"Kullanıcı tarafından sağlanan KML","source_name":"Izmir Mahalle KML - kullanici tarafindan saglandi","source_only":true,"source_only_keep_separate":true,"source_match_status":"unmatched"},"geometry":{"type":"Polygon","coordinates":[[[27.037057,38.509027],[27.037667,38.507939],[27.038999,38.506381],[27.040044,38.506328],[27.040201,38.506221],[27.040215,38.506149],[27.040275,38.505832],[27.040321,38.505751],[27.04044,38.505669],[27.040606,38.505629],[27.041031,38.505629],[27.043009,38.505575],[27.043534,38.50444],[27.043564,38.504247],[27.043652,38.503676],[27.043469,38.503625],[27.043172,38.503201],[27.042878,38.503009],[27.042648,38.502714],[27.042565,38.502565],[27.043424,38.501586],[27.043782,38.501068],[27.043843,38.500844],[27.043874,38.500728],[27.044103,38.500278],[27.044214,38.500045],[27.044382,38.499692],[27.044424,38.499604],[27.044632,38.499169],[27.044871,38.498671],[27.04484,38.498526],[27.044857,38.498425],[27.044887,38.498331],[27.04524,38.497646],[27.045406,38.497323],[27.045965,38.495994],[27.0468,38.494353],[27.04692,38.494021],[27.046948,38.493557],[27.046963,38.493088],[27.04721,38.492549],[27.047467,38.492156],[27.05019,38.488097],[27.050713,38.487813],[27.050995,38.487522],[27.051288,38.486596],[27.050942,38.485792],[27.051929,38.484234],[27.052727,38.483344],[27.052888,38.482756],[27.053081,38.482483],[27.053755,38.482324],[27.052958,38.481877],[27.052827,38.48164],[27.052815,38.481327],[27.052845,38.481009],[27.05296,38.480777],[27.053129,38.480637],[27.053414,38.480314],[27.053855,38.479688],[27.05139,38.478727],[27.051732,38.478316],[27.053224,38.478283],[27.053061,38.477339],[27.052203,38.475121],[27.049713,38.475145],[27.04815,38.475146],[27.047537,38.475065],[27.046873,38.475],[27.04691,38.474679],[27.04691,38.474404],[27.046872,38.473415],[27.046265,38.472283],[27.045977,38.471674],[27.04562,38.471627],[27.045007,38.47161],[27.044366,38.471627],[27.043869,38.471675],[27.043801,38.471727],[27.03997,38.472126],[27.036139,38.472593],[27.033715,38.473234],[27.030517,38.474146],[27.028057,38.473995],[27.028276,38.475661],[27.028722,38.479036],[27.028886,38.480147],[27.02894,38.481128],[27.028977,38.481815],[27.029115,38.482452],[27.029281,38.483221],[27.030682,38.483075],[27.031389,38.483448],[27.03165,38.483575],[27.032005,38.483537],[27.032005,38.483537],[27.0317,38.48427],[27.031337,38.484719],[27.030862,38.485166],[27.030485,38.485774],[27.02984,38.486897],[27.029027,38.489462],[27.028975,38.490563],[27.029078,38.491087],[27.029079,38.491766],[27.029109,38.49203],[27.029624,38.492672],[27.030013,38.493214],[27.03037,38.493567],[27.030916,38.49375],[27.031416,38.493789],[27.031416,38.493789],[27.032079,38.493853],[27.032062,38.493995],[27.031196,38.494141],[27.030553,38.494294],[27.029892,38.494821],[27.029698,38.494976],[27.028928,38.49571],[27.02874,38.496294],[27.028588,38.496763],[27.028477,38.497106],[27.028643,38.499819],[27.02822,38.500263],[27.028196,38.50079],[27.028172,38.501332],[27.02814,38.502065],[27.02812,38.502654],[27.028114,38.50298],[27.028104,38.503472],[27.028093,38.504086],[27.028079,38.504816],[27.028066,38.505496],[27.028057,38.505972],[27.02805,38.506391],[27.028041,38.506861],[27.028032,38.507349],[27.028024,38.507745],[27.028017,38.508114],[27.028067,38.508418],[27.028066,38.508418],[27.032523,38.50842],[27.035007,38.508286],[27.035496,38.509063],[27.037057,38.509027]]]}}]}