{"type":"FeatureCollection","name":"turkiye_map.dist.mahalle_geometrileri_by_district.TR-D-07-010","features":[{"type":"Feature","properties":{"id":"TR-Y-07-010-M-0001","level":"yerlesim","type":"mahalle","parent_id":"TR-D-07-010","province_id":"TR-P-07","district_id":"TR-D-07-010","name":"Aşağı","source_raw_name":"Aşağı","source":"Kullanıcı tarafından sağlanan KML","source_label":"Kullanıcı tarafından sağlanan KML","source_name":"Antalya Mahalle KML - kullanici tarafindan saglandi"},"geometry":{"type":"Polygon","coordinates":[[[31.589136,37.101693],[31.591187,37.100678],[31.59124,37.10068],[31.591444,37.100479],[31.591724,37.100219],[31.591954,37.100129],[31.592074,37.100109],[31.592204,37.100109],[31.592581,37.100133],[31.592947,37.100132],[31.593223,37.100092],[31.593432,37.099987],[31.593632,37.09987],[31.593758,37.099797],[31.593944,37.099696],[31.594116,37.099423],[31.594223,37.09922],[31.593883,37.099124],[31.59396,37.09898],[31.594156,37.098584],[31.594454,37.098487],[31.594817,37.098345],[31.595156,37.09817],[31.595426,37.097875],[31.595597,37.097598],[31.595742,37.097474],[31.596077,37.097338],[31.596118,37.097336],[31.596125,37.097243],[31.596169,37.097052],[31.596182,37.097011],[31.596214,37.0968],[31.596133,37.096702],[31.59614,37.096471],[31.596297,37.09624],[31.596357,37.096138],[31.596727,37.095924],[31.596836,37.095829],[31.596883,37.095759],[31.596912,37.095725],[31.597123,37.095534],[31.597374,37.095356],[31.597458,37.095312],[31.597948,37.095053],[31.598789,37.094683],[31.598918,37.094637],[31.599512,37.094512],[31.600359,37.094354],[31.600463,37.09433],[31.600824,37.094218],[31.600969,37.094144],[31.601114,37.094058],[31.601356,37.093869],[31.601553,37.093696],[31.601855,37.093437],[31.60216,37.093161],[31.602465,37.092888],[31.60272,37.092619],[31.602921,37.092373],[31.603139,37.0921],[31.603237,37.091971],[31.603344,37.091826],[31.603488,37.091637],[31.603676,37.091405],[31.603929,37.091133],[31.604108,37.090971],[31.604331,37.090812],[31.604594,37.090618],[31.604855,37.090322],[31.604986,37.090109],[31.605055,37.08996],[31.605083,37.089744],[31.605055,37.089554],[31.605007,37.089365],[31.604984,37.089174],[31.604991,37.088945],[31.605029,37.088683],[31.605046,37.088477],[31.605035,37.08825],[31.605083,37.088067],[31.605275,37.088187],[31.606164,37.088742],[31.623257,37.091392],[31.632657,37.084669],[31.632891,37.084349],[31.633072,37.08407],[31.633112,37.083775],[31.633329,37.083413],[31.633545,37.083092],[31.633778,37.0828],[31.633679,37.08249],[31.634002,37.082072],[31.634182,37.081765],[31.634452,37.081389],[31.634476,37.081066],[31.634465,37.080672],[31.634888,37.080579],[31.635203,37.080611],[31.635799,37.080579],[31.63605,37.080552],[31.636265,37.080464],[31.636525,37.080588],[31.636787,37.080681],[31.637162,37.080736],[31.63755,37.08074],[31.637913,37.080714],[31.638291,37.080618],[31.638693,37.080512],[31.639309,37.080429],[31.639809,37.080465],[31.640286,37.08041],[31.640691,37.080184],[31.641059,37.079917],[31.641427,37.079621],[31.641692,37.079483],[31.642033,37.079357],[31.64261,37.079303],[31.642963,37.079187],[31.64333,37.07895],[31.643873,37.078695],[31.644251,37.078589],[31.644829,37.078475],[31.645267,37.07848],[31.645607,37.078384],[31.646058,37.07841],[31.646553,37.078197],[31.647035,37.078088],[31.64732,37.077977],[31.647851,37.078189],[31.649022,37.078007],[31.636843,37.073773],[31.636023,37.07254],[31.63546,37.07265],[31.63449,37.0728],[31.63402,37.07285],[31.63386,37.07284],[31.633745,37.072804],[31.633625,37.072746],[31.63352,37.072637],[31.633403,37.072519],[31.633324,37.072384],[31.633238,37.07225],[31.633121,37.072117],[31.63299,37.07202],[31.632859,37.071961],[31.632668,37.071923],[31.630084,37.069873],[31.628514,37.068986],[31.628179,37.068841],[31.622044,37.066387],[31.60649,37.058451],[31.603719,37.072595],[31.598444,37.080789],[31.594914,37.084966],[31.594857,37.085033],[31.592452,37.085411],[31.589991,37.086031],[31.589991,37.086031],[31.58876,37.087234],[31.588221,37.087683],[31.58822,37.087683],[31.587953,37.088281],[31.587611,37.088923],[31.587054,37.089341],[31.587054,37.089342],[31.586835,37.090293],[31.586852,37.091335],[31.58669,37.092184],[31.587901,37.097537],[31.583722,37.100518],[31.583722,37.100518],[31.589136,37.101693]]]}},{"type":"Feature","properties":{"id":"TR-Y-07-010-M-0002","level":"yerlesim","type":"mahalle","parent_id":"TR-D-07-010","province_id":"TR-P-07","district_id":"TR-D-07-010","name":"Aydınyayla","source_raw_name":"Aydınyayla","source":"Kullanıcı tarafından sağlanan KML","source_label":"Kullanıcı tarafından sağlanan KML","source_name":"Antalya Mahalle KML - kullanici tarafindan saglandi"},"geometry":{"type":"Polygon","coordinates":[[[31.583888,37.170721],[31.58425,37.170664],[31.584689,37.170664],[31.58519,37.17062],[31.585191,37.17062],[31.585192,37.17062],[31.585541,37.170524],[31.585643,37.170435],[31.585753,37.170314],[31.585902,37.170005],[31.585912,37.169978],[31.586094,37.169481],[31.586204,37.169336],[31.586552,37.169088],[31.587057,37.168682],[31.587499,37.168221],[31.587651,37.167869],[31.587671,37.167723],[31.587814,37.167524],[31.588065,37.167287],[31.588523,37.166877],[31.589095,37.166459],[31.589515,37.166014],[31.589852,37.165726],[31.590143,37.165584],[31.590709,37.165574],[31.590709,37.165573],[31.590711,37.165573],[31.59085,37.16544],[31.590996,37.165223],[31.591178,37.164869],[31.591311,37.164548],[31.591534,37.16396],[31.591863,37.163813],[31.592945,37.163138],[31.593062,37.163098],[31.593576,37.163106],[31.593884,37.163137],[31.594238,37.163124],[31.59424,37.163124],[31.59424,37.163124],[31.594392,37.16306],[31.594516,37.162966],[31.594667,37.162787],[31.595108,37.16237],[31.59537,37.16224],[31.595725,37.162114],[31.59601,37.162062],[31.596414,37.162005],[31.597156,37.162019],[31.597472,37.16198],[31.597472,37.16198],[31.597473,37.16198],[31.597787,37.161393],[31.597954,37.161248],[31.598303,37.161059],[31.598449,37.160823],[31.598905,37.160521],[31.599228,37.160319],[31.599324,37.160207],[31.599537,37.159814],[31.599638,37.159596],[31.59995,37.159366],[31.599998,37.158727],[31.599991,37.158394],[31.600045,37.158061],[31.600251,37.157751],[31.60059,37.1576],[31.600741,37.157553],[31.600892,37.157573],[31.601073,37.157541],[31.601074,37.157541],[31.601075,37.157541],[31.60192,37.15721],[31.602165,37.157172],[31.602371,37.157208],[31.602736,37.157364],[31.602996,37.157613],[31.603133,37.157718],[31.603264,37.157787],[31.603451,37.157817],[31.603452,37.157817],[31.603453,37.157817],[31.603548,37.157722],[31.603643,37.157499],[31.603801,37.157327],[31.604179,37.1571],[31.604462,37.15709],[31.604464,37.15709],[31.604464,37.15709],[31.604926,37.156956],[31.605049,37.156945],[31.605261,37.156999],[31.605262,37.156998],[31.60606,37.156587],[31.606061,37.156587],[31.606774,37.156562],[31.607034,37.156611],[31.607034,37.156611],[31.607056,37.156108],[31.607035,37.155666],[31.607059,37.155459],[31.606988,37.154742],[31.606864,37.154444],[31.606797,37.154229],[31.606725,37.153923],[31.606688,37.153486],[31.606712,37.153036],[31.606714,37.153036],[31.607196,37.152918],[31.607435,37.152892],[31.607436,37.152892],[31.607437,37.152892],[31.607713,37.152805],[31.607795,37.152741],[31.607809,37.15264],[31.607578,37.151725],[31.607629,37.151212],[31.60773,37.15082],[31.607842,37.150778],[31.61705,37.150933],[31.620669,37.150994],[31.62067,37.150994],[31.621064,37.150693],[31.621517,37.150124],[31.622065,37.149801],[31.622066,37.149801],[31.627959,37.149348],[31.630383,37.149161],[31.63065,37.149278],[31.631292,37.149294],[31.631578,37.149309],[31.631988,37.149269],[31.632018,37.14927],[31.632421,37.149289],[31.632642,37.149382],[31.632824,37.149459],[31.63333,37.149604],[31.633373,37.149655],[31.633611,37.149943],[31.633701,37.150008],[31.633795,37.150007],[31.633797,37.150007],[31.633797,37.150007],[31.634521,37.14972],[31.634521,37.14972],[31.642416,37.142281],[31.646214,37.140578],[31.647416,37.138151],[31.64783,37.136703],[31.652131,37.13362],[31.652185,37.131611],[31.661597,37.126777],[31.64982,37.126145],[31.641236,37.125692],[31.635727,37.124243],[31.629578,37.120704],[31.608099,37.107642],[31.603721,37.106355],[31.600521,37.108108],[31.589217,37.115531],[31.568199,37.141137],[31.563628,37.147171],[31.55635,37.161397],[31.563612,37.167387],[31.578277,37.175357],[31.578479,37.175195],[31.578827,37.175079],[31.578829,37.175078],[31.579454,37.174925],[31.579456,37.174925],[31.579784,37.174815],[31.580165,37.174616],[31.580411,37.174448],[31.58162,37.174413],[31.581622,37.174413],[31.581622,37.174413],[31.581963,37.174313],[31.582472,37.174054],[31.582705,37.173811],[31.583122,37.173167],[31.583238,37.172947],[31.583343,37.172465],[31.583343,37.172243],[31.583293,37.172032],[31.583124,37.171678],[31.582885,37.171373],[31.582825,37.171262],[31.582829,37.171175],[31.582842,37.171168],[31.583199,37.171009],[31.583236,37.170993],[31.583492,37.170821],[31.583888,37.170721]]]}},{"type":"Feature","properties":{"id":"TR-Y-07-010-M-0003","level":"yerlesim","type":"mahalle","parent_id":"TR-D-07-010","province_id":"TR-P-07","district_id":"TR-D-07-010","name":"Başlar","source_raw_name":"Başlar","source":"Kullanıcı tarafından sağlanan KML","source_label":"Kullanıcı tarafından sağlanan KML","source_name":"Antalya Mahalle KML - kullanici tarafindan saglandi"},"geometry":{"type":"Polygon","coordinates":[[[31.477406,37.152867],[31.489436,37.145277],[31.489887,37.144523],[31.490564,37.143382],[31.490943,37.142222],[31.490943,37.142222],[31.489479,37.14199],[31.4895,37.141927],[31.48909,37.141941],[31.489088,37.141928],[31.488591,37.14185],[31.488526,37.141211],[31.488006,37.136082],[31.492603,37.11779],[31.4912,37.117502],[31.478304,37.114856],[31.467395,37.11437],[31.457685,37.113392],[31.44519,37.112131],[31.442284,37.113848],[31.420511,37.119998],[31.411419,37.122564],[31.410048,37.125573],[31.406974,37.133402],[31.404567,37.170587],[31.410569,37.175787],[31.415164,37.177311],[31.420474,37.177428],[31.424929,37.177441],[31.426833,37.177831],[31.433063,37.179103],[31.439171,37.182064],[31.442797,37.183906],[31.443394,37.184777],[31.453163,37.177773],[31.456722,37.171929],[31.457658,37.17118],[31.460842,37.166574],[31.461204,37.164568],[31.462673,37.162157],[31.477406,37.152867]]]}},{"type":"Feature","properties":{"id":"TR-Y-07-010-M-0004","level":"yerlesim","type":"mahalle","parent_id":"TR-D-07-010","province_id":"TR-P-07","district_id":"TR-D-07-010","name":"Çukurviran","source_raw_name":"Çukurviran","source":"Kullanıcı tarafından sağlanan KML","source_label":"Kullanıcı tarafından sağlanan KML","source_name":"Antalya Mahalle KML - kullanici tarafindan saglandi"},"geometry":{"type":"Polygon","coordinates":[[[31.529275,37.159948],[31.529349,37.159893],[31.529476,37.15991],[31.529664,37.15994],[31.529816,37.159932],[31.529952,37.159885],[31.530007,37.159835],[31.530053,37.159666],[31.530049,37.159559],[31.530044,37.159459],[31.530101,37.159333],[31.530188,37.159192],[31.530437,37.158733],[31.531355,37.157851],[31.531512,37.157708],[31.531938,37.157475],[31.532276,37.157307],[31.532617,37.156955],[31.532889,37.156724],[31.533694,37.156141],[31.534875,37.155357],[31.535095,37.155262],[31.5351,37.15526],[31.5351,37.15526],[31.531374,37.136566],[31.521062,37.13924],[31.498751,37.143328],[31.496899,37.143061],[31.493147,37.142533],[31.493092,37.142525],[31.49305,37.142519],[31.49266,37.142464],[31.492307,37.142414],[31.491844,37.142349],[31.49128,37.142269],[31.490943,37.142222],[31.490564,37.143382],[31.489887,37.144523],[31.489436,37.145277],[31.477406,37.152867],[31.484526,37.159041],[31.486089,37.159815],[31.486631,37.160218],[31.49161,37.163142],[31.506292,37.171065],[31.508999,37.181711],[31.508999,37.181711],[31.522016,37.178248],[31.52393,37.176988],[31.525101,37.176217],[31.528116,37.1739],[31.529053,37.173496],[31.530452,37.173428],[31.52999,37.171471],[31.529019,37.170486],[31.524127,37.16549],[31.524308,37.165182],[31.524388,37.165032],[31.524459,37.164929],[31.524618,37.164702],[31.524718,37.164582],[31.525088,37.164222],[31.525338,37.163952],[31.525889,37.163261],[31.526983,37.162407],[31.527193,37.162194],[31.527488,37.162042],[31.52819,37.161967],[31.52829,37.161897],[31.52837,37.161807],[31.52852,37.161547],[31.528567,37.161447],[31.528603,37.161344],[31.528813,37.161216],[31.529137,37.161117],[31.529257,37.161037],[31.529597,37.160657],[31.529652,37.160466],[31.529622,37.160356],[31.529528,37.16026],[31.52928,37.160118],[31.52925,37.160038],[31.529275,37.159948]]]}},{"type":"Feature","properties":{"id":"TR-Y-07-010-M-0005","level":"yerlesim","type":"mahalle","parent_id":"TR-D-07-010","province_id":"TR-P-07","district_id":"TR-D-07-010","name":"Düzlen","source_raw_name":"Düzlen","source":"Kullanıcı tarafından sağlanan KML","source_label":"Kullanıcı tarafından sağlanan KML","source_name":"Antalya Mahalle KML - kullanici tarafindan saglandi"},"geometry":{"type":"Polygon","coordinates":[[[31.657351,37.073359],[31.658264,37.071984],[31.658315,37.070426],[31.658661,37.069853],[31.65988,37.068828],[31.659917,37.068786],[31.660614,37.068009],[31.660994,37.066916],[31.660743,37.066144],[31.659833,37.064633],[31.659902,37.06346],[31.660327,37.062484],[31.660222,37.061675],[31.659827,37.060901],[31.658085,37.058938],[31.657491,37.058585],[31.655701,37.058007],[31.653127,37.058324],[31.651479,37.057882],[31.649399,37.05605],[31.648862,37.055197],[31.648102,37.054727],[31.647387,37.054411],[31.646885,37.054328],[31.64524,37.053762],[31.645223,37.053885],[31.644921,37.054194],[31.644455,37.054976],[31.643905,37.055269],[31.643363,37.0555],[31.643135,37.055598],[31.642179,37.055911],[31.641817,37.05612],[31.641388,37.056577],[31.64096,37.057009],[31.64064,37.057442],[31.639422,37.058453],[31.639261,37.058776],[31.638796,37.059482],[31.638399,37.05989],[31.638305,37.060185],[31.638201,37.060512],[31.638164,37.060861],[31.637718,37.061393],[31.637276,37.0617],[31.636846,37.062183],[31.63618,37.062837],[31.635655,37.06343],[31.635323,37.063726],[31.634897,37.063984],[31.633905,37.064259],[31.633816,37.064283],[31.63303,37.064699],[31.632599,37.065244],[31.632402,37.065651],[31.63234,37.065778],[31.632082,37.066249],[31.631167,37.066888],[31.629774,37.068084],[31.630084,37.069873],[31.630084,37.069873],[31.632668,37.071923],[31.632859,37.071961],[31.63299,37.07202],[31.633048,37.072063],[31.633121,37.072117],[31.633238,37.07225],[31.633324,37.072384],[31.633403,37.072519],[31.63352,37.072637],[31.633625,37.072746],[31.633745,37.072804],[31.63386,37.07284],[31.63402,37.07285],[31.63449,37.0728],[31.634851,37.072744],[31.63546,37.07265],[31.636023,37.07254],[31.636843,37.073773],[31.649022,37.078007],[31.649022,37.078007],[31.647684,37.08549],[31.6558,37.081458],[31.656519,37.0811],[31.656562,37.081094],[31.656604,37.081089],[31.656656,37.081082],[31.656572,37.081012],[31.656595,37.080745],[31.656759,37.080301],[31.656755,37.079904],[31.656706,37.079703],[31.656774,37.078854],[31.655394,37.077097],[31.655341,37.07703],[31.655665,37.076379],[31.656422,37.075638],[31.657389,37.073917],[31.657375,37.07371],[31.657351,37.073359]]]}},{"type":"Feature","properties":{"id":"TR-Y-07-010-M-0006","level":"yerlesim","type":"mahalle","parent_id":"TR-D-07-010","province_id":"TR-P-07","district_id":"TR-D-07-010","name":"Ormana","source_raw_name":"Ormana","source":"Kullanıcı tarafından sağlanan KML","source_label":"Kullanıcı tarafından sağlanan KML","source_name":"Antalya Mahalle KML - kullanici tarafindan saglandi"},"geometry":{"type":"Polygon","coordinates":[[[31.521062,37.13924],[31.531374,37.136566],[31.54583,37.132814],[31.558295,37.118537],[31.568439,37.111414],[31.583722,37.100518],[31.583722,37.100518],[31.587901,37.097537],[31.587901,37.097537],[31.58669,37.092184],[31.586852,37.091335],[31.586835,37.090293],[31.587054,37.089342],[31.587054,37.089341],[31.587611,37.088923],[31.587953,37.088281],[31.58822,37.087683],[31.588221,37.087683],[31.58876,37.087234],[31.589991,37.086031],[31.589991,37.086031],[31.592452,37.085411],[31.594857,37.085033],[31.594914,37.084966],[31.598444,37.080789],[31.598479,37.080734],[31.598541,37.080639],[31.603719,37.072595],[31.60649,37.058451],[31.598397,37.061143],[31.596601,37.061741],[31.59257,37.063082],[31.591136,37.062528],[31.591117,37.06252],[31.578886,37.057792],[31.567148,37.02774],[31.541074,37.03746],[31.522073,37.042428],[31.503598,37.045153],[31.483113,37.048124],[31.482153,37.04839],[31.474107,37.065629],[31.459378,37.069362],[31.437962,37.069629],[31.431618,37.079396],[31.433651,37.097377],[31.42789,37.104407],[31.426276,37.106594],[31.426021,37.107903],[31.422709,37.111427],[31.420767,37.113491],[31.411419,37.122564],[31.420511,37.119998],[31.442284,37.113848],[31.44519,37.112131],[31.457685,37.113392],[31.467395,37.11437],[31.478304,37.114856],[31.4912,37.117502],[31.492603,37.11779],[31.488006,37.136082],[31.488526,37.141211],[31.488591,37.14185],[31.489088,37.141928],[31.48909,37.141941],[31.4895,37.141927],[31.489479,37.14199],[31.490943,37.142222],[31.490943,37.142222],[31.49128,37.142269],[31.491844,37.142349],[31.492307,37.142414],[31.49266,37.142464],[31.49305,37.142519],[31.493092,37.142525],[31.493147,37.142533],[31.496899,37.143061],[31.498751,37.143328],[31.521062,37.13924]]]}},{"type":"Feature","properties":{"id":"TR-Y-07-010-M-0007","level":"yerlesim","type":"mahalle","parent_id":"TR-D-07-010","province_id":"TR-P-07","district_id":"TR-D-07-010","name":"Ürünlü","source_raw_name":"Ürünlü","source":"Kullanıcı tarafından sağlanan KML","source_label":"Kullanıcı tarafından sağlanan KML","source_name":"Antalya Mahalle KML - kullanici tarafindan saglandi"},"geometry":{"type":"Polygon","coordinates":[[[31.629774,37.068084],[31.631167,37.066888],[31.632082,37.066249],[31.63234,37.065778],[31.632402,37.065651],[31.632599,37.065244],[31.63303,37.064699],[31.633816,37.064283],[31.633905,37.064259],[31.634897,37.063984],[31.635323,37.063726],[31.635655,37.06343],[31.63618,37.062837],[31.636846,37.062183],[31.637276,37.0617],[31.637718,37.061393],[31.638164,37.060861],[31.638201,37.060512],[31.638305,37.060185],[31.638399,37.05989],[31.638796,37.059482],[31.639261,37.058776],[31.639422,37.058453],[31.64064,37.057442],[31.64096,37.057009],[31.641388,37.056577],[31.641817,37.05612],[31.642179,37.055911],[31.643135,37.055598],[31.643363,37.0555],[31.643905,37.055269],[31.644455,37.054976],[31.644921,37.054194],[31.645223,37.053885],[31.64524,37.053762],[31.645241,37.053761],[31.644551,37.05324],[31.643975,37.052926],[31.643803,37.052747],[31.643269,37.051948],[31.642864,37.050924],[31.642587,37.050456],[31.642118,37.049815],[31.641958,37.0493],[31.642019,37.048836],[31.641998,37.047478],[31.641914,37.047194],[31.64199,37.046634],[31.642103,37.046317],[31.642456,37.044665],[31.641706,37.042606],[31.641685,37.04228],[31.642018,37.041224],[31.641872,37.040567],[31.641326,37.039963],[31.641125,37.03953],[31.640994,37.038888],[31.640714,37.038488],[31.640308,37.037883],[31.639796,37.03757],[31.639151,37.037419],[31.638527,37.037193],[31.638258,37.037002],[31.638027,37.036542],[31.638038,37.035597],[31.637971,37.035058],[31.637766,37.034361],[31.637573,37.03389],[31.636775,37.032415],[31.63665,37.03203],[31.636628,37.031335],[31.636406,37.030742],[31.636298,37.030139],[31.635993,37.029184],[31.635239,37.028051],[31.633702,37.026175],[31.633579,37.025848],[31.633253,37.025465],[31.633022,37.024783],[31.632869,37.023733],[31.632839,37.022802],[31.632976,37.022337],[31.633715,37.021532],[31.634102,37.02062],[31.634171,37.020419],[31.634371,37.020153],[31.634473,37.019926],[31.634518,37.019678],[31.634474,37.019403],[31.63434,37.018914],[31.634048,37.018348],[31.633645,37.017863],[31.632889,37.017132],[31.63211,37.016239],[31.632069,37.016055],[31.632005,37.015938],[31.631712,37.015632],[31.631537,37.015444],[31.631386,37.015199],[31.631312,37.014972],[31.631062,37.014716],[31.630369,37.014229],[31.62953,37.013698],[31.629175,37.013558],[31.628455,37.01308],[31.628086,37.012766],[31.626591,37.011075],[31.625982,37.010479],[31.625734,37.010287],[31.625602,37.010072],[31.625529,37.009919],[31.625093,37.009519],[31.624725,37.009245],[31.623264,37.008312],[31.622987,37.008115],[31.622724,37.007837],[31.622452,37.007421],[31.622092,37.006397],[31.621785,37.005625],[31.6211,37.0026],[31.620799,37.001922],[31.619161,36.999598],[31.618834,36.998993],[31.618025,36.997465],[31.617483,36.996176],[31.617351,36.995635],[31.617206,36.994526],[31.616987,36.99377],[31.616878,36.993411],[31.616643,36.993321],[31.616364,36.99302],[31.616217,36.99292],[31.615779,36.992487],[31.61537,36.991902],[31.615083,36.991752],[31.61499,36.991654],[31.614823,36.991549],[31.614434,36.991414],[31.614433,36.991414],[31.614222,36.991515],[31.613675,36.991454],[31.613515,36.991398],[31.613361,36.991299],[31.613361,36.991299],[31.61336,36.991299],[31.613159,36.991264],[31.6131,36.991171],[31.613099,36.991171],[31.613099,36.991171],[31.612636,36.991052],[31.612449,36.990919],[31.612448,36.990919],[31.612448,36.990919],[31.612006,36.99081],[31.611788,36.99076],[31.611602,36.990649],[31.611602,36.990649],[31.611601,36.990649],[31.61131,36.990667],[31.611135,36.990687],[31.611083,36.990584],[31.611082,36.990583],[31.611082,36.990583],[31.610557,36.99048],[31.610318,36.990266],[31.610318,36.990266],[31.610317,36.990265],[31.610229,36.99027],[31.610041,36.990213],[31.609961,36.990185],[31.609922,36.990098],[31.60969,36.989889],[31.609689,36.989889],[31.609689,36.989889],[31.609292,36.989787],[31.608944,36.989621],[31.608944,36.98962],[31.608943,36.98962],[31.608675,36.989568],[31.608549,36.989437],[31.608315,36.989266],[31.608305,36.989109],[31.608098,36.988976],[31.607935,36.988654],[31.607754,36.988549],[31.607702,36.988408],[31.607346,36.987926],[31.607119,36.98743],[31.606427,36.986473],[31.606275,36.98626],[31.606034,36.986111],[31.606012,36.985856],[31.606011,36.985855],[31.606011,36.985855],[31.605925,36.985828],[31.605924,36.985827],[31.605913,36.985686],[31.605793,36.985576],[31.605728,36.985445],[31.605786,36.985208],[31.605635,36.984962],[31.605578,36.984793],[31.605584,36.984424],[31.605461,36.984163],[31.605442,36.984092],[31.605464,36.983962],[31.605373,36.983766],[31.605438,36.983528],[31.605374,36.983381],[31.605357,36.983158],[31.605211,36.983005],[31.605294,36.982572],[31.605075,36.982331],[31.605138,36.981822],[31.605286,36.981536],[31.605236,36.981308],[31.605274,36.981064],[31.605464,36.980671],[31.605634,36.980613],[31.605836,36.980632],[31.605905,36.980551],[31.60595,36.98033],[31.606431,36.979853],[31.606788,36.979591],[31.60677,36.979461],[31.606866,36.979348],[31.606996,36.97929],[31.606991,36.979209],[31.607157,36.979042],[31.607376,36.978823],[31.607751,36.978274],[31.608055,36.977914],[31.608232,36.977461],[31.60834,36.977104],[31.608343,36.976931],[31.608238,36.9768],[31.608034,36.976466],[31.607856,36.976215],[31.607737,36.9761],[31.607732,36.975964],[31.607663,36.975719],[31.607705,36.975606],[31.60773,36.975368],[31.607733,36.975189],[31.607797,36.975021],[31.607803,36.974702],[31.607902,36.974053],[31.608033,36.973201],[31.60827,36.97236],[31.607923,36.971625],[31.607843,36.971016],[31.60788,36.970622],[31.60817,36.970113],[31.608798,36.969628],[31.609064,36.969685],[31.609289,36.969647],[31.609484,36.969349],[31.609591,36.96902],[31.609383,36.9689],[31.609337,36.968749],[31.609235,36.968663],[31.609,36.968341],[31.608929,36.968005],[31.608902,36.967729],[31.609125,36.967329],[31.609125,36.967052],[31.609044,36.966691],[31.608854,36.966085],[31.608763,36.96555],[31.608617,36.965216],[31.60841,36.96498],[31.608403,36.964972],[31.608194,36.964713],[31.603505,36.968207],[31.601329,36.970483],[31.600575,36.971564],[31.599087,36.97339],[31.597138,36.975178],[31.594307,36.977555],[31.593158,36.978571],[31.590645,36.980794],[31.579773,36.983567],[31.569531,36.986058],[31.569602,36.98722],[31.569532,36.98784],[31.568918,36.989046],[31.567418,36.990629],[31.566231,36.992013],[31.564971,36.993252],[31.563703,36.994168],[31.562124,36.994985],[31.559363,36.995948],[31.557123,36.997187],[31.556815,36.997452],[31.552916,36.999057],[31.552512,36.999187],[31.552315,36.999403],[31.552116,36.999761],[31.551298,37.000157],[31.550857,37.000132],[31.550262,37.000241],[31.550005,37.000225],[31.549734,37.000163],[31.548647,36.999519],[31.548357,36.999334],[31.547806,36.998981],[31.546867,36.999422],[31.545346,37.000136],[31.541434,37.00051],[31.538351,37.002909],[31.533878,37.005016],[31.531632,37.005759],[31.530015,37.006037],[31.5274,37.006626],[31.524601,37.007113],[31.522101,37.008176],[31.519938,37.009392],[31.51518,37.011794],[31.511874,37.014412],[31.512052,37.019916],[31.509125,37.022176],[31.508272,37.022624],[31.501805,37.026018],[31.488035,37.032982],[31.488377,37.033218],[31.482325,37.034926],[31.482944,37.046696],[31.482153,37.04839],[31.483113,37.048124],[31.503598,37.045153],[31.522073,37.042428],[31.541074,37.03746],[31.567148,37.02774],[31.578886,37.057792],[31.591117,37.06252],[31.591136,37.062528],[31.59257,37.063082],[31.596601,37.061741],[31.598397,37.061143],[31.60649,37.058451],[31.60649,37.058451],[31.622044,37.066387],[31.628179,37.068841],[31.628514,37.068986],[31.630084,37.069873],[31.630084,37.069873],[31.629774,37.068084]]]}},{"type":"Feature","properties":{"id":"TR-Y-07-010-M-0008","level":"yerlesim","type":"mahalle","parent_id":"TR-D-07-010","province_id":"TR-P-07","district_id":"TR-D-07-010","name":"Üzümdere","source_raw_name":"Üzümdere","source":"Kullanıcı tarafından sağlanan KML","source_label":"Kullanıcı tarafından sağlanan KML","source_name":"Antalya Mahalle KML - kullanici tarafindan saglandi"},"geometry":{"type":"Polygon","coordinates":[[[31.722932,37.148545],[31.723061,37.148092],[31.722653,37.146909],[31.723082,37.145404],[31.722883,37.14476],[31.723022,37.144476],[31.722604,37.143125],[31.724178,37.139898],[31.726023,37.139242],[31.726254,37.138963],[31.726217,37.138895],[31.725805,37.138305],[31.725437,37.136769],[31.725514,37.13662],[31.725475,37.136454],[31.725239,37.135471],[31.725269,37.135416],[31.725269,37.13492],[31.725269,37.134903],[31.724722,37.134273],[31.724989,37.13378],[31.724991,37.132365],[31.725393,37.131217],[31.725397,37.130946],[31.727457,37.125562],[31.728135,37.12539],[31.731337,37.122195],[31.731344,37.122056],[31.731391,37.121989],[31.731885,37.121296],[31.73393,37.120101],[31.731435,37.118442],[31.721814,37.112101],[31.709133,37.103314],[31.704664,37.101044],[31.700862,37.096029],[31.696296,37.092188],[31.68705,37.082241],[31.67243,37.079078],[31.657245,37.081007],[31.656604,37.081089],[31.656519,37.0811],[31.6558,37.081458],[31.647684,37.08549],[31.643826,37.095415],[31.657948,37.105601],[31.659434,37.110368],[31.661381,37.121273],[31.661597,37.126777],[31.652185,37.131611],[31.652131,37.13362],[31.64783,37.136703],[31.647416,37.138151],[31.646214,37.140578],[31.642416,37.142281],[31.634521,37.14972],[31.634521,37.14972],[31.640549,37.150815],[31.640877,37.151028],[31.642054,37.15132],[31.642251,37.151616],[31.642473,37.151884],[31.64285,37.152244],[31.643161,37.152458],[31.643517,37.1526],[31.64448,37.153168],[31.653095,37.153213],[31.655504,37.154193],[31.656703,37.154581],[31.65693,37.154524],[31.656931,37.154524],[31.656932,37.154524],[31.65712,37.154418],[31.657279,37.154227],[31.657367,37.153959],[31.657522,37.153442],[31.65758,37.153137],[31.657593,37.152893],[31.657552,37.152433],[31.658155,37.151515],[31.658499,37.151253],[31.658723,37.150842],[31.659103,37.150252],[31.659517,37.149976],[31.659916,37.149567],[31.659968,37.149203],[31.659895,37.148957],[31.65977,37.148762],[31.659858,37.148076],[31.659858,37.148075],[31.662049,37.148515],[31.662985,37.148445],[31.666872,37.149417],[31.667539,37.149281],[31.66824,37.149338],[31.668532,37.149438],[31.66906,37.149499],[31.669377,37.149448],[31.669867,37.149327],[31.670465,37.149326],[31.670955,37.149221],[31.671301,37.149081],[31.671601,37.148859],[31.67177,37.148653],[31.672049,37.148439],[31.67205,37.148439],[31.672334,37.148313],[31.672677,37.148362],[31.673198,37.14862],[31.673547,37.14894],[31.673549,37.148941],[31.674809,37.14911],[31.674836,37.149113],[31.67501,37.149238],[31.675278,37.149466],[31.675801,37.150037],[31.676161,37.150366],[31.676279,37.150464],[31.677705,37.151655],[31.677767,37.151683],[31.67777,37.151686],[31.677773,37.151686],[31.677838,37.151715],[31.678157,37.151669],[31.678161,37.151669],[31.678163,37.151668],[31.678448,37.151534],[31.67845,37.151533],[31.678793,37.150974],[31.678963,37.150808],[31.67935,37.150569],[31.679629,37.150329],[31.679864,37.149939],[31.67999,37.149686],[31.680121,37.149489],[31.680543,37.148917],[31.680775,37.14865],[31.681513,37.148233],[31.681855,37.148152],[31.682095,37.148076],[31.682947,37.147756],[31.682948,37.147755],[31.682949,37.147755],[31.683176,37.147595],[31.683427,37.147711],[31.683714,37.148013],[31.684494,37.148528],[31.6845,37.14853],[31.684684,37.148626],[31.684754,37.148602],[31.684754,37.148602],[31.685029,37.148361],[31.685129,37.148199],[31.685198,37.148047],[31.686443,37.147291],[31.686878,37.147001],[31.6874,37.146521],[31.688681,37.145737],[31.688682,37.145737],[31.689186,37.145516],[31.689186,37.145516],[31.68938,37.145284],[31.689415,37.145089],[31.689131,37.144568],[31.689081,37.144365],[31.689076,37.144152],[31.689132,37.144015],[31.689272,37.143842],[31.689995,37.143302],[31.689939,37.142931],[31.689975,37.142669],[31.690104,37.142369],[31.690573,37.141899],[31.690573,37.141899],[31.690936,37.142186],[31.691103,37.142234],[31.691298,37.142226],[31.691601,37.142165],[31.691919,37.142197],[31.692073,37.142266],[31.692265,37.142435],[31.692285,37.142458],[31.692674,37.142932],[31.692731,37.14295],[31.692733,37.142951],[31.69274,37.142952],[31.692793,37.142969],[31.693284,37.143045],[31.693344,37.143041],[31.693347,37.143041],[31.693349,37.143041],[31.693772,37.14286],[31.693775,37.142859],[31.694069,37.143029],[31.694273,37.143226],[31.69436,37.143327],[31.694365,37.143531],[31.694368,37.143642],[31.694396,37.143687],[31.694397,37.143691],[31.6944,37.143694],[31.694429,37.143739],[31.694866,37.144039],[31.694896,37.14406],[31.695095,37.144577],[31.695316,37.14487],[31.695574,37.145061],[31.695893,37.145072],[31.696573,37.144948],[31.696837,37.144834],[31.696837,37.144834],[31.697021,37.144698],[31.697021,37.144698],[31.697189,37.144696],[31.697466,37.14482],[31.697709,37.145141],[31.697933,37.145272],[31.698179,37.145359],[31.698635,37.145418],[31.699064,37.145437],[31.699819,37.145572],[31.70041,37.145892],[31.701244,37.146275],[31.701325,37.146427],[31.701251,37.146673],[31.701282,37.146812],[31.701366,37.146935],[31.701632,37.147191],[31.701752,37.147376],[31.701993,37.14787],[31.704731,37.148121],[31.705709,37.148073],[31.70701,37.148146],[31.70849,37.148084],[31.708821,37.148024],[31.708822,37.148023],[31.708823,37.148023],[31.709075,37.147846],[31.709372,37.147986],[31.710011,37.148145],[31.711735,37.148467],[31.712116,37.148368],[31.71268,37.148619],[31.713252,37.148801],[31.713627,37.149021],[31.713805,37.149226],[31.713889,37.149443],[31.714001,37.149644],[31.71401,37.149784],[31.71381,37.150119],[31.713838,37.15032],[31.714044,37.150602],[31.714246,37.150843],[31.714463,37.151392],[31.714793,37.151618],[31.714839,37.151746],[31.714622,37.152341],[31.71473,37.152552],[31.714996,37.152794],[31.715203,37.153257],[31.715466,37.153625],[31.715721,37.153835],[31.715507,37.1545],[31.71558,37.154654],[31.715685,37.154779],[31.715835,37.154873],[31.716044,37.154945],[31.720614,37.155805],[31.721214,37.155805],[31.723165,37.156601],[31.723166,37.1566],[31.723971,37.155528],[31.723871,37.154806],[31.723869,37.154776],[31.723782,37.153409],[31.723112,37.152473],[31.723067,37.15241],[31.722808,37.151056],[31.723007,37.149301],[31.722818,37.149119],[31.723001,37.148744],[31.722932,37.148545]]]}},{"type":"Feature","properties":{"id":"TR-Y-07-010-M-0009","level":"yerlesim","type":"mahalle","parent_id":"TR-D-07-010","province_id":"TR-P-07","district_id":"TR-D-07-010","name":"Yukarı","source_raw_name":"Yukarı","source":"Kullanıcı tarafından sağlanan KML","source_label":"Kullanıcı tarafından sağlanan KML","source_name":"Antalya Mahalle KML - kullanici tarafindan saglandi"},"geometry":{"type":"Polygon","coordinates":[[[31.503586,37.2815],[31.504406,37.272682],[31.526078,37.258712],[31.526174,37.257429],[31.525392,37.256426],[31.525409,37.255587],[31.525649,37.255347],[31.525857,37.255191],[31.526113,37.255054],[31.526509,37.254954],[31.527305,37.254878],[31.527717,37.254827],[31.527995,37.254733],[31.528291,37.254562],[31.528686,37.254187],[31.528651,37.253708],[31.528678,37.253194],[31.528923,37.253086],[31.529477,37.252951],[31.529478,37.252951],[31.52948,37.25295],[31.529647,37.252858],[31.52981,37.252607],[31.529907,37.252495],[31.530375,37.252156],[31.52982,37.251746],[31.529522,37.251335],[31.529193,37.250933],[31.529059,37.250713],[31.528832,37.250414],[31.528837,37.250019],[31.52881,37.249668],[31.528734,37.249218],[31.528673,37.248938],[31.529304,37.247822],[31.52943,37.247552],[31.529546,37.247173],[31.529602,37.246932],[31.529745,37.24668],[31.529956,37.246528],[31.530093,37.246495],[31.530585,37.24638],[31.53111,37.245663],[31.53142,37.245362],[31.531469,37.245265],[31.531624,37.245107],[31.531858,37.244986],[31.532021,37.244866],[31.532241,37.244768],[31.532466,37.244735],[31.532713,37.244763],[31.532714,37.244762],[31.532715,37.244762],[31.532927,37.244656],[31.533388,37.244591],[31.533852,37.244612],[31.53412,37.244544],[31.534522,37.244401],[31.534655,37.24432],[31.534662,37.243841],[31.534691,37.243669],[31.534782,37.243423],[31.534927,37.243209],[31.53512,37.243029],[31.5353,37.242783],[31.535795,37.242458],[31.537001,37.241541],[31.537226,37.241262],[31.537335,37.241091],[31.53742,37.24078],[31.53751,37.240428],[31.537533,37.240259],[31.537507,37.24002],[31.537423,37.23987],[31.536824,37.239352],[31.536049,37.238719],[31.535701,37.23854],[31.53512,37.2383],[31.534751,37.237805],[31.534356,37.237716],[31.534208,37.237579],[31.534091,37.237473],[31.533928,37.23732],[31.533717,37.237124],[31.533652,37.236755],[31.533513,37.236267],[31.533509,37.236253],[31.533504,37.236236],[31.533337,37.235647],[31.533267,37.235555],[31.532558,37.235259],[31.532083,37.235148],[31.531866,37.23506],[31.531357,37.234957],[31.531237,37.234898],[31.531167,37.234825],[31.531154,37.234737],[31.531164,37.234689],[31.531177,37.234613],[31.531227,37.234423],[31.531476,37.234211],[31.531897,37.233612],[31.531948,37.233506],[31.53215,37.233237],[31.532185,37.233153],[31.53223,37.232972],[31.532317,37.232776],[31.532384,37.232441],[31.532448,37.232303],[31.532772,37.231969],[31.532838,37.231479],[31.532902,37.231302],[31.532974,37.23087],[31.533237,37.230617],[31.533373,37.23041],[31.53353,37.230085],[31.533664,37.229836],[31.533901,37.229518],[31.534074,37.22916],[31.534322,37.228637],[31.534764,37.228529],[31.534764,37.228529],[31.53515,37.228512],[31.535635,37.228688],[31.535893,37.228818],[31.536165,37.228839],[31.536166,37.228839],[31.536168,37.228839],[31.536531,37.228604],[31.536717,37.228401],[31.536914,37.22818],[31.537073,37.227961],[31.537241,37.227679],[31.537458,37.227213],[31.537517,37.227092],[31.537605,37.226673],[31.538495,37.226397],[31.538237,37.226037],[31.538089,37.225703],[31.537988,37.225408],[31.537988,37.225212],[31.538073,37.224949],[31.538186,37.224748],[31.538295,37.224626],[31.539239,37.223912],[31.539502,37.223774],[31.5398,37.223255],[31.539915,37.222767],[31.540038,37.222181],[31.540012,37.221781],[31.53992,37.221335],[31.539738,37.220709],[31.538854,37.21878],[31.538879,37.217888],[31.538963,37.217367],[31.539176,37.216394],[31.53947,37.215857],[31.539718,37.21555],[31.539912,37.215361],[31.540155,37.215141],[31.540332,37.215056],[31.540796,37.214904],[31.541606,37.214834],[31.541925,37.214769],[31.54235,37.214786],[31.54358,37.214852],[31.54449,37.214848],[31.545711,37.214816],[31.546513,37.214984],[31.54696,37.215016],[31.547632,37.215006],[31.548482,37.215038],[31.549185,37.214969],[31.549521,37.214919],[31.549823,37.214935],[31.550444,37.215078],[31.550445,37.215077],[31.550446,37.215077],[31.550615,37.214975],[31.55086,37.214836],[31.55104,37.214703],[31.551365,37.214523],[31.551584,37.214051],[31.551756,37.213805],[31.551894,37.213717],[31.552408,37.213466],[31.552114,37.213077],[31.551919,37.212888],[31.551665,37.212575],[31.551386,37.212267],[31.551171,37.212032],[31.550984,37.211681],[31.550898,37.211507],[31.55083,37.211258],[31.550809,37.210454],[31.550832,37.210199],[31.550897,37.209884],[31.550875,37.209714],[31.550837,37.209553],[31.550737,37.209433],[31.550628,37.20928],[31.550596,37.208939],[31.55053,37.208465],[31.550418,37.208195],[31.550234,37.207917],[31.550044,37.207736],[31.55019,37.20751],[31.550271,37.207421],[31.550445,37.207274],[31.550629,37.207192],[31.550776,37.207148],[31.550905,37.207091],[31.550973,37.206988],[31.550951,37.206851],[31.550918,37.206778],[31.550829,37.206638],[31.550694,37.206424],[31.550567,37.206291],[31.55027,37.206056],[31.550203,37.205966],[31.550183,37.20585],[31.550193,37.205781],[31.551703,37.202869],[31.55384,37.201543],[31.566742,37.193538],[31.566836,37.193497],[31.56706,37.193341],[31.567201,37.191808],[31.567592,37.19163],[31.567985,37.191402],[31.568222,37.191289],[31.56846,37.191136],[31.568666,37.190944],[31.568876,37.190699],[31.56882,37.190265],[31.568686,37.189657],[31.568503,37.18909],[31.568659,37.188937],[31.568919,37.188782],[31.569088,37.188324],[31.569208,37.187913],[31.569273,37.18763],[31.569367,37.187431],[31.569402,37.187321],[31.569198,37.186853],[31.569931,37.185998],[31.569965,37.185807],[31.57013,37.185579],[31.570289,37.185459],[31.570504,37.185318],[31.570891,37.185024],[31.571249,37.18464],[31.571364,37.184456],[31.571474,37.182973],[31.571607,37.182446],[31.571695,37.182133],[31.571736,37.181781],[31.571798,37.181244],[31.571831,37.180901],[31.571859,37.180767],[31.571893,37.180352],[31.572047,37.180306],[31.572236,37.18021],[31.572369,37.180074],[31.572482,37.179992],[31.572687,37.179803],[31.572946,37.179573],[31.573093,37.179286],[31.573414,37.17935],[31.573675,37.179368],[31.573807,37.179333],[31.574071,37.179175],[31.574242,37.179019],[31.574479,37.178729],[31.574671,37.178533],[31.574943,37.178428],[31.575216,37.178097],[31.575221,37.178014],[31.574962,37.177685],[31.575311,37.17728],[31.576041,37.177036],[31.576716,37.176752],[31.577117,37.176529],[31.577498,37.176202],[31.577848,37.176008],[31.578042,37.175846],[31.578139,37.175529],[31.578277,37.175357],[31.563612,37.167387],[31.55635,37.161397],[31.563628,37.147171],[31.568199,37.141137],[31.589217,37.115531],[31.600521,37.108108],[31.603721,37.106355],[31.608099,37.107642],[31.629578,37.120704],[31.635727,37.124243],[31.641236,37.125692],[31.64982,37.126145],[31.661597,37.126777],[31.661381,37.121273],[31.659434,37.110368],[31.657948,37.105601],[31.643826,37.095415],[31.647684,37.08549],[31.649022,37.078007],[31.647851,37.078189],[31.64732,37.077977],[31.647035,37.078088],[31.646553,37.078197],[31.646058,37.07841],[31.645607,37.078384],[31.645267,37.07848],[31.644829,37.078475],[31.644251,37.078589],[31.643873,37.078695],[31.64333,37.07895],[31.642963,37.079187],[31.64261,37.079303],[31.642033,37.079357],[31.641692,37.079483],[31.641427,37.079621],[31.641059,37.079917],[31.640691,37.080184],[31.640286,37.08041],[31.639809,37.080465],[31.639309,37.080429],[31.638693,37.080512],[31.638291,37.080618],[31.637913,37.080714],[31.63755,37.08074],[31.637162,37.080736],[31.636787,37.080681],[31.636525,37.080588],[31.636265,37.080464],[31.63605,37.080552],[31.635799,37.080579],[31.635203,37.080611],[31.634888,37.080579],[31.634465,37.080672],[31.634476,37.081066],[31.634452,37.081389],[31.634182,37.081765],[31.634002,37.082072],[31.633679,37.08249],[31.633778,37.0828],[31.633545,37.083092],[31.633329,37.083413],[31.633112,37.083775],[31.633072,37.08407],[31.632891,37.084349],[31.632657,37.084669],[31.623257,37.091392],[31.606164,37.088742],[31.605275,37.088187],[31.605083,37.088067],[31.605035,37.08825],[31.605046,37.088477],[31.605029,37.088683],[31.604991,37.088945],[31.604984,37.089174],[31.605007,37.089365],[31.605055,37.089554],[31.605083,37.089744],[31.605055,37.08996],[31.604986,37.090109],[31.604855,37.090322],[31.604594,37.090618],[31.604331,37.090812],[31.604108,37.090971],[31.603929,37.091133],[31.603676,37.091405],[31.603488,37.091637],[31.603344,37.091826],[31.603237,37.091971],[31.603139,37.0921],[31.602921,37.092373],[31.60272,37.092619],[31.602465,37.092888],[31.60216,37.093161],[31.601855,37.093437],[31.601553,37.093696],[31.601356,37.093869],[31.601114,37.094058],[31.600969,37.094144],[31.600824,37.094218],[31.600463,37.09433],[31.600359,37.094354],[31.599512,37.094512],[31.598918,37.094637],[31.598789,37.094683],[31.597948,37.095053],[31.597458,37.095312],[31.597374,37.095356],[31.597123,37.095534],[31.596912,37.095725],[31.596883,37.095759],[31.596836,37.095829],[31.596727,37.095924],[31.596357,37.096138],[31.596297,37.09624],[31.59614,37.096471],[31.596133,37.096702],[31.596214,37.0968],[31.596182,37.097011],[31.596169,37.097052],[31.596125,37.097243],[31.596118,37.097336],[31.596077,37.097338],[31.595742,37.097474],[31.595597,37.097598],[31.595426,37.097875],[31.595156,37.09817],[31.594817,37.098345],[31.594454,37.098487],[31.594156,37.098584],[31.59396,37.09898],[31.593883,37.099124],[31.594223,37.09922],[31.594116,37.099423],[31.593944,37.099696],[31.593758,37.099797],[31.593632,37.09987],[31.593432,37.099987],[31.593223,37.100092],[31.592947,37.100132],[31.592581,37.100133],[31.592204,37.100109],[31.592074,37.100109],[31.591954,37.100129],[31.591724,37.100219],[31.591444,37.100479],[31.59124,37.10068],[31.591187,37.100678],[31.589136,37.101693],[31.583722,37.100518],[31.568439,37.111414],[31.558295,37.118537],[31.54583,37.132814],[31.531374,37.136566],[31.5351,37.15526],[31.5351,37.15526],[31.535095,37.155262],[31.534875,37.155357],[31.533694,37.156141],[31.532889,37.156724],[31.532617,37.156955],[31.532276,37.157307],[31.531938,37.157475],[31.531512,37.157708],[31.531355,37.157851],[31.530437,37.158733],[31.530188,37.159192],[31.530101,37.159333],[31.530044,37.159459],[31.530049,37.159559],[31.530053,37.159666],[31.530007,37.159835],[31.529952,37.159885],[31.529816,37.159932],[31.529664,37.15994],[31.529476,37.15991],[31.529349,37.159893],[31.529275,37.159948],[31.52925,37.160038],[31.52928,37.160118],[31.529528,37.16026],[31.529622,37.160356],[31.529652,37.160466],[31.529597,37.160657],[31.529257,37.161037],[31.529137,37.161117],[31.528813,37.161216],[31.528603,37.161344],[31.528567,37.161447],[31.52852,37.161547],[31.52837,37.161807],[31.52829,37.161897],[31.52819,37.161967],[31.527488,37.162042],[31.527193,37.162194],[31.526983,37.162407],[31.525889,37.163261],[31.525338,37.163952],[31.525088,37.164222],[31.524718,37.164582],[31.524618,37.164702],[31.524388,37.165032],[31.524308,37.165182],[31.524127,37.16549],[31.529019,37.170486],[31.52999,37.171471],[31.530452,37.173428],[31.529053,37.173496],[31.528116,37.1739],[31.525101,37.176217],[31.522016,37.178248],[31.508999,37.181711],[31.506292,37.171065],[31.49161,37.163142],[31.486631,37.160218],[31.486089,37.159815],[31.484526,37.159041],[31.477406,37.152867],[31.462673,37.162157],[31.461204,37.164568],[31.460842,37.166574],[31.457658,37.17118],[31.456722,37.171929],[31.453163,37.177773],[31.443394,37.184777],[31.436478,37.199031],[31.433203,37.202428],[31.431326,37.212878],[31.42724,37.219689],[31.425372,37.22079],[31.419044,37.223571],[31.412836,37.227726],[31.411299,37.232655],[31.410893,37.232556],[31.409774,37.232628],[31.403464,37.239514],[31.400782,37.244417],[31.402056,37.245246],[31.416588,37.251491],[31.43599,37.270212],[31.450179,37.272342],[31.450004,37.27272],[31.450161,37.272749],[31.450498,37.272345],[31.452908,37.27314],[31.453322,37.273254],[31.453161,37.273598],[31.453551,37.273705],[31.453718,37.273156],[31.456175,37.273775],[31.456217,37.273893],[31.457006,37.274025],[31.456779,37.274711],[31.456802,37.274954],[31.457859,37.275105],[31.457625,37.276016],[31.457778,37.276701],[31.458166,37.276793],[31.467839,37.275187],[31.457242,37.290146],[31.489621,37.309173],[31.491455,37.307906],[31.494921,37.305194],[31.49683,37.303334],[31.500139,37.301037],[31.500624,37.300622],[31.500907,37.300244],[31.501645,37.29851],[31.502178,37.296893],[31.502287,37.295225],[31.502323,37.295093],[31.502324,37.295084],[31.503586,37.2815]]]}}]}