{"type":"FeatureCollection","name":"turkiye_map.dist.mahalle_geometrileri_by_district.TR-D-59-009","features":[{"type":"Feature","properties":{"id":"TR-Y-59-009-M-0004","level":"yerlesim","type":"mahalle","parent_id":"TR-D-59-009","province_id":"TR-P-59","district_id":"TR-D-59-009","name":"Aziziye","source_raw_name":"Aziziye Mah.","source":"Kullanıcı tarafından sağlanan KML","source_label":"Kullanıcı tarafından sağlanan KML","source_name":"Tekirdağ Mahalle KML"},"geometry":{"type":"Polygon","coordinates":[[[27.94242,41.40693],[27.94382,41.40391],[27.94616,41.40385],[27.95162,41.39866],[27.94965,41.39552],[27.95242,41.39486],[27.93912,41.38864],[27.93683,41.38395],[27.933,41.3844],[27.93311,41.37734],[27.93195,41.37649],[27.93058,41.37599],[27.92774,41.3792],[27.92426,41.37833],[27.9046,41.38672],[27.9102,41.39271],[27.91707,41.39531],[27.92385,41.40057],[27.9333,41.40341],[27.93958,41.40866],[27.94242,41.40693]]]}},{"type":"Feature","properties":{"id":"TR-Y-59-009-M-0008","level":"yerlesim","type":"mahalle","parent_id":"TR-D-59-009","province_id":"TR-P-59","district_id":"TR-D-59-009","name":"Bozoba","source_raw_name":"Bozoba Mah.","source":"Kullanıcı tarafından sağlanan KML","source_label":"Kullanıcı tarafından sağlanan KML","source_name":"Tekirdağ Mahalle KML"},"geometry":{"type":"Polygon","coordinates":[[[27.95019,41.39376],[27.9549,41.38658],[27.97012,41.39016],[27.97466,41.38949],[27.97079,41.38761],[27.96434,41.38839],[27.96482,41.38304],[27.96108,41.37989],[27.95444,41.37796],[27.95268,41.37461],[27.94517,41.36978],[27.93735,41.36776],[27.93859,41.3662],[27.93769,41.36314],[27.9409,41.35885],[27.94217,41.35325],[27.94131,41.34703],[27.9386,41.34314],[27.94032,41.33971],[27.93911,41.32972],[27.94116,41.32821],[27.93384,41.32343],[27.92176,41.32738],[27.90629,41.33809],[27.90773,41.3393],[27.90598,41.34032],[27.91418,41.35322],[27.91481,41.3575],[27.90405,41.36806],[27.90762,41.36832],[27.9092,41.37158],[27.91128,41.37234],[27.91579,41.3705],[27.92233,41.37415],[27.92947,41.37371],[27.93311,41.37734],[27.933,41.3844],[27.93683,41.38395],[27.93912,41.38864],[27.95019,41.39376]]]}},{"type":"Feature","properties":{"id":"TR-Y-59-009-M-0012","level":"yerlesim","type":"mahalle","parent_id":"TR-D-59-009","province_id":"TR-P-59","district_id":"TR-D-59-009","name":"Cumhuriyet","source_raw_name":"Cumhuriyet Mah.","source":"Kullanıcı tarafından sağlanan KML","source_label":"Kullanıcı tarafından sağlanan KML","source_name":"Tekirdağ Mahalle KML"},"geometry":{"type":"Polygon","coordinates":[[[28.03851,41.40443],[28.04106,41.39991],[28.04958,41.40043],[28.05189,41.39865],[28.04912,41.39495],[28.05024,41.39423],[28.04331,41.39085],[28.03489,41.37953],[28.02525,41.38354],[28.02014,41.38164],[28.01211,41.38224],[28.00278,41.37853],[27.99877,41.38017],[27.99425,41.37824],[27.98035,41.37754],[27.97728,41.37628],[27.97742,41.37246],[27.97153,41.37456],[27.9667,41.37057],[27.96794,41.36552],[27.96305,41.36435],[27.9652,41.36325],[27.96172,41.36336],[27.95783,41.35669],[27.959,41.35187],[27.95734,41.35115],[27.95413,41.35592],[27.94236,41.36287],[27.94119,41.36932],[27.94517,41.36978],[27.95268,41.37461],[27.95444,41.37796],[27.96108,41.37989],[27.96482,41.38304],[27.96434,41.38839],[27.97079,41.38761],[27.97471,41.39013],[27.98269,41.39127],[28.01831,41.38956],[28.02303,41.39695],[28.02215,41.40017],[28.026,41.40051],[28.02833,41.40305],[28.03157,41.40266],[28.03507,41.40575],[28.03851,41.40443]]]}},{"type":"Feature","properties":{"id":"TR-Y-59-009-M-0013","level":"yerlesim","type":"mahalle","parent_id":"TR-D-59-009","province_id":"TR-P-59","district_id":"TR-D-59-009","name":"Demirler","source_raw_name":"Demirler Mah.","source":"Kullanıcı tarafından sağlanan KML","source_label":"Kullanıcı tarafından sağlanan KML","source_name":"Tekirdağ Mahalle KML"},"geometry":{"type":"Polygon","coordinates":[[[27.76437,41.46276],[27.77267,41.45002],[27.78636,41.44079],[27.7901,41.44316],[27.79594,41.44115],[27.7938,41.43766],[27.79736,41.43471],[27.79491,41.43088],[27.79393,41.42264],[27.78219,41.4124],[27.7803,41.41185],[27.77915,41.41368],[27.74681,41.42929],[27.74286,41.42651],[27.74079,41.42719],[27.73203,41.41749],[27.713,41.42712],[27.73964,41.46064],[27.74888,41.46073],[27.74886,41.45903],[27.7507,41.46293],[27.76437,41.46276]]]}},{"type":"Feature","properties":{"id":"TR-Y-59-009-M-0022","level":"yerlesim","type":"mahalle","parent_id":"TR-D-59-009","province_id":"TR-P-59","district_id":"TR-D-59-009","name":"Kurtdere","source_raw_name":"Kurtdere Mah.","source":"Kullanıcı tarafından sağlanan KML","source_label":"Kullanıcı tarafından sağlanan KML","source_name":"Tekirdağ Mahalle KML"},"geometry":{"type":"Polygon","coordinates":[[[27.79482,41.43002],[27.80498,41.42713],[27.80362,41.42552],[27.80474,41.42474],[27.81155,41.42252],[27.81393,41.42361],[27.81698,41.42093],[27.81895,41.42216],[27.82138,41.42052],[27.82401,41.42208],[27.82929,41.41999],[27.83051,41.42144],[27.83165,41.41929],[27.83421,41.42096],[27.83718,41.41618],[27.84158,41.41382],[27.83609,41.40376],[27.83896,41.40029],[27.82962,41.38448],[27.82091,41.38892],[27.81153,41.38672],[27.81274,41.39037],[27.80435,41.39688],[27.79262,41.40061],[27.7858,41.40495],[27.78119,41.41126],[27.79355,41.42209],[27.79482,41.43002]]]}},{"type":"Feature","properties":{"id":"TR-Y-59-009-M-0027","level":"yerlesim","type":"mahalle","parent_id":"TR-D-59-009","province_id":"TR-P-59","district_id":"TR-D-59-009","name":"Sofular","source_raw_name":"Sofular Mah.","source":"Kullanıcı tarafından sağlanan KML","source_label":"Kullanıcı tarafından sağlanan KML","source_name":"Tekirdağ Mahalle KML"},"geometry":{"type":"Polygon","coordinates":[[[27.66754,41.44146],[27.67067,41.4395],[27.67011,41.43862],[27.67578,41.43677],[27.68991,41.42288],[27.6926,41.41833],[27.68541,41.41163],[27.68413,41.41251],[27.67659,41.40694],[27.66806,41.4091],[27.6648,41.40729],[27.6562,41.40011],[27.65515,41.3956],[27.64944,41.39331],[27.64876,41.39432],[27.64739,41.39299],[27.64506,41.39412],[27.64265,41.39306],[27.63405,41.39641],[27.62826,41.39392],[27.62524,41.40177],[27.62917,41.40688],[27.62775,41.40737],[27.6294,41.4102],[27.62686,41.41204],[27.63051,41.42028],[27.61531,41.42522],[27.61894,41.43292],[27.62418,41.43133],[27.62325,41.42981],[27.62972,41.42732],[27.63239,41.43149],[27.63628,41.42878],[27.638,41.43065],[27.64663,41.42685],[27.6477,41.42898],[27.65188,41.42745],[27.66045,41.44407],[27.66446,41.44301],[27.66651,41.44664],[27.66993,41.44487],[27.66754,41.44146]]]}},{"type":"Feature","properties":{"id":"TR-Y-59-009-M-0028","level":"yerlesim","type":"mahalle","parent_id":"TR-D-59-009","province_id":"TR-P-59","district_id":"TR-D-59-009","name":"Yeni","source_raw_name":"Yeni Mah.","source":"Kullanıcı tarafından sağlanan KML","source_label":"Kullanıcı tarafından sağlanan KML","source_name":"Tekirdağ Mahalle KML"},"geometry":{"type":"Polygon","coordinates":[[[27.92461,41.47101],[27.92156,41.45241],[27.92589,41.4487],[27.92631,41.4461],[27.93088,41.44505],[27.92686,41.44284],[27.92858,41.44073],[27.92721,41.43916],[27.92053,41.44439],[27.91824,41.44418],[27.9103,41.45197],[27.90575,41.45008],[27.88933,41.46317],[27.89718,41.46865],[27.89784,41.46764],[27.90035,41.46951],[27.90265,41.46802],[27.90563,41.47103],[27.90694,41.46947],[27.91571,41.4706],[27.9204,41.46822],[27.91937,41.47137],[27.92253,41.47303],[27.92461,41.47101]]]}},{"type":"Feature","properties":{"id":"TR-Y-59-009-M-SRC-SEFAALAN","level":"yerlesim","type":"mahalle","parent_id":"TR-D-59-009","province_id":"TR-P-59","district_id":"TR-D-59-009","name":"SEFAALAN","source_raw_name":"Sefaalan Mah.","source":"Kullanıcı tarafından sağlanan KML","source_label":"Kullanıcı tarafından sağlanan KML","source_name":"Tekirdağ Mahalle KML","source_only":true},"geometry":{"type":"Polygon","coordinates":[[[28.08613,41.48943],[28.09371,41.48035],[28.10031,41.47612],[28.10502,41.47609],[28.10667,41.46951],[28.1119,41.46504],[28.11185,41.45367],[28.11403,41.44394],[28.11386,41.43861],[28.11114,41.43212],[28.11133,41.42667],[28.1224,41.40957],[28.11361,41.40728],[28.10991,41.40391],[28.10162,41.40421],[28.09883,41.39397],[28.08988,41.39614],[28.0833,41.39551],[28.08116,41.3975],[28.07663,41.39783],[28.07071,41.40464],[28.06691,41.40489],[28.0652,41.40272],[28.06296,41.40299],[28.06293,41.40154],[28.05953,41.40295],[28.05288,41.40084],[28.0523,41.39864],[28.04798,41.40208],[28.05349,41.4097],[28.05104,41.41188],[28.05789,41.42188],[28.0568,41.42948],[28.05474,41.42987],[28.05914,41.43383],[28.05613,41.43614],[28.0596,41.44536],[28.06272,41.44838],[28.0626,41.45244],[28.05784,41.45445],[28.06047,41.46415],[28.06516,41.46885],[28.07783,41.47549],[28.08253,41.4878],[28.08131,41.49121],[28.08613,41.48943]],[[28.09646,41.42991],[28.09827,41.43015],[28.09944,41.43073],[28.09778,41.43234],[28.09646,41.42991]]]}}]}