{"type":"FeatureCollection","name":"turkiye_map.dist.mahalle_geometrileri_by_district.TR-D-35-004","features":[{"type":"Feature","properties":{"id":"TR-Y-35-004-M-0001","level":"yerlesim","type":"mahalle","parent_id":"TR-D-35-004","province_id":"TR-P-35","district_id":"TR-D-35-004","name":"100. Yıl","source_raw_name":"100. YIL","source":"Kullanıcı tarafından sağlanan KML","source_label":"Kullanıcı tarafından sağlanan KML","source_name":"Izmir Mahalle KML - kullanici tarafindan saglandi"},"geometry":{"type":"Polygon","coordinates":[[[27.171402,38.478435],[27.171351,38.478533],[27.171286,38.47866],[27.170662,38.479047],[27.170199,38.479236],[27.170095,38.479152],[27.16698,38.477553],[27.163884,38.477027],[27.162389,38.478051],[27.1623,38.478036],[27.162025,38.477988],[27.161406,38.477881],[27.160538,38.477773],[27.16003,38.477725],[27.159214,38.477703],[27.158683,38.477713],[27.158116,38.477741],[27.157567,38.4778],[27.157102,38.477856],[27.157003,38.477868],[27.156503,38.477967],[27.155893,38.478089],[27.155775,38.478113],[27.155059,38.478257],[27.155196,38.479155],[27.155355,38.480207],[27.155365,38.480272],[27.15552,38.481292],[27.155302,38.482446],[27.155543,38.48599],[27.159698,38.488534],[27.166004,38.491552],[27.165347,38.493055],[27.169624,38.498761],[27.170922,38.501301],[27.175921,38.506629],[27.182741,38.501256],[27.182155,38.500117],[27.18191,38.498933],[27.181666,38.497749],[27.181965,38.496669],[27.182447,38.495351],[27.184217,38.494535],[27.184348,38.493659],[27.184017,38.492305],[27.184031,38.492074],[27.183837,38.491485],[27.183466,38.490832],[27.182982,38.490252],[27.182644,38.49],[27.18097,38.489157],[27.180454,38.488849],[27.179657,38.488487],[27.179141,38.488175],[27.1789,38.487922],[27.179406,38.487776],[27.179592,38.487603],[27.179732,38.487545],[27.179803,38.487544],[27.17991,38.487595],[27.180409,38.487712],[27.180815,38.487658],[27.18099,38.487596],[27.181429,38.487597],[27.181529,38.48753],[27.181576,38.48725],[27.181729,38.487168],[27.18208,38.487143],[27.182214,38.487191],[27.182359,38.487071],[27.182509,38.486629],[27.182833,38.48645],[27.182957,38.486291],[27.183219,38.486204],[27.183569,38.486257],[27.183954,38.486197],[27.184096,38.486079],[27.184295,38.48598],[27.184417,38.485986],[27.18441,38.485968],[27.184561,38.485181],[27.184966,38.483005],[27.185059,38.482762],[27.184514,38.48203],[27.184446,38.481325],[27.184812,38.48102],[27.184824,38.480999],[27.184952,38.480808],[27.185163,38.480469],[27.18578,38.480012],[27.183814,38.479968],[27.182528,38.479763],[27.182548,38.479756],[27.182528,38.479753],[27.180601,38.48007],[27.179102,38.479891],[27.178648,38.479901],[27.178082,38.479872],[27.177623,38.479789],[27.177034,38.479952],[27.175489,38.480213],[27.174695,38.480833],[27.173211,38.480842],[27.172248,38.480775],[27.171984,38.480702],[27.17274,38.479716],[27.172811,38.479624],[27.17282,38.479612],[27.172805,38.479515],[27.172722,38.479376],[27.172557,38.479173],[27.17237,38.479027],[27.172115,38.478797],[27.171913,38.478696],[27.171722,38.478685],[27.171602,38.478613],[27.17148,38.478508],[27.171429,38.478465],[27.171403,38.478435],[27.171402,38.478435]]]}},{"type":"Feature","properties":{"id":"TR-Y-35-004-M-0002","level":"yerlesim","type":"mahalle","parent_id":"TR-D-35-004","province_id":"TR-P-35","district_id":"TR-D-35-004","name":"75. Yıl","source_raw_name":"75. YIL","source":"Kullanıcı tarafından sağlanan KML","source_label":"Kullanıcı tarafından sağlanan KML","source_name":"Izmir Mahalle KML - kullanici tarafindan saglandi"},"geometry":{"type":"Polygon","coordinates":[[[27.153811,38.471965],[27.153811,38.471965],[27.15381,38.47197],[27.153606,38.473038],[27.154015,38.474179],[27.154528,38.474186],[27.154863,38.474388],[27.155005,38.474587],[27.155693,38.475539],[27.155903,38.475849],[27.156753,38.477038],[27.156854,38.477275],[27.157031,38.477156],[27.157265,38.476979],[27.157867,38.476794],[27.158314,38.4765],[27.158319,38.47643],[27.158318,38.475923],[27.158319,38.475914],[27.158402,38.475423],[27.158463,38.474804],[27.158271,38.474521],[27.158242,38.47443],[27.15827,38.474361],[27.158326,38.474328],[27.158481,38.474235],[27.158557,38.474172],[27.158625,38.473984],[27.158738,38.473529],[27.158825,38.473333],[27.158831,38.473318],[27.158949,38.473005],[27.158319,38.473003],[27.158255,38.472998],[27.15792,38.472975],[27.157355,38.472979],[27.156902,38.472938],[27.156678,38.472889],[27.156614,38.472875],[27.15623,38.472692],[27.156167,38.472665],[27.15544,38.472383],[27.154697,38.472159],[27.154196,38.472036],[27.153861,38.471972],[27.153811,38.471965]]]}},{"type":"Feature","properties":{"id":"TR-Y-35-004-M-0003","level":"yerlesim","type":"mahalle","parent_id":"TR-D-35-004","province_id":"TR-P-35","district_id":"TR-D-35-004","name":"Adalet","source_raw_name":"ADALET","source":"Kullanıcı tarafından sağlanan KML","source_label":"Kullanıcı tarafından sağlanan KML","source_name":"Izmir Mahalle KML - kullanici tarafindan saglandi"},"geometry":{"type":"Polygon","coordinates":[[[27.171104,38.461895],[27.171345,38.461956],[27.172028,38.462406],[27.173243,38.462862],[27.173752,38.463025],[27.174288,38.463158],[27.174696,38.463229],[27.175023,38.463286],[27.175142,38.4633],[27.175504,38.463343],[27.176113,38.46339],[27.176404,38.463395],[27.177006,38.463411],[27.177612,38.463502],[27.177585,38.463939],[27.178306,38.464327],[27.178703,38.464446],[27.178952,38.464572],[27.17933,38.464827],[27.179702,38.465047],[27.179971,38.465113],[27.180355,38.465208],[27.180728,38.465316],[27.180807,38.465333],[27.181095,38.465432],[27.18118,38.465457],[27.181819,38.465645],[27.182418,38.465889],[27.182677,38.465994],[27.182723,38.465527],[27.182767,38.464774],[27.182769,38.464512],[27.182692,38.464085],[27.182692,38.463876],[27.182721,38.463698],[27.18263,38.463594],[27.18255,38.463427],[27.182557,38.463076],[27.182581,38.462915],[27.182598,38.4628],[27.182629,38.462724],[27.182658,38.462637],[27.182703,38.462411],[27.182705,38.462378],[27.182716,38.462193],[27.182704,38.462109],[27.182676,38.461899],[27.182723,38.460925],[27.182725,38.46087],[27.182665,38.460522],[27.182655,38.460467],[27.182567,38.459873],[27.182419,38.459167],[27.182341,38.458848],[27.182304,38.458699],[27.182084,38.458065],[27.18204,38.45794],[27.181944,38.457729],[27.181856,38.457545],[27.181832,38.457497],[27.181701,38.457228],[27.181678,38.457168],[27.181575,38.456911],[27.181543,38.456828],[27.181461,38.456623],[27.181386,38.456432],[27.181245,38.456065],[27.18128,38.455805],[27.180927,38.45533],[27.180885,38.455061],[27.180856,38.454833],[27.18078,38.454673],[27.180757,38.454601],[27.180695,38.454271],[27.180597,38.453755],[27.180537,38.453593],[27.180446,38.453343],[27.180378,38.453159],[27.180363,38.453112],[27.180285,38.452863],[27.180212,38.452633],[27.180195,38.45258],[27.180135,38.45239],[27.179927,38.451789],[27.17963,38.451123],[27.179391,38.450977],[27.179275,38.450813],[27.177564,38.450346],[27.176304,38.450001],[27.174597,38.449539],[27.173758,38.449319],[27.173208,38.449183],[27.173076,38.449154],[27.173241,38.448235],[27.173319,38.447712],[27.172839,38.44766],[27.172635,38.447637],[27.171509,38.447489],[27.171432,38.447478],[27.171347,38.447465],[27.171175,38.447437],[27.170607,38.448441],[27.170473,38.448511],[27.170294,38.448612],[27.170192,38.44868],[27.169999,38.448829],[27.169886,38.448906],[27.169678,38.449029],[27.169525,38.449132],[27.169404,38.449219],[27.169327,38.449303],[27.169269,38.449428],[27.169253,38.449516],[27.169243,38.449618],[27.169253,38.449739],[27.169274,38.449828],[27.169309,38.449889],[27.169387,38.449976],[27.169438,38.450023],[27.169481,38.450091],[27.16947,38.450146],[27.169408,38.450255],[27.169348,38.450371],[27.169271,38.450507],[27.16911,38.450821],[27.168929,38.451178],[27.168668,38.451704],[27.168436,38.452238],[27.168206,38.452698],[27.168033,38.453095],[27.167848,38.453473],[27.167712,38.453723],[27.167661,38.453811],[27.167559,38.453885],[27.167179,38.45411],[27.166685,38.454568],[27.16639,38.45499],[27.166112,38.455356],[27.165871,38.455683],[27.165829,38.455802],[27.165884,38.455854],[27.165998,38.455824],[27.166275,38.455767],[27.166654,38.455778],[27.166879,38.45581],[27.167042,38.455886],[27.167066,38.455956],[27.167007,38.456071],[27.166895,38.456051],[27.166739,38.456028],[27.166607,38.456047],[27.166401,38.456216],[27.166132,38.456507],[27.165965,38.456768],[27.165798,38.457025],[27.16561,38.45732],[27.165316,38.457775],[27.165164,38.458019],[27.165039,38.458218],[27.164916,38.458412],[27.16487,38.458589],[27.164812,38.458806],[27.164807,38.458792],[27.16479,38.458794],[27.164775,38.458834],[27.164766,38.458851],[27.164776,38.458891],[27.164789,38.458901],[27.164804,38.458911],[27.164823,38.458934],[27.164847,38.45895],[27.16486,38.45895],[27.164893,38.458965],[27.164921,38.458984],[27.164928,38.458989],[27.164954,38.45899],[27.164971,38.458997],[27.165006,38.459008],[27.165031,38.459015],[27.165047,38.459037],[27.16507,38.45904],[27.165089,38.459045],[27.165116,38.459048],[27.165144,38.459064],[27.165176,38.459072],[27.165184,38.459078],[27.165195,38.459085],[27.165206,38.459085],[27.165265,38.459101],[27.165364,38.459131],[27.165388,38.459154],[27.165246,38.459455],[27.165205,38.459652],[27.165227,38.459674],[27.165282,38.459729],[27.165346,38.459755],[27.16611,38.460073],[27.166378,38.460164],[27.166513,38.460219],[27.166932,38.460388],[27.168276,38.460929],[27.168931,38.46118],[27.169319,38.461316],[27.169669,38.461448],[27.16985,38.461516],[27.170594,38.461766],[27.171104,38.461895]]]}},{"type":"Feature","properties":{"id":"TR-Y-35-004-M-0005","level":"yerlesim","type":"mahalle","parent_id":"TR-D-35-004","province_id":"TR-P-35","district_id":"TR-D-35-004","name":"Bayraklı","source_raw_name":"BAYRAKLI","source":"Kullanıcı tarafından sağlanan KML","source_label":"Kullanıcı tarafından sağlanan KML","source_name":"Izmir Mahalle KML - kullanici tarafindan saglandi"},"geometry":{"type":"Polygon","coordinates":[[[27.168946,38.46374],[27.169075,38.463614],[27.169392,38.463543],[27.169775,38.463368],[27.170097,38.463176],[27.170591,38.462758],[27.170716,38.462633],[27.170912,38.462128],[27.171121,38.462045],[27.171121,38.462045],[27.171345,38.461956],[27.171104,38.461895],[27.170594,38.461766],[27.16985,38.461516],[27.169669,38.461448],[27.169319,38.461316],[27.168931,38.46118],[27.168276,38.460929],[27.166932,38.460388],[27.166513,38.460219],[27.166378,38.460164],[27.16611,38.460073],[27.165346,38.459755],[27.165282,38.459729],[27.165227,38.459674],[27.165205,38.459652],[27.165246,38.459455],[27.165211,38.459453],[27.164836,38.459173],[27.164641,38.459111],[27.164481,38.459318],[27.164064,38.459468],[27.163687,38.460181],[27.163805,38.460675],[27.162983,38.462118],[27.162398,38.46326],[27.161946,38.463471],[27.161553,38.463482],[27.161527,38.463541],[27.16134,38.463472],[27.161301,38.463535],[27.161483,38.463601],[27.161218,38.46448],[27.161101,38.464632],[27.161862,38.465106],[27.161984,38.465182],[27.162074,38.465239],[27.162688,38.465621],[27.16293,38.465354],[27.16333,38.464903],[27.16352,38.465099],[27.163603,38.465239],[27.163595,38.465349],[27.163653,38.465375],[27.16453,38.465768],[27.164639,38.465817],[27.164977,38.465967],[27.165356,38.466135],[27.165434,38.46617],[27.165815,38.466332],[27.166165,38.46648],[27.166202,38.466503],[27.16646,38.466137],[27.166761,38.466257],[27.166897,38.466317],[27.166946,38.466152],[27.167016,38.465847],[27.167054,38.46568],[27.167111,38.465447],[27.167178,38.465217],[27.167297,38.465241],[27.1676,38.465325],[27.167827,38.465373],[27.167923,38.465122],[27.167996,38.46493],[27.1682,38.464897],[27.168212,38.464812],[27.168281,38.464546],[27.168514,38.464452],[27.168631,38.464309],[27.168796,38.464005],[27.168946,38.46374]]]}},{"type":"Feature","properties":{"id":"TR-Y-35-004-M-0006","level":"yerlesim","type":"mahalle","parent_id":"TR-D-35-004","province_id":"TR-P-35","district_id":"TR-D-35-004","name":"Çay","source_raw_name":"ÇAY","source":"Kullanıcı tarafından sağlanan KML","source_label":"Kullanıcı tarafından sağlanan KML","source_name":"Izmir Mahalle KML - kullanici tarafindan saglandi"},"geometry":{"type":"Polygon","coordinates":[[[27.183096,38.473439],[27.183088,38.473263],[27.183056,38.472889],[27.183018,38.472734],[27.183113,38.472723],[27.183122,38.472619],[27.183116,38.472563],[27.182945,38.471778],[27.182956,38.471639],[27.182922,38.471382],[27.182698,38.471082],[27.182496,38.470742],[27.182342,38.470439],[27.182263,38.470146],[27.1822,38.469809],[27.182171,38.46952],[27.182142,38.469205],[27.182171,38.469106],[27.182187,38.469007],[27.182175,38.468888],[27.182226,38.46843],[27.181882,38.468406],[27.181224,38.468139],[27.18079,38.468017],[27.180395,38.467851],[27.180175,38.467758],[27.179948,38.467679],[27.179854,38.467937],[27.179728,38.468232],[27.179507,38.468166],[27.178951,38.468],[27.17894,38.467997],[27.178707,38.467936],[27.177458,38.467589],[27.177299,38.467733],[27.177145,38.467878],[27.177083,38.467937],[27.176996,38.468018],[27.17689,38.468122],[27.176675,38.468331],[27.17619,38.468795],[27.175924,38.469047],[27.175967,38.469073],[27.176264,38.469308],[27.176276,38.469316],[27.176673,38.469585],[27.176754,38.469632],[27.177156,38.469863],[27.177314,38.469944],[27.177352,38.469964],[27.177614,38.4701],[27.177628,38.470106],[27.177948,38.470251],[27.178019,38.470283],[27.178657,38.470631],[27.178577,38.470718],[27.178377,38.470951],[27.178349,38.471],[27.178234,38.471135],[27.17836,38.471527],[27.178445,38.471807],[27.178338,38.471857],[27.178026,38.471971],[27.177751,38.472104],[27.17792,38.472218],[27.178195,38.472391],[27.17838,38.472487],[27.178426,38.472497],[27.1788,38.4726],[27.179031,38.472646],[27.179097,38.472653],[27.179367,38.472763],[27.179381,38.47277],[27.179406,38.472783],[27.179614,38.472875],[27.17991,38.47301],[27.180291,38.473191],[27.180551,38.473358],[27.180847,38.473547],[27.181149,38.473672],[27.181446,38.473791],[27.18183,38.47393],[27.182062,38.473984],[27.182088,38.473994],[27.182198,38.474036],[27.182399,38.474101],[27.182672,38.474212],[27.182509,38.474396],[27.182396,38.474566],[27.182894,38.474696],[27.183056,38.474069],[27.183097,38.473845],[27.1831,38.473811],[27.183102,38.473775],[27.183111,38.473627],[27.183103,38.473574],[27.183096,38.473439]]]}},{"type":"Feature","properties":{"id":"TR-Y-35-004-M-0007","level":"yerlesim","type":"mahalle","parent_id":"TR-D-35-004","province_id":"TR-P-35","district_id":"TR-D-35-004","name":"Cengizhan","source_raw_name":"CENGİZHAN","source":"Kullanıcı tarafından sağlanan KML","source_label":"Kullanıcı tarafından sağlanan KML","source_name":"Izmir Mahalle KML - kullanici tarafindan saglandi"},"geometry":{"type":"Polygon","coordinates":[[[27.156932,38.477456],[27.157102,38.477856],[27.157567,38.4778],[27.158116,38.477741],[27.158683,38.477713],[27.159214,38.477703],[27.16003,38.477725],[27.160538,38.477773],[27.161406,38.477881],[27.162025,38.477988],[27.1623,38.478036],[27.162389,38.478051],[27.163884,38.477027],[27.16698,38.477553],[27.170095,38.479152],[27.170199,38.479236],[27.170662,38.479047],[27.171286,38.47866],[27.171256,38.478591],[27.171242,38.47828],[27.171162,38.478049],[27.171061,38.477878],[27.170936,38.47773],[27.170805,38.477613],[27.170922,38.477456],[27.170947,38.477395],[27.170986,38.477334],[27.171022,38.477298],[27.171144,38.477195],[27.17134,38.47704],[27.17159,38.476754],[27.171647,38.476689],[27.1717,38.476547],[27.17143,38.476286],[27.171251,38.476136],[27.171125,38.475982],[27.170999,38.475849],[27.171174,38.475715],[27.17135,38.475547],[27.171381,38.475456],[27.171547,38.475309],[27.171762,38.475164],[27.17186,38.475072],[27.171971,38.474975],[27.172153,38.474778],[27.172328,38.474861],[27.172484,38.474901],[27.172526,38.474923],[27.172666,38.474764],[27.172853,38.4746],[27.17288,38.474577],[27.172905,38.474555],[27.173125,38.474363],[27.173149,38.474221],[27.173164,38.474135],[27.173085,38.473994],[27.172921,38.473758],[27.172664,38.473388],[27.17263,38.473277],[27.172625,38.473264],[27.172584,38.473151],[27.172561,38.473002],[27.172566,38.472872],[27.172626,38.472549],[27.172852,38.471841],[27.172752,38.471832],[27.172704,38.471685],[27.172709,38.471589],[27.172259,38.471481],[27.172236,38.471475],[27.171754,38.471458],[27.17166,38.471455],[27.171606,38.471466],[27.171446,38.471499],[27.171416,38.471505],[27.170744,38.471654],[27.170554,38.471696],[27.170202,38.471776],[27.169962,38.47183],[27.169533,38.471988],[27.168934,38.472219],[27.168664,38.472322],[27.168522,38.472371],[27.168507,38.472381],[27.168473,38.472403],[27.168435,38.472483],[27.16841,38.472538],[27.168201,38.472643],[27.167958,38.472768],[27.167705,38.472848],[27.167481,38.472884],[27.167448,38.47289],[27.167176,38.472912],[27.16707,38.47292],[27.166907,38.472934],[27.166755,38.472959],[27.16663,38.47298],[27.166473,38.473008],[27.166105,38.473074],[27.166053,38.473085],[27.16586,38.473126],[27.165463,38.473232],[27.165295,38.47329],[27.165218,38.473352],[27.165202,38.473294],[27.165082,38.4731],[27.165078,38.473087],[27.165019,38.472921],[27.164979,38.472841],[27.164719,38.472925],[27.164404,38.47303],[27.164267,38.473091],[27.163952,38.473254],[27.16373,38.47338],[27.163544,38.473479],[27.16279,38.473849],[27.16238,38.474007],[27.162062,38.474092],[27.161402,38.474225],[27.160859,38.474309],[27.160374,38.474334],[27.1602,38.474337],[27.159943,38.474323],[27.159647,38.474317],[27.159339,38.474291],[27.159209,38.47433],[27.159132,38.474349],[27.158995,38.474338],[27.159001,38.474066],[27.159011,38.473815],[27.159039,38.47363],[27.159111,38.473395],[27.158831,38.473318],[27.158825,38.473333],[27.158738,38.473529],[27.158625,38.473984],[27.158557,38.474172],[27.158481,38.474235],[27.158326,38.474328],[27.15827,38.474361],[27.158242,38.47443],[27.158271,38.474521],[27.158463,38.474804],[27.158402,38.475423],[27.158319,38.475914],[27.158318,38.475923],[27.158319,38.47643],[27.158314,38.4765],[27.157867,38.476794],[27.157265,38.476979],[27.157031,38.477156],[27.156854,38.477275],[27.156932,38.477456]]]}},{"type":"Feature","properties":{"id":"TR-Y-35-004-M-0008","level":"yerlesim","type":"mahalle","parent_id":"TR-D-35-004","province_id":"TR-P-35","district_id":"TR-D-35-004","name":"Çiçek","source_raw_name":"ÇİÇEK","source":"Kullanıcı tarafından sağlanan KML","source_label":"Kullanıcı tarafından sağlanan KML","source_name":"Izmir Mahalle KML - kullanici tarafindan saglandi"},"geometry":{"type":"Polygon","coordinates":[[[27.174482,38.471669],[27.174648,38.47168],[27.17489,38.47168],[27.175348,38.471653],[27.175684,38.471637],[27.175796,38.471629],[27.176168,38.471603],[27.176446,38.471551],[27.176461,38.471551],[27.176481,38.47155],[27.176712,38.471571],[27.177155,38.471558],[27.177182,38.471527],[27.177271,38.471478],[27.177706,38.471291],[27.177727,38.471281],[27.178013,38.47122],[27.178234,38.471135],[27.178349,38.471],[27.178377,38.470951],[27.178577,38.470718],[27.178657,38.470631],[27.178019,38.470283],[27.177948,38.470251],[27.177628,38.470106],[27.177614,38.4701],[27.177352,38.469964],[27.177314,38.469944],[27.177156,38.469863],[27.176754,38.469632],[27.176673,38.469585],[27.176276,38.469316],[27.176264,38.469308],[27.175967,38.469073],[27.175924,38.469047],[27.175749,38.468941],[27.175736,38.468933],[27.175656,38.468892],[27.175321,38.468722],[27.175224,38.468672],[27.174976,38.468559],[27.174937,38.468541],[27.174702,38.468434],[27.174617,38.468402],[27.174325,38.468289],[27.174223,38.468249],[27.174175,38.468231],[27.173909,38.468126],[27.173759,38.468067],[27.173641,38.468026],[27.173611,38.468013],[27.172871,38.467713],[27.172236,38.467501],[27.172035,38.467433],[27.171864,38.467373],[27.171326,38.467184],[27.171138,38.467118],[27.170631,38.466925],[27.170498,38.466883],[27.170407,38.466855],[27.169956,38.466713],[27.169585,38.466619],[27.16914,38.466541],[27.168914,38.46647],[27.168824,38.466442],[27.1686,38.466301],[27.168505,38.46611],[27.168415,38.465916],[27.168241,38.465392],[27.168172,38.465085],[27.1682,38.464897],[27.167996,38.46493],[27.167923,38.465122],[27.167827,38.465373],[27.1676,38.465325],[27.167297,38.465241],[27.167178,38.465217],[27.167111,38.465447],[27.167054,38.46568],[27.167016,38.465847],[27.166946,38.466152],[27.166897,38.466317],[27.166761,38.466257],[27.16646,38.466137],[27.166202,38.466503],[27.16615,38.466576],[27.165976,38.466821],[27.165775,38.467104],[27.165538,38.46744],[27.165438,38.467592],[27.165362,38.467709],[27.16515,38.468014],[27.165049,38.46816],[27.164942,38.468317],[27.164838,38.468471],[27.164726,38.468626],[27.164696,38.468668],[27.164463,38.46899],[27.164415,38.469051],[27.164614,38.469131],[27.164666,38.469125],[27.164778,38.4691],[27.16487,38.469076],[27.165038,38.469051],[27.165136,38.469059],[27.165245,38.469094],[27.165352,38.469122],[27.165436,38.469144],[27.165598,38.469258],[27.165815,38.469408],[27.165949,38.469488],[27.1662,38.469509],[27.166394,38.469509],[27.166443,38.469509],[27.166818,38.469475],[27.167173,38.469476],[27.167538,38.469491],[27.167703,38.469507],[27.167787,38.469518],[27.168021,38.469284],[27.168154,38.46919],[27.168174,38.469179],[27.168311,38.46934],[27.16848,38.469572],[27.168653,38.46981],[27.168817,38.470023],[27.168992,38.470266],[27.168998,38.470275],[27.169226,38.470472],[27.169364,38.470534],[27.169518,38.470559],[27.169883,38.47055],[27.169934,38.470552],[27.170151,38.470559],[27.170271,38.470581],[27.17039,38.470596],[27.170637,38.470647],[27.17101,38.470776],[27.171268,38.470867],[27.171514,38.470945],[27.172027,38.471123],[27.172347,38.471211],[27.172668,38.471295],[27.172808,38.471336],[27.173189,38.470773],[27.173302,38.470816],[27.173384,38.470873],[27.173724,38.471088],[27.173909,38.471191],[27.174063,38.47127],[27.174146,38.471313],[27.174168,38.471324],[27.174332,38.471379],[27.174345,38.471381],[27.174378,38.471534],[27.174364,38.471645],[27.174482,38.471669]]]}},{"type":"Feature","properties":{"id":"TR-Y-35-004-M-0009","level":"yerlesim","type":"mahalle","parent_id":"TR-D-35-004","province_id":"TR-P-35","district_id":"TR-D-35-004","name":"Doğançay","source_raw_name":"DOĞANÇAY","source":"Kullanıcı tarafından sağlanan KML","source_label":"Kullanıcı tarafından sağlanan KML","source_name":"Izmir Mahalle KML - kullanici tarafindan saglandi"},"geometry":{"type":"Polygon","coordinates":[[[27.141111,38.499254],[27.141652,38.499956],[27.142943,38.499671],[27.143085,38.50025],[27.144131,38.500163],[27.144409,38.500302],[27.145054,38.501011],[27.145536,38.50122],[27.146045,38.50143],[27.146164,38.501769],[27.145833,38.502174],[27.145747,38.502499],[27.145834,38.502714],[27.145958,38.502908],[27.146376,38.503228],[27.146928,38.503845],[27.147138,38.504143],[27.147829,38.504524],[27.148381,38.504858],[27.148843,38.505463],[27.149587,38.504697],[27.150285,38.505071],[27.150828,38.505633],[27.151136,38.505902],[27.150747,38.50633],[27.150937,38.506688],[27.151359,38.506956],[27.151585,38.50729],[27.151756,38.507423],[27.152259,38.50762],[27.152529,38.507933],[27.152561,38.508163],[27.152746,38.508327],[27.153178,38.508449],[27.153246,38.508703],[27.153271,38.50899],[27.153543,38.509239],[27.154112,38.509417],[27.154466,38.509631],[27.154676,38.510006],[27.154773,38.510202],[27.154714,38.510748],[27.155298,38.511185],[27.155583,38.511796],[27.155722,38.512156],[27.15529,38.512974],[27.155378,38.51346],[27.155568,38.513679],[27.156393,38.514012],[27.158171,38.514038],[27.15913,38.514149],[27.159693,38.514261],[27.160061,38.514255],[27.160534,38.51431],[27.161308,38.514682],[27.161882,38.514961],[27.162888,38.515177],[27.163279,38.515643],[27.163441,38.516024],[27.164199,38.516708],[27.164048,38.517513],[27.164393,38.518352],[27.165073,38.518799],[27.165291,38.518927],[27.165408,38.519436],[27.165413,38.519631],[27.165595,38.519825],[27.165966,38.520043],[27.166616,38.520091],[27.167701,38.520746],[27.168971,38.521157],[27.169963,38.521861],[27.170706,38.52186],[27.171263,38.522005],[27.171851,38.521931],[27.172872,38.522051],[27.173634,38.522279],[27.174401,38.523031],[27.176397,38.524117],[27.177481,38.525191],[27.17905,38.525543],[27.180241,38.525683],[27.182244,38.526515],[27.184145,38.526645],[27.184622,38.526284],[27.185966,38.525651],[27.178788,38.512059],[27.175002,38.508802],[27.175921,38.506629],[27.170922,38.501301],[27.169624,38.498761],[27.165347,38.493055],[27.166004,38.491552],[27.159698,38.488534],[27.155543,38.48599],[27.155302,38.482446],[27.15552,38.481292],[27.154931,38.481343],[27.154108,38.48144],[27.153299,38.481549],[27.152689,38.481622],[27.151439,38.481803],[27.148953,38.482226],[27.147495,38.482511],[27.14738,38.482537],[27.146349,38.482769],[27.145804,38.482927],[27.145279,38.483085],[27.144649,38.483298],[27.143949,38.483566],[27.144261,38.484119],[27.14464,38.484806],[27.144841,38.485193],[27.145033,38.485617],[27.145175,38.485905],[27.145334,38.486222],[27.145519,38.486508],[27.145929,38.487094],[27.146192,38.487508],[27.146364,38.487821],[27.146545,38.488174],[27.146688,38.488489],[27.146984,38.48894],[27.147348,38.489428],[27.147496,38.489638],[27.147789,38.490025],[27.148144,38.490405],[27.148511,38.490649],[27.148732,38.490816],[27.149034,38.491111],[27.149316,38.491447],[27.149464,38.491726],[27.149576,38.491952],[27.149782,38.492355],[27.150084,38.492773],[27.150267,38.493106],[27.150417,38.493346],[27.15043,38.493378],[27.15047,38.493479],[27.150484,38.493766],[27.150485,38.494033],[27.150586,38.494387],[27.150756,38.49491],[27.150823,38.495008],[27.150765,38.495062],[27.150483,38.495308],[27.150275,38.495456],[27.149981,38.495521],[27.149408,38.495594],[27.14906,38.495675],[27.148963,38.495868],[27.148972,38.496033],[27.149002,38.496263],[27.148893,38.496463],[27.148635,38.496706],[27.148366,38.496936],[27.1481,38.497105],[27.148047,38.497139],[27.147537,38.497383],[27.147386,38.497426],[27.147307,38.497426],[27.147216,38.497401],[27.146875,38.497234],[27.146318,38.496989],[27.145686,38.49671],[27.145248,38.496503],[27.144995,38.496836],[27.144568,38.496637],[27.143259,38.49614],[27.143001,38.49604],[27.142824,38.496138],[27.141784,38.496176],[27.140956,38.496263],[27.140785,38.496859],[27.140781,38.497554],[27.140045,38.498599],[27.141111,38.499254]]]}},{"type":"Feature","properties":{"id":"TR-Y-35-004-M-0010","level":"yerlesim","type":"mahalle","parent_id":"TR-D-35-004","province_id":"TR-P-35","district_id":"TR-D-35-004","name":"Emek","source_raw_name":"EMEK","source":"Kullanıcı tarafından sağlanan KML","source_label":"Kullanıcı tarafından sağlanan KML","source_name":"Izmir Mahalle KML - kullanici tarafindan saglandi"},"geometry":{"type":"Polygon","coordinates":[[[27.120998,38.472414],[27.12124,38.473292],[27.12157,38.473223],[27.121817,38.473206],[27.122018,38.473259],[27.122151,38.47336],[27.122459,38.47375],[27.122573,38.473905],[27.122728,38.473994],[27.122913,38.474037],[27.122922,38.474039],[27.123438,38.4741],[27.123762,38.474116],[27.124001,38.474129],[27.124023,38.47413],[27.124258,38.474126],[27.124517,38.474136],[27.124735,38.474145],[27.125163,38.474163],[27.125392,38.474172],[27.125471,38.474169],[27.125925,38.474155],[27.126379,38.47412],[27.126987,38.474015],[27.127035,38.474007],[27.127152,38.473986],[27.127605,38.473955],[27.127971,38.473945],[27.127998,38.473947],[27.12829,38.473965],[27.128365,38.473971],[27.128424,38.473975],[27.128537,38.473988],[27.128775,38.474016],[27.128919,38.474033],[27.129257,38.474087],[27.129763,38.474167],[27.129978,38.474201],[27.130574,38.474285],[27.130675,38.473855],[27.130709,38.473706],[27.130843,38.473262],[27.130852,38.473232],[27.131012,38.47268],[27.131085,38.472461],[27.131228,38.472102],[27.131316,38.471753],[27.131322,38.471678],[27.131337,38.471487],[27.131366,38.471058],[27.131358,38.47098],[27.131353,38.47092],[27.131335,38.470769],[27.131329,38.47062],[27.131347,38.470468],[27.131353,38.470421],[27.131416,38.470167],[27.13144,38.470044],[27.131452,38.469981],[27.131529,38.469606],[27.131544,38.469524],[27.131529,38.469404],[27.131527,38.46938],[27.131521,38.469285],[27.131423,38.469057],[27.131352,38.468922],[27.131318,38.468859],[27.13122,38.468678],[27.131148,38.468547],[27.131078,38.468419],[27.131012,38.468226],[27.130959,38.468012],[27.130893,38.467766],[27.130875,38.467702],[27.13083,38.467579],[27.130722,38.467326],[27.130706,38.467287],[27.130669,38.467196],[27.130654,38.467148],[27.130507,38.466939],[27.130432,38.46683],[27.130367,38.466694],[27.130348,38.46663],[27.130379,38.466498],[27.130261,38.46644],[27.129921,38.46622],[27.129759,38.466288],[27.129285,38.466532],[27.128933,38.466712],[27.127951,38.467307],[27.127798,38.4674],[27.127283,38.467712],[27.126778,38.467983],[27.126276,38.468181],[27.125799,38.468322],[27.125134,38.468454],[27.124396,38.46851],[27.12381,38.468554],[27.123392,38.468559],[27.122766,38.468525],[27.1223,38.46847],[27.121953,38.468409],[27.121862,38.468393],[27.121382,38.468281],[27.120999,38.468181],[27.120072,38.46793],[27.118994,38.467639],[27.118291,38.467491],[27.118054,38.46747],[27.117814,38.467448],[27.117208,38.467425],[27.116481,38.467467],[27.116131,38.467522],[27.116161,38.46758],[27.116243,38.467677],[27.116473,38.467996],[27.116505,38.468071],[27.116637,38.468383],[27.116768,38.469098],[27.116868,38.469415],[27.117296,38.470038],[27.117339,38.470134],[27.117438,38.470296],[27.117702,38.470592],[27.118172,38.470993],[27.118429,38.471117],[27.118509,38.47113],[27.118934,38.471198],[27.11901,38.471199],[27.11921,38.471202],[27.119347,38.471208],[27.119972,38.471236],[27.120416,38.471257],[27.120579,38.471314],[27.120998,38.472414]]]}},{"type":"Feature","properties":{"id":"TR-Y-35-004-M-0011","level":"yerlesim","type":"mahalle","parent_id":"TR-D-35-004","province_id":"TR-P-35","district_id":"TR-D-35-004","name":"Fuat Edip Baksi","source_raw_name":"FUAT EDİP BAKSI","source":"Kullanıcı tarafından sağlanan KML","source_label":"Kullanıcı tarafından sağlanan KML","source_name":"Izmir Mahalle KML - kullanici tarafindan saglandi"},"geometry":{"type":"Polygon","coordinates":[[[27.154196,38.472036],[27.154697,38.472159],[27.15544,38.472383],[27.156167,38.472665],[27.15623,38.472692],[27.156614,38.472875],[27.156678,38.472889],[27.156902,38.472938],[27.157355,38.472979],[27.15792,38.472975],[27.158255,38.472998],[27.158319,38.473003],[27.158949,38.473005],[27.159153,38.472969],[27.159253,38.472831],[27.159184,38.472816],[27.159197,38.472777],[27.159222,38.472701],[27.159254,38.472589],[27.159281,38.472482],[27.159352,38.472299],[27.159392,38.472171],[27.159474,38.471998],[27.159547,38.471797],[27.159614,38.471696],[27.159729,38.471451],[27.160111,38.471588],[27.16017,38.471602],[27.160359,38.471646],[27.160372,38.471648],[27.160593,38.471691],[27.160617,38.471696],[27.160866,38.471698],[27.160967,38.471695],[27.161213,38.471688],[27.161591,38.471655],[27.161761,38.47162],[27.161971,38.471549],[27.162158,38.471486],[27.162312,38.471382],[27.162545,38.471223],[27.162803,38.471022],[27.163059,38.470859],[27.163494,38.47069],[27.1633,38.470361],[27.163273,38.470311],[27.163223,38.47022],[27.163141,38.470107],[27.163277,38.470042],[27.163387,38.469974],[27.163535,38.469884],[27.163672,38.469777],[27.163867,38.469586],[27.164123,38.469353],[27.164367,38.469113],[27.164415,38.469051],[27.164463,38.46899],[27.164696,38.468668],[27.164726,38.468626],[27.164838,38.468471],[27.164942,38.468317],[27.165049,38.46816],[27.16515,38.468014],[27.165362,38.467709],[27.165438,38.467592],[27.165538,38.46744],[27.165775,38.467104],[27.165976,38.466821],[27.16615,38.466576],[27.166202,38.466503],[27.166165,38.46648],[27.165815,38.466332],[27.165434,38.46617],[27.165356,38.466135],[27.164977,38.465967],[27.164639,38.465817],[27.16453,38.465768],[27.163653,38.465375],[27.163595,38.465349],[27.163603,38.465239],[27.16352,38.465099],[27.16333,38.464903],[27.16293,38.465354],[27.162688,38.465621],[27.162074,38.465239],[27.161984,38.465182],[27.161862,38.465106],[27.161101,38.464632],[27.160406,38.46511],[27.158632,38.466421],[27.158311,38.466675],[27.15813,38.466799],[27.158567,38.467102],[27.158742,38.467222],[27.15881,38.467313],[27.158784,38.467458],[27.158658,38.467624],[27.158486,38.467795],[27.158176,38.467947],[27.15767,38.468144],[27.157152,38.46831],[27.156965,38.468369],[27.156022,38.468589],[27.15535,38.468617],[27.154972,38.468617],[27.154499,38.468588],[27.154454,38.468582],[27.154454,38.468582],[27.153811,38.471965],[27.153861,38.471972],[27.154196,38.472036]]]}},{"type":"Feature","properties":{"id":"TR-Y-35-004-M-0012","level":"yerlesim","type":"mahalle","parent_id":"TR-D-35-004","province_id":"TR-P-35","district_id":"TR-D-35-004","name":"Gümüşpala","source_raw_name":"GÜMÜŞPALA","source":"Kullanıcı tarafından sağlanan KML","source_label":"Kullanıcı tarafından sağlanan KML","source_name":"Izmir Mahalle KML - kullanici tarafindan saglandi"},"geometry":{"type":"Polygon","coordinates":[[[27.141957,38.464405],[27.141899,38.464402],[27.141875,38.464406],[27.141855,38.464416],[27.141822,38.464423],[27.141764,38.464418],[27.14168,38.464413],[27.141673,38.464439],[27.141663,38.464465],[27.141563,38.464493],[27.141479,38.464514],[27.141386,38.464537],[27.141277,38.464557],[27.141181,38.464572],[27.141106,38.464577],[27.141058,38.464581],[27.140995,38.464583],[27.140907,38.464584],[27.140833,38.464589],[27.140784,38.464591],[27.14076,38.46459],[27.140688,38.464584],[27.140621,38.464581],[27.140559,38.464585],[27.140509,38.46459],[27.140472,38.464596],[27.140436,38.464598],[27.140374,38.464596],[27.140351,38.464595],[27.140303,38.464595],[27.140244,38.464597],[27.140194,38.4646],[27.140123,38.464608],[27.140038,38.464612],[27.139958,38.46462],[27.139899,38.464625],[27.139863,38.464624],[27.139826,38.464625],[27.13978,38.464629],[27.139733,38.46463],[27.139709,38.464629],[27.139642,38.464644],[27.139595,38.464639],[27.139549,38.464638],[27.13948,38.464648],[27.139408,38.464661],[27.139323,38.464667],[27.13925,38.464672],[27.139164,38.464668],[27.139093,38.46466],[27.138994,38.464659],[27.138874,38.464673],[27.138753,38.464694],[27.138658,38.464711],[27.138546,38.464721],[27.138447,38.464729],[27.138274,38.464748],[27.138143,38.464762],[27.138035,38.464771],[27.137963,38.464781],[27.137903,38.464786],[27.137851,38.464791],[27.137804,38.464793],[27.137729,38.464801],[27.137629,38.464812],[27.137558,38.464818],[27.137498,38.464827],[27.137463,38.46483],[27.137428,38.464834],[27.137394,38.464834],[27.137363,38.464845],[27.137293,38.464847],[27.137268,38.464847],[27.137232,38.464847],[27.137173,38.464844],[27.137124,38.464845],[27.137064,38.464846],[27.137012,38.464852],[27.136962,38.464862],[27.136892,38.464868],[27.136848,38.46487],[27.136801,38.464874],[27.136757,38.464882],[27.136722,38.464882],[27.136686,38.46488],[27.136641,38.46489],[27.136608,38.464899],[27.136573,38.464902],[27.136539,38.464907],[27.136505,38.4649],[27.136461,38.464908],[27.136414,38.464915],[27.136403,38.464918],[27.136368,38.464917],[27.136286,38.464926],[27.136249,38.464931],[27.136213,38.464934],[27.136179,38.464938],[27.136155,38.464937],[27.136108,38.464938],[27.136039,38.464943],[27.135992,38.464949],[27.13595,38.464955],[27.135887,38.464956],[27.13585,38.464956],[27.135766,38.464963],[27.135677,38.464978],[27.135623,38.464982],[27.135536,38.46499],[27.13542,38.464996],[27.135338,38.465001],[27.13528,38.465003],[27.135219,38.465009],[27.135145,38.465018],[27.135079,38.465018],[27.135011,38.465028],[27.134932,38.465037],[27.13487,38.465031],[27.134806,38.465023],[27.134972,38.465268],[27.135002,38.465312],[27.134048,38.465404],[27.133269,38.465473],[27.132512,38.465538],[27.132044,38.465605],[27.131627,38.465687],[27.131302,38.465756],[27.130898,38.465866],[27.13051,38.465989],[27.130277,38.466085],[27.130125,38.466129],[27.129921,38.46622],[27.130261,38.46644],[27.130379,38.466498],[27.130348,38.46663],[27.130367,38.466694],[27.130432,38.46683],[27.130507,38.466939],[27.130654,38.467148],[27.130669,38.467196],[27.130706,38.467287],[27.130722,38.467326],[27.13083,38.467579],[27.130875,38.467702],[27.130893,38.467766],[27.130959,38.468012],[27.131012,38.468226],[27.131078,38.468419],[27.131148,38.468547],[27.13122,38.468678],[27.131318,38.468859],[27.131352,38.468922],[27.131423,38.469057],[27.131521,38.469285],[27.131527,38.46938],[27.131529,38.469404],[27.131544,38.469524],[27.131529,38.469606],[27.131452,38.469981],[27.13144,38.470044],[27.131416,38.470167],[27.131353,38.470421],[27.131347,38.470468],[27.131329,38.47062],[27.131335,38.470769],[27.131353,38.47092],[27.131358,38.47098],[27.131366,38.471058],[27.131337,38.471487],[27.131322,38.471678],[27.131316,38.471753],[27.131228,38.472102],[27.131634,38.472219],[27.131645,38.472223],[27.132157,38.472377],[27.132516,38.472519],[27.132827,38.472651],[27.133353,38.472899],[27.133718,38.473092],[27.133736,38.473101],[27.133989,38.4732],[27.134337,38.473253],[27.13467,38.473285],[27.134902,38.47329],[27.135258,38.473301],[27.136093,38.47328],[27.136617,38.473263],[27.136966,38.473213],[27.136998,38.473208],[27.13707,38.473196],[27.137465,38.473098],[27.137708,38.473032],[27.137738,38.473024],[27.138559,38.472804],[27.138562,38.472803],[27.138551,38.472776],[27.138746,38.47271],[27.139139,38.472577],[27.139394,38.472495],[27.139451,38.472484],[27.139602,38.472456],[27.139969,38.472335],[27.140141,38.472272],[27.140229,38.472395],[27.140965,38.472215],[27.140726,38.471637],[27.140646,38.471141],[27.141361,38.469296],[27.141352,38.468755],[27.141299,38.467917],[27.141354,38.467702],[27.141462,38.46746],[27.141535,38.467336],[27.141687,38.467166],[27.141805,38.467027],[27.141837,38.466968],[27.141842,38.46684],[27.141835,38.466778],[27.141797,38.466649],[27.141753,38.46659],[27.141545,38.466212],[27.141543,38.465033],[27.141543,38.464902],[27.141957,38.464405]]]}},{"type":"Feature","properties":{"id":"TR-Y-35-004-M-0013","level":"yerlesim","type":"mahalle","parent_id":"TR-D-35-004","province_id":"TR-P-35","district_id":"TR-D-35-004","name":"Körfez","source_raw_name":"KÖRFEZ","source":"Kullanıcı tarafından sağlanan KML","source_label":"Kullanıcı tarafından sağlanan KML","source_name":"Izmir Mahalle KML - kullanici tarafindan saglandi"},"geometry":{"type":"Polygon","coordinates":[[[27.141652,38.499956],[27.141111,38.499254],[27.140045,38.498599],[27.139283,38.498568],[27.137359,38.497079],[27.138008,38.496818],[27.138328,38.496665],[27.138245,38.496475],[27.13823,38.496278],[27.138205,38.496189],[27.138086,38.495992],[27.138074,38.495938],[27.138048,38.495584],[27.138008,38.495498],[27.137913,38.495378],[27.137854,38.495257],[27.137679,38.495037],[27.137598,38.494867],[27.137476,38.494741],[27.13741,38.494662],[27.137298,38.494476],[27.137133,38.494258],[27.137088,38.494141],[27.137014,38.494064],[27.136955,38.493982],[27.136903,38.493882],[27.136768,38.493741],[27.136571,38.493587],[27.136452,38.49344],[27.136346,38.493262],[27.136211,38.492977],[27.136058,38.492741],[27.135942,38.492526],[27.135892,38.492372],[27.135837,38.492228],[27.135777,38.491991],[27.135827,38.491851],[27.136063,38.491781],[27.135938,38.491506],[27.135853,38.491218],[27.135785,38.490988],[27.135731,38.490767],[27.135626,38.490313],[27.135555,38.490021],[27.135487,38.489786],[27.135451,38.489661],[27.135427,38.489483],[27.1354,38.489281],[27.135375,38.489154],[27.13534,38.489051],[27.135274,38.488855],[27.135208,38.488627],[27.135152,38.488542],[27.135137,38.488379],[27.135071,38.488305],[27.135041,38.488268],[27.134988,38.488203],[27.134921,38.488056],[27.134801,38.487865],[27.134777,38.487831],[27.134741,38.487782],[27.134677,38.487659],[27.134497,38.487281],[27.13427,38.48601],[27.132024,38.486271],[27.131814,38.486283],[27.129223,38.486326],[27.127672,38.48635],[27.127061,38.486322],[27.126092,38.486239],[27.125272,38.486174],[27.123689,38.486109],[27.120225,38.486128],[27.119247,38.486151],[27.118748,38.486179],[27.118112,38.486422],[27.117085,38.486736],[27.116589,38.487044],[27.116256,38.487318],[27.116366,38.487584],[27.116512,38.487974],[27.116601,38.488295],[27.116706,38.488906],[27.116729,38.489608],[27.116827,38.489912],[27.116988,38.490401],[27.117235,38.491025],[27.117366,38.49135],[27.117488,38.491655],[27.117612,38.491969],[27.117741,38.492281],[27.11787,38.49259],[27.117976,38.492775],[27.118037,38.492883],[27.118209,38.493143],[27.118413,38.493441],[27.118814,38.494029],[27.118981,38.494441],[27.119039,38.494614],[27.119098,38.495093],[27.119209,38.495331],[27.11939,38.495537],[27.119553,38.4957],[27.120616,38.496136],[27.120754,38.496218],[27.121288,38.496636],[27.121504,38.496821],[27.12191,38.497054],[27.122244,38.497162],[27.122308,38.49717],[27.122794,38.497257],[27.123103,38.497343],[27.124221,38.497645],[27.124614,38.497651],[27.125653,38.497624],[27.126142,38.497611],[27.127143,38.497525],[27.12727,38.497507],[27.129099,38.498076],[27.129535,38.498516],[27.130202,38.499264],[27.130347,38.499227],[27.130412,38.499227],[27.130483,38.49923],[27.130561,38.499244],[27.130639,38.499269],[27.130719,38.499312],[27.130903,38.499481],[27.130985,38.499586],[27.131089,38.499683],[27.131151,38.499725],[27.131249,38.499783],[27.131374,38.499843],[27.131568,38.499957],[27.131761,38.500103],[27.131763,38.500104],[27.131957,38.500223],[27.13213,38.500326],[27.132194,38.500365],[27.132221,38.500382],[27.132256,38.500424],[27.132262,38.500467],[27.132469,38.501045],[27.13277,38.501112],[27.133002,38.501449],[27.133298,38.501603],[27.133439,38.50185],[27.133504,38.502148],[27.133732,38.502407],[27.133885,38.503059],[27.133923,38.503081],[27.13395,38.503091],[27.133998,38.503028],[27.134134,38.502855],[27.134328,38.502807],[27.134398,38.502704],[27.1344,38.502506],[27.134368,38.502399],[27.134276,38.502225],[27.134421,38.502177],[27.134609,38.502293],[27.135264,38.502441],[27.135865,38.50304],[27.13705,38.503302],[27.140959,38.505038],[27.142013,38.502621],[27.14229,38.50161],[27.142158,38.500516],[27.141652,38.499956]]]}},{"type":"Feature","properties":{"id":"TR-Y-35-004-M-0014","level":"yerlesim","type":"mahalle","parent_id":"TR-D-35-004","province_id":"TR-P-35","district_id":"TR-D-35-004","name":"Manavkuyu","source_raw_name":"MANAVKUYU","source":"Kullanıcı tarafından sağlanan KML","source_label":"Kullanıcı tarafından sağlanan KML","source_name":"Izmir Mahalle KML - kullanici tarafindan saglandi"},"geometry":{"type":"Polygon","coordinates":[[[27.200782,38.466135],[27.201086,38.466075],[27.201581,38.465934],[27.202204,38.465687],[27.202417,38.4656],[27.202229,38.46527],[27.202085,38.465029],[27.201738,38.464468],[27.201354,38.463633],[27.200981,38.462867],[27.200776,38.462819],[27.200923,38.462326],[27.200944,38.462246],[27.201093,38.461695],[27.20171,38.461702],[27.201868,38.461043],[27.201878,38.461001],[27.200451,38.46078],[27.200342,38.460763],[27.200053,38.460702],[27.199667,38.46062],[27.199187,38.460198],[27.198823,38.459921],[27.198529,38.459769],[27.198457,38.459733],[27.198153,38.459624],[27.197765,38.459522],[27.197179,38.459457],[27.196864,38.459431],[27.196163,38.459365],[27.195874,38.459294],[27.19479,38.459214],[27.194084,38.459148],[27.194049,38.459421],[27.193883,38.459485],[27.19373,38.459452],[27.193339,38.459346],[27.191908,38.459185],[27.191855,38.459179],[27.191347,38.459124],[27.191238,38.459112],[27.19071,38.459051],[27.190293,38.45898],[27.189849,38.458857],[27.189407,38.458739],[27.188788,38.458574],[27.188065,38.458306],[27.187935,38.458258],[27.187753,38.458195],[27.187145,38.457987],[27.186295,38.457555],[27.186077,38.457445],[27.185813,38.457298],[27.185526,38.457136],[27.185393,38.457064],[27.185081,38.456911],[27.184735,38.456742],[27.184576,38.456686],[27.184329,38.456598],[27.183869,38.456473],[27.183791,38.456452],[27.183752,38.456441],[27.183012,38.45626],[27.182533,38.456163],[27.182462,38.456151],[27.18128,38.455805],[27.181245,38.456065],[27.181386,38.456432],[27.181461,38.456623],[27.181543,38.456828],[27.181575,38.456911],[27.181678,38.457168],[27.181701,38.457228],[27.181832,38.457497],[27.181856,38.457545],[27.181944,38.457729],[27.18204,38.45794],[27.182084,38.458065],[27.182304,38.458699],[27.182341,38.458848],[27.182419,38.459167],[27.182567,38.459873],[27.182655,38.460467],[27.182665,38.460522],[27.182725,38.46087],[27.182723,38.460925],[27.182676,38.461899],[27.182704,38.462109],[27.182716,38.462193],[27.182705,38.462378],[27.182703,38.462411],[27.182658,38.462637],[27.182629,38.462724],[27.182598,38.4628],[27.182581,38.462915],[27.182557,38.463076],[27.18255,38.463427],[27.18263,38.463594],[27.182721,38.463698],[27.183523,38.463897],[27.184348,38.464102],[27.185327,38.464327],[27.185932,38.464466],[27.186528,38.464648],[27.187278,38.465273],[27.187495,38.465521],[27.187796,38.465559],[27.18817,38.465594],[27.190947,38.46581],[27.191997,38.465894],[27.19309,38.465995],[27.1934,38.4661],[27.194063,38.466482],[27.194344,38.466591],[27.194954,38.466687],[27.195125,38.466711],[27.196976,38.466944],[27.198179,38.467115],[27.198444,38.467105],[27.199374,38.466816],[27.200219,38.46667],[27.200243,38.466578],[27.200285,38.466486],[27.200306,38.46644],[27.200507,38.466257],[27.200782,38.466135]]]}},{"type":"Feature","properties":{"id":"TR-Y-35-004-M-0015","level":"yerlesim","type":"mahalle","parent_id":"TR-D-35-004","province_id":"TR-P-35","district_id":"TR-D-35-004","name":"Mansuroğlu","source_raw_name":"MANSUROĞLU","source":"Kullanıcı tarafından sağlanan KML","source_label":"Kullanıcı tarafından sağlanan KML","source_name":"Izmir Mahalle KML - kullanici tarafindan saglandi"},"geometry":{"type":"Polygon","coordinates":[[[27.199894,38.459141],[27.20024,38.458933],[27.200532,38.458716],[27.20055,38.458702],[27.20132,38.458238],[27.201985,38.457898],[27.202847,38.457634],[27.20331,38.45673],[27.203439,38.456584],[27.199738,38.455189],[27.196559,38.453955],[27.193203,38.452706],[27.190951,38.451853],[27.190821,38.451804],[27.188127,38.450774],[27.187328,38.450471],[27.184519,38.449408],[27.184231,38.449299],[27.183624,38.449069],[27.180728,38.44797],[27.180621,38.448209],[27.18029,38.448948],[27.18026,38.449002],[27.180243,38.449033],[27.179758,38.449935],[27.179693,38.450054],[27.179533,38.450351],[27.179378,38.450629],[27.179275,38.450813],[27.179391,38.450977],[27.17963,38.451123],[27.179927,38.451789],[27.180135,38.45239],[27.180195,38.45258],[27.180212,38.452633],[27.180285,38.452863],[27.180363,38.453112],[27.180378,38.453159],[27.180446,38.453343],[27.180537,38.453593],[27.180597,38.453755],[27.180695,38.454271],[27.180757,38.454601],[27.18078,38.454673],[27.180856,38.454833],[27.180885,38.455061],[27.180927,38.45533],[27.18128,38.455805],[27.182462,38.456151],[27.182533,38.456163],[27.183012,38.45626],[27.183752,38.456441],[27.183791,38.456452],[27.183869,38.456473],[27.184329,38.456598],[27.184576,38.456686],[27.184735,38.456742],[27.185081,38.456911],[27.185393,38.457064],[27.185526,38.457136],[27.185813,38.457298],[27.186077,38.457445],[27.186295,38.457555],[27.187145,38.457987],[27.187753,38.458195],[27.187935,38.458258],[27.188065,38.458306],[27.188788,38.458574],[27.189407,38.458739],[27.189849,38.458857],[27.190293,38.45898],[27.19071,38.459051],[27.191238,38.459112],[27.191347,38.459124],[27.191855,38.459179],[27.191908,38.459185],[27.193339,38.459346],[27.19373,38.459452],[27.193883,38.459485],[27.194049,38.459421],[27.194084,38.459148],[27.19479,38.459214],[27.195874,38.459294],[27.196163,38.459365],[27.196864,38.459431],[27.197179,38.459457],[27.197765,38.459522],[27.198153,38.459624],[27.198457,38.459733],[27.198529,38.459769],[27.198567,38.459532],[27.199383,38.459329],[27.199894,38.459141]]]}},{"type":"Feature","properties":{"id":"TR-Y-35-004-M-0016","level":"yerlesim","type":"mahalle","parent_id":"TR-D-35-004","province_id":"TR-P-35","district_id":"TR-D-35-004","name":"Muhittin Erener","source_raw_name":"MUHİTTİN ERENER","source":"Kullanıcı tarafından sağlanan KML","source_label":"Kullanıcı tarafından sağlanan KML","source_name":"Izmir Mahalle KML - kullanici tarafindan saglandi"},"geometry":{"type":"Polygon","coordinates":[[[27.17991,38.47301],[27.179614,38.472875],[27.179406,38.472783],[27.179381,38.47277],[27.179367,38.472763],[27.179097,38.472653],[27.179031,38.472646],[27.1788,38.4726],[27.178426,38.472497],[27.17838,38.472487],[27.178195,38.472391],[27.17792,38.472218],[27.177751,38.472104],[27.178026,38.471971],[27.178338,38.471857],[27.178445,38.471807],[27.17836,38.471527],[27.178234,38.471135],[27.178013,38.47122],[27.177727,38.471281],[27.177706,38.471291],[27.177271,38.471478],[27.177182,38.471527],[27.177155,38.471558],[27.176712,38.471571],[27.176481,38.47155],[27.176461,38.471551],[27.176446,38.471551],[27.176168,38.471603],[27.175796,38.471629],[27.175684,38.471637],[27.175348,38.471653],[27.17489,38.47168],[27.174648,38.47168],[27.174482,38.471669],[27.174364,38.471645],[27.174378,38.471534],[27.174345,38.471381],[27.174332,38.471379],[27.174168,38.471324],[27.174146,38.471313],[27.174063,38.47127],[27.173909,38.471191],[27.173724,38.471088],[27.173384,38.470873],[27.173302,38.470816],[27.173189,38.470773],[27.172808,38.471336],[27.172709,38.471589],[27.172704,38.471685],[27.172752,38.471832],[27.172852,38.471841],[27.172626,38.472549],[27.172566,38.472872],[27.172561,38.473002],[27.172584,38.473151],[27.172625,38.473264],[27.17263,38.473277],[27.172664,38.473388],[27.172921,38.473758],[27.173085,38.473994],[27.173164,38.474135],[27.173149,38.474221],[27.173125,38.474363],[27.172905,38.474555],[27.17288,38.474577],[27.172853,38.4746],[27.172666,38.474764],[27.172526,38.474923],[27.172484,38.474901],[27.172328,38.474861],[27.172153,38.474778],[27.171971,38.474975],[27.17186,38.475072],[27.171762,38.475164],[27.171547,38.475309],[27.171381,38.475456],[27.17135,38.475547],[27.171174,38.475715],[27.170999,38.475849],[27.171125,38.475982],[27.171251,38.476136],[27.17143,38.476286],[27.1717,38.476547],[27.171647,38.476689],[27.171834,38.476775],[27.172082,38.476861],[27.172111,38.476868],[27.17212,38.476896],[27.172442,38.476902],[27.172647,38.4769],[27.172908,38.476897],[27.17313,38.476901],[27.173627,38.47691],[27.173703,38.476898],[27.173879,38.476871],[27.174031,38.476869],[27.1741,38.476868],[27.174332,38.476819],[27.17449,38.476781],[27.17457,38.476762],[27.174818,38.476631],[27.174904,38.476561],[27.174942,38.476531],[27.175224,38.476398],[27.175509,38.476259],[27.176082,38.47598],[27.176157,38.475946],[27.176434,38.475821],[27.17686,38.47563],[27.176899,38.475585],[27.176964,38.475512],[27.177487,38.4753],[27.1777,38.475211],[27.177906,38.475126],[27.177996,38.475066],[27.178067,38.47502],[27.178322,38.474828],[27.178452,38.474714],[27.178516,38.474659],[27.178692,38.474502],[27.178767,38.474435],[27.179095,38.474167],[27.179197,38.474096],[27.17924,38.474066],[27.179531,38.473724],[27.179676,38.473478],[27.17991,38.47301]]]}},{"type":"Feature","properties":{"id":"TR-Y-35-004-M-0017","level":"yerlesim","type":"mahalle","parent_id":"TR-D-35-004","province_id":"TR-P-35","district_id":"TR-D-35-004","name":"Onur","source_raw_name":"ONUR","source":"Kullanıcı tarafından sağlanan KML","source_label":"Kullanıcı tarafından sağlanan KML","source_name":"Izmir Mahalle KML - kullanici tarafindan saglandi"},"geometry":{"type":"Polygon","coordinates":[[[27.125802,38.47948],[27.12488,38.478729],[27.124332,38.479553],[27.124385,38.479599],[27.124535,38.479731],[27.124658,38.479805],[27.124928,38.479965],[27.125247,38.480237],[27.125257,38.480246],[27.125647,38.480567],[27.125946,38.480837],[27.126036,38.480919],[27.126181,38.481075],[27.126236,38.481139],[27.126381,38.481581],[27.125795,38.481636],[27.125569,38.481664],[27.125661,38.481934],[27.125898,38.482615],[27.125924,38.48269],[27.125644,38.482904],[27.125521,38.482997],[27.125607,38.483147],[27.125664,38.483273],[27.125845,38.483835],[27.125934,38.484119],[27.125998,38.484321],[27.125947,38.484524],[27.12591,38.484694],[27.125907,38.484773],[27.125901,38.484931],[27.126016,38.485135],[27.12605,38.485196],[27.126199,38.485369],[27.126236,38.485418],[27.126317,38.485504],[27.127061,38.486322],[27.127672,38.48635],[27.129223,38.486326],[27.131814,38.486283],[27.132024,38.486271],[27.13427,38.48601],[27.134497,38.487281],[27.134677,38.487659],[27.134741,38.487782],[27.134777,38.487831],[27.134801,38.487865],[27.134921,38.488056],[27.134988,38.488203],[27.135041,38.488268],[27.135071,38.488305],[27.135137,38.488379],[27.135152,38.488542],[27.135208,38.488627],[27.135274,38.488855],[27.13534,38.489051],[27.135375,38.489154],[27.1354,38.489281],[27.135427,38.489483],[27.135451,38.489661],[27.135487,38.489786],[27.135555,38.490021],[27.135626,38.490313],[27.135731,38.490767],[27.135785,38.490988],[27.135853,38.491218],[27.135938,38.491506],[27.136063,38.491781],[27.135827,38.491851],[27.135777,38.491991],[27.135837,38.492228],[27.135892,38.492372],[27.135942,38.492526],[27.136058,38.492741],[27.136211,38.492977],[27.136346,38.493262],[27.136452,38.49344],[27.136571,38.493587],[27.136768,38.493741],[27.136903,38.493882],[27.136955,38.493982],[27.137014,38.494064],[27.137088,38.494141],[27.137133,38.494258],[27.137298,38.494476],[27.13741,38.494662],[27.137476,38.494741],[27.137598,38.494867],[27.137679,38.495037],[27.137854,38.495257],[27.137913,38.495378],[27.138008,38.495498],[27.138048,38.495584],[27.138074,38.495938],[27.138086,38.495992],[27.138205,38.496189],[27.13823,38.496278],[27.138245,38.496475],[27.138328,38.496665],[27.138008,38.496818],[27.137359,38.497079],[27.139283,38.498568],[27.140045,38.498599],[27.140781,38.497554],[27.140785,38.496859],[27.140956,38.496263],[27.14057,38.493919],[27.14064,38.492912],[27.140436,38.49138],[27.140097,38.489507],[27.139184,38.487963],[27.139183,38.487841],[27.139139,38.487478],[27.139099,38.487292],[27.138815,38.486964],[27.138457,38.486841],[27.137676,38.486193],[27.137464,38.485862],[27.137676,38.484884],[27.136927,38.484378],[27.136927,38.484378],[27.136697,38.484372],[27.136483,38.484351],[27.136366,38.48432],[27.136211,38.48426],[27.13582,38.484028],[27.135494,38.483859],[27.135137,38.483705],[27.134419,38.483448],[27.133916,38.482714],[27.13373,38.48257],[27.133506,38.482464],[27.133148,38.482402],[27.132967,38.482439],[27.132844,38.482496],[27.132589,38.48254],[27.13232,38.482567],[27.131794,38.482496],[27.131568,38.482437],[27.131242,38.482175],[27.130849,38.481597],[27.130387,38.481105],[27.130159,38.480937],[27.129465,38.480632],[27.128131,38.480323],[27.12733,38.480302],[27.126395,38.479811],[27.125802,38.47948]]]}},{"type":"Feature","properties":{"id":"TR-Y-35-004-M-0018","level":"yerlesim","type":"mahalle","parent_id":"TR-D-35-004","province_id":"TR-P-35","district_id":"TR-D-35-004","name":"Org. Nafiz Gürman","source_raw_name":"ORG.NAFİZ GÜRMAN","source":"Kullanıcı tarafından sağlanan KML","source_label":"Kullanıcı tarafından sağlanan KML","source_name":"Izmir Mahalle KML - kullanici tarafindan saglandi"},"geometry":{"type":"Polygon","coordinates":[[[27.150291,38.493559],[27.15043,38.493378],[27.150417,38.493346],[27.150267,38.493106],[27.150084,38.492773],[27.149782,38.492355],[27.149576,38.491952],[27.149464,38.491726],[27.149316,38.491447],[27.149034,38.491111],[27.148732,38.490816],[27.148511,38.490649],[27.148144,38.490405],[27.147789,38.490025],[27.147496,38.489638],[27.147348,38.489428],[27.146984,38.48894],[27.146688,38.488489],[27.146545,38.488174],[27.146364,38.487821],[27.146192,38.487508],[27.145929,38.487094],[27.145519,38.486508],[27.145334,38.486222],[27.145175,38.485905],[27.145033,38.485617],[27.144841,38.485193],[27.14464,38.484806],[27.144261,38.484119],[27.143949,38.483566],[27.144649,38.483298],[27.145279,38.483085],[27.14319,38.478619],[27.143075,38.477919],[27.142785,38.476144],[27.14224,38.475516],[27.141803,38.474632],[27.141509,38.473795],[27.140965,38.472215],[27.140229,38.472395],[27.140141,38.472272],[27.139969,38.472335],[27.139602,38.472456],[27.139451,38.472484],[27.139394,38.472495],[27.139139,38.472577],[27.138746,38.47271],[27.138551,38.472776],[27.138562,38.472803],[27.138559,38.472804],[27.137738,38.473024],[27.137708,38.473032],[27.137465,38.473098],[27.13707,38.473196],[27.136998,38.473208],[27.136966,38.473213],[27.136617,38.473263],[27.136093,38.47328],[27.135258,38.473301],[27.134902,38.47329],[27.13467,38.473285],[27.134337,38.473253],[27.133989,38.4732],[27.133736,38.473101],[27.133718,38.473092],[27.133353,38.472899],[27.132827,38.472651],[27.132516,38.472519],[27.132157,38.472377],[27.131645,38.472223],[27.131634,38.472219],[27.131228,38.472102],[27.131085,38.472461],[27.131012,38.47268],[27.130852,38.473232],[27.130843,38.473262],[27.130709,38.473706],[27.130675,38.473855],[27.130574,38.474285],[27.13073,38.474314],[27.13066,38.474628],[27.130657,38.474653],[27.130626,38.474848],[27.130637,38.474991],[27.130647,38.475045],[27.130654,38.475085],[27.130669,38.475177],[27.130715,38.475432],[27.130712,38.475472],[27.13071,38.475519],[27.130731,38.47566],[27.130726,38.475896],[27.130728,38.475946],[27.130732,38.476027],[27.130708,38.476255],[27.130707,38.476398],[27.13059,38.476422],[27.130473,38.476478],[27.130504,38.476572],[27.130613,38.476687],[27.130716,38.476762],[27.130972,38.476887],[27.131333,38.477084],[27.131431,38.477131],[27.131473,38.477151],[27.131459,38.477125],[27.131398,38.477052],[27.131258,38.476896],[27.131203,38.476809],[27.131186,38.476709],[27.131535,38.476901],[27.13183,38.477032],[27.132162,38.477243],[27.132305,38.477326],[27.132436,38.477423],[27.132458,38.477439],[27.132504,38.477482],[27.132534,38.477504],[27.132675,38.477603],[27.1328,38.477732],[27.132919,38.477854],[27.133083,38.478037],[27.133218,38.478186],[27.133257,38.478229],[27.133403,38.478425],[27.133507,38.478531],[27.133564,38.478605],[27.133658,38.478725],[27.133756,38.478858],[27.133795,38.478913],[27.133907,38.479103],[27.133928,38.479129],[27.133978,38.479192],[27.133998,38.479216],[27.134118,38.479356],[27.134269,38.479513],[27.134496,38.47975],[27.134553,38.47981],[27.13463,38.479892],[27.134759,38.480088],[27.134868,38.480247],[27.134905,38.480301],[27.135003,38.480442],[27.13502,38.480459],[27.135362,38.480813],[27.135521,38.481004],[27.135592,38.481089],[27.135737,38.481231],[27.135878,38.481351],[27.135906,38.481375],[27.135933,38.481399],[27.136033,38.481475],[27.13618,38.481586],[27.136398,38.481756],[27.136622,38.48189],[27.136656,38.481911],[27.136866,38.482043],[27.137095,38.482157],[27.137328,38.482302],[27.137441,38.482374],[27.137669,38.48252],[27.137997,38.482718],[27.13825,38.482925],[27.138252,38.482926],[27.138303,38.482965],[27.138479,38.483098],[27.138689,38.483294],[27.138819,38.483414],[27.138896,38.483485],[27.138928,38.483515],[27.13907,38.483649],[27.139131,38.483714],[27.139199,38.483787],[27.139258,38.483855],[27.139364,38.483975],[27.139465,38.48409],[27.139543,38.484179],[27.139773,38.484471],[27.139905,38.484636],[27.140101,38.484847],[27.140208,38.484965],[27.140443,38.485267],[27.140639,38.48552],[27.14074,38.485616],[27.140869,38.485837],[27.140952,38.485985],[27.140979,38.486033],[27.141164,38.486327],[27.141171,38.48634],[27.141245,38.486484],[27.141467,38.486847],[27.141497,38.486913],[27.141546,38.487017],[27.141596,38.487207],[27.141641,38.487333],[27.141652,38.487403],[27.141678,38.487566],[27.14169,38.487723],[27.141701,38.487869],[27.141715,38.48803],[27.141684,38.488071],[27.141602,38.488182],[27.141626,38.488235],[27.14167,38.488361],[27.141696,38.488436],[27.141729,38.488534],[27.141751,38.488601],[27.141825,38.488966],[27.141928,38.489031],[27.143314,38.488679],[27.143509,38.489011],[27.143602,38.489161],[27.143814,38.489525],[27.144029,38.489905],[27.144181,38.490219],[27.144345,38.490515],[27.14446,38.490705],[27.144682,38.491075],[27.145003,38.491661],[27.145445,38.491891],[27.14588,38.492142],[27.146564,38.492471],[27.14725,38.492781],[27.147615,38.492954],[27.148229,38.493205],[27.148707,38.493409],[27.14918,38.493633],[27.14955,38.493793],[27.149724,38.493818],[27.149935,38.493799],[27.150092,38.493744],[27.150291,38.493559]]]}},{"type":"Feature","properties":{"id":"TR-Y-35-004-M-0019","level":"yerlesim","type":"mahalle","parent_id":"TR-D-35-004","province_id":"TR-P-35","district_id":"TR-D-35-004","name":"Osman Gazi","source_raw_name":"OSMANGAZİ","source":"Kullanıcı tarafından sağlanan KML","source_label":"Kullanıcı tarafından sağlanan KML","source_name":"Izmir Mahalle KML - kullanici tarafindan saglandi"},"geometry":{"type":"Polygon","coordinates":[[[27.187463,38.478101],[27.187938,38.477754],[27.188322,38.47742],[27.188403,38.477282],[27.188484,38.477109],[27.188565,38.476904],[27.188588,38.476758],[27.188597,38.476712],[27.188701,38.476636],[27.18884,38.476452],[27.188997,38.476222],[27.189019,38.476189],[27.189386,38.475612],[27.189553,38.475348],[27.189703,38.47514],[27.189853,38.474931],[27.190026,38.474691],[27.190044,38.474666],[27.190223,38.474358],[27.190279,38.474175],[27.190334,38.473995],[27.190423,38.473753],[27.190527,38.473586],[27.190636,38.473413],[27.190951,38.473141],[27.19105,38.473056],[27.191499,38.472764],[27.191885,38.472561],[27.19257,38.472275],[27.192781,38.472182],[27.19317,38.472011],[27.19345,38.471905],[27.194288,38.471588],[27.194864,38.47138],[27.194975,38.47134],[27.195483,38.471233],[27.196166,38.471049],[27.196454,38.470918],[27.196786,38.470795],[27.197058,38.470619],[27.197894,38.470078],[27.198505,38.469713],[27.198961,38.469293],[27.199408,38.468477],[27.200078,38.467365],[27.200208,38.466727],[27.200219,38.46667],[27.199374,38.466816],[27.198444,38.467105],[27.198179,38.467115],[27.196976,38.466944],[27.195125,38.466711],[27.194954,38.466687],[27.194344,38.466591],[27.194063,38.466482],[27.1934,38.4661],[27.19309,38.465995],[27.191997,38.465894],[27.190947,38.46581],[27.18817,38.465594],[27.187796,38.465559],[27.187495,38.465521],[27.187278,38.465273],[27.186528,38.464648],[27.185932,38.464466],[27.185327,38.464327],[27.184348,38.464102],[27.183523,38.463897],[27.182721,38.463698],[27.182692,38.463876],[27.182692,38.464085],[27.182769,38.464512],[27.182767,38.464774],[27.182723,38.465527],[27.182677,38.465994],[27.182809,38.466074],[27.182861,38.466267],[27.182909,38.466723],[27.182963,38.466868],[27.183148,38.467175],[27.183213,38.467405],[27.183235,38.467484],[27.183311,38.467791],[27.183402,38.468153],[27.183445,38.468643],[27.183436,38.468819],[27.183358,38.469146],[27.183046,38.46908],[27.182975,38.469055],[27.182721,38.468955],[27.182438,38.468822],[27.182175,38.468888],[27.182187,38.469007],[27.182171,38.469106],[27.182142,38.469205],[27.182171,38.46952],[27.1822,38.469809],[27.182263,38.470146],[27.182342,38.470439],[27.182496,38.470742],[27.182698,38.471082],[27.182922,38.471382],[27.182956,38.471639],[27.182945,38.471778],[27.183116,38.472563],[27.183122,38.472619],[27.183113,38.472723],[27.183018,38.472734],[27.183056,38.472889],[27.183088,38.473263],[27.183096,38.473439],[27.183103,38.473574],[27.183111,38.473627],[27.183102,38.473775],[27.1831,38.473811],[27.183097,38.473845],[27.183056,38.474069],[27.182894,38.474696],[27.182861,38.474921],[27.182833,38.475203],[27.182824,38.475452],[27.182784,38.47563],[27.182765,38.4758],[27.182736,38.476058],[27.182715,38.476323],[27.182692,38.476465],[27.18266,38.476667],[27.18262,38.476947],[27.182606,38.476969],[27.18264,38.477069],[27.182669,38.477145],[27.182678,38.477446],[27.182675,38.477656],[27.182755,38.477889],[27.182865,38.478015],[27.183036,38.478164],[27.183418,38.478557],[27.183788,38.478863],[27.18385,38.479014],[27.183831,38.479203],[27.18367,38.479298],[27.18341,38.479416],[27.18306,38.47959],[27.182528,38.479763],[27.183814,38.479968],[27.18578,38.480012],[27.186809,38.480073],[27.187991,38.480072],[27.18824,38.479983],[27.188066,38.479519],[27.187921,38.479183],[27.187557,38.4782],[27.187463,38.478101]]]}},{"type":"Feature","properties":{"id":"TR-Y-35-004-M-0020","level":"yerlesim","type":"mahalle","parent_id":"TR-D-35-004","province_id":"TR-P-35","district_id":"TR-D-35-004","name":"Postacılar","source_raw_name":"POSTACILAR","source":"Kullanıcı tarafından sağlanan KML","source_label":"Kullanıcı tarafından sağlanan KML","source_name":"Izmir Mahalle KML - kullanici tarafindan saglandi"},"geometry":{"type":"Polygon","coordinates":[[[27.114147,38.486225],[27.114208,38.486568],[27.11465,38.486511],[27.114866,38.486485],[27.115438,38.486426],[27.115842,38.486383],[27.116103,38.486359],[27.116302,38.48634],[27.116658,38.486309],[27.117083,38.486276],[27.117463,38.486252],[27.117737,38.486236],[27.119247,38.486151],[27.120225,38.486128],[27.123689,38.486109],[27.125272,38.486174],[27.126092,38.486239],[27.127061,38.486322],[27.126317,38.485504],[27.126236,38.485418],[27.126199,38.485369],[27.12605,38.485196],[27.126016,38.485135],[27.125901,38.484931],[27.125907,38.484773],[27.12591,38.484694],[27.125947,38.484524],[27.125998,38.484321],[27.125934,38.484119],[27.125845,38.483835],[27.125664,38.483273],[27.125607,38.483147],[27.125521,38.482997],[27.125644,38.482904],[27.125924,38.48269],[27.125898,38.482615],[27.125661,38.481934],[27.125569,38.481664],[27.125795,38.481636],[27.126381,38.481581],[27.126236,38.481139],[27.126181,38.481075],[27.126036,38.480919],[27.125946,38.480837],[27.125647,38.480567],[27.125257,38.480246],[27.125247,38.480237],[27.124928,38.479965],[27.124658,38.479805],[27.124535,38.479731],[27.124385,38.479599],[27.124332,38.479553],[27.124235,38.479467],[27.123983,38.479217],[27.12394,38.479157],[27.123817,38.478984],[27.123575,38.479107],[27.123015,38.479433],[27.122792,38.479551],[27.122667,38.479617],[27.122219,38.47981],[27.12215,38.479855],[27.121768,38.48011],[27.121382,38.480356],[27.121386,38.480236],[27.121417,38.480044],[27.121095,38.480025],[27.119812,38.47987],[27.119733,38.479693],[27.118838,38.479942],[27.118778,38.48009],[27.117959,38.480024],[27.117451,38.479984],[27.116766,38.480034],[27.116357,38.479971],[27.116185,38.479945],[27.115926,38.479905],[27.115879,38.479898],[27.115745,38.479878],[27.115087,38.479813],[27.11489,38.480657],[27.114732,38.481115],[27.114633,38.481398],[27.114558,38.481615],[27.114411,38.482005],[27.114291,38.482323],[27.114209,38.482542],[27.113987,38.483139],[27.113858,38.483553],[27.113777,38.484049],[27.113875,38.484735],[27.113914,38.484968],[27.114147,38.486225]]]}},{"type":"Feature","properties":{"id":"TR-Y-35-004-M-0022","level":"yerlesim","type":"mahalle","parent_id":"TR-D-35-004","province_id":"TR-P-35","district_id":"TR-D-35-004","name":"Soğukkuyu","source_raw_name":"SOĞUKKUYU","source":"Kullanıcı tarafından sağlanan KML","source_label":"Kullanıcı tarafından sağlanan KML","source_name":"Izmir Mahalle KML - kullanici tarafindan saglandi"},"geometry":{"type":"Polygon","coordinates":[[[27.120998,38.472414],[27.120579,38.471314],[27.120416,38.471257],[27.119972,38.471236],[27.119347,38.471208],[27.11921,38.471202],[27.11901,38.471199],[27.118934,38.471198],[27.118509,38.47113],[27.118429,38.471117],[27.118172,38.470993],[27.117702,38.470592],[27.117438,38.470296],[27.117339,38.470134],[27.117296,38.470038],[27.116868,38.469415],[27.116768,38.469098],[27.116637,38.468383],[27.116546,38.468168],[27.116505,38.468071],[27.116473,38.467996],[27.116243,38.467677],[27.116161,38.46758],[27.116131,38.467522],[27.115945,38.46757],[27.115769,38.467616],[27.115446,38.467724],[27.114533,38.468062],[27.114009,38.468371],[27.113333,38.468769],[27.111949,38.46963],[27.111597,38.469849],[27.111643,38.469895],[27.111838,38.47009],[27.113313,38.471569],[27.113396,38.471652],[27.113927,38.472192],[27.114288,38.472676],[27.114406,38.472871],[27.114459,38.472958],[27.114656,38.473283],[27.114749,38.473468],[27.114978,38.473921],[27.1151,38.474349],[27.115222,38.474771],[27.115433,38.475816],[27.115539,38.476563],[27.115543,38.477002],[27.115547,38.477474],[27.115365,38.478458],[27.115105,38.479735],[27.115095,38.47978],[27.115087,38.479813],[27.115745,38.479878],[27.115879,38.479898],[27.115926,38.479905],[27.116185,38.479945],[27.116357,38.479971],[27.116766,38.480034],[27.117451,38.479984],[27.117959,38.480024],[27.118778,38.48009],[27.118838,38.479942],[27.119733,38.479693],[27.119812,38.47987],[27.121095,38.480025],[27.121417,38.480044],[27.121386,38.480236],[27.121382,38.480356],[27.121768,38.48011],[27.12215,38.479855],[27.122219,38.47981],[27.122667,38.479617],[27.122792,38.479551],[27.123015,38.479433],[27.123575,38.479107],[27.123817,38.478984],[27.12394,38.479157],[27.123983,38.479217],[27.124235,38.479467],[27.124332,38.479553],[27.12488,38.478729],[27.12467,38.478559],[27.124588,38.478533],[27.123664,38.478244],[27.123177,38.477767],[27.122827,38.476916],[27.122789,38.476773],[27.122754,38.475763],[27.122766,38.47562],[27.122876,38.475419],[27.122966,38.475245],[27.123028,38.47513],[27.123036,38.475033],[27.123034,38.474912],[27.123019,38.474808],[27.122942,38.474697],[27.122804,38.474579],[27.122481,38.474313],[27.12124,38.473292],[27.120998,38.472414]]]}},{"type":"Feature","properties":{"id":"TR-Y-35-004-M-0023","level":"yerlesim","type":"mahalle","parent_id":"TR-D-35-004","province_id":"TR-P-35","district_id":"TR-D-35-004","name":"Tepekule","source_raw_name":"TEPEKULE","source":"Kullanıcı tarafından sağlanan KML","source_label":"Kullanıcı tarafından sağlanan KML","source_name":"Izmir Mahalle KML - kullanici tarafindan saglandi"},"geometry":{"type":"Polygon","coordinates":[[[27.171345,38.461956],[27.171121,38.462045],[27.171121,38.462045],[27.170912,38.462128],[27.170716,38.462633],[27.170591,38.462758],[27.170097,38.463176],[27.169775,38.463368],[27.169392,38.463543],[27.169075,38.463614],[27.168946,38.46374],[27.168796,38.464005],[27.168631,38.464309],[27.168514,38.464452],[27.168281,38.464546],[27.168212,38.464812],[27.1682,38.464897],[27.168172,38.465085],[27.168241,38.465392],[27.168415,38.465916],[27.168505,38.46611],[27.1686,38.466301],[27.168824,38.466442],[27.168914,38.46647],[27.16914,38.466541],[27.169585,38.466619],[27.169956,38.466713],[27.170407,38.466855],[27.170498,38.466883],[27.170631,38.466925],[27.171138,38.467118],[27.171326,38.467184],[27.171864,38.467373],[27.172035,38.467433],[27.172236,38.467501],[27.172871,38.467713],[27.173611,38.468013],[27.173641,38.468026],[27.173759,38.468067],[27.173909,38.468126],[27.174175,38.468231],[27.174223,38.468249],[27.174325,38.468289],[27.174617,38.468402],[27.174702,38.468434],[27.174937,38.468541],[27.174976,38.468559],[27.175224,38.468672],[27.175321,38.468722],[27.175656,38.468892],[27.175736,38.468933],[27.175749,38.468941],[27.175924,38.469047],[27.17619,38.468795],[27.176675,38.468331],[27.17689,38.468122],[27.176996,38.468018],[27.177083,38.467937],[27.177145,38.467878],[27.177299,38.467733],[27.177458,38.467589],[27.178707,38.467936],[27.17894,38.467997],[27.178951,38.468],[27.179507,38.468166],[27.179728,38.468232],[27.179854,38.467937],[27.179948,38.467679],[27.180175,38.467758],[27.180395,38.467851],[27.18079,38.468017],[27.181224,38.468139],[27.181882,38.468406],[27.182226,38.46843],[27.182175,38.468888],[27.182438,38.468822],[27.182721,38.468955],[27.182975,38.469055],[27.183046,38.46908],[27.183358,38.469146],[27.183436,38.468819],[27.183445,38.468643],[27.183402,38.468153],[27.183311,38.467791],[27.183235,38.467484],[27.183213,38.467405],[27.183148,38.467175],[27.182963,38.466868],[27.182909,38.466723],[27.182861,38.466267],[27.182809,38.466074],[27.182677,38.465994],[27.182418,38.465889],[27.181819,38.465645],[27.18118,38.465457],[27.181095,38.465432],[27.180807,38.465333],[27.180728,38.465316],[27.180355,38.465208],[27.179971,38.465113],[27.179702,38.465047],[27.17933,38.464827],[27.178952,38.464572],[27.178703,38.464446],[27.178306,38.464327],[27.177585,38.463939],[27.177612,38.463502],[27.177006,38.463411],[27.176404,38.463395],[27.176113,38.46339],[27.175504,38.463343],[27.175142,38.4633],[27.175023,38.463286],[27.174696,38.463229],[27.174288,38.463158],[27.173752,38.463025],[27.173243,38.462862],[27.172028,38.462406],[27.171345,38.461956]]]}},{"type":"Feature","properties":{"id":"TR-Y-35-004-M-0024","level":"yerlesim","type":"mahalle","parent_id":"TR-D-35-004","province_id":"TR-P-35","district_id":"TR-D-35-004","name":"Turan","source_raw_name":"TURAN","source":"Kullanıcı tarafından sağlanan KML","source_label":"Kullanıcı tarafından sağlanan KML","source_name":"Izmir Mahalle KML - kullanici tarafindan saglandi"},"geometry":{"type":"Polygon","coordinates":[[[27.154931,38.481343],[27.15552,38.481292],[27.155365,38.480272],[27.155355,38.480207],[27.155196,38.479155],[27.155059,38.478257],[27.155775,38.478113],[27.155893,38.478089],[27.156503,38.477967],[27.157003,38.477868],[27.157102,38.477856],[27.156932,38.477456],[27.156854,38.477275],[27.156753,38.477038],[27.155903,38.475849],[27.155693,38.475539],[27.155005,38.474587],[27.154863,38.474388],[27.154528,38.474186],[27.154015,38.474179],[27.153606,38.473038],[27.15381,38.47197],[27.153811,38.471965],[27.153811,38.471965],[27.153811,38.471965],[27.154454,38.468582],[27.154454,38.468582],[27.154499,38.468588],[27.154972,38.468617],[27.15535,38.468617],[27.156022,38.468589],[27.156965,38.468369],[27.157152,38.46831],[27.15767,38.468144],[27.158176,38.467947],[27.158486,38.467795],[27.158658,38.467624],[27.158784,38.467458],[27.15881,38.467313],[27.158742,38.467222],[27.158567,38.467102],[27.15813,38.466799],[27.157912,38.466891],[27.15774,38.466905],[27.157503,38.467062],[27.156994,38.467275],[27.156941,38.467214],[27.156339,38.467387],[27.155945,38.467354],[27.156151,38.466207],[27.15606,38.46621],[27.155914,38.467056],[27.155848,38.467054],[27.155789,38.467447],[27.155743,38.467453],[27.155724,38.467527],[27.155507,38.467518],[27.155525,38.467326],[27.155496,38.467174],[27.15551,38.467021],[27.155495,38.466935],[27.155439,38.466886],[27.155307,38.466878],[27.155309,38.46693],[27.155086,38.466921],[27.154999,38.466867],[27.155331,38.465224],[27.155364,38.465227],[27.155375,38.465159],[27.155289,38.465148],[27.155278,38.465219],[27.155308,38.465219],[27.155,38.466742],[27.154713,38.466757],[27.154701,38.466933],[27.153966,38.466913],[27.153936,38.466973],[27.153659,38.466878],[27.153874,38.466484],[27.153756,38.466389],[27.153502,38.466291],[27.153514,38.466229],[27.152854,38.465967],[27.152801,38.465988],[27.152027,38.4657],[27.152095,38.46559],[27.152011,38.46556],[27.151947,38.465647],[27.151371,38.465448],[27.151699,38.46464],[27.151566,38.464613],[27.151397,38.465192],[27.150696,38.465258],[27.150097,38.465074],[27.148326,38.464588],[27.148141,38.46439],[27.148164,38.464285],[27.14789,38.464239],[27.14758,38.464311],[27.147319,38.46442],[27.147156,38.464446],[27.146426,38.464445],[27.145148,38.464611],[27.145132,38.46477],[27.14502,38.464749],[27.144988,38.464853],[27.144459,38.464774],[27.14445,38.464794],[27.14384,38.464687],[27.143773,38.464632],[27.14372,38.464634],[27.143657,38.464717],[27.143545,38.46469],[27.143474,38.464733],[27.143152,38.464656],[27.143191,38.46458],[27.142821,38.46449],[27.141957,38.464405],[27.141543,38.464902],[27.141543,38.465033],[27.141545,38.466212],[27.141753,38.46659],[27.141797,38.466649],[27.141835,38.466778],[27.141842,38.46684],[27.141837,38.466968],[27.141805,38.467027],[27.141687,38.467166],[27.141535,38.467336],[27.141462,38.46746],[27.141354,38.467702],[27.141299,38.467917],[27.141352,38.468755],[27.141361,38.469296],[27.140646,38.471141],[27.140726,38.471637],[27.140965,38.472215],[27.141509,38.473795],[27.141803,38.474632],[27.14224,38.475516],[27.142785,38.476144],[27.143076,38.477922],[27.14319,38.478619],[27.145279,38.483085],[27.145804,38.482927],[27.146349,38.482769],[27.14738,38.482537],[27.147495,38.482511],[27.148953,38.482226],[27.151439,38.481803],[27.152689,38.481622],[27.153299,38.481549],[27.154108,38.48144],[27.154931,38.481343]]]}},{"type":"Feature","properties":{"id":"TR-Y-35-004-M-0025","level":"yerlesim","type":"mahalle","parent_id":"TR-D-35-004","province_id":"TR-P-35","district_id":"TR-D-35-004","name":"Yamanlar","source_raw_name":"YAMANLAR","source":"Kullanıcı tarafından sağlanan KML","source_label":"Kullanıcı tarafından sağlanan KML","source_name":"Izmir Mahalle KML - kullanici tarafindan saglandi"},"geometry":{"type":"Polygon","coordinates":[[[27.12124,38.473292],[27.122481,38.474313],[27.122804,38.474579],[27.122942,38.474697],[27.123019,38.474808],[27.123034,38.474912],[27.123036,38.475033],[27.123028,38.47513],[27.122966,38.475245],[27.122876,38.475419],[27.122766,38.47562],[27.122754,38.475763],[27.122789,38.476773],[27.122827,38.476916],[27.123177,38.477767],[27.123664,38.478244],[27.124588,38.478533],[27.12467,38.478559],[27.12488,38.478729],[27.125802,38.47948],[27.126395,38.479811],[27.12733,38.480302],[27.128131,38.480323],[27.129465,38.480632],[27.130159,38.480937],[27.130387,38.481105],[27.130849,38.481597],[27.131242,38.482175],[27.131568,38.482437],[27.131794,38.482496],[27.13232,38.482567],[27.132589,38.48254],[27.132844,38.482496],[27.132967,38.482439],[27.133148,38.482402],[27.133506,38.482464],[27.13373,38.48257],[27.133916,38.482714],[27.134419,38.483448],[27.135137,38.483705],[27.135494,38.483859],[27.13582,38.484028],[27.136211,38.48426],[27.136366,38.48432],[27.136483,38.484351],[27.136697,38.484372],[27.136927,38.484378],[27.136927,38.484378],[27.137676,38.484884],[27.137464,38.485862],[27.137676,38.486193],[27.138457,38.486841],[27.138815,38.486964],[27.139099,38.487292],[27.139139,38.487478],[27.139183,38.487841],[27.139184,38.487963],[27.140097,38.489507],[27.140436,38.49138],[27.14064,38.492912],[27.14057,38.493919],[27.140956,38.496263],[27.141784,38.496176],[27.142824,38.496138],[27.143001,38.49604],[27.143259,38.49614],[27.144568,38.496637],[27.144995,38.496836],[27.145248,38.496503],[27.145686,38.49671],[27.146318,38.496989],[27.146875,38.497234],[27.147216,38.497401],[27.147307,38.497426],[27.147386,38.497426],[27.147537,38.497383],[27.148047,38.497139],[27.1481,38.497105],[27.148366,38.496936],[27.148635,38.496706],[27.148893,38.496463],[27.149002,38.496263],[27.148972,38.496033],[27.148963,38.495868],[27.14906,38.495675],[27.149408,38.495594],[27.149981,38.495521],[27.150275,38.495456],[27.150483,38.495308],[27.150765,38.495062],[27.150823,38.495008],[27.150756,38.49491],[27.150586,38.494387],[27.150485,38.494033],[27.150484,38.493766],[27.15047,38.493479],[27.15043,38.493378],[27.150291,38.493559],[27.150092,38.493744],[27.149935,38.493799],[27.149724,38.493818],[27.14955,38.493793],[27.14918,38.493633],[27.148707,38.493409],[27.148229,38.493205],[27.147615,38.492954],[27.14725,38.492781],[27.146564,38.492471],[27.14588,38.492142],[27.145445,38.491891],[27.145003,38.491661],[27.144682,38.491075],[27.14446,38.490705],[27.144345,38.490515],[27.144181,38.490219],[27.144029,38.489905],[27.143814,38.489525],[27.143602,38.489161],[27.143509,38.489011],[27.143314,38.488679],[27.141928,38.489031],[27.141825,38.488966],[27.141751,38.488601],[27.141729,38.488534],[27.141696,38.488436],[27.14167,38.488361],[27.141626,38.488235],[27.141602,38.488182],[27.141684,38.488071],[27.141715,38.48803],[27.141701,38.487869],[27.14169,38.487723],[27.141678,38.487566],[27.141652,38.487403],[27.141641,38.487333],[27.141596,38.487207],[27.141546,38.487017],[27.141497,38.486913],[27.141467,38.486847],[27.141245,38.486484],[27.141171,38.48634],[27.141164,38.486327],[27.140979,38.486033],[27.140952,38.485985],[27.140869,38.485837],[27.14074,38.485616],[27.140639,38.48552],[27.140443,38.485267],[27.140208,38.484965],[27.140101,38.484847],[27.139905,38.484636],[27.139773,38.484471],[27.139543,38.484179],[27.139465,38.48409],[27.139364,38.483975],[27.139258,38.483855],[27.139199,38.483787],[27.139131,38.483714],[27.13907,38.483649],[27.138928,38.483515],[27.138896,38.483485],[27.138819,38.483414],[27.138689,38.483294],[27.138479,38.483098],[27.138303,38.482965],[27.138252,38.482926],[27.13825,38.482925],[27.137997,38.482718],[27.137669,38.48252],[27.137441,38.482374],[27.137328,38.482302],[27.137095,38.482157],[27.136866,38.482043],[27.136656,38.481911],[27.136622,38.48189],[27.136398,38.481756],[27.13618,38.481586],[27.136033,38.481475],[27.135933,38.481399],[27.135906,38.481375],[27.135878,38.481351],[27.135737,38.481231],[27.135592,38.481089],[27.135521,38.481004],[27.135362,38.480813],[27.13502,38.480459],[27.135003,38.480442],[27.134905,38.480301],[27.134868,38.480247],[27.134759,38.480088],[27.13463,38.479892],[27.134553,38.47981],[27.134496,38.47975],[27.134269,38.479513],[27.134118,38.479356],[27.133998,38.479216],[27.133978,38.479192],[27.133928,38.479129],[27.133907,38.479103],[27.133795,38.478913],[27.133756,38.478858],[27.133658,38.478725],[27.133564,38.478605],[27.133507,38.478531],[27.133403,38.478425],[27.133257,38.478229],[27.133218,38.478186],[27.133083,38.478037],[27.132919,38.477854],[27.1328,38.477732],[27.132675,38.477603],[27.132534,38.477504],[27.132504,38.477482],[27.132458,38.477439],[27.132436,38.477423],[27.132305,38.477326],[27.132162,38.477243],[27.13183,38.477032],[27.131535,38.476901],[27.131186,38.476709],[27.131203,38.476809],[27.131258,38.476896],[27.131398,38.477052],[27.131459,38.477125],[27.131473,38.477151],[27.131431,38.477131],[27.131333,38.477084],[27.130972,38.476887],[27.130716,38.476762],[27.130613,38.476687],[27.130504,38.476572],[27.130473,38.476478],[27.13059,38.476422],[27.130707,38.476398],[27.130708,38.476255],[27.130732,38.476027],[27.130728,38.475946],[27.130726,38.475896],[27.130731,38.47566],[27.13071,38.475519],[27.130712,38.475472],[27.130715,38.475432],[27.130669,38.475177],[27.130654,38.475085],[27.130647,38.475045],[27.130637,38.474991],[27.130626,38.474848],[27.130657,38.474653],[27.13066,38.474628],[27.13073,38.474314],[27.130574,38.474285],[27.129978,38.474201],[27.129763,38.474167],[27.129257,38.474087],[27.128919,38.474033],[27.128775,38.474016],[27.128537,38.473988],[27.128424,38.473975],[27.128365,38.473971],[27.12829,38.473965],[27.127998,38.473947],[27.127971,38.473945],[27.127605,38.473955],[27.127152,38.473986],[27.127035,38.474007],[27.126987,38.474015],[27.126379,38.47412],[27.125925,38.474155],[27.125471,38.474169],[27.125392,38.474172],[27.125163,38.474163],[27.124735,38.474145],[27.124517,38.474136],[27.124258,38.474126],[27.124023,38.47413],[27.124001,38.474129],[27.123762,38.474116],[27.123438,38.4741],[27.122922,38.474039],[27.122913,38.474037],[27.122728,38.473994],[27.122573,38.473905],[27.122459,38.47375],[27.122151,38.47336],[27.122018,38.473259],[27.121817,38.473206],[27.12157,38.473223],[27.12124,38.473292]]]}},{"type":"Feature","properties":{"id":"TR-Y-35-004-M-SRC-TRD35004ALPASLAN","level":"yerlesim","type":"mahalle","parent_id":"TR-D-35-004","province_id":"TR-P-35","district_id":"TR-D-35-004","name":"Alpaslan","source_raw_name":"ALPASLAN","source":"Kullanıcı tarafından sağlanan KML","source_label":"Kullanıcı tarafından sağlanan KML","source_name":"Izmir Mahalle KML - kullanici tarafindan saglandi","source_only":true,"source_only_keep_separate":true,"source_match_status":"unmatched"},"geometry":{"type":"Polygon","coordinates":[[[27.172808,38.471336],[27.172668,38.471295],[27.172347,38.471211],[27.172027,38.471123],[27.171514,38.470945],[27.171268,38.470867],[27.17101,38.470776],[27.170637,38.470647],[27.17039,38.470596],[27.170271,38.470581],[27.170151,38.470559],[27.169934,38.470552],[27.169883,38.47055],[27.169518,38.470559],[27.169364,38.470534],[27.169226,38.470472],[27.168998,38.470275],[27.168992,38.470266],[27.168817,38.470023],[27.168653,38.46981],[27.16848,38.469572],[27.168311,38.46934],[27.168174,38.469179],[27.168154,38.46919],[27.168021,38.469284],[27.167787,38.469518],[27.167703,38.469507],[27.167538,38.469491],[27.167173,38.469476],[27.166818,38.469475],[27.166443,38.469509],[27.166394,38.469509],[27.1662,38.469509],[27.165949,38.469488],[27.165815,38.469408],[27.165598,38.469258],[27.165436,38.469144],[27.165352,38.469122],[27.165245,38.469094],[27.165136,38.469059],[27.165038,38.469051],[27.16487,38.469076],[27.164778,38.4691],[27.164666,38.469125],[27.164614,38.469131],[27.164415,38.469051],[27.164367,38.469113],[27.164123,38.469353],[27.163867,38.469586],[27.163672,38.469777],[27.163535,38.469884],[27.163387,38.469974],[27.163277,38.470042],[27.163141,38.470107],[27.163223,38.47022],[27.163273,38.470311],[27.1633,38.470361],[27.163494,38.47069],[27.163059,38.470859],[27.162803,38.471022],[27.162545,38.471223],[27.162312,38.471382],[27.162158,38.471486],[27.161971,38.471549],[27.161761,38.47162],[27.161591,38.471655],[27.161213,38.471688],[27.160967,38.471695],[27.160866,38.471698],[27.160617,38.471696],[27.160593,38.471691],[27.160372,38.471648],[27.160359,38.471646],[27.16017,38.471602],[27.160111,38.471588],[27.159729,38.471451],[27.159614,38.471696],[27.159547,38.471797],[27.159474,38.471998],[27.159392,38.472171],[27.159352,38.472299],[27.159281,38.472482],[27.159254,38.472589],[27.159222,38.472701],[27.159197,38.472777],[27.159184,38.472816],[27.159253,38.472831],[27.159153,38.472969],[27.158949,38.473005],[27.158831,38.473318],[27.159111,38.473395],[27.159039,38.47363],[27.159011,38.473815],[27.159001,38.474066],[27.158995,38.474338],[27.159132,38.474349],[27.159209,38.47433],[27.159339,38.474291],[27.159647,38.474317],[27.159943,38.474323],[27.1602,38.474337],[27.160374,38.474334],[27.160859,38.474309],[27.161402,38.474225],[27.162062,38.474092],[27.16238,38.474007],[27.16279,38.473849],[27.163544,38.473479],[27.16373,38.47338],[27.163952,38.473254],[27.164267,38.473091],[27.164404,38.47303],[27.164719,38.472925],[27.164979,38.472841],[27.165019,38.472921],[27.165078,38.473087],[27.165082,38.4731],[27.165202,38.473294],[27.165218,38.473352],[27.165295,38.47329],[27.165463,38.473232],[27.16586,38.473126],[27.166053,38.473085],[27.166105,38.473074],[27.166473,38.473008],[27.16663,38.47298],[27.166755,38.472959],[27.166907,38.472934],[27.16707,38.47292],[27.167176,38.472912],[27.167448,38.47289],[27.167481,38.472884],[27.167705,38.472848],[27.167958,38.472768],[27.168201,38.472643],[27.16841,38.472538],[27.168435,38.472483],[27.168473,38.472403],[27.168507,38.472381],[27.168522,38.472371],[27.168664,38.472322],[27.168934,38.472219],[27.169533,38.471988],[27.169962,38.47183],[27.170202,38.471776],[27.170554,38.471696],[27.170744,38.471654],[27.171416,38.471505],[27.171446,38.471499],[27.171606,38.471466],[27.17166,38.471455],[27.171754,38.471458],[27.172236,38.471475],[27.172259,38.471481],[27.172709,38.471589],[27.172808,38.471336]]]}},{"type":"Feature","properties":{"id":"TR-Y-35-004-M-SRC-TRD35004RSEVKETINCE","level":"yerlesim","type":"mahalle","parent_id":"TR-D-35-004","province_id":"TR-P-35","district_id":"TR-D-35-004","name":"R.şevket İnce","source_raw_name":"R.ŞEVKET İNCE","source":"Kullanıcı tarafından sağlanan KML","source_label":"Kullanıcı tarafından sağlanan KML","source_name":"Izmir Mahalle KML - kullanici tarafindan saglandi","source_only":true,"source_only_keep_separate":true,"source_match_status":"unmatched"},"geometry":{"type":"Polygon","coordinates":[[[27.171402,38.478435],[27.171403,38.478435],[27.171429,38.478465],[27.17148,38.478508],[27.171602,38.478613],[27.171722,38.478685],[27.171913,38.478696],[27.172115,38.478797],[27.17237,38.479027],[27.172557,38.479173],[27.172722,38.479376],[27.172805,38.479515],[27.17282,38.479612],[27.172811,38.479624],[27.171984,38.480702],[27.172248,38.480775],[27.173211,38.480842],[27.174695,38.480833],[27.175489,38.480213],[27.177034,38.479952],[27.177623,38.479789],[27.178082,38.479872],[27.178648,38.479901],[27.179102,38.479891],[27.180601,38.48007],[27.182528,38.479753],[27.182548,38.479756],[27.18306,38.47959],[27.18341,38.479416],[27.18367,38.479298],[27.183831,38.479203],[27.18385,38.479014],[27.183788,38.478863],[27.183418,38.478557],[27.183036,38.478164],[27.182865,38.478015],[27.182755,38.477889],[27.182675,38.477656],[27.182678,38.477446],[27.182669,38.477145],[27.18264,38.477069],[27.182606,38.476969],[27.18262,38.476947],[27.18266,38.476667],[27.182692,38.476465],[27.182715,38.476323],[27.182736,38.476058],[27.182765,38.4758],[27.182784,38.47563],[27.182824,38.475452],[27.182833,38.475203],[27.182861,38.474921],[27.182894,38.474696],[27.182396,38.474566],[27.182509,38.474396],[27.182672,38.474212],[27.182399,38.474101],[27.182198,38.474036],[27.182088,38.473994],[27.182062,38.473984],[27.18183,38.47393],[27.181446,38.473791],[27.181149,38.473672],[27.180847,38.473547],[27.180551,38.473358],[27.180291,38.473191],[27.17991,38.47301],[27.179676,38.473478],[27.179531,38.473724],[27.17924,38.474066],[27.179197,38.474096],[27.179095,38.474167],[27.178767,38.474435],[27.178692,38.474502],[27.178516,38.474659],[27.178452,38.474714],[27.178322,38.474828],[27.178067,38.47502],[27.177996,38.475066],[27.177906,38.475126],[27.1777,38.475211],[27.177487,38.4753],[27.176964,38.475512],[27.176899,38.475585],[27.17686,38.47563],[27.176434,38.475821],[27.176157,38.475946],[27.176082,38.47598],[27.175509,38.476259],[27.175224,38.476398],[27.174942,38.476531],[27.174904,38.476561],[27.174818,38.476631],[27.17457,38.476762],[27.17449,38.476781],[27.174332,38.476819],[27.1741,38.476868],[27.174031,38.476869],[27.173879,38.476871],[27.173703,38.476898],[27.173627,38.47691],[27.17313,38.476901],[27.172908,38.476897],[27.172647,38.4769],[27.172442,38.476902],[27.17212,38.476896],[27.172111,38.476868],[27.172082,38.476861],[27.171834,38.476775],[27.171647,38.476689],[27.17159,38.476754],[27.17134,38.47704],[27.171144,38.477195],[27.171022,38.477298],[27.170986,38.477334],[27.170947,38.477395],[27.170922,38.477456],[27.170805,38.477613],[27.170936,38.47773],[27.171061,38.477878],[27.171162,38.478049],[27.171242,38.47828],[27.171256,38.478591],[27.171286,38.47866],[27.171351,38.478533],[27.171402,38.478435]]]}}]}