{"type":"FeatureCollection","name":"turkiye_map.dist.mahalle_geometrileri_by_district.TR-D-59-005","features":[{"type":"Feature","properties":{"id":"TR-Y-59-005-M-0001","level":"yerlesim","type":"mahalle","parent_id":"TR-D-59-005","province_id":"TR-P-59","district_id":"TR-D-59-005","name":"19 Mayıs","source_raw_name":"19 Mayıs Mah.","source":"Kullanıcı tarafından sağlanan KML","source_label":"Kullanıcı tarafından sağlanan KML","source_name":"Tekirdağ Mahalle KML"},"geometry":{"type":"Polygon","coordinates":[[[27.99751,41.3381],[28.00071,41.3364],[27.99908,41.33411],[27.99022,41.3308],[27.97991,41.32198],[27.97707,41.32433],[27.98015,41.32553],[27.99751,41.3381]]]}},{"type":"Feature","properties":{"id":"TR-Y-59-005-M-0002","level":"yerlesim","type":"mahalle","parent_id":"TR-D-59-005","province_id":"TR-P-59","district_id":"TR-D-59-005","name":"Adnan Menderes","source_raw_name":"Adnan Menderes Mah.","source":"Kullanıcı tarafından sağlanan KML","source_label":"Kullanıcı tarafından sağlanan KML","source_name":"Tekirdağ Mahalle KML"},"geometry":{"type":"Polygon","coordinates":[[[28.00305,41.32307],[27.99891,41.31145],[27.99501,41.31198],[27.99552,41.31361],[27.98804,41.31766],[27.98594,41.31626],[27.98338,41.3184],[27.9831,41.31993],[27.99384,41.32765],[28.00305,41.32307]]]}},{"type":"Feature","properties":{"id":"TR-Y-59-005-M-0003","level":"yerlesim","type":"mahalle","parent_id":"TR-D-59-005","province_id":"TR-P-59","district_id":"TR-D-59-005","name":"Atatürk","source_raw_name":"Atatürk Mah.","source":"Kullanıcı tarafından sağlanan KML","source_label":"Kullanıcı tarafından sağlanan KML","source_name":"Tekirdağ Mahalle KML"},"geometry":{"type":"Polygon","coordinates":[[[27.97447,41.33003],[27.97195,41.33041],[27.96743,41.33657],[27.96967,41.33846],[27.97524,41.33724],[27.9815,41.33421],[27.97447,41.33003]]]}},{"type":"Feature","properties":{"id":"TR-Y-59-005-M-0004","level":"yerlesim","type":"mahalle","parent_id":"TR-D-59-005","province_id":"TR-P-59","district_id":"TR-D-59-005","name":"Bahçeağıl","source_raw_name":"Bahçeağıl Mah.","source":"Kullanıcı tarafından sağlanan KML","source_label":"Kullanıcı tarafından sağlanan KML","source_name":"Tekirdağ Mahalle KML"},"geometry":{"type":"Polygon","coordinates":[[[27.90363,41.3682],[27.91481,41.3575],[27.91418,41.35322],[27.90598,41.34032],[27.90773,41.3393],[27.90629,41.33809],[27.91565,41.33251],[27.89405,41.31704],[27.88723,41.31698],[27.88317,41.31499],[27.87702,41.3164],[27.86917,41.31435],[27.86952,41.32195],[27.86671,41.33758],[27.86298,41.33945],[27.86384,41.33997],[27.86157,41.34204],[27.86405,41.34391],[27.86582,41.342],[27.86662,41.34279],[27.87018,41.35075],[27.87913,41.3536],[27.88325,41.35804],[27.88819,41.35799],[27.8892,41.36016],[27.89477,41.36217],[27.89809,41.36795],[27.9018,41.36659],[27.90363,41.3682]]]}},{"type":"Feature","properties":{"id":"TR-Y-59-005-M-0005","level":"yerlesim","type":"mahalle","parent_id":"TR-D-59-005","province_id":"TR-P-59","district_id":"TR-D-59-005","name":"Bahçelievler","source_raw_name":"Bahçelievler Mah.","source":"Kullanıcı tarafından sağlanan KML","source_label":"Kullanıcı tarafından sağlanan KML","source_name":"Tekirdağ Mahalle KML"},"geometry":{"type":"Polygon","coordinates":[[[27.99091,41.32999],[27.99384,41.32765],[27.99161,41.32566],[27.9831,41.31993],[27.97991,41.32198],[27.9891,41.32913],[27.99091,41.32999]]]}},{"type":"Feature","properties":{"id":"TR-Y-59-005-M-0006","level":"yerlesim","type":"mahalle","parent_id":"TR-D-59-005","province_id":"TR-P-59","district_id":"TR-D-59-005","name":"Cumhuriyet","source_raw_name":"Cumhuriyet Mah.","source":"Kullanıcı tarafından sağlanan KML","source_label":"Kullanıcı tarafından sağlanan KML","source_name":"Tekirdağ Mahalle KML"},"geometry":{"type":"Polygon","coordinates":[[[27.9869,41.33106],[27.97707,41.32433],[27.97481,41.33045],[27.9815,41.33421],[27.9869,41.33106]]]}},{"type":"Feature","properties":{"id":"TR-Y-59-005-M-0007","level":"yerlesim","type":"mahalle","parent_id":"TR-D-59-005","province_id":"TR-P-59","district_id":"TR-D-59-005","name":"Fatih","source_raw_name":"Fatih Mah.","source":"Kullanıcı tarafından sağlanan KML","source_label":"Kullanıcı tarafından sağlanan KML","source_name":"Tekirdağ Mahalle KML"},"geometry":{"type":"Polygon","coordinates":[[[27.93228,41.30381],[27.94206,41.29857],[27.94539,41.29278],[27.9431,41.29214],[27.94127,41.28791],[27.93585,41.28436],[27.93489,41.2813],[27.93219,41.281],[27.933,41.27936],[27.92542,41.27448],[27.92285,41.26879],[27.9176,41.26724],[27.91699,41.26478],[27.91448,41.26384],[27.91504,41.26135],[27.9135,41.25983],[27.90863,41.25988],[27.90532,41.26218],[27.90231,41.26147],[27.90158,41.26257],[27.90512,41.26409],[27.91191,41.27307],[27.91288,41.27891],[27.91626,41.2815],[27.92033,41.28908],[27.92631,41.29427],[27.93228,41.30381]]]}},{"type":"Feature","properties":{"id":"TR-Y-59-005-M-0008","level":"yerlesim","type":"mahalle","parent_id":"TR-D-59-005","province_id":"TR-P-59","district_id":"TR-D-59-005","name":"İnönü","source_raw_name":"İnönü Mah.","source":"Kullanıcı tarafından sağlanan KML","source_label":"Kullanıcı tarafından sağlanan KML","source_name":"Tekirdağ Mahalle KML"},"geometry":{"type":"Polygon","coordinates":[[[27.97378,41.33011],[27.97657,41.32446],[27.96978,41.32667],[27.96973,41.33198],[27.97378,41.33011]]]}},{"type":"Feature","properties":{"id":"TR-Y-59-005-M-0009","level":"yerlesim","type":"mahalle","parent_id":"TR-D-59-005","province_id":"TR-P-59","district_id":"TR-D-59-005","name":"İsmetpaşa","source_raw_name":"İsmet Paşa Mah.","source":"Kullanıcı tarafından sağlanan KML","source_label":"Kullanıcı tarafından sağlanan KML","source_name":"Tekirdağ Mahalle KML"},"geometry":{"type":"Polygon","coordinates":[[[27.97921,41.32247],[27.98365,41.31959],[27.98091,41.31657],[27.9687,41.31488],[27.96764,41.31603],[27.96772,41.31769],[27.97267,41.32066],[27.97921,41.32247]]]}},{"type":"Feature","properties":{"id":"TR-Y-59-005-M-0010","level":"yerlesim","type":"mahalle","parent_id":"TR-D-59-005","province_id":"TR-P-59","district_id":"TR-D-59-005","name":"Karaağaç","source_raw_name":"Karaağaç Mah.","source":"Kullanıcı tarafından sağlanan KML","source_label":"Kullanıcı tarafından sağlanan KML","source_name":"Tekirdağ Mahalle KML"},"geometry":{"type":"Polygon","coordinates":[[[27.96103,41.3155],[27.95984,41.31095],[27.95854,41.31068],[27.96758,41.30685],[27.96888,41.30851],[27.97451,41.30598],[27.95782,41.28496],[27.95164,41.28646],[27.95422,41.29029],[27.95237,41.29267],[27.95543,41.29465],[27.95554,41.29779],[27.95102,41.29959],[27.94536,41.29366],[27.94004,41.30023],[27.93229,41.30365],[27.94696,41.32224],[27.96103,41.3155]]]}},{"type":"Feature","properties":{"id":"TR-Y-59-005-M-0011","level":"yerlesim","type":"mahalle","parent_id":"TR-D-59-005","province_id":"TR-P-59","district_id":"TR-D-59-005","name":"Karlı","source_raw_name":"Karlı Mah.","source":"Kullanıcı tarafından sağlanan KML","source_label":"Kullanıcı tarafından sağlanan KML","source_name":"Tekirdağ Mahalle KML"},"geometry":{"type":"Polygon","coordinates":[[[27.84721,41.39368],[27.85847,41.38695],[27.85941,41.38472],[27.86203,41.3879],[27.86665,41.38563],[27.882,41.38861],[27.90611,41.38512],[27.90363,41.3682],[27.9018,41.36659],[27.89809,41.36795],[27.89477,41.36217],[27.8892,41.36016],[27.88819,41.35799],[27.88325,41.35804],[27.87913,41.3536],[27.87018,41.35075],[27.86582,41.342],[27.85191,41.35065],[27.8518,41.35517],[27.85502,41.35522],[27.85215,41.35682],[27.84976,41.3575],[27.8489,41.35545],[27.83721,41.35694],[27.84282,41.36023],[27.84208,41.36207],[27.83778,41.36111],[27.83317,41.36244],[27.83058,41.3658],[27.83166,41.37057],[27.8241,41.37005],[27.8248,41.37143],[27.82044,41.37446],[27.82719,41.3796],[27.83444,41.39368],[27.84188,41.39207],[27.84721,41.39368]]]}},{"type":"Feature","properties":{"id":"TR-Y-59-005-M-0012","level":"yerlesim","type":"mahalle","parent_id":"TR-D-59-005","province_id":"TR-P-59","district_id":"TR-D-59-005","name":"Kazım Karabekir","source_raw_name":"Kazım Karabekir Mah.","source":"Kullanıcı tarafından sağlanan KML","source_label":"Kullanıcı tarafından sağlanan KML","source_name":"Tekirdağ Mahalle KML"},"geometry":{"type":"Polygon","coordinates":[[[27.95102,41.29959],[27.95637,41.29667],[27.95448,41.29331],[27.94949,41.29189],[27.94685,41.29461],[27.95102,41.29959]]]}},{"type":"Feature","properties":{"id":"TR-Y-59-005-M-0013","level":"yerlesim","type":"mahalle","parent_id":"TR-D-59-005","province_id":"TR-P-59","district_id":"TR-D-59-005","name":"Mevlana","source_raw_name":"Mevlana Mah.","source":"Kullanıcı tarafından sağlanan KML","source_label":"Kullanıcı tarafından sağlanan KML","source_name":"Tekirdağ Mahalle KML"},"geometry":{"type":"Polygon","coordinates":[[[28.01605,41.38187],[28.03489,41.37953],[28.02646,41.37565],[27.9808,41.33849],[27.97904,41.34286],[27.97459,41.34434],[27.97523,41.34608],[27.96962,41.34966],[27.96446,41.35178],[27.959,41.35187],[27.95791,41.35689],[27.96179,41.36348],[27.9652,41.36325],[27.96305,41.36435],[27.96794,41.36552],[27.9667,41.37057],[27.97125,41.37441],[27.97742,41.37246],[27.97728,41.37628],[27.98035,41.37754],[27.99425,41.37824],[27.99877,41.38017],[28.00278,41.37853],[28.0085,41.38139],[28.01605,41.38187]]]}},{"type":"Feature","properties":{"id":"TR-Y-59-005-M-0014","level":"yerlesim","type":"mahalle","parent_id":"TR-D-59-005","province_id":"TR-P-59","district_id":"TR-D-59-005","name":"Mimar Sinan","source_raw_name":"Mimar Sinan Mah.","source":"Kullanıcı tarafından sağlanan KML","source_label":"Kullanıcı tarafından sağlanan KML","source_name":"Tekirdağ Mahalle KML"},"geometry":{"type":"Polygon","coordinates":[[[27.95412,41.29103],[27.95164,41.28646],[27.96138,41.2841],[27.95733,41.27958],[27.95842,41.27856],[27.95631,41.27862],[27.9519,41.27368],[27.95048,41.2658],[27.943,41.26746],[27.93874,41.26494],[27.93477,41.26544],[27.92987,41.26097],[27.9282,41.25663],[27.92319,41.25846],[27.91859,41.25475],[27.91325,41.25702],[27.91169,41.25915],[27.91465,41.26068],[27.91439,41.26367],[27.91699,41.26478],[27.9176,41.26724],[27.92285,41.26879],[27.92542,41.27448],[27.933,41.27936],[27.93219,41.281],[27.93489,41.2813],[27.93585,41.28436],[27.94332,41.29043],[27.9431,41.29214],[27.94685,41.29461],[27.95412,41.29103]],[[27.94828,41.28353],[27.94987,41.28224],[27.94841,41.28113],[27.94674,41.28255],[27.93854,41.27503],[27.94155,41.27333],[27.93879,41.27219],[27.93672,41.27387],[27.92238,41.26516],[27.92653,41.26191],[27.92926,41.26423],[27.93086,41.26308],[27.93892,41.26868],[27.93712,41.27092],[27.9427,41.2697],[27.94753,41.27648],[27.94928,41.27555],[27.94801,41.27378],[27.94979,41.27367],[27.95153,41.27685],[27.94751,41.27795],[27.94844,41.27897],[27.95355,41.27787],[27.95227,41.27879],[27.95373,41.27867],[27.95303,41.27963],[27.95741,41.2845],[27.951,41.28574],[27.94828,41.28353]]]}},{"type":"Feature","properties":{"id":"TR-Y-59-005-M-0015","level":"yerlesim","type":"mahalle","parent_id":"TR-D-59-005","province_id":"TR-P-59","district_id":"TR-D-59-005","name":"Ömer Halisdemir","source_raw_name":"Ömer Halisdemir Mah.","source":"Kullanıcı tarafından sağlanan KML","source_label":"Kullanıcı tarafından sağlanan KML","source_name":"Tekirdağ Mahalle KML"},"geometry":{"type":"Polygon","coordinates":[[[27.97904,41.34286],[27.9808,41.33849],[27.97839,41.33583],[27.97036,41.33845],[27.96743,41.33657],[27.95734,41.35115],[27.96148,41.35202],[27.96719,41.35081],[27.97523,41.34608],[27.97459,41.34434],[27.97904,41.34286]]]}},{"type":"Feature","properties":{"id":"TR-Y-59-005-M-0016","level":"yerlesim","type":"mahalle","parent_id":"TR-D-59-005","province_id":"TR-P-59","district_id":"TR-D-59-005","name":"Pınarca","source_raw_name":"Pınarca Mah.","source":"Kullanıcı tarafından sağlanan KML","source_label":"Kullanıcı tarafından sağlanan KML","source_name":"Tekirdağ Mahalle KML"},"geometry":{"type":"Polygon","coordinates":[[[28.07126,41.40437],[28.07466,41.3991],[28.08116,41.3975],[28.0833,41.39551],[28.08988,41.39614],[28.09883,41.39397],[28.09897,41.38639],[28.08939,41.36921],[28.08797,41.35258],[28.08991,41.34708],[28.0873,41.34032],[28.07318,41.32625],[28.06427,41.32707],[28.06201,41.32925],[28.05707,41.32408],[28.0477,41.3236],[28.02969,41.31911],[28.02717,41.32233],[28.02897,41.32765],[28.02633,41.32873],[28.01842,41.32385],[28.00906,41.30952],[28.00354,41.31403],[27.99989,41.31484],[28.00303,41.32342],[28.00024,41.32395],[28.00219,41.32757],[28.00061,41.331],[28.00144,41.33274],[27.9999,41.33242],[27.99893,41.33437],[28.00071,41.3364],[27.99809,41.33798],[28,41.34124],[28.00374,41.34225],[28.00361,41.34509],[28.0063,41.34509],[28.00828,41.34703],[28.00476,41.35164],[28.01526,41.36098],[28.02447,41.37404],[28.03433,41.3788],[28.04331,41.39085],[28.04934,41.39323],[28.05288,41.40084],[28.05953,41.40295],[28.06293,41.40154],[28.06296,41.40299],[28.07126,41.40437]],[[28.045,41.36333],[28.04643,41.36306],[28.04761,41.36537],[28.04779,41.36597],[28.045,41.36333]]]}},{"type":"Feature","properties":{"id":"TR-Y-59-005-M-0017","level":"yerlesim","type":"mahalle","parent_id":"TR-D-59-005","province_id":"TR-P-59","district_id":"TR-D-59-005","name":"Uzunhacı","source_raw_name":"Uzunhacı Mah.","source":"Kullanıcı tarafından sağlanan KML","source_label":"Kullanıcı tarafından sağlanan KML","source_name":"Tekirdağ Mahalle KML"},"geometry":{"type":"Polygon","coordinates":[[[27.82455,41.36992],[27.83166,41.37057],[27.83051,41.36633],[27.83248,41.36301],[27.83778,41.36111],[27.84136,41.3625],[27.84292,41.36088],[27.83721,41.35694],[27.8489,41.35545],[27.84976,41.3575],[27.85215,41.35682],[27.85502,41.35522],[27.8518,41.35517],[27.85191,41.35065],[27.85696,41.34647],[27.86388,41.34429],[27.86128,41.34128],[27.86671,41.33758],[27.86952,41.32195],[27.86923,41.31265],[27.85908,41.31649],[27.852,41.32159],[27.84549,41.31823],[27.84193,41.31893],[27.83828,41.31686],[27.83641,41.31797],[27.83752,41.32064],[27.83544,41.32153],[27.83169,41.31992],[27.82994,41.32151],[27.8241,41.32156],[27.82265,41.32244],[27.82343,41.3255],[27.81473,41.32913],[27.8088,41.32663],[27.80941,41.3282],[27.80403,41.34166],[27.80321,41.33938],[27.80198,41.34019],[27.79901,41.33827],[27.79543,41.3395],[27.78853,41.34365],[27.7826,41.35037],[27.7829,41.35572],[27.79885,41.36534],[27.80357,41.36551],[27.80558,41.36748],[27.81411,41.36978],[27.82044,41.37446],[27.8248,41.37143],[27.82455,41.36992]],[[27.86451,41.32086],[27.86524,41.32032],[27.86557,41.32125],[27.86451,41.32086]]]}},{"type":"Feature","properties":{"id":"TR-Y-59-005-M-0018","level":"yerlesim","type":"mahalle","parent_id":"TR-D-59-005","province_id":"TR-P-59","district_id":"TR-D-59-005","name":"Vatan","source_raw_name":"Vatan Mah.","source":"Kullanıcı tarafından sağlanan KML","source_label":"Kullanıcı tarafından sağlanan KML","source_name":"Tekirdağ Mahalle KML"},"geometry":{"type":"Polygon","coordinates":[[[28.00284,41.35152],[28.00828,41.34703],[28.0063,41.34509],[28.00361,41.34509],[28.00374,41.34225],[28,41.34124],[27.99802,41.33778],[27.9869,41.33106],[27.97839,41.33583],[28.02068,41.37036],[28.01526,41.36098],[28.00284,41.35152]]]}},{"type":"Feature","properties":{"id":"TR-Y-59-005-M-0019","level":"yerlesim","type":"mahalle","parent_id":"TR-D-59-005","province_id":"TR-P-59","district_id":"TR-D-59-005","name":"Yanıkağıl","source_raw_name":"Yanıkağıl Mah.","source":"Kullanıcı tarafından sağlanan KML","source_label":"Kullanıcı tarafından sağlanan KML","source_name":"Tekirdağ Mahalle KML"},"geometry":{"type":"Polygon","coordinates":[[[27.92593,41.32575],[27.93313,41.32344],[27.94696,41.32224],[27.93188,41.30351],[27.93185,41.30153],[27.92631,41.29427],[27.92033,41.28908],[27.91626,41.2815],[27.91288,41.27891],[27.91241,41.27395],[27.91009,41.27079],[27.90133,41.27512],[27.89719,41.27429],[27.89063,41.2766],[27.88924,41.27515],[27.88622,41.2784],[27.8764,41.28228],[27.86506,41.29126],[27.86238,41.28943],[27.86646,41.29936],[27.86163,41.30474],[27.86936,41.31123],[27.86915,41.315],[27.87702,41.3164],[27.88317,41.31499],[27.88723,41.31698],[27.89405,41.31704],[27.91565,41.33251],[27.92593,41.32575]]]}},{"type":"Feature","properties":{"id":"TR-Y-59-005-M-0020","level":"yerlesim","type":"mahalle","parent_id":"TR-D-59-005","province_id":"TR-P-59","district_id":"TR-D-59-005","name":"Yıldızkent","source_raw_name":"Yıldızkent Mah.","source":"Kullanıcı tarafından sağlanan KML","source_label":"Kullanıcı tarafından sağlanan KML","source_name":"Tekirdağ Mahalle KML"},"geometry":{"type":"Polygon","coordinates":[[[27.97706,41.32487],[27.97841,41.32303],[27.96772,41.31769],[27.96864,41.31488],[27.96083,41.3155],[27.94599,41.32257],[27.93476,41.3238],[27.96466,41.34136],[27.96951,41.33268],[27.96978,41.32667],[27.97706,41.32487]]]}},{"type":"Feature","properties":{"id":"TR-Y-59-005-M-0021","level":"yerlesim","type":"mahalle","parent_id":"TR-D-59-005","province_id":"TR-P-59","district_id":"TR-D-59-005","name":"Yunus Emre","source_raw_name":"Yunus Emre Mah.","source":"Kullanıcı tarafından sağlanan KML","source_label":"Kullanıcı tarafından sağlanan KML","source_name":"Tekirdağ Mahalle KML"},"geometry":{"type":"Polygon","coordinates":[[[27.99943,41.33418],[27.99993,41.33238],[28.00144,41.33274],[28.00061,41.331],[28.00219,41.32757],[28.00067,41.32479],[27.99022,41.3308],[27.99371,41.33164],[27.99943,41.33418]]]}},{"type":"Feature","properties":{"id":"TR-Y-59-005-OSB-BAHCELIEVLEROSBMAH","level":"yerlesim","type":"mahalle","parent_id":"TR-D-59-005","province_id":"TR-P-59","district_id":"TR-D-59-005","name":"Bahçelievlerosb Mah.","source_raw_name":"Bahçelievlerosb Mah.","source":"Kullanıcı tarafından sağlanan KML","source_label":"Kullanıcı tarafından sağlanan KML","source_name":"Tekirdağ Mahalle KML","source_only":true,"osb":true},"geometry":{"type":"Polygon","coordinates":[[[27.99402,41.31006],[27.98855,41.31273],[27.9863,41.3163],[27.98804,41.31766],[27.99552,41.31361],[27.99402,41.31006]]]}},{"type":"Feature","properties":{"id":"TR-Y-59-005-OSB-ISMETPASAOSBMAH","level":"yerlesim","type":"mahalle","parent_id":"TR-D-59-005","province_id":"TR-P-59","district_id":"TR-D-59-005","name":"İsmetpaşaosb Mah.","source_raw_name":"İsmetpaşaosb Mah.","source":"Kullanıcı tarafından sağlanan KML","source_label":"Kullanıcı tarafından sağlanan KML","source_name":"Tekirdağ Mahalle KML","source_only":true,"osb":true},"geometry":{"type":"Polygon","coordinates":[[[27.9809,41.31655],[27.97962,41.30959],[27.97451,41.30598],[27.96888,41.30851],[27.96758,41.30685],[27.95854,41.31068],[27.95984,41.31095],[27.96125,41.31563],[27.9687,41.31488],[27.9809,41.31655]]]}},{"type":"Feature","properties":{"id":"TR-Y-59-005-OSB-KARAAGACOSBMAH","level":"yerlesim","type":"mahalle","parent_id":"TR-D-59-005","province_id":"TR-P-59","district_id":"TR-D-59-005","name":"Karaağaç OSB Mah.","source_raw_name":"Karaağaç OSB Mah.","source":"Kullanıcı tarafından sağlanan KML","source_label":"Kullanıcı tarafından sağlanan KML","source_name":"Tekirdağ Mahalle KML","source_only":true,"osb":true},"geometry":{"type":"Polygon","coordinates":[[[27.95741,41.2845],[27.95303,41.27963],[27.95373,41.27867],[27.95227,41.27879],[27.95355,41.27787],[27.94844,41.27897],[27.94751,41.27795],[27.95153,41.27685],[27.94979,41.27367],[27.94801,41.27378],[27.94928,41.27555],[27.94753,41.27648],[27.9427,41.2697],[27.93712,41.27092],[27.93892,41.26868],[27.93086,41.26308],[27.92926,41.26423],[27.92653,41.26191],[27.92238,41.26516],[27.93672,41.27387],[27.93879,41.27219],[27.94155,41.27333],[27.93854,41.27503],[27.94674,41.28255],[27.94841,41.28113],[27.94987,41.28224],[27.94828,41.28353],[27.951,41.28574],[27.95741,41.2845]]]}}]}