{"type":"FeatureCollection","name":"turkiye_map.dist.mahalle_geometrileri_by_district.TR-D-59-002","features":[{"type":"Feature","properties":{"id":"TR-Y-59-002-M-0001","level":"yerlesim","type":"mahalle","parent_id":"TR-D-59-002","province_id":"TR-P-59","district_id":"TR-D-59-002","name":"Alipaşa","source_raw_name":"Alipaşa Mah.","source":"Kullanıcı tarafından sağlanan KML","source_label":"Kullanıcı tarafından sağlanan KML","source_name":"Tekirdağ Mahalle KML"},"geometry":{"type":"Polygon","coordinates":[[[27.83509,41.1518],[27.8315,41.14356],[27.81737,41.14742],[27.82105,41.14938],[27.82317,41.15422],[27.83509,41.1518]]]}},{"type":"Feature","properties":{"id":"TR-Y-59-002-M-0002","level":"yerlesim","type":"mahalle","parent_id":"TR-D-59-002","province_id":"TR-P-59","district_id":"TR-D-59-002","name":"Cemaliye","source_raw_name":"Cemaliye Mah.","source":"Kullanıcı tarafından sağlanan KML","source_label":"Kullanıcı tarafından sağlanan KML","source_name":"Tekirdağ Mahalle KML"},"geometry":{"type":"Polygon","coordinates":[[[27.80698,41.16777],[27.80686,41.16577],[27.80408,41.16317],[27.8032,41.15952],[27.79985,41.16207],[27.79487,41.16252],[27.80016,41.16884],[27.80698,41.16777]]]}},{"type":"Feature","properties":{"id":"TR-Y-59-002-M-0003","level":"yerlesim","type":"mahalle","parent_id":"TR-D-59-002","province_id":"TR-P-59","district_id":"TR-D-59-002","name":"Çobançeşme","source_raw_name":"Çobançeşme Mah.","source":"Kullanıcı tarafından sağlanan KML","source_label":"Kullanıcı tarafından sağlanan KML","source_name":"Tekirdağ Mahalle KML"},"geometry":{"type":"Polygon","coordinates":[[[27.80007,41.14778],[27.80464,41.14813],[27.80447,41.14375],[27.78954,41.14304],[27.78935,41.14907],[27.79685,41.1549],[27.80007,41.14778]]]}},{"type":"Feature","properties":{"id":"TR-Y-59-002-M-0004","level":"yerlesim","type":"mahalle","parent_id":"TR-D-59-002","province_id":"TR-P-59","district_id":"TR-D-59-002","name":"Cumhuriyet","source_raw_name":"Cumhuriyet Mah.","source":"Kullanıcı tarafından sağlanan KML","source_label":"Kullanıcı tarafından sağlanan KML","source_name":"Tekirdağ Mahalle KML"},"geometry":{"type":"Polygon","coordinates":[[[27.78027,41.148],[27.78942,41.14759],[27.79017,41.13522],[27.78608,41.12852],[27.78381,41.11123],[27.77866,41.1061],[27.77616,41.10959],[27.77667,41.11214],[27.77126,41.11045],[27.76628,41.11137],[27.76767,41.11371],[27.76613,41.1145],[27.76468,41.11161],[27.76045,41.11514],[27.75051,41.10821],[27.74877,41.11227],[27.74917,41.11609],[27.75411,41.12476],[27.77665,41.14995],[27.78027,41.148]]]}},{"type":"Feature","properties":{"id":"TR-Y-59-002-M-0005","level":"yerlesim","type":"mahalle","parent_id":"TR-D-59-002","province_id":"TR-P-59","district_id":"TR-D-59-002","name":"Deregündüzlü","source_raw_name":"Deregündüzlü Mah.","source":"Kullanıcı tarafından sağlanan KML","source_label":"Kullanıcı tarafından sağlanan KML","source_name":"Tekirdağ Mahalle KML"},"geometry":{"type":"Polygon","coordinates":[[[27.6694,41.12871],[27.67521,41.10259],[27.68056,41.09475],[27.67389,41.09383],[27.68253,41.08872],[27.67974,41.08734],[27.67721,41.08972],[27.67803,41.09092],[27.66878,41.08619],[27.6646,41.08696],[27.66186,41.08508],[27.6596,41.09015],[27.65704,41.08961],[27.65328,41.09879],[27.64886,41.09606],[27.64654,41.10012],[27.64263,41.10065],[27.63802,41.10545],[27.63854,41.10736],[27.6357,41.10738],[27.63829,41.11071],[27.63493,41.11073],[27.63624,41.1167],[27.64296,41.11092],[27.64939,41.11878],[27.6694,41.12871]]]}},{"type":"Feature","properties":{"id":"TR-Y-59-002-M-0006","level":"yerlesim","type":"mahalle","parent_id":"TR-D-59-002","province_id":"TR-P-59","district_id":"TR-D-59-002","name":"Esentepe","source_raw_name":"Esentepe Mah.","source":"Kullanıcı tarafından sağlanan KML","source_label":"Kullanıcı tarafından sağlanan KML","source_name":"Tekirdağ Mahalle KML"},"geometry":{"type":"Polygon","coordinates":[[[27.85362,41.15725],[27.85039,41.1468],[27.83978,41.15207],[27.83312,41.15819],[27.84711,41.15746],[27.85362,41.15725]]]}},{"type":"Feature","properties":{"id":"TR-Y-59-002-M-0007","level":"yerlesim","type":"mahalle","parent_id":"TR-D-59-002","province_id":"TR-P-59","district_id":"TR-D-59-002","name":"Hatip","source_raw_name":"Hatip Mah.","source":"Kullanıcı tarafından sağlanan KML","source_label":"Kullanıcı tarafından sağlanan KML","source_name":"Tekirdağ Mahalle KML"},"geometry":{"type":"Polygon","coordinates":[[[27.73623,41.17292],[27.74811,41.17187],[27.77555,41.17839],[27.77688,41.17337],[27.7817,41.17105],[27.78797,41.1636],[27.75411,41.12476],[27.7494,41.11695],[27.74949,41.10995],[27.74187,41.11332],[27.73693,41.10834],[27.73405,41.10968],[27.73091,41.10587],[27.72361,41.1058],[27.72109,41.10683],[27.72434,41.11181],[27.72214,41.11172],[27.72286,41.11818],[27.71273,41.12397],[27.71615,41.13008],[27.7138,41.13],[27.71461,41.13143],[27.71286,41.13221],[27.70858,41.13204],[27.71191,41.13754],[27.71795,41.15875],[27.71767,41.16652],[27.7153,41.168],[27.71696,41.17031],[27.72146,41.16938],[27.72176,41.17561],[27.72424,41.17974],[27.73623,41.17292]]]}},{"type":"Feature","properties":{"id":"TR-Y-59-002-M-0008","level":"yerlesim","type":"mahalle","parent_id":"TR-D-59-002","province_id":"TR-P-59","district_id":"TR-D-59-002","name":"Havuzlar","source_raw_name":"Havuzlar Mah.","source":"Kullanıcı tarafından sağlanan KML","source_label":"Kullanıcı tarafından sağlanan KML","source_name":"Tekirdağ Mahalle KML"},"geometry":{"type":"Polygon","coordinates":[[[27.80456,41.14368],[27.80848,41.13583],[27.80644,41.12692],[27.80835,41.12116],[27.79842,41.11922],[27.77866,41.1061],[27.78381,41.11123],[27.78608,41.12852],[27.79017,41.13522],[27.78954,41.14304],[27.80456,41.14368]]]}},{"type":"Feature","properties":{"id":"TR-Y-59-002-M-0009","level":"yerlesim","type":"mahalle","parent_id":"TR-D-59-002","province_id":"TR-P-59","district_id":"TR-D-59-002","name":"Hıdırağa","source_raw_name":"Hıdırağa Mah.","source":"Kullanıcı tarafından sağlanan KML","source_label":"Kullanıcı tarafından sağlanan KML","source_name":"Tekirdağ Mahalle KML"},"geometry":{"type":"Polygon","coordinates":[[[27.81403,41.18329],[27.80041,41.17102],[27.79635,41.16376],[27.79233,41.16179],[27.78612,41.16451],[27.7817,41.17105],[27.77731,41.1729],[27.77555,41.17839],[27.77723,41.17992],[27.78397,41.1779],[27.79107,41.18355],[27.8073,41.18916],[27.81707,41.1964],[27.81993,41.20045],[27.81899,41.19684],[27.82306,41.19368],[27.8156,41.18671],[27.81403,41.18329]]]}},{"type":"Feature","properties":{"id":"TR-Y-59-002-M-0010","level":"yerlesim","type":"mahalle","parent_id":"TR-D-59-002","province_id":"TR-P-59","district_id":"TR-D-59-002","name":"Hürriyet","source_raw_name":"Hürriyet Mah.","source":"Kullanıcı tarafından sağlanan KML","source_label":"Kullanıcı tarafından sağlanan KML","source_name":"Tekirdağ Mahalle KML"},"geometry":{"type":"Polygon","coordinates":[[[27.86185,41.17881],[27.86441,41.17624],[27.85292,41.16864],[27.85802,41.16449],[27.85587,41.15755],[27.83312,41.15819],[27.82362,41.16776],[27.82819,41.16886],[27.82938,41.17104],[27.84034,41.1716],[27.8479,41.17451],[27.84913,41.17679],[27.85346,41.1747],[27.86185,41.17881]]]}},{"type":"Feature","properties":{"id":"TR-Y-59-002-M-0011","level":"yerlesim","type":"mahalle","parent_id":"TR-D-59-002","province_id":"TR-P-59","district_id":"TR-D-59-002","name":"Kazımiye","source_raw_name":"Kazımiye Mah.","source":"Kullanıcı tarafından sağlanan KML","source_label":"Kullanıcı tarafından sağlanan KML","source_name":"Tekirdağ Mahalle KML"},"geometry":{"type":"Polygon","coordinates":[[[27.81322,41.15834],[27.83312,41.15819],[27.84245,41.15051],[27.80687,41.15812],[27.80802,41.1601],[27.81322,41.15834]]]}},{"type":"Feature","properties":{"id":"TR-Y-59-002-M-0012","level":"yerlesim","type":"mahalle","parent_id":"TR-D-59-002","province_id":"TR-P-59","district_id":"TR-D-59-002","name":"Kemalettin","source_raw_name":"Kemalettin Mah.","source":"Kullanıcı tarafından sağlanan KML","source_label":"Kullanıcı tarafından sağlanan KML","source_name":"Tekirdağ Mahalle KML"},"geometry":{"type":"Polygon","coordinates":[[[27.85253,41.18531],[27.85957,41.17851],[27.86225,41.17881],[27.85335,41.17467],[27.84913,41.17679],[27.8479,41.17451],[27.84034,41.1716],[27.82933,41.17103],[27.82819,41.16886],[27.82034,41.16714],[27.82006,41.16596],[27.81103,41.16739],[27.81011,41.16262],[27.80687,41.15812],[27.80288,41.15991],[27.80698,41.16777],[27.8111,41.16756],[27.81456,41.17326],[27.82036,41.17545],[27.82591,41.18006],[27.8336,41.1805],[27.83532,41.17905],[27.84845,41.18515],[27.85253,41.18531]]]}},{"type":"Feature","properties":{"id":"TR-Y-59-002-M-0013","level":"yerlesim","type":"mahalle","parent_id":"TR-D-59-002","province_id":"TR-P-59","district_id":"TR-D-59-002","name":"Maksutlu","source_raw_name":"Maksutlu Mah.","source":"Kullanıcı tarafından sağlanan KML","source_label":"Kullanıcı tarafından sağlanan KML","source_name":"Tekirdağ Mahalle KML"},"geometry":{"type":"Polygon","coordinates":[[[27.63318,41.10044],[27.64654,41.10012],[27.64886,41.09606],[27.65328,41.09879],[27.65704,41.08961],[27.6596,41.09015],[27.66186,41.08508],[27.6646,41.08696],[27.66878,41.08619],[27.67284,41.08767],[27.67591,41.09022],[27.67803,41.09092],[27.67721,41.08972],[27.67974,41.08734],[27.68253,41.08872],[27.67389,41.09397],[27.68056,41.09475],[27.68237,41.0928],[27.68457,41.08495],[27.68891,41.08315],[27.68921,41.07972],[27.69168,41.07678],[27.68901,41.06239],[27.68419,41.05201],[27.68114,41.0558],[27.67837,41.05676],[27.6771,41.05562],[27.67414,41.05684],[27.65545,41.05491],[27.64755,41.05633],[27.64166,41.05862],[27.63065,41.06846],[27.62517,41.07102],[27.62361,41.0773],[27.63059,41.07824],[27.62983,41.08089],[27.63129,41.08551],[27.63232,41.08492],[27.63321,41.08797],[27.63723,41.08605],[27.63859,41.08884],[27.63865,41.09346],[27.63318,41.10044]]]}},{"type":"Feature","properties":{"id":"TR-Y-59-002-M-0014","level":"yerlesim","type":"mahalle","parent_id":"TR-D-59-002","province_id":"TR-P-59","district_id":"TR-D-59-002","name":"Muhittin","source_raw_name":"Muhittin Mah.","source":"Kullanıcı tarafından sağlanan KML","source_label":"Kullanıcı tarafından sağlanan KML","source_name":"Tekirdağ Mahalle KML"},"geometry":{"type":"Polygon","coordinates":[[[27.80459,41.15878],[27.81385,41.15603],[27.82317,41.15422],[27.82105,41.14938],[27.81737,41.14742],[27.80464,41.14813],[27.80459,41.15878]]]}},{"type":"Feature","properties":{"id":"TR-Y-59-002-M-0015","level":"yerlesim","type":"mahalle","parent_id":"TR-D-59-002","province_id":"TR-P-59","district_id":"TR-D-59-002","name":"Nusratiye","source_raw_name":"Nusratiye Mah.","source":"Kullanıcı tarafından sağlanan KML","source_label":"Kullanıcı tarafından sağlanan KML","source_name":"Tekirdağ Mahalle KML"},"geometry":{"type":"Polygon","coordinates":[[[27.81888,41.16593],[27.82362,41.16776],[27.83312,41.15819],[27.81222,41.15839],[27.80802,41.1601],[27.81103,41.16739],[27.81888,41.16593]]]}},{"type":"Feature","properties":{"id":"TR-Y-59-002-M-0016","level":"yerlesim","type":"mahalle","parent_id":"TR-D-59-002","province_id":"TR-P-59","district_id":"TR-D-59-002","name":"Önerler","source_raw_name":"Önerler Mah.","source":"Kullanıcı tarafından sağlanan KML","source_label":"Kullanıcı tarafından sağlanan KML","source_name":"Tekirdağ Mahalle KML"},"geometry":{"type":"Polygon","coordinates":[[[27.88408,41.19138],[27.89434,41.18561],[27.89786,41.18124],[27.90219,41.16987],[27.90976,41.16892],[27.91886,41.17091],[27.92757,41.17716],[27.93744,41.16911],[27.9463,41.16991],[27.94856,41.17278],[27.95,41.17248],[27.9491,41.17072],[27.9503,41.16887],[27.94806,41.16787],[27.94891,41.16471],[27.9507,41.16507],[27.95016,41.16143],[27.94893,41.15888],[27.93857,41.15569],[27.91891,41.13196],[27.91599,41.12588],[27.8971,41.13145],[27.89401,41.12994],[27.85039,41.1468],[27.85362,41.15725],[27.85587,41.15755],[27.85811,41.16398],[27.85292,41.16864],[27.86441,41.17624],[27.86213,41.17889],[27.85957,41.17851],[27.85241,41.18547],[27.86825,41.19376],[27.88408,41.19138]],[[27.88116,41.13617],[27.88354,41.13532],[27.88585,41.1377],[27.88391,41.13838],[27.88116,41.13617]]]}},{"type":"Feature","properties":{"id":"TR-Y-59-002-M-0017","level":"yerlesim","type":"mahalle","parent_id":"TR-D-59-002","province_id":"TR-P-59","district_id":"TR-D-59-002","name":"Reşadiye","source_raw_name":"Reşadiye Mah.","source":"Kullanıcı tarafından sağlanan KML","source_label":"Kullanıcı tarafından sağlanan KML","source_name":"Tekirdağ Mahalle KML"},"geometry":{"type":"Polygon","coordinates":[[[27.80059,41.14776],[27.79685,41.1549],[27.79851,41.15562],[27.80079,41.16119],[27.80466,41.15896],[27.80513,41.15448],[27.80464,41.14813],[27.80059,41.14776]]]}},{"type":"Feature","properties":{"id":"TR-Y-59-002-M-0018","level":"yerlesim","type":"mahalle","parent_id":"TR-D-59-002","province_id":"TR-P-59","district_id":"TR-D-59-002","name":"Rumeli","source_raw_name":"Rumeli Mah.","source":"Kullanıcı tarafından sağlanan KML","source_label":"Kullanıcı tarafından sağlanan KML","source_name":"Tekirdağ Mahalle KML"},"geometry":{"type":"Polygon","coordinates":[[[27.81315,41.14849],[27.82884,41.14397],[27.8315,41.14356],[27.83006,41.14018],[27.82279,41.14244],[27.80599,41.14049],[27.80464,41.14813],[27.81315,41.14849]]]}},{"type":"Feature","properties":{"id":"TR-Y-59-002-M-0019","level":"yerlesim","type":"mahalle","parent_id":"TR-D-59-002","province_id":"TR-P-59","district_id":"TR-D-59-002","name":"Şahpaz","source_raw_name":"Şahpaz Mah.","source":"Kullanıcı tarafından sağlanan KML","source_label":"Kullanıcı tarafından sağlanan KML","source_name":"Tekirdağ Mahalle KML"},"geometry":{"type":"MultiPolygon","coordinates":[[[[27.91433,41.03797],[27.91215,41.03595],[27.89458,41.03799],[27.89464,41.0393],[27.89196,41.03985],[27.89263,41.0412],[27.91433,41.03797]]],[[[27.88716,41.08538],[27.88885,41.08143],[27.89739,41.07234],[27.89642,41.07165],[27.89771,41.06857],[27.90213,41.06839],[27.90053,41.06749],[27.90299,41.06766],[27.90503,41.063],[27.90384,41.06117],[27.905,41.05978],[27.90292,41.05968],[27.90373,41.05745],[27.9023,41.05705],[27.90224,41.05504],[27.89934,41.05324],[27.89932,41.05136],[27.89662,41.05056],[27.8957,41.0447],[27.89229,41.04347],[27.89257,41.04146],[27.88947,41.04003],[27.88684,41.04065],[27.88428,41.04646],[27.8794,41.04831],[27.87858,41.05265],[27.87995,41.05427],[27.87745,41.05763],[27.8651,41.05876],[27.85176,41.06956],[27.8426,41.07322],[27.84317,41.07997],[27.84795,41.08939],[27.86168,41.09954],[27.86324,41.10303],[27.88716,41.08538]]]]}},{"type":"Feature","properties":{"id":"TR-Y-59-002-M-0020","level":"yerlesim","type":"mahalle","parent_id":"TR-D-59-002","province_id":"TR-P-59","district_id":"TR-D-59-002","name":"Sarılar","source_raw_name":"Sarılar Mah.","source":"Kullanıcı tarafından sağlanan KML","source_label":"Kullanıcı tarafından sağlanan KML","source_name":"Tekirdağ Mahalle KML"},"geometry":{"type":"Polygon","coordinates":[[[27.66183,41.19481],[27.69664,41.19022],[27.72424,41.17974],[27.72176,41.17561],[27.72146,41.16938],[27.71696,41.17031],[27.7153,41.168],[27.71767,41.16652],[27.71795,41.15875],[27.71191,41.13754],[27.70858,41.13204],[27.69935,41.13391],[27.69813,41.1326],[27.69018,41.13509],[27.68685,41.13076],[27.68577,41.12397],[27.67388,41.12322],[27.66985,41.12523],[27.6694,41.12871],[27.64939,41.11878],[27.64296,41.11092],[27.62233,41.13223],[27.62038,41.1367],[27.62136,41.14135],[27.61276,41.14323],[27.61464,41.14623],[27.62304,41.15191],[27.62686,41.15724],[27.63836,41.15981],[27.64167,41.16242],[27.6435,41.16121],[27.64981,41.16968],[27.64447,41.16467],[27.64262,41.16387],[27.64231,41.16517],[27.65886,41.18548],[27.65713,41.18756],[27.66183,41.19481]]]}},{"type":"Feature","properties":{"id":"TR-Y-59-002-M-0021","level":"yerlesim","type":"mahalle","parent_id":"TR-D-59-002","province_id":"TR-P-59","district_id":"TR-D-59-002","name":"Şeyhsinan","source_raw_name":"Şeyhsinan Mah.","source":"Kullanıcı tarafından sağlanan KML","source_label":"Kullanıcı tarafından sağlanan KML","source_name":"Tekirdağ Mahalle KML"},"geometry":{"type":"Polygon","coordinates":[[[27.79209,41.16179],[27.79709,41.16281],[27.80079,41.16119],[27.79851,41.15562],[27.78935,41.14907],[27.78942,41.14759],[27.78027,41.148],[27.77665,41.14995],[27.78797,41.1636],[27.79209,41.16179]]]}},{"type":"Feature","properties":{"id":"TR-Y-59-002-M-0022","level":"yerlesim","type":"mahalle","parent_id":"TR-D-59-002","province_id":"TR-P-59","district_id":"TR-D-59-002","name":"Seymen","source_raw_name":"Seymen Mah.","source":"Kullanıcı tarafından sağlanan KML","source_label":"Kullanıcı tarafından sağlanan KML","source_name":"Tekirdağ Mahalle KML"},"geometry":{"type":"Polygon","coordinates":[[[28.01878,41.19515],[28.02072,41.18394],[28.02318,41.18166],[28.0185,41.17425],[28.01476,41.17054],[28.01275,41.17077],[28.01368,41.1682],[28.01651,41.16699],[28.01269,41.16613],[28.01348,41.16234],[27.98434,41.16203],[27.97892,41.15291],[27.98076,41.14342],[27.97348,41.123],[27.97582,41.12339],[27.97564,41.1185],[27.97238,41.11163],[27.9773,41.11143],[27.97262,41.10866],[27.97577,41.10695],[27.97139,41.10057],[27.97803,41.09884],[27.97742,41.09189],[27.97506,41.09053],[27.9747,41.08797],[27.97854,41.08495],[27.97873,41.08284],[27.97438,41.07876],[27.9757,41.07516],[27.98193,41.07541],[27.98212,41.07283],[27.98407,41.07179],[27.98074,41.06869],[27.97536,41.06666],[27.96557,41.06577],[27.96254,41.06684],[27.94951,41.06366],[27.94889,41.06573],[27.94594,41.06605],[27.94142,41.06359],[27.9287,41.06748],[27.928,41.0715],[27.91909,41.08379],[27.91488,41.08528],[27.91251,41.08856],[27.91176,41.09568],[27.90132,41.10149],[27.89144,41.10984],[27.87938,41.11422],[27.87151,41.11922],[27.87292,41.12671],[27.87953,41.13614],[27.89401,41.12994],[27.8971,41.13145],[27.91599,41.12588],[27.91891,41.13196],[27.93857,41.15569],[27.94893,41.15888],[27.9507,41.16507],[27.94891,41.16471],[27.94806,41.16787],[27.9503,41.16887],[27.9491,41.17072],[27.95022,41.1722],[27.95001,41.17101],[27.95444,41.17148],[27.95894,41.18607],[27.9575,41.1875],[27.96602,41.19559],[27.97129,41.19664],[27.97433,41.19548],[27.98695,41.20909],[27.99413,41.2258],[28.00702,41.21293],[28.01878,41.19515]]]}},{"type":"Feature","properties":{"id":"TR-Y-59-002-M-0023","level":"yerlesim","type":"mahalle","parent_id":"TR-D-59-002","province_id":"TR-P-59","district_id":"TR-D-59-002","name":"Silahtarağa","source_raw_name":"Silahtarağa Mah.","source":"Kullanıcı tarafından sağlanan KML","source_label":"Kullanıcı tarafından sağlanan KML","source_name":"Tekirdağ Mahalle KML"},"geometry":{"type":"Polygon","coordinates":[[[27.82777,41.18811],[27.83365,41.18048],[27.82471,41.17944],[27.82036,41.17545],[27.81456,41.17326],[27.8111,41.16756],[27.80016,41.16884],[27.80248,41.17322],[27.8115,41.18022],[27.81589,41.18704],[27.82657,41.19654],[27.82777,41.18811]]]}},{"type":"Feature","properties":{"id":"TR-Y-59-002-M-0024","level":"yerlesim","type":"mahalle","parent_id":"TR-D-59-002","province_id":"TR-P-59","district_id":"TR-D-59-002","name":"Türkgücü","source_raw_name":"Türkgücü Mah.","source":"Kullanıcı tarafından sağlanan KML","source_label":"Kullanıcı tarafından sağlanan KML","source_name":"Tekirdağ Mahalle KML"},"geometry":{"type":"Polygon","coordinates":[[[27.8398,41.13803],[27.85075,41.13476],[27.84732,41.1283],[27.83893,41.12104],[27.84069,41.11957],[27.83796,41.11838],[27.83932,41.11743],[27.83565,41.11739],[27.83312,41.11484],[27.83514,41.11389],[27.82653,41.10684],[27.82807,41.10574],[27.82364,41.10342],[27.82806,41.10086],[27.83984,41.11032],[27.84037,41.11413],[27.84433,41.1117],[27.84785,41.11632],[27.84649,41.11737],[27.84838,41.12001],[27.8553,41.12317],[27.85327,41.12426],[27.85556,41.12587],[27.8542,41.12643],[27.85565,41.12824],[27.85847,41.12776],[27.86214,41.13182],[27.86356,41.13096],[27.86724,41.13444],[27.86544,41.13572],[27.866,41.13738],[27.86307,41.13804],[27.86439,41.13951],[27.87797,41.1339],[27.87292,41.12671],[27.8716,41.11904],[27.86668,41.11207],[27.86168,41.09954],[27.84795,41.08939],[27.84563,41.08569],[27.84271,41.08691],[27.83284,41.07548],[27.82608,41.07191],[27.81612,41.07218],[27.79731,41.06742],[27.79305,41.0628],[27.78477,41.06082],[27.78594,41.05782],[27.78304,41.05656],[27.78159,41.0592],[27.77169,41.06372],[27.78368,41.07614],[27.78452,41.0791],[27.78323,41.07953],[27.78717,41.08653],[27.788,41.09173],[27.79814,41.10167],[27.79748,41.10324],[27.78322,41.10945],[27.79842,41.11922],[27.79964,41.1185],[27.80185,41.12039],[27.80822,41.12102],[27.81225,41.12312],[27.82427,41.13278],[27.83408,41.13808],[27.83917,41.1398],[27.84142,41.1389],[27.8398,41.13803]],[[27.81974,41.08439],[27.82149,41.08334],[27.82441,41.0865],[27.82269,41.08737],[27.81974,41.08439]]]}},{"type":"Feature","properties":{"id":"TR-Y-59-002-M-0025","level":"yerlesim","type":"mahalle","parent_id":"TR-D-59-002","province_id":"TR-P-59","district_id":"TR-D-59-002","name":"Yenice","source_raw_name":"Yenice Mah.","source":"Kullanıcı tarafından sağlanan KML","source_label":"Kullanıcı tarafından sağlanan KML","source_name":"Tekirdağ Mahalle KML"},"geometry":{"type":"Polygon","coordinates":[[[27.69813,41.1326],[27.69935,41.13391],[27.71286,41.13221],[27.71461,41.13143],[27.7138,41.13],[27.71615,41.13008],[27.71273,41.12397],[27.72286,41.11818],[27.72214,41.11172],[27.72434,41.11181],[27.72109,41.10683],[27.72361,41.1058],[27.73091,41.10587],[27.73405,41.10968],[27.73693,41.10834],[27.74187,41.11332],[27.74969,41.10998],[27.75051,41.10821],[27.76045,41.11514],[27.76468,41.11161],[27.76613,41.1145],[27.76767,41.11371],[27.76628,41.11137],[27.77126,41.11045],[27.77667,41.11214],[27.77616,41.10959],[27.77922,41.10572],[27.78317,41.10923],[27.79748,41.10324],[27.79814,41.10167],[27.788,41.09173],[27.78717,41.08653],[27.78323,41.07953],[27.78452,41.0791],[27.78423,41.07705],[27.78082,41.07262],[27.778,41.07096],[27.77459,41.07384],[27.76869,41.07274],[27.76494,41.0737],[27.76378,41.06893],[27.75579,41.06062],[27.75593,41.05614],[27.75078,41.05299],[27.74679,41.04696],[27.73886,41.04226],[27.73468,41.02802],[27.73038,41.0236],[27.72987,41.02058],[27.73164,41.01733],[27.72932,41.01182],[27.70091,41.00269],[27.6977,41.00262],[27.69785,41.00795],[27.70325,41.009],[27.70573,41.02923],[27.70877,41.03821],[27.70589,41.04687],[27.70001,41.04607],[27.70662,41.05339],[27.70255,41.05347],[27.70713,41.05788],[27.70162,41.06309],[27.70224,41.06444],[27.6969,41.06752],[27.69044,41.06878],[27.69148,41.07744],[27.68921,41.07972],[27.68891,41.08315],[27.68457,41.08495],[27.68237,41.0928],[27.67521,41.10259],[27.67513,41.10738],[27.66966,41.12411],[27.66985,41.12523],[27.67449,41.12313],[27.67902,41.12454],[27.68633,41.12402],[27.68685,41.13076],[27.68888,41.1342],[27.69813,41.1326]]]}},{"type":"Feature","properties":{"id":"TR-Y-59-002-M-0026","level":"yerlesim","type":"mahalle","parent_id":"TR-D-59-002","province_id":"TR-P-59","district_id":"TR-D-59-002","name":"Zafer","source_raw_name":"Zafer Mah.","source":"Kullanıcı tarafından sağlanan KML","source_label":"Kullanıcı tarafından sağlanan KML","source_name":"Tekirdağ Mahalle KML"},"geometry":{"type":"Polygon","coordinates":[[[27.87953,41.13614],[27.87797,41.1339],[27.85616,41.14207],[27.85197,41.13635],[27.85581,41.13626],[27.85185,41.13463],[27.8398,41.13803],[27.84142,41.1389],[27.83917,41.1398],[27.82427,41.13278],[27.81225,41.12312],[27.80809,41.12147],[27.80708,41.12247],[27.80644,41.12708],[27.80848,41.13583],[27.80599,41.14049],[27.82279,41.14244],[27.83006,41.14018],[27.83509,41.1518],[27.87953,41.13614]]]}},{"type":"Feature","properties":{"id":"TR-Y-59-002-OSB-TURKGUCUOSBMAH","level":"yerlesim","type":"mahalle","parent_id":"TR-D-59-002","province_id":"TR-P-59","district_id":"TR-D-59-002","name":"Türkgücü OSB Mah.","source_raw_name":"Türkgücü OSB Mah.","source":"Kullanıcı tarafından sağlanan KML","source_label":"Kullanıcı tarafından sağlanan KML","source_name":"Tekirdağ Mahalle KML","source_only":true,"osb":true},"geometry":{"type":"MultiPolygon","coordinates":[[[[27.82432,41.0864],[27.82149,41.08334],[27.81974,41.08439],[27.82269,41.08737],[27.82432,41.0864]]],[[[27.86427,41.13947],[27.86307,41.13804],[27.866,41.13738],[27.86544,41.13572],[27.86724,41.13444],[27.86356,41.13096],[27.86214,41.13182],[27.85847,41.12776],[27.85565,41.12824],[27.8542,41.12643],[27.85556,41.12587],[27.85327,41.12426],[27.8553,41.12317],[27.84838,41.12001],[27.84649,41.11737],[27.84785,41.11632],[27.84433,41.1117],[27.84115,41.11462],[27.84,41.11049],[27.83283,41.1054],[27.8329,41.10408],[27.83183,41.10459],[27.82806,41.10086],[27.82498,41.10189],[27.82369,41.10372],[27.82807,41.10574],[27.82653,41.10684],[27.83514,41.11389],[27.83312,41.11484],[27.83565,41.11739],[27.83932,41.11743],[27.83796,41.11838],[27.84069,41.11957],[27.83893,41.12104],[27.84732,41.1283],[27.85047,41.13505],[27.85581,41.13626],[27.85197,41.13635],[27.8541,41.14072],[27.85616,41.14207],[27.86427,41.13947]]]]}}]}