{"type":"FeatureCollection","name":"turkiye_map.dist.mahalle_geometrileri_by_district.TR-D-34-005","features":[{"type":"Feature","properties":{"id":"TR-Y-34-005-M-0001","level":"yerlesim","type":"mahalle","parent_id":"TR-D-34-005","province_id":"TR-P-34","district_id":"TR-D-34-005","name":"100. Yıl","source_raw_name":"100. YIL","source":"Kullanıcı tarafından sağlanan KML","source_label":"Kullanıcı tarafından sağlanan KML","source_name":"Istanbul Mahalle KML"},"geometry":{"type":"Polygon","coordinates":[[[28.849207,41.056373],[28.848117,41.05684],[28.847587,41.057088],[28.846342,41.057757],[28.845673,41.058198],[28.844858,41.058776],[28.842393,41.060762],[28.841117,41.061851],[28.841318,41.061765],[28.841669,41.061621],[28.841805,41.06157],[28.841986,41.061508],[28.842113,41.061471],[28.842268,41.061428],[28.842449,41.061386],[28.842659,41.061344],[28.842962,41.061299],[28.843184,41.061276],[28.843389,41.061262],[28.843567,41.061257],[28.843774,41.06126],[28.843999,41.061269],[28.84419,41.061285],[28.8444,41.06131],[28.844566,41.061337],[28.84488,41.061403],[28.845079,41.061455],[28.845396,41.061559],[28.845615,41.061644],[28.845933,41.061794],[28.846193,41.061939],[28.847771,41.062954],[28.847547,41.063501],[28.847464,41.063936],[28.848387,41.067201],[28.8495,41.068143],[28.851014,41.069404],[28.852334,41.070909],[28.853647,41.071455],[28.853671,41.071732],[28.853849,41.07196],[28.854714,41.072044],[28.855299,41.072113],[28.856132,41.072122],[28.856501,41.072165],[28.856974,41.072218],[28.857489,41.072179],[28.857799,41.072146],[28.858618,41.071931],[28.859856,41.071604],[28.860243,41.07148],[28.860469,41.071386],[28.859541,41.070115],[28.85905,41.069484],[28.858467,41.068838],[28.857875,41.067953],[28.857525,41.067359],[28.856292,41.066846],[28.856321,41.066794],[28.856518,41.066403],[28.856472,41.066077],[28.855996,41.065067],[28.855585,41.063764],[28.855086,41.062675],[28.854741,41.060405],[28.854981,41.058066],[28.854925,41.05758],[28.855261,41.056618],[28.85526,41.056612],[28.855095,41.055651],[28.854885,41.054933],[28.853204,41.055243],[28.852092,41.055484],[28.851264,41.055705],[28.850454,41.055949],[28.849441,41.056286],[28.849207,41.056373]]]}},{"type":"Feature","properties":{"id":"TR-Y-34-005-M-0002","level":"yerlesim","type":"mahalle","parent_id":"TR-D-34-005","province_id":"TR-P-34","district_id":"TR-D-34-005","name":"15 Temmuz","source_raw_name":"15 TEMMUZ","source":"Kullanıcı tarafından sağlanan KML","source_label":"Kullanıcı tarafından sağlanan KML","source_name":"Istanbul Mahalle KML"},"geometry":{"type":"Polygon","coordinates":[[[28.823303,41.044819],[28.823302,41.044817],[28.823043,41.044235],[28.823035,41.043584],[28.823459,41.042253],[28.82362,41.041981],[28.823746,41.041873],[28.823996,41.041782],[28.824206,41.042035],[28.824732,41.042011],[28.824825,41.041751],[28.82507,41.040139],[28.825093,41.039078],[28.825036,41.038899],[28.823428,41.036778],[28.822868,41.035735],[28.822899,41.033891],[28.823477,41.031717],[28.818293,41.031159],[28.816252,41.030507],[28.81223,41.028725],[28.813213,41.027082],[28.813332,41.026716],[28.81098,41.027167],[28.810723,41.03263],[28.810769,41.034443],[28.810847,41.035691],[28.810809,41.036553],[28.810573,41.038095],[28.809993,41.039872],[28.808536,41.043283],[28.8082,41.044557],[28.808032,41.045762],[28.808807,41.04577],[28.811966,41.045349],[28.813495,41.045347],[28.817583,41.045082],[28.819174,41.04435],[28.819536,41.044266],[28.819776,41.044265],[28.819778,41.044265],[28.819799,41.044265],[28.822566,41.044677],[28.823297,41.044818],[28.823303,41.044819]]]}},{"type":"Feature","properties":{"id":"TR-Y-34-005-M-0003","level":"yerlesim","type":"mahalle","parent_id":"TR-D-34-005","province_id":"TR-P-34","district_id":"TR-D-34-005","name":"Bağlar","source_raw_name":"BAĞLAR","source":"Kullanıcı tarafından sağlanan KML","source_label":"Kullanıcı tarafından sağlanan KML","source_name":"Istanbul Mahalle KML"},"geometry":{"type":"Polygon","coordinates":[[[28.828393,41.022717],[28.82826,41.022199],[28.828061,41.022199],[28.827415,41.021063],[28.8271,41.020323],[28.825936,41.020439],[28.825761,41.020444],[28.82562,41.020435],[28.825407,41.020411],[28.825213,41.020374],[28.824001,41.019994],[28.823614,41.019841],[28.823385,41.019799],[28.823174,41.019778],[28.822934,41.019777],[28.822618,41.01981],[28.822472,41.019845],[28.821707,41.020223],[28.82105,41.020701],[28.82015,41.021239],[28.817979,41.022297],[28.815761,41.023176],[28.814642,41.023905],[28.812749,41.025445],[28.811015,41.026814],[28.81098,41.027167],[28.813332,41.026716],[28.813213,41.027082],[28.81223,41.028725],[28.816252,41.030507],[28.818293,41.031159],[28.823477,41.031717],[28.826526,41.031559],[28.828915,41.028998],[28.829314,41.027836],[28.829314,41.027835],[28.829051,41.025833],[28.828724,41.024693],[28.828393,41.022717]]]}},{"type":"Feature","properties":{"id":"TR-Y-34-005-M-0004","level":"yerlesim","type":"mahalle","parent_id":"TR-D-34-005","province_id":"TR-P-34","district_id":"TR-D-34-005","name":"Barbaros","source_raw_name":"BARBAROS","source":"Kullanıcı tarafından sağlanan KML","source_label":"Kullanıcı tarafından sağlanan KML","source_name":"Istanbul Mahalle KML"},"geometry":{"type":"Polygon","coordinates":[[[28.83921,41.030503],[28.839281,41.030128],[28.839752,41.029028],[28.840173,41.02844],[28.84108,41.026744],[28.842307,41.025283],[28.842803,41.024611],[28.843036,41.024254],[28.843402,41.023517],[28.843593,41.023333],[28.843921,41.022921],[28.844008,41.022879],[28.84453,41.021635],[28.844386,41.021466],[28.844221,41.021386],[28.842777,41.021419],[28.841642,41.02136],[28.840825,41.021697],[28.839725,41.02222],[28.839344,41.022086],[28.83799,41.023736],[28.836228,41.025966],[28.835926,41.026423],[28.835008,41.029753],[28.834473,41.030941],[28.836053,41.030991],[28.836637,41.030941],[28.83921,41.030503]]]}},{"type":"Feature","properties":{"id":"TR-Y-34-005-M-0005","level":"yerlesim","type":"mahalle","parent_id":"TR-D-34-005","province_id":"TR-P-34","district_id":"TR-D-34-005","name":"Çınar","source_raw_name":"ÇINAR","source":"Kullanıcı tarafından sağlanan KML","source_label":"Kullanıcı tarafından sağlanan KML","source_name":"Istanbul Mahalle KML"},"geometry":{"type":"Polygon","coordinates":[[[28.860688,41.040325],[28.860855,41.04031],[28.860855,41.040311],[28.86113,41.040287],[28.861136,41.040287],[28.865858,41.039347],[28.868687,41.038495],[28.871153,41.038484],[28.871243,41.038449],[28.871258,41.037973],[28.871235,41.037786],[28.871338,41.037432],[28.86908,41.036092],[28.868262,41.035456],[28.867625,41.034904],[28.867279,41.034698],[28.866579,41.034612],[28.866136,41.034502],[28.865584,41.034342],[28.864685,41.033964],[28.863949,41.033417],[28.863414,41.033361],[28.862866,41.033579],[28.859787,41.034258],[28.858304,41.034466],[28.85853,41.035964],[28.858918,41.037865],[28.859252,41.039923],[28.859294,41.040444],[28.860688,41.040325]]]}},{"type":"Feature","properties":{"id":"TR-Y-34-005-M-0006","level":"yerlesim","type":"mahalle","parent_id":"TR-D-34-005","province_id":"TR-P-34","district_id":"TR-D-34-005","name":"Demirkapı","source_raw_name":"DEMİRKAPI","source":"Kullanıcı tarafından sağlanan KML","source_label":"Kullanıcı tarafından sağlanan KML","source_name":"Istanbul Mahalle KML"},"geometry":{"type":"Polygon","coordinates":[[[28.847387,41.042857],[28.846992,41.042735],[28.846811,41.042731],[28.846685,41.042762],[28.846563,41.042803],[28.846336,41.042915],[28.846079,41.043075],[28.844886,41.044049],[28.84425,41.044294],[28.843635,41.044294],[28.843241,41.044207],[28.84287,41.043992],[28.842368,41.043516],[28.841236,41.043545],[28.838613,41.045802],[28.83743,41.046701],[28.837031,41.046896],[28.83649,41.04703],[28.835045,41.04708],[28.834719,41.046643],[28.834667,41.046359],[28.835098,41.044825],[28.834951,41.044443],[28.834511,41.044366],[28.833944,41.044621],[28.833207,41.045258],[28.832791,41.045506],[28.832422,41.045622],[28.831768,41.045629],[28.831391,41.045517],[28.83046,41.045066],[28.830351,41.045057],[28.830346,41.045057],[28.830342,41.045056],[28.830338,41.045056],[28.830323,41.045055],[28.830322,41.045058],[28.830321,41.045059],[28.830248,41.045253],[28.830199,41.045521],[28.830262,41.047767],[28.830252,41.049683],[28.830164,41.05231],[28.829941,41.052897],[28.829928,41.052931],[28.829949,41.052934],[28.829954,41.052935],[28.830736,41.053038],[28.832664,41.053624],[28.833854,41.053792],[28.834717,41.053836],[28.836379,41.054284],[28.837741,41.054244],[28.837766,41.054205],[28.83851,41.053063],[28.839244,41.052563],[28.841888,41.050832],[28.84316,41.049579],[28.844531,41.048649],[28.84593,41.047459],[28.846331,41.046649],[28.846383,41.045942],[28.846524,41.045557],[28.846634,41.045319],[28.847091,41.044367],[28.847387,41.042857]]]}},{"type":"Feature","properties":{"id":"TR-Y-34-005-M-0007","level":"yerlesim","type":"mahalle","parent_id":"TR-D-34-005","province_id":"TR-P-34","district_id":"TR-D-34-005","name":"Fatih","source_raw_name":"FATİH","source":"Kullanıcı tarafından sağlanan KML","source_label":"Kullanıcı tarafından sağlanan KML","source_name":"Istanbul Mahalle KML"},"geometry":{"type":"Polygon","coordinates":[[[28.84875,41.046315],[28.848719,41.045567],[28.848722,41.045015],[28.848861,41.043879],[28.849032,41.043441],[28.847808,41.043038],[28.847387,41.042857],[28.847091,41.044367],[28.846634,41.045319],[28.846524,41.045557],[28.846519,41.045571],[28.846383,41.045942],[28.846331,41.046649],[28.84593,41.047459],[28.844531,41.048649],[28.84316,41.049579],[28.841888,41.050832],[28.839244,41.052563],[28.83851,41.053063],[28.837766,41.054205],[28.837741,41.054244],[28.838828,41.05445],[28.842558,41.055624],[28.847441,41.056584],[28.848117,41.05684],[28.849207,41.056373],[28.849441,41.056286],[28.849255,41.055839],[28.849573,41.055735],[28.84955,41.055687],[28.849391,41.055641],[28.849322,41.055598],[28.84929,41.055558],[28.849275,41.055535],[28.84927,41.055518],[28.849267,41.055476],[28.849275,41.055418],[28.849246,41.055299],[28.849198,41.055236],[28.848964,41.054842],[28.848876,41.054671],[28.848822,41.054084],[28.848771,41.053918],[28.848756,41.053862],[28.848638,41.053603],[28.84845,41.053373],[28.848364,41.053253],[28.848159,41.052858],[28.848078,41.052713],[28.847821,41.052009],[28.847803,41.051932],[28.847789,41.051864],[28.847777,41.051796],[28.847843,41.051607],[28.84795,41.051347],[28.847948,41.051307],[28.847791,41.050899],[28.847751,41.050672],[28.847777,41.050577],[28.847926,41.050212],[28.848031,41.049828],[28.848148,41.049356],[28.848216,41.049198],[28.848283,41.049079],[28.848323,41.049023],[28.848423,41.048887],[28.848785,41.048492],[28.848861,41.048417],[28.849015,41.048199],[28.849214,41.047914],[28.849221,41.047867],[28.849235,41.047747],[28.849222,41.047183],[28.849166,41.046857],[28.849094,41.046762],[28.84875,41.046315]]]}},{"type":"Feature","properties":{"id":"TR-Y-34-005-M-0008","level":"yerlesim","type":"mahalle","parent_id":"TR-D-34-005","province_id":"TR-P-34","district_id":"TR-D-34-005","name":"Fevzi Çakmak","source_raw_name":"FEVZİ ÇAKMAK","source":"Kullanıcı tarafından sağlanan KML","source_label":"Kullanıcı tarafından sağlanan KML","source_name":"Istanbul Mahalle KML"},"geometry":{"type":"Polygon","coordinates":[[[28.848722,41.045015],[28.848719,41.045567],[28.849509,41.045619],[28.850116,41.045683],[28.85188,41.046259],[28.852395,41.046495],[28.853136,41.046879],[28.853904,41.047332],[28.854423,41.047724],[28.854541,41.047866],[28.855143,41.048832],[28.85555,41.049373],[28.854725,41.050506],[28.854324,41.050439],[28.85452,41.050697],[28.854519,41.050738],[28.854472,41.050764],[28.854644,41.05106],[28.854802,41.051329],[28.856021,41.053189],[28.85647,41.054133],[28.856786,41.054119],[28.856794,41.054024],[28.856827,41.05391],[28.856985,41.053527],[28.857992,41.051942],[28.858281,41.051477],[28.858309,41.051423],[28.858377,41.051298],[28.858439,41.051159],[28.858631,41.05081],[28.858758,41.050563],[28.858826,41.050447],[28.858969,41.050201],[28.859246,41.049753],[28.859304,41.049638],[28.859374,41.049516],[28.859529,41.049229],[28.859661,41.049006],[28.859888,41.048571],[28.859932,41.048455],[28.859972,41.048185],[28.859967,41.047798],[28.85994,41.047408],[28.859939,41.0474],[28.859924,41.047122],[28.859906,41.046856],[28.859877,41.046489],[28.859875,41.046457],[28.859853,41.046095],[28.859852,41.046081],[28.859837,41.045833],[28.859838,41.045694],[28.859832,41.045512],[28.859831,41.045496],[28.859815,41.045256],[28.859813,41.045231],[28.859809,41.04493],[28.859809,41.044911],[28.859776,41.044604],[28.859674,41.044231],[28.859664,41.044196],[28.859556,41.043804],[28.859471,41.043377],[28.859332,41.042731],[28.859941,41.042714],[28.860144,41.042734],[28.860467,41.041994],[28.860551,41.04174],[28.860628,41.04151],[28.860976,41.040685],[28.861039,41.040569],[28.861085,41.040434],[28.861136,41.040287],[28.86113,41.040287],[28.860855,41.040311],[28.860855,41.04031],[28.860688,41.040325],[28.859294,41.040444],[28.858107,41.040546],[28.857313,41.040716],[28.85538,41.041342],[28.852199,41.042688],[28.850968,41.043115],[28.850628,41.043182],[28.850465,41.043356],[28.850276,41.043474],[28.850183,41.04351],[28.849903,41.04356],[28.849762,41.043558],[28.84946,41.04352],[28.849032,41.043441],[28.848861,41.043879],[28.848722,41.045015]]]}},{"type":"Feature","properties":{"id":"TR-Y-34-005-M-0009","level":"yerlesim","type":"mahalle","parent_id":"TR-D-34-005","province_id":"TR-P-34","district_id":"TR-D-34-005","name":"Göztepe","source_raw_name":"GÖZTEPE","source":"Kullanıcı tarafından sağlanan KML","source_label":"Kullanıcı tarafından sağlanan KML","source_name":"Istanbul Mahalle KML"},"geometry":{"type":"Polygon","coordinates":[[[28.833769,41.06888],[28.836056,41.068135],[28.8372,41.067553],[28.838538,41.066624],[28.839235,41.066209],[28.839732,41.065888],[28.84017,41.065675],[28.840807,41.065427],[28.841438,41.065241],[28.841889,41.065135],[28.842457,41.065051],[28.843005,41.065017],[28.843567,41.065044],[28.844042,41.065085],[28.844701,41.065199],[28.845379,41.065349],[28.845839,41.065496],[28.846504,41.065789],[28.846934,41.066022],[28.847243,41.066225],[28.847839,41.066688],[28.848387,41.067201],[28.847464,41.063936],[28.847547,41.063501],[28.847771,41.062954],[28.846193,41.061939],[28.845933,41.061794],[28.845615,41.061644],[28.845396,41.061559],[28.845079,41.061455],[28.84488,41.061403],[28.844566,41.061337],[28.8444,41.06131],[28.84419,41.061285],[28.843999,41.061269],[28.843774,41.06126],[28.843567,41.061257],[28.843389,41.061262],[28.843184,41.061276],[28.842962,41.061299],[28.842659,41.061344],[28.842449,41.061386],[28.842268,41.061428],[28.842113,41.061471],[28.841986,41.061508],[28.841805,41.06157],[28.841669,41.061621],[28.841318,41.061765],[28.841117,41.061851],[28.842393,41.060762],[28.844858,41.058776],[28.845673,41.058198],[28.846342,41.057757],[28.847587,41.057088],[28.848117,41.05684],[28.847441,41.056584],[28.842558,41.055624],[28.838828,41.05445],[28.837741,41.054244],[28.836379,41.054284],[28.834717,41.053836],[28.833854,41.053792],[28.832664,41.053624],[28.830736,41.053038],[28.829954,41.052935],[28.829949,41.052934],[28.829928,41.052931],[28.828683,41.054216],[28.828698,41.054245],[28.829468,41.055802],[28.831012,41.057528],[28.831468,41.059098],[28.832472,41.061525],[28.832488,41.061618],[28.832911,41.063552],[28.832951,41.063739],[28.832843,41.064951],[28.832683,41.065489],[28.832473,41.066199],[28.832487,41.066605],[28.832489,41.066645],[28.832522,41.067211],[28.832667,41.067715],[28.832911,41.068034],[28.833769,41.06888]]]}},{"type":"Feature","properties":{"id":"TR-Y-34-005-M-0010","level":"yerlesim","type":"mahalle","parent_id":"TR-D-34-005","province_id":"TR-P-34","district_id":"TR-D-34-005","name":"Güneşli","source_raw_name":"GÜNEŞLİ","source":"Kullanıcı tarafından sağlanan KML","source_label":"Kullanıcı tarafından sağlanan KML","source_name":"Istanbul Mahalle KML"},"geometry":{"type":"Polygon","coordinates":[[[28.830323,41.045055],[28.832424,41.041645],[28.83362,41.039407],[28.83427,41.03801],[28.834277,41.03792],[28.834063,41.036335],[28.833459,41.034288],[28.833743,41.03261],[28.834428,41.031032],[28.832709,41.031079],[28.829227,41.030976],[28.829049,41.030995],[28.827748,41.031509],[28.826526,41.031559],[28.823477,41.031717],[28.822899,41.033891],[28.822868,41.035735],[28.823428,41.036778],[28.825036,41.038899],[28.825093,41.039078],[28.82507,41.040139],[28.824825,41.041751],[28.824732,41.042011],[28.824206,41.042035],[28.823996,41.041782],[28.823746,41.041873],[28.82362,41.041981],[28.823459,41.042253],[28.823035,41.043584],[28.823043,41.044235],[28.823302,41.044817],[28.823303,41.044819],[28.823328,41.044824],[28.824459,41.045245],[28.826176,41.045421],[28.826306,41.045426],[28.827945,41.045497],[28.827949,41.045498],[28.827951,41.045498],[28.829691,41.045362],[28.829994,41.045129],[28.830133,41.045079],[28.830323,41.045055]]]}},{"type":"Feature","properties":{"id":"TR-Y-34-005-M-0011","level":"yerlesim","type":"mahalle","parent_id":"TR-D-34-005","province_id":"TR-P-34","district_id":"TR-D-34-005","name":"Hürriyet","source_raw_name":"HÜRRİYET","source":"Kullanıcı tarafından sağlanan KML","source_label":"Kullanıcı tarafından sağlanan KML","source_name":"Istanbul Mahalle KML"},"geometry":{"type":"Polygon","coordinates":[[[28.82826,41.022199],[28.828393,41.022717],[28.828724,41.024693],[28.829051,41.025833],[28.829314,41.027835],[28.829314,41.027836],[28.828915,41.028998],[28.826526,41.031559],[28.827748,41.031509],[28.829049,41.030995],[28.829227,41.030976],[28.832709,41.031079],[28.834428,41.031032],[28.834429,41.031032],[28.834472,41.030944],[28.834473,41.030941],[28.835008,41.029753],[28.835926,41.026423],[28.836228,41.025966],[28.83799,41.023736],[28.837589,41.02356],[28.837182,41.023434],[28.8363,41.023278],[28.836049,41.023301],[28.834645,41.022925],[28.830495,41.022237],[28.82826,41.022199]]]}},{"type":"Feature","properties":{"id":"TR-Y-34-005-M-0012","level":"yerlesim","type":"mahalle","parent_id":"TR-D-34-005","province_id":"TR-P-34","district_id":"TR-D-34-005","name":"İnönü","source_raw_name":"İNÖNÜ","source":"Kullanıcı tarafından sağlanan KML","source_label":"Kullanıcı tarafından sağlanan KML","source_name":"Istanbul Mahalle KML"},"geometry":{"type":"Polygon","coordinates":[[[28.856642,41.033829],[28.856275,41.031547],[28.856328,41.031091],[28.856604,41.030165],[28.855264,41.030012],[28.854533,41.029418],[28.852921,41.027924],[28.851869,41.027003],[28.851009,41.026471],[28.850619,41.026056],[28.848682,41.024739],[28.847869,41.024294],[28.847557,41.024283],[28.847527,41.024795],[28.847254,41.026814],[28.847167,41.027617],[28.846817,41.028219],[28.846759,41.028486],[28.847196,41.029433],[28.848297,41.030525],[28.848444,41.030901],[28.848459,41.031199],[28.848207,41.032226],[28.850028,41.032999],[28.852491,41.033355],[28.852862,41.03345],[28.853615,41.033771],[28.854741,41.033942],[28.856642,41.033829]]]}},{"type":"Feature","properties":{"id":"TR-Y-34-005-M-0013","level":"yerlesim","type":"mahalle","parent_id":"TR-D-34-005","province_id":"TR-P-34","district_id":"TR-D-34-005","name":"Kazım Karabekir","source_raw_name":"KAZIM KARABEKİR","source":"Kullanıcı tarafından sağlanan KML","source_label":"Kullanıcı tarafından sağlanan KML","source_name":"Istanbul Mahalle KML"},"geometry":{"type":"Polygon","coordinates":[[[28.847557,41.024283],[28.847328,41.024151],[28.845677,41.022869],[28.84453,41.021635],[28.844008,41.022879],[28.843921,41.022921],[28.843593,41.023333],[28.843402,41.023517],[28.843036,41.024254],[28.842803,41.024611],[28.842307,41.025283],[28.84108,41.026744],[28.840173,41.02844],[28.839752,41.029028],[28.839281,41.030128],[28.83921,41.030503],[28.839485,41.030468],[28.840765,41.030462],[28.841133,41.030516],[28.842685,41.031275],[28.843073,41.03142],[28.843317,41.031457],[28.844369,41.031527],[28.845131,41.031658],[28.846402,41.032017],[28.846733,41.032098],[28.848207,41.032226],[28.848459,41.031199],[28.848444,41.030901],[28.848297,41.030525],[28.847196,41.029433],[28.846759,41.028486],[28.846817,41.028219],[28.847167,41.027617],[28.847254,41.026814],[28.847527,41.024795],[28.847557,41.024283]]]}},{"type":"Feature","properties":{"id":"TR-Y-34-005-M-0014","level":"yerlesim","type":"mahalle","parent_id":"TR-D-34-005","province_id":"TR-P-34","district_id":"TR-D-34-005","name":"Kemalpaşa","source_raw_name":"KEMALPAŞA","source":"Kullanıcı tarafından sağlanan KML","source_label":"Kullanıcı tarafından sağlanan KML","source_name":"Istanbul Mahalle KML"},"geometry":{"type":"Polygon","coordinates":[[[28.852092,41.055484],[28.853204,41.055243],[28.854885,41.054933],[28.854701,41.054264],[28.85647,41.054133],[28.856021,41.053189],[28.854802,41.051329],[28.854644,41.05106],[28.854472,41.050764],[28.854519,41.050738],[28.85452,41.050697],[28.854324,41.050439],[28.854725,41.050506],[28.85555,41.049373],[28.855143,41.048832],[28.854541,41.047866],[28.854423,41.047724],[28.853904,41.047332],[28.853136,41.046879],[28.852395,41.046495],[28.85188,41.046259],[28.850116,41.045683],[28.849509,41.045619],[28.848719,41.045567],[28.84875,41.046315],[28.849094,41.046762],[28.849166,41.046857],[28.849222,41.047183],[28.849235,41.047747],[28.849221,41.047867],[28.849214,41.047914],[28.849015,41.048199],[28.848861,41.048417],[28.848785,41.048492],[28.848423,41.048887],[28.848323,41.049023],[28.848283,41.049079],[28.848216,41.049198],[28.848148,41.049356],[28.848031,41.049828],[28.847926,41.050212],[28.847777,41.050577],[28.847751,41.050672],[28.847791,41.050899],[28.847948,41.051307],[28.84795,41.051347],[28.847843,41.051607],[28.847777,41.051796],[28.847789,41.051864],[28.847803,41.051932],[28.847821,41.052009],[28.848078,41.052713],[28.848159,41.052858],[28.848364,41.053253],[28.84845,41.053373],[28.848638,41.053603],[28.848756,41.053862],[28.848771,41.053918],[28.848822,41.054084],[28.848876,41.054671],[28.848964,41.054842],[28.849198,41.055236],[28.849246,41.055299],[28.849275,41.055418],[28.849267,41.055476],[28.84927,41.055518],[28.849275,41.055535],[28.84929,41.055558],[28.849322,41.055598],[28.849391,41.055641],[28.84955,41.055687],[28.849573,41.055735],[28.849255,41.055839],[28.849441,41.056286],[28.850454,41.055949],[28.851264,41.055705],[28.852092,41.055484]]]}},{"type":"Feature","properties":{"id":"TR-Y-34-005-M-0015","level":"yerlesim","type":"mahalle","parent_id":"TR-D-34-005","province_id":"TR-P-34","district_id":"TR-D-34-005","name":"Kirazlı","source_raw_name":"KİRAZLI","source":"Kullanıcı tarafından sağlanan KML","source_label":"Kullanıcı tarafından sağlanan KML","source_name":"Istanbul Mahalle KML"},"geometry":{"type":"Polygon","coordinates":[[[28.834277,41.03792],[28.834997,41.038056],[28.836275,41.038142],[28.837731,41.03827],[28.840902,41.039197],[28.843173,41.039768],[28.844134,41.040074],[28.84458,41.040325],[28.845476,41.041063],[28.845673,41.041262],[28.845888,41.041325],[28.845839,41.040932],[28.846441,41.040831],[28.845774,41.038749],[28.845515,41.037768],[28.845403,41.036889],[28.845396,41.035808],[28.845596,41.035829],[28.845927,41.035828],[28.846575,41.035717],[28.84636,41.035058],[28.846396,41.034892],[28.84674,41.034418],[28.84763,41.033085],[28.84769,41.032964],[28.847763,41.032916],[28.847814,41.032863],[28.847873,41.032773],[28.847896,41.032701],[28.848107,41.032449],[28.848207,41.032226],[28.846733,41.032098],[28.846402,41.032017],[28.845131,41.031658],[28.844369,41.031527],[28.843317,41.031457],[28.843073,41.03142],[28.842685,41.031275],[28.841133,41.030516],[28.840765,41.030462],[28.839485,41.030468],[28.83921,41.030503],[28.836637,41.030941],[28.836053,41.030991],[28.834473,41.030941],[28.834472,41.030944],[28.834429,41.031032],[28.834428,41.031032],[28.833743,41.03261],[28.833459,41.034288],[28.834063,41.036335],[28.834277,41.03792]]]}},{"type":"Feature","properties":{"id":"TR-Y-34-005-M-0016","level":"yerlesim","type":"mahalle","parent_id":"TR-D-34-005","province_id":"TR-P-34","district_id":"TR-D-34-005","name":"Mahmutbey","source_raw_name":"MAHMUTBEY","source":"Kullanıcı tarafından sağlanan KML","source_label":"Kullanıcı tarafından sağlanan KML","source_name":"Istanbul Mahalle KML"},"geometry":{"type":"Polygon","coordinates":[[[28.814158,41.069987],[28.815051,41.070051],[28.815754,41.070511],[28.815979,41.070599],[28.816217,41.070668],[28.8166,41.070739],[28.819817,41.070757],[28.821807,41.070268],[28.822699,41.070123],[28.823744,41.069978],[28.826134,41.069905],[28.827497,41.069829],[28.828746,41.069714],[28.82894,41.069671],[28.829213,41.069581],[28.83139,41.068605],[28.832911,41.068034],[28.832667,41.067715],[28.832522,41.067211],[28.832489,41.066645],[28.832487,41.066605],[28.832473,41.066199],[28.832683,41.065489],[28.832843,41.064951],[28.832951,41.063739],[28.832911,41.063552],[28.832488,41.061618],[28.832472,41.061525],[28.831468,41.059098],[28.831012,41.057528],[28.829468,41.055802],[28.828698,41.054245],[28.828683,41.054216],[28.829928,41.052931],[28.829941,41.052897],[28.830164,41.05231],[28.830252,41.049683],[28.830262,41.047767],[28.830199,41.045521],[28.830248,41.045253],[28.830321,41.045059],[28.830322,41.045058],[28.830323,41.045055],[28.830133,41.045079],[28.829994,41.045129],[28.829691,41.045362],[28.827951,41.045498],[28.827949,41.045498],[28.827945,41.045497],[28.826306,41.045426],[28.826176,41.045421],[28.824459,41.045245],[28.823328,41.044824],[28.823303,41.044819],[28.823297,41.044818],[28.822566,41.044677],[28.819799,41.044265],[28.819778,41.044265],[28.819776,41.044265],[28.819536,41.044266],[28.819174,41.04435],[28.817583,41.045082],[28.813495,41.045347],[28.811966,41.045349],[28.808807,41.04577],[28.808032,41.045762],[28.807997,41.046039],[28.80799,41.046283],[28.807984,41.046502],[28.807991,41.046845],[28.808005,41.047212],[28.808028,41.047533],[28.808052,41.047743],[28.808086,41.048014],[28.808103,41.048108],[28.808126,41.048276],[28.808177,41.048556],[28.808492,41.049934],[28.80864,41.050457],[28.808715,41.050723],[28.808874,41.05126],[28.808943,41.051506],[28.809057,41.051873],[28.809127,41.052114],[28.809188,41.052316],[28.809262,41.052556],[28.809314,41.052744],[28.809454,41.053208],[28.809527,41.053457],[28.809654,41.053881],[28.809827,41.054445],[28.809898,41.054693],[28.810214,41.055728],[28.810279,41.05595],[28.810369,41.056265],[28.810466,41.056634],[28.810515,41.056829],[28.81055,41.056972],[28.810633,41.057332],[28.810684,41.057564],[28.810759,41.057925],[28.810825,41.05822],[28.810865,41.058392],[28.810933,41.058633],[28.81098,41.058798],[28.811067,41.059042],[28.811166,41.059324],[28.81124,41.059527],[28.811313,41.059738],[28.811393,41.059968],[28.811488,41.060265],[28.811562,41.060546],[28.81162,41.060802],[28.811643,41.06097],[28.811748,41.061293],[28.811778,41.061379],[28.811799,41.061428],[28.811793,41.061587],[28.812704,41.062918],[28.812991,41.063484],[28.813165,41.063779],[28.813385,41.064149],[28.813489,41.064592],[28.813594,41.064756],[28.813804,41.065329],[28.813762,41.065742],[28.813616,41.067357],[28.813603,41.067455],[28.813536,41.067937],[28.813496,41.06842],[28.813552,41.068763],[28.813793,41.069225],[28.814158,41.069987]]]}},{"type":"Feature","properties":{"id":"TR-Y-34-005-M-0017","level":"yerlesim","type":"mahalle","parent_id":"TR-D-34-005","province_id":"TR-P-34","district_id":"TR-D-34-005","name":"Merkez","source_raw_name":"MERKEZ","source":"Kullanıcı tarafından sağlanan KML","source_label":"Kullanıcı tarafından sağlanan KML","source_name":"Istanbul Mahalle KML"},"geometry":{"type":"Polygon","coordinates":[[[28.87202,41.032696],[28.872109,41.032333],[28.872228,41.031977],[28.872324,41.031598],[28.872384,41.031056],[28.872428,41.030762],[28.872468,41.030456],[28.872531,41.03013],[28.872602,41.029732],[28.872667,41.029334],[28.87271,41.029067],[28.872725,41.028719],[28.872734,41.028371],[28.872695,41.027845],[28.872689,41.027837],[28.872126,41.027104],[28.872126,41.027104],[28.871822,41.027694],[28.87179,41.027718],[28.871754,41.027722],[28.871392,41.027647],[28.871272,41.027656],[28.871207,41.027678],[28.870873,41.027862],[28.869051,41.029123],[28.867389,41.029473],[28.865873,41.029449],[28.864953,41.029473],[28.864324,41.029621],[28.863934,41.029733],[28.862838,41.029385],[28.862617,41.029728],[28.862339,41.029596],[28.86085,41.029202],[28.86074,41.02945],[28.859938,41.029258],[28.859815,41.029195],[28.859736,41.029154],[28.859596,41.029038],[28.859067,41.028747],[28.859121,41.02863],[28.859362,41.028264],[28.859378,41.02821],[28.859539,41.027741],[28.859126,41.027638],[28.859091,41.027599],[28.858968,41.027582],[28.858513,41.027475],[28.857241,41.027251],[28.85678,41.02955],[28.856604,41.030165],[28.856328,41.031091],[28.856275,41.031547],[28.856642,41.033829],[28.856734,41.034386],[28.857135,41.034435],[28.858304,41.034466],[28.859787,41.034258],[28.862866,41.033579],[28.863414,41.033361],[28.863949,41.033417],[28.864685,41.033964],[28.865584,41.034342],[28.866136,41.034502],[28.866579,41.034612],[28.867279,41.034698],[28.867625,41.034904],[28.868262,41.035456],[28.86908,41.036092],[28.871338,41.037432],[28.871404,41.037156],[28.87137,41.036362],[28.871537,41.034155],[28.871608,41.033752],[28.87202,41.032696]]]}},{"type":"Feature","properties":{"id":"TR-Y-34-005-M-0018","level":"yerlesim","type":"mahalle","parent_id":"TR-D-34-005","province_id":"TR-P-34","district_id":"TR-D-34-005","name":"Sancaktepe","source_raw_name":"SANCAKTEPE","source":"Kullanıcı tarafından sağlanan KML","source_label":"Kullanıcı tarafından sağlanan KML","source_name":"Istanbul Mahalle KML"},"geometry":{"type":"Polygon","coordinates":[[[28.850628,41.043182],[28.850968,41.043115],[28.852199,41.042688],[28.85538,41.041342],[28.857313,41.040716],[28.858107,41.040546],[28.859294,41.040444],[28.859252,41.039923],[28.858918,41.037865],[28.85853,41.035964],[28.858304,41.034466],[28.857135,41.034435],[28.856734,41.034386],[28.855679,41.034577],[28.855225,41.03471],[28.853928,41.03568],[28.853313,41.036388],[28.85317,41.036618],[28.851472,41.041529],[28.851063,41.042532],[28.850628,41.043182]]]}},{"type":"Feature","properties":{"id":"TR-Y-34-005-M-0019","level":"yerlesim","type":"mahalle","parent_id":"TR-D-34-005","province_id":"TR-P-34","district_id":"TR-D-34-005","name":"Yavuz Selim","source_raw_name":"YAVUZ SELİM","source":"Kullanıcı tarafından sağlanan KML","source_label":"Kullanıcı tarafından sağlanan KML","source_name":"Istanbul Mahalle KML"},"geometry":{"type":"Polygon","coordinates":[[[28.856734,41.034386],[28.856642,41.033829],[28.854741,41.033942],[28.853615,41.033771],[28.852862,41.03345],[28.852491,41.033355],[28.850028,41.032999],[28.848207,41.032226],[28.848107,41.032449],[28.847896,41.032701],[28.847873,41.032773],[28.847814,41.032863],[28.847763,41.032916],[28.84769,41.032964],[28.84763,41.033085],[28.84674,41.034418],[28.846396,41.034892],[28.84636,41.035058],[28.846575,41.035717],[28.845927,41.035828],[28.845596,41.035829],[28.845396,41.035808],[28.845403,41.036889],[28.845515,41.037768],[28.845774,41.038749],[28.846441,41.040831],[28.845839,41.040932],[28.845888,41.041325],[28.845936,41.042217],[28.846227,41.042203],[28.846336,41.042915],[28.846563,41.042803],[28.846685,41.042762],[28.846811,41.042731],[28.846992,41.042735],[28.847387,41.042857],[28.847808,41.043038],[28.849032,41.043441],[28.84946,41.04352],[28.849762,41.043558],[28.849903,41.04356],[28.850183,41.04351],[28.850276,41.043474],[28.850465,41.043356],[28.850628,41.043182],[28.851063,41.042532],[28.851472,41.041529],[28.85317,41.036618],[28.853313,41.036388],[28.853928,41.03568],[28.855225,41.03471],[28.855679,41.034577],[28.856734,41.034386]]]}},{"type":"Feature","properties":{"id":"TR-Y-34-005-M-0020","level":"yerlesim","type":"mahalle","parent_id":"TR-D-34-005","province_id":"TR-P-34","district_id":"TR-D-34-005","name":"Yenigün","source_raw_name":"YENİGÜN","source":"Kullanıcı tarafından sağlanan KML","source_label":"Kullanıcı tarafından sağlanan KML","source_name":"Istanbul Mahalle KML"},"geometry":{"type":"Polygon","coordinates":[[[28.862414,41.020582],[28.862414,41.020582],[28.862197,41.020492],[28.862204,41.02048],[28.862345,41.020251],[28.862966,41.019219],[28.863062,41.01906],[28.861352,41.018226],[28.860643,41.017802],[28.860193,41.017607],[28.859906,41.018055],[28.859413,41.019083],[28.859069,41.019594],[28.858447,41.02033],[28.857652,41.022079],[28.857397,41.022921],[28.857241,41.027251],[28.858513,41.027475],[28.858968,41.027582],[28.859091,41.027599],[28.859069,41.027479],[28.859008,41.027218],[28.858999,41.02709],[28.859336,41.025849],[28.859445,41.025584],[28.859507,41.025518],[28.859784,41.025186],[28.859911,41.024868],[28.860025,41.024697],[28.860049,41.024661],[28.860217,41.02412],[28.860299,41.023964],[28.860583,41.023429],[28.861335,41.022559],[28.861451,41.022424],[28.861703,41.022231],[28.862216,41.021839],[28.862604,41.021346],[28.862069,41.021072],[28.862414,41.020582]]]}},{"type":"Feature","properties":{"id":"TR-Y-34-005-M-0021","level":"yerlesim","type":"mahalle","parent_id":"TR-D-34-005","province_id":"TR-P-34","district_id":"TR-D-34-005","name":"Yenimahalle","source_raw_name":"YENİMAHALLE","source":"Kullanıcı tarafından sağlanan KML","source_label":"Kullanıcı tarafından sağlanan KML","source_name":"Istanbul Mahalle KML"},"geometry":{"type":"Polygon","coordinates":[[[28.846079,41.043075],[28.846336,41.042915],[28.846227,41.042203],[28.845936,41.042217],[28.845888,41.041325],[28.845673,41.041262],[28.845476,41.041063],[28.84458,41.040325],[28.844134,41.040074],[28.843173,41.039768],[28.840902,41.039197],[28.837731,41.03827],[28.836275,41.038142],[28.834997,41.038056],[28.834277,41.03792],[28.83427,41.03801],[28.83362,41.039407],[28.832424,41.041645],[28.830323,41.045055],[28.830338,41.045056],[28.830342,41.045056],[28.830346,41.045057],[28.830351,41.045057],[28.83046,41.045066],[28.831391,41.045517],[28.831768,41.045629],[28.832422,41.045622],[28.832791,41.045506],[28.833207,41.045258],[28.833944,41.044621],[28.834511,41.044366],[28.834951,41.044443],[28.835098,41.044825],[28.834667,41.046359],[28.834719,41.046643],[28.835045,41.04708],[28.83649,41.04703],[28.837031,41.046896],[28.83743,41.046701],[28.838613,41.045802],[28.841236,41.043545],[28.842368,41.043516],[28.84287,41.043992],[28.843241,41.044207],[28.843635,41.044294],[28.84425,41.044294],[28.844886,41.044049],[28.846079,41.043075]]]}},{"type":"Feature","properties":{"id":"TR-Y-34-005-M-0022","level":"yerlesim","type":"mahalle","parent_id":"TR-D-34-005","province_id":"TR-P-34","district_id":"TR-D-34-005","name":"Yıldıztepe","source_raw_name":"YILDIZTEPE","source":"Kullanıcı tarafından sağlanan KML","source_label":"Kullanıcı tarafından sağlanan KML","source_name":"Istanbul Mahalle KML"},"geometry":{"type":"Polygon","coordinates":[[[28.857652,41.022079],[28.858447,41.02033],[28.858447,41.020329],[28.85846,41.019668],[28.858482,41.01951],[28.858474,41.019145],[28.85847,41.019146],[28.857887,41.01927],[28.85717,41.019407],[28.856908,41.019463],[28.856476,41.019552],[28.856368,41.019575],[28.856258,41.019619],[28.855772,41.019803],[28.855539,41.019909],[28.855397,41.019997],[28.855324,41.020062],[28.855276,41.020244],[28.85527,41.020284],[28.855201,41.020599],[28.855123,41.020954],[28.855107,41.021026],[28.854775,41.021036],[28.854645,41.021048],[28.854589,41.021069],[28.854527,41.021074],[28.854129,41.021063],[28.854004,41.021065],[28.853945,41.021087],[28.853894,41.021159],[28.851914,41.0212],[28.849866,41.021261],[28.848446,41.021439],[28.848281,41.022727],[28.847564,41.024147],[28.847557,41.024283],[28.847869,41.024294],[28.848682,41.024739],[28.850619,41.026056],[28.851009,41.026471],[28.851869,41.027003],[28.852921,41.027924],[28.854533,41.029418],[28.855264,41.030012],[28.856604,41.030165],[28.85678,41.02955],[28.857241,41.027251],[28.857397,41.022921],[28.857652,41.022079]]]}}]}