{"type":"FeatureCollection","name":"turkiye_map.dist.mahalle_geometrileri_by_district.TR-D-20-018","features":[{"type":"Feature","properties":{"id":"TR-Y-20-018-M-0001","level":"yerlesim","type":"mahalle","parent_id":"TR-D-20-018","province_id":"TR-P-20","district_id":"TR-D-20-018","name":"Aşağı","source_raw_name":"AŞAĞI","source":"Kamuya açık veri ve kent rehberi servisleri","source_label":"Kamuya açık veri ve kent rehberi servisleri","source_name":"Denizli Adres Bilgi Sistemi - Mahalle Sınırları"},"geometry":{"type":"Polygon","coordinates":[[[29.271152,37.575842],[29.27016,37.576596],[29.26788,37.578191],[29.264977,37.579051],[29.264502,37.579208],[29.263886,37.580194],[29.264007,37.581103],[29.264402,37.582554],[29.264873,37.582607],[29.265159,37.582763],[29.265808,37.583013],[29.266355,37.583181],[29.267426,37.58341],[29.268037,37.583735],[29.269371,37.584592],[29.270661,37.582474],[29.273973,37.576955],[29.275193,37.57475],[29.278514,37.568277],[29.277782,37.568396],[29.276171,37.57017],[29.271152,37.575842]]]}},{"type":"Feature","properties":{"id":"TR-Y-20-018-M-0002","level":"yerlesim","type":"mahalle","parent_id":"TR-D-20-018","province_id":"TR-P-20","district_id":"TR-D-20-018","name":"Ayaz","source_raw_name":"AYAZ","source":"Kamuya açık veri ve kent rehberi servisleri","source_label":"Kamuya açık veri ve kent rehberi servisleri","source_name":"Denizli Adres Bilgi Sistemi - Mahalle Sınırları"},"geometry":{"type":"Polygon","coordinates":[[[29.344705,37.622626],[29.347897,37.62192],[29.35093,37.622057],[29.353355,37.622312],[29.356844,37.622331],[29.35821,37.622338],[29.35929,37.620172],[29.361129,37.61801],[29.362659,37.61645],[29.364785,37.61622],[29.363429,37.615127],[29.361173,37.612822],[29.359365,37.611364],[29.358161,37.610271],[29.35818,37.608099],[29.358047,37.605927],[29.358673,37.603637],[29.359903,37.601713],[29.36098,37.599909],[29.361295,37.598583],[29.359803,37.595679],[29.358915,37.59314],[29.358792,37.589761],[29.359416,37.587713],[29.360046,37.584984],[29.360061,37.583171],[29.359504,37.581695],[29.358378,37.580217],[29.357972,37.577835],[29.357987,37.576023],[29.357146,37.574545],[29.356017,37.573406],[29.354608,37.571699],[29.352627,37.570329],[29.351784,37.569078],[29.350509,37.568391],[29.347668,37.567809],[29.345235,37.56708],[29.344982,37.567154],[29.34466,37.567208],[29.343505,37.56731],[29.341412,37.567095],[29.338838,37.56844],[29.337552,37.569112],[29.336187,37.569399],[29.333947,37.569837],[29.331249,37.570025],[29.329743,37.571326],[29.327937,37.572684],[29.326806,37.573807],[29.324254,37.574982],[29.321704,37.575979],[29.319674,37.577276],[29.318239,37.578874],[29.320985,37.581031],[29.322989,37.582649],[29.324172,37.584143],[29.324834,37.585277],[29.324818,37.587062],[29.325319,37.589563],[29.32483,37.5934],[29.323663,37.595307],[29.32288,37.596227],[29.321549,37.597791],[29.319335,37.599775],[29.318377,37.6016],[29.31658,37.603669],[29.321063,37.605193],[29.322837,37.605703],[29.324187,37.606709],[29.325014,37.607795],[29.326253,37.609633],[29.327077,37.610969],[29.328634,37.612309],[29.330196,37.613067],[29.33186,37.614158],[29.332679,37.616076],[29.333292,37.617744],[29.333693,37.61966],[29.333676,37.621573],[29.332609,37.62398],[29.331126,37.626052],[29.329954,37.628375],[29.328994,37.630532],[29.328667,37.631945],[29.3314,37.630463],[29.333791,37.629121],[29.336309,37.62774],[29.339579,37.626363],[29.341971,37.625081],[29.342859,37.62379],[29.344705,37.622626]]]}},{"type":"Feature","properties":{"id":"TR-Y-20-018-M-0003","level":"yerlesim","type":"mahalle","parent_id":"TR-D-20-018","province_id":"TR-P-20","district_id":"TR-D-20-018","name":"Cumhuriyet","source_raw_name":"CUMHURİYET","source":"Kamuya açık veri ve kent rehberi servisleri","source_label":"Kamuya açık veri ve kent rehberi servisleri","source_name":"Denizli Adres Bilgi Sistemi - Mahalle Sınırları"},"geometry":{"type":"Polygon","coordinates":[[[29.302819,37.671794],[29.303454,37.671],[29.305075,37.671907],[29.304596,37.669512],[29.305736,37.668223],[29.307373,37.667436],[29.309513,37.666551],[29.31241,37.665074],[29.314673,37.66429],[29.317313,37.663508],[29.317952,37.662216],[29.317588,37.660819],[29.317365,37.657827],[29.317011,37.655434],[29.317156,37.653242],[29.317543,37.652048],[29.31844,37.649861],[29.320214,37.647779],[29.321985,37.645995],[29.324389,37.643418],[29.325653,37.642229],[29.327041,37.64124],[29.328306,37.639853],[29.329712,37.636871],[29.332101,37.635987],[29.333989,37.635002],[29.335132,37.633314],[29.334893,37.632017],[29.334028,37.630617],[29.333791,37.629121],[29.3314,37.630463],[29.328667,37.631945],[29.328994,37.630532],[29.329954,37.628375],[29.331126,37.626052],[29.332609,37.62398],[29.333676,37.621573],[29.333693,37.61966],[29.333292,37.617744],[29.332679,37.616076],[29.33186,37.614158],[29.330196,37.613067],[29.328634,37.612309],[29.327077,37.610969],[29.326253,37.609633],[29.325014,37.607795],[29.324187,37.606709],[29.322837,37.605703],[29.321063,37.605193],[29.31658,37.603669],[29.318377,37.6016],[29.319335,37.599775],[29.321549,37.597791],[29.32288,37.596227],[29.323663,37.595307],[29.32483,37.5934],[29.325319,37.589563],[29.324818,37.587062],[29.324834,37.585277],[29.324172,37.584143],[29.322989,37.582649],[29.320985,37.581031],[29.318239,37.578874],[29.319674,37.577276],[29.321704,37.575979],[29.324254,37.574982],[29.326806,37.573807],[29.327937,37.572684],[29.329743,37.571326],[29.331249,37.570025],[29.333852,37.569855],[29.333947,37.569837],[29.336187,37.569399],[29.337552,37.569112],[29.336284,37.567632],[29.33474,37.565131],[29.333344,37.562178],[29.333299,37.561532],[29.333217,37.560364],[29.333377,37.55844],[29.331963,37.557412],[29.331829,37.556505],[29.329436,37.553546],[29.328174,37.551499],[29.327052,37.54968],[29.325343,37.549784],[29.322635,37.550335],[29.321208,37.55078],[29.319359,37.550656],[29.317937,37.550647],[29.316667,37.549394],[29.315969,37.547917],[29.317413,37.54566],[29.318144,37.543511],[29.318591,37.541248],[29.319952,37.539241],[29.317342,37.536556],[29.31366,37.533292],[29.311777,37.529753],[29.307345,37.529918],[29.304102,37.531043],[29.303156,37.529703],[29.301237,37.529418],[29.30029,37.533683],[29.297714,37.539143],[29.294524,37.549879],[29.291985,37.552438],[29.284496,37.561245],[29.278514,37.568277],[29.275193,37.57475],[29.273973,37.576955],[29.270661,37.582474],[29.269371,37.584592],[29.267289,37.588232],[29.2668,37.58923],[29.26657,37.59003],[29.266541,37.591188],[29.262804,37.595866],[29.243073,37.620556],[29.243616,37.62357],[29.242658,37.625758],[29.24268,37.628879],[29.239369,37.641901],[29.239358,37.645071],[29.239602,37.645965],[29.245201,37.652751],[29.245281,37.658205],[29.246286,37.658242],[29.249563,37.657321],[29.252292,37.657442],[29.254277,37.65802],[29.257189,37.658265],[29.260452,37.659076],[29.262939,37.659149],[29.265995,37.659281],[29.269264,37.659471],[29.271893,37.6596],[29.274377,37.660124],[29.275724,37.660528],[29.276852,37.661439],[29.277337,37.662742],[29.277897,37.663707],[29.278378,37.665405],[29.27915,37.666428],[29.280493,37.66734],[29.281692,37.668365],[29.282678,37.669332],[29.283291,37.670786],[29.283535,37.672772],[29.283388,37.674338],[29.282447,37.676526],[29.281386,37.677564],[29.285574,37.679366],[29.286486,37.680207],[29.287913,37.682201],[29.289769,37.683904],[29.291223,37.685208],[29.292988,37.688068],[29.295094,37.689505],[29.297038,37.690683],[29.297642,37.688697],[29.298437,37.687289],[29.299021,37.685766],[29.299744,37.68447],[29.301043,37.682443],[29.302366,37.680063],[29.302506,37.678469],[29.302272,37.676674],[29.30154,37.674577],[29.302052,37.673384],[29.302819,37.671794]]]}},{"type":"Feature","properties":{"id":"TR-Y-20-018-M-0004","level":"yerlesim","type":"mahalle","parent_id":"TR-D-20-018","province_id":"TR-P-20","district_id":"TR-D-20-018","name":"Kaya","source_raw_name":"KAYA","source":"Kamuya açık veri ve kent rehberi servisleri","source_label":"Kamuya açık veri ve kent rehberi servisleri","source_name":"Denizli Adres Bilgi Sistemi - Mahalle Sınırları"},"geometry":{"type":"Polygon","coordinates":[[[29.243958,37.584847],[29.247139,37.584319],[29.249678,37.584932],[29.251267,37.584822],[29.253222,37.584048],[29.254127,37.583387],[29.254821,37.583791],[29.255741,37.583411],[29.258118,37.582918],[29.258839,37.582787],[29.259735,37.583014],[29.260481,37.582948],[29.26268,37.582275],[29.262203,37.581328],[29.261915,37.580534],[29.261708,37.579856],[29.261679,37.57909],[29.261728,37.578572],[29.261729,37.578568],[29.261336,37.578445],[29.261274,37.578426],[29.261086,37.578407],[29.261064,37.578404],[29.260788,37.578254],[29.260176,37.578113],[29.259516,37.578192],[29.258903,37.578093],[29.254838,37.577626],[29.250345,37.577669],[29.24982,37.576235],[29.249436,37.576002],[29.249284,37.57591],[29.249407,37.572621],[29.247931,37.571968],[29.242866,37.570852],[29.240911,37.572413],[29.238063,37.573611],[29.235095,37.575671],[29.231537,37.577043],[29.227722,37.578027],[29.224774,37.578127],[29.222011,37.578316],[29.219316,37.579189],[29.212105,37.58024],[29.222165,37.585087],[29.243958,37.584847]]]}},{"type":"Feature","properties":{"id":"TR-Y-20-018-M-0005","level":"yerlesim","type":"mahalle","parent_id":"TR-D-20-018","province_id":"TR-P-20","district_id":"TR-D-20-018","name":"Kocapınar","source_raw_name":"KOCAPINAR","source":"Kamuya açık veri ve kent rehberi servisleri","source_label":"Kamuya açık veri ve kent rehberi servisleri","source_name":"Denizli Adres Bilgi Sistemi - Mahalle Sınırları"},"geometry":{"type":"Polygon","coordinates":[[[29.330379,37.686514],[29.332088,37.686354],[29.334362,37.686536],[29.335996,37.686772],[29.338341,37.687011],[29.341044,37.68697],[29.343252,37.686586],[29.346029,37.686206],[29.34866,37.686334],[29.352425,37.68675],[29.355621,37.687277],[29.35811,37.687347],[29.361241,37.687251],[29.362672,37.686241],[29.363886,37.685626],[29.365312,37.685238],[29.366526,37.684679],[29.368379,37.684181],[29.369449,37.683847],[29.369951,37.683285],[29.371098,37.682217],[29.372386,37.681263],[29.374598,37.68037],[29.37618,37.679018],[29.37716,37.678121],[29.379768,37.676267],[29.382372,37.674993],[29.385622,37.673915],[29.389444,37.67226],[29.391886,37.67092],[29.393594,37.670092],[29.396121,37.668237],[29.397031,37.665923],[29.398109,37.662837],[29.398299,37.659424],[29.397351,37.656456],[29.395837,37.653228],[29.395694,37.650973],[29.395803,37.647495],[29.396933,37.648016],[29.398137,37.649375],[29.400471,37.65119],[29.401378,37.652115],[29.401677,37.65242],[29.40296,37.653973],[29.404489,37.655269],[29.405867,37.655276],[29.407662,37.65361],[29.408973,37.651684],[29.410208,37.649243],[29.411765,37.646996],[29.412182,37.645388],[29.412847,37.643141],[29.41124,37.641589],[29.409886,37.638683],[29.409887,37.638679],[29.410318,37.635272],[29.41332,37.634578],[29.415754,37.634011],[29.418756,37.633317],[29.420869,37.632426],[29.423226,37.631342],[29.425257,37.630451],[29.427692,37.629818],[29.428061,37.629834],[29.42806,37.629829],[29.425849,37.618982],[29.40378,37.618913],[29.402382,37.61955],[29.401311,37.618472],[29.398794,37.618459],[29.396331,37.617338],[29.394989,37.616508],[29.392924,37.616176],[29.390267,37.616806],[29.388207,37.617791],[29.387522,37.619287],[29.386023,37.621421],[29.385473,37.622811],[29.382122,37.622746],[29.379433,37.62279],[29.377476,37.62226],[29.374874,37.622163],[29.373327,37.622112],[29.371569,37.621678],[29.368476,37.621407],[29.36645,37.621226],[29.364262,37.621214],[29.361967,37.621202],[29.360362,37.621703],[29.35821,37.622338],[29.356844,37.622331],[29.353355,37.622312],[29.35093,37.622057],[29.347897,37.62192],[29.344705,37.622626],[29.342859,37.62379],[29.341971,37.625081],[29.339579,37.626363],[29.336309,37.62774],[29.333791,37.629121],[29.334028,37.630617],[29.334893,37.632017],[29.335132,37.633314],[29.333989,37.635002],[29.332101,37.635987],[29.329712,37.636871],[29.328306,37.639853],[29.327041,37.64124],[29.325653,37.642229],[29.324389,37.643418],[29.321985,37.645995],[29.320214,37.647779],[29.31844,37.649861],[29.317543,37.652048],[29.317156,37.653242],[29.317011,37.655434],[29.317365,37.657827],[29.317588,37.660819],[29.317952,37.662216],[29.317313,37.663508],[29.314673,37.66429],[29.31241,37.665074],[29.309513,37.666551],[29.307373,37.667436],[29.305736,37.668223],[29.304596,37.669512],[29.305075,37.671907],[29.303454,37.671],[29.302819,37.671794],[29.302052,37.673384],[29.30154,37.674577],[29.302272,37.676674],[29.302506,37.678469],[29.302366,37.680063],[29.301043,37.682443],[29.302527,37.683469],[29.305649,37.684223],[29.308704,37.684636],[29.312679,37.685507],[29.315872,37.686317],[29.318497,37.686954],[29.32319,37.687151],[29.326743,37.687454],[29.330379,37.686514]]]}},{"type":"Feature","properties":{"id":"TR-Y-20-018-M-0006","level":"yerlesim","type":"mahalle","parent_id":"TR-D-20-018","province_id":"TR-P-20","district_id":"TR-D-20-018","name":"Orta","source_raw_name":"ORTA","source":"Kamuya açık veri ve kent rehberi servisleri","source_label":"Kamuya açık veri ve kent rehberi servisleri","source_name":"Denizli Adres Bilgi Sistemi - Mahalle Sınırları"},"geometry":{"type":"Polygon","coordinates":[[[29.264402,37.582554],[29.264007,37.581103],[29.263886,37.580194],[29.264502,37.579208],[29.264977,37.579051],[29.264845,37.57883],[29.264539,37.578691],[29.264209,37.578593],[29.26472,37.576894],[29.262725,37.576881],[29.261691,37.576982],[29.261631,37.57749],[29.261697,37.577633],[29.261759,37.577774],[29.261729,37.578568],[29.261729,37.578572],[29.261679,37.57909],[29.261708,37.579856],[29.261915,37.580534],[29.262203,37.581328],[29.26268,37.582275],[29.263096,37.582081],[29.263409,37.582197],[29.263963,37.582512],[29.264402,37.582554]],[[29.261086,37.578407],[29.261274,37.578426],[29.261277,37.578426],[29.261336,37.578445],[29.261728,37.578572],[29.261271,37.578431],[29.261064,37.578404],[29.261086,37.578407]]]}},{"type":"Feature","properties":{"id":"TR-Y-20-018-M-0007","level":"yerlesim","type":"mahalle","parent_id":"TR-D-20-018","province_id":"TR-P-20","district_id":"TR-D-20-018","name":"Pınarcık","source_raw_name":"PINARCIK","source":"Kamuya açık veri ve kent rehberi servisleri","source_label":"Kamuya açık veri ve kent rehberi servisleri","source_name":"Denizli Adres Bilgi Sistemi - Mahalle Sınırları"},"geometry":{"type":"Polygon","coordinates":[[[29.269371,37.584592],[29.268037,37.583735],[29.267426,37.58341],[29.266355,37.583181],[29.265808,37.583013],[29.265159,37.582763],[29.264873,37.582607],[29.264402,37.582554],[29.263963,37.582512],[29.263409,37.582197],[29.263096,37.582081],[29.26268,37.582275],[29.260481,37.582948],[29.259735,37.583014],[29.258839,37.582787],[29.258118,37.582918],[29.255741,37.583411],[29.254821,37.583791],[29.254127,37.583387],[29.253222,37.584048],[29.251267,37.584822],[29.249678,37.584932],[29.247139,37.584319],[29.243958,37.584847],[29.222165,37.585087],[29.221615,37.591348],[29.221895,37.593132],[29.223206,37.596228],[29.225138,37.596983],[29.226953,37.598361],[29.231601,37.603528],[29.237674,37.611911],[29.243073,37.620556],[29.262804,37.595866],[29.266541,37.591188],[29.26657,37.59003],[29.2668,37.58923],[29.267289,37.588232],[29.269371,37.584592]]]}},{"type":"Feature","properties":{"id":"TR-Y-20-018-M-0008","level":"yerlesim","type":"mahalle","parent_id":"TR-D-20-018","province_id":"TR-P-20","district_id":"TR-D-20-018","name":"Şair Eşref","source_raw_name":"ŞAİR EŞREF","source":"Kamuya açık veri ve kent rehberi servisleri","source_label":"Kamuya açık veri ve kent rehberi servisleri","source_name":"Denizli Adres Bilgi Sistemi - Mahalle Sınırları"},"geometry":{"type":"Polygon","coordinates":[[[29.301237,37.529418],[29.299809,37.529206],[29.292743,37.529355],[29.286143,37.526636],[29.285527,37.526076],[29.283033,37.524987],[29.278217,37.524957],[29.274366,37.52478],[29.269549,37.524904],[29.265695,37.525033],[29.263576,37.52502],[29.259339,37.52484],[29.255109,37.524046],[29.251452,37.523716],[29.249598,37.524398],[29.239945,37.524158],[29.234941,37.524986],[29.232324,37.525741],[29.230116,37.526558],[29.232945,37.530615],[29.235157,37.533064],[29.237597,37.535158],[29.23948,37.536952],[29.238977,37.53876],[29.238422,37.542022],[29.238619,37.544666],[29.238542,37.548525],[29.237768,37.551341],[29.236634,37.552848],[29.236329,37.553499],[29.237762,37.555617],[29.238926,37.558445],[29.239433,37.55976],[29.242454,37.561781],[29.244247,37.562232],[29.246863,37.564098],[29.24774,37.565019],[29.249378,37.566498],[29.250853,37.567575],[29.252503,37.567872],[29.257051,37.569188],[29.259004,37.570616],[29.260016,37.571853],[29.261707,37.572528],[29.262314,37.572975],[29.263433,37.573404],[29.263942,37.573679],[29.264696,37.574014],[29.263963,37.574898],[29.265998,37.575005],[29.266006,37.575006],[29.266822,37.575092],[29.268638,37.575158],[29.26887,37.575288],[29.270365,37.575574],[29.271152,37.575842],[29.276171,37.57017],[29.277782,37.568396],[29.278514,37.568277],[29.284496,37.561245],[29.291985,37.552438],[29.294524,37.549879],[29.297714,37.539143],[29.30029,37.533683],[29.301237,37.529418]]]}},{"type":"Feature","properties":{"id":"TR-Y-20-018-M-0009","level":"yerlesim","type":"mahalle","parent_id":"TR-D-20-018","province_id":"TR-P-20","district_id":"TR-D-20-018","name":"Yatağan","source_raw_name":"YATAĞAN","source":"Kamuya açık veri ve kent rehberi servisleri","source_label":"Kamuya açık veri ve kent rehberi servisleri","source_name":"Denizli Adres Bilgi Sistemi - Mahalle Sınırları"},"geometry":{"type":"Polygon","coordinates":[[[29.379433,37.62279],[29.382122,37.622746],[29.385473,37.622811],[29.386023,37.621421],[29.387522,37.619287],[29.388207,37.617791],[29.390267,37.616806],[29.392924,37.616176],[29.394989,37.616508],[29.396331,37.617338],[29.398794,37.618459],[29.401311,37.618472],[29.402382,37.61955],[29.40378,37.618913],[29.425849,37.618982],[29.421712,37.611333],[29.414404,37.600649],[29.408652,37.595535],[29.408329,37.591578],[29.404272,37.589938],[29.403208,37.589508],[29.395799,37.579538],[29.388277,37.576295],[29.38828,37.575921],[29.387493,37.573453],[29.386571,37.570985],[29.385788,37.567982],[29.385675,37.565411],[29.385566,37.563752],[29.385333,37.563137],[29.385278,37.555318],[29.384354,37.551213],[29.386634,37.550653],[29.381991,37.547291],[29.370076,37.539981],[29.369522,37.534638],[29.368606,37.529675],[29.368079,37.528731],[29.367754,37.528148],[29.367405,37.528276],[29.360509,37.530288],[29.359543,37.53057],[29.358902,37.528469],[29.355004,37.529306],[29.355879,37.531933],[29.35456,37.532212],[29.354023,37.531994],[29.351152,37.531692],[29.350862,37.531645],[29.347565,37.531101],[29.344818,37.530323],[29.343409,37.527073],[29.342559,37.528498],[29.342451,37.531484],[29.342751,37.53313],[29.342685,37.536099],[29.34331,37.538616],[29.345716,37.541143],[29.347234,37.543408],[29.349158,37.545545],[29.350601,37.547229],[29.352284,37.549172],[29.35518,37.551315],[29.356789,37.552419],[29.357836,37.553069],[29.358798,37.554235],[29.360086,37.555015],[29.362426,37.55593],[29.36371,37.557291],[29.364751,37.558585],[29.365141,37.560392],[29.365044,37.562325],[29.365116,37.563292],[29.365832,37.564843],[29.367276,37.566462],[29.367661,37.567816],[29.368109,37.569146],[29.368041,37.571068],[29.368316,37.571417],[29.368317,37.57142],[29.368521,37.571831],[29.368523,37.571839],[29.368705,37.5726],[29.369567,37.574165],[29.370241,37.576588],[29.370492,37.578415],[29.370845,37.580837],[29.370883,37.58262],[29.371775,37.584408],[29.372827,37.586239],[29.372495,37.58768],[29.371464,37.589712],[29.370168,37.591573],[29.370252,37.594248],[29.370554,37.5965],[29.370645,37.598283],[29.371047,37.601299],[29.370013,37.603671],[29.368608,37.605786],[29.367744,37.60697],[29.367096,37.6079],[29.365431,37.609207],[29.365186,37.612984],[29.365064,37.614681],[29.364785,37.61622],[29.362659,37.61645],[29.361129,37.61801],[29.35929,37.620172],[29.35821,37.622338],[29.360362,37.621703],[29.361967,37.621202],[29.364262,37.621214],[29.36645,37.621226],[29.368476,37.621407],[29.371569,37.621678],[29.373327,37.622112],[29.374874,37.622163],[29.377476,37.62226],[29.379433,37.62279]]]}},{"type":"Feature","properties":{"id":"TR-Y-20-018-M-0010","level":"yerlesim","type":"mahalle","parent_id":"TR-D-20-018","province_id":"TR-P-20","district_id":"TR-D-20-018","name":"Yenice","source_raw_name":"YENİCE","source":"Kamuya açık veri ve kent rehberi servisleri","source_label":"Kamuya açık veri ve kent rehberi servisleri","source_name":"Denizli Adres Bilgi Sistemi - Mahalle Sınırları"},"geometry":{"type":"Polygon","coordinates":[[[29.26788,37.578191],[29.27016,37.576596],[29.271152,37.575842],[29.270365,37.575574],[29.26887,37.575288],[29.268638,37.575158],[29.266822,37.575092],[29.265998,37.575005],[29.263963,37.574898],[29.264696,37.574014],[29.263942,37.573679],[29.263433,37.573404],[29.262314,37.572975],[29.261707,37.572528],[29.260016,37.571853],[29.259004,37.570616],[29.257051,37.569188],[29.252503,37.567872],[29.250853,37.567575],[29.249378,37.566498],[29.24774,37.565019],[29.246863,37.564098],[29.244247,37.562232],[29.242454,37.561781],[29.239433,37.55976],[29.241648,37.565915],[29.243369,37.569133],[29.242866,37.570852],[29.247931,37.571968],[29.249407,37.572621],[29.249284,37.57591],[29.249436,37.576002],[29.24982,37.576235],[29.250345,37.577669],[29.254838,37.577626],[29.258903,37.578093],[29.259516,37.578192],[29.260176,37.578113],[29.260788,37.578254],[29.261064,37.578404],[29.261086,37.578407],[29.261274,37.578426],[29.261277,37.578426],[29.261336,37.578445],[29.261728,37.578572],[29.261729,37.578572],[29.261729,37.578568],[29.261759,37.577774],[29.261697,37.577633],[29.261631,37.57749],[29.261691,37.576982],[29.262725,37.576881],[29.26472,37.576894],[29.264209,37.578593],[29.264539,37.578691],[29.264845,37.57883],[29.264977,37.579051],[29.26788,37.578191]]]}},{"type":"Feature","properties":{"id":"TR-Y-20-018-M-0011","level":"yerlesim","type":"mahalle","parent_id":"TR-D-20-018","province_id":"TR-P-20","district_id":"TR-D-20-018","name":"Yüreğil","source_raw_name":"YÜREĞİL","source":"Kamuya açık veri ve kent rehberi servisleri","source_label":"Kamuya açık veri ve kent rehberi servisleri","source_name":"Denizli Adres Bilgi Sistemi - Mahalle Sınırları"},"geometry":{"type":"Polygon","coordinates":[[[29.367661,37.567816],[29.367276,37.566462],[29.365832,37.564843],[29.365116,37.563292],[29.365044,37.562325],[29.365141,37.560392],[29.364751,37.558585],[29.36371,37.557291],[29.362426,37.55593],[29.360086,37.555015],[29.358798,37.554235],[29.357836,37.553069],[29.356789,37.552419],[29.35518,37.551315],[29.352284,37.549172],[29.350601,37.547229],[29.349158,37.545545],[29.347234,37.543408],[29.345716,37.541143],[29.34331,37.538616],[29.342685,37.536099],[29.342751,37.53313],[29.342451,37.531484],[29.342401,37.532884],[29.339996,37.534015],[29.337836,37.534479],[29.336382,37.536474],[29.3351,37.536636],[29.333505,37.536839],[29.329428,37.537483],[29.326063,37.538799],[29.321864,37.539728],[29.319952,37.539241],[29.318591,37.541248],[29.318144,37.543511],[29.317413,37.54566],[29.315969,37.547917],[29.316667,37.549394],[29.317937,37.550647],[29.319359,37.550656],[29.321208,37.55078],[29.322635,37.550335],[29.325343,37.549784],[29.327052,37.54968],[29.328174,37.551499],[29.329436,37.553546],[29.331829,37.556505],[29.331963,37.557412],[29.333377,37.55844],[29.333217,37.560364],[29.333299,37.561532],[29.333344,37.562178],[29.33474,37.565131],[29.336284,37.567632],[29.337552,37.569112],[29.338838,37.56844],[29.341412,37.567095],[29.343472,37.567313],[29.343505,37.56731],[29.34466,37.567208],[29.344677,37.567207],[29.344975,37.567156],[29.344982,37.567154],[29.34523,37.567079],[29.345235,37.56708],[29.347668,37.567809],[29.350509,37.568391],[29.351784,37.569078],[29.352627,37.570329],[29.354608,37.571699],[29.356017,37.573406],[29.357146,37.574545],[29.357987,37.576023],[29.357972,37.577835],[29.358378,37.580217],[29.359504,37.581695],[29.360061,37.583171],[29.360046,37.584984],[29.359416,37.587713],[29.358792,37.589761],[29.358915,37.59314],[29.359803,37.595679],[29.361295,37.598583],[29.36098,37.599909],[29.359903,37.601713],[29.358673,37.603637],[29.358047,37.605927],[29.35818,37.608099],[29.358161,37.610271],[29.359365,37.611364],[29.361173,37.612822],[29.363429,37.615127],[29.364785,37.61622],[29.365064,37.614681],[29.365186,37.612984],[29.365431,37.609207],[29.367096,37.6079],[29.367744,37.60697],[29.368608,37.605786],[29.370013,37.603671],[29.371047,37.601299],[29.370645,37.598283],[29.370554,37.5965],[29.370252,37.594248],[29.370168,37.591573],[29.371464,37.589712],[29.372495,37.58768],[29.372827,37.586239],[29.371775,37.584408],[29.370883,37.58262],[29.370845,37.580837],[29.370492,37.578415],[29.370241,37.576588],[29.369567,37.574165],[29.368705,37.5726],[29.368523,37.571839],[29.368317,37.57142],[29.368041,37.571068],[29.368109,37.569146],[29.367661,37.567816]]]}}]}