{"type":"FeatureCollection","name":"turkiye_map.dist.mahalle_geometrileri_by_district.TR-D-34-024","features":[{"type":"Feature","properties":{"id":"TR-Y-34-024-M-0001","level":"yerlesim","type":"mahalle","parent_id":"TR-D-34-024","province_id":"TR-P-34","district_id":"TR-D-34-024","name":"Çağlayan","source_raw_name":"ÇAĞLAYAN","source":"Kullanıcı tarafından sağlanan KML","source_label":"Kullanıcı tarafından sağlanan KML","source_name":"Istanbul Mahalle KML"},"geometry":{"type":"Polygon","coordinates":[[[28.986897,41.080101],[28.986888,41.079993],[28.986894,41.079753],[28.9869,41.079718],[28.986914,41.079673],[28.986947,41.079626],[28.98699,41.079584],[28.987069,41.079524],[28.987207,41.079403],[28.987301,41.079323],[28.9875,41.079162],[28.98763,41.079064],[28.987902,41.078853],[28.987966,41.078808],[28.987996,41.078775],[28.988023,41.078706],[28.988025,41.078658],[28.988025,41.078612],[28.987466,41.078143],[28.98698,41.077811],[28.986787,41.077688],[28.98656,41.077555],[28.986216,41.077356],[28.986038,41.077241],[28.985872,41.077115],[28.985687,41.076965],[28.98516,41.076464],[28.985109,41.076442],[28.985075,41.076443],[28.984989,41.076475],[28.984729,41.07661],[28.984639,41.076656],[28.984566,41.076686],[28.984501,41.076699],[28.984431,41.076692],[28.984339,41.076657],[28.984212,41.076591],[28.983992,41.076466],[28.983806,41.076311],[28.983619,41.076098],[28.983557,41.076027],[28.98342,41.075849],[28.983293,41.075626],[28.983039,41.074976],[28.98294,41.07472],[28.982634,41.073992],[28.982572,41.073855],[28.982536,41.07378],[28.982476,41.073694],[28.982402,41.073575],[28.982323,41.07349],[28.982189,41.073346],[28.982013,41.073154],[28.981883,41.073],[28.981563,41.072573],[28.981443,41.072566],[28.981347,41.072596],[28.981297,41.072631],[28.981296,41.072673],[28.981289,41.072823],[28.981286,41.072871],[28.981255,41.072933],[28.981226,41.072978],[28.981172,41.073051],[28.981103,41.073091],[28.980982,41.073115],[28.980908,41.073119],[28.980856,41.073097],[28.980811,41.073064],[28.980811,41.073063],[28.980768,41.073031],[28.980688,41.072959],[28.980604,41.07289],[28.980577,41.072876],[28.980538,41.072857],[28.980495,41.072844],[28.980382,41.07275],[28.980316,41.072694],[28.980272,41.072653],[28.980203,41.071991],[28.980194,41.071607],[28.980042,41.071298],[28.979745,41.070761],[28.979719,41.07077],[28.979642,41.070798],[28.979292,41.070932],[28.979225,41.070957],[28.978869,41.071077],[28.978773,41.071119],[28.978652,41.071184],[28.978584,41.071242],[28.978515,41.071314],[28.978445,41.071396],[28.978385,41.071464],[28.97833,41.071529],[28.978281,41.071596],[28.977981,41.072039],[28.977851,41.072255],[28.977766,41.072387],[28.977681,41.07252],[28.977638,41.072588],[28.977536,41.07275],[28.977479,41.072841],[28.977429,41.072923],[28.977382,41.073002],[28.977359,41.073037],[28.977345,41.073058],[28.97739,41.073067],[28.977571,41.07317],[28.977645,41.073231],[28.977794,41.073391],[28.977906,41.073493],[28.978094,41.073617],[28.978252,41.073717],[28.978302,41.073774],[28.978336,41.073934],[28.978272,41.074056],[28.978188,41.074166],[28.978155,41.074202],[28.977976,41.074354],[28.977835,41.074476],[28.977773,41.07453],[28.977705,41.074591],[28.977601,41.074661],[28.977609,41.074734],[28.977623,41.074942],[28.977628,41.075098],[28.977639,41.075242],[28.977647,41.075291],[28.977671,41.075369],[28.977784,41.075519],[28.977683,41.075543],[28.97754,41.07557],[28.97733,41.075625],[28.977072,41.075678],[28.976887,41.075836],[28.976748,41.075956],[28.976486,41.076185],[28.976334,41.076327],[28.976201,41.076437],[28.976034,41.076582],[28.975722,41.076788],[28.975561,41.076976],[28.975228,41.077263],[28.975021,41.07748],[28.974868,41.077598],[28.974775,41.077669],[28.974554,41.077829],[28.974541,41.077845],[28.97454,41.077864],[28.974579,41.077921],[28.974646,41.078053],[28.97477,41.078307],[28.974768,41.078351],[28.974748,41.078396],[28.974712,41.078446],[28.974659,41.078484],[28.974594,41.07851],[28.974488,41.078524],[28.97437,41.078594],[28.974229,41.078692],[28.974181,41.078758],[28.974135,41.078812],[28.973914,41.078957],[28.973712,41.079097],[28.973486,41.079259],[28.973417,41.079308],[28.973431,41.079373],[28.973457,41.079456],[28.973492,41.079521],[28.973645,41.079625],[28.974143,41.079811],[28.974634,41.08],[28.974885,41.080082],[28.975026,41.080186],[28.975133,41.080289],[28.975231,41.080411],[28.975342,41.080598],[28.975456,41.08081],[28.975707,41.081275],[28.975967,41.081765],[28.976035,41.081895],[28.976381,41.082539],[28.976537,41.082819],[28.976652,41.082998],[28.976737,41.083127],[28.976845,41.08329],[28.97692,41.083401],[28.977124,41.083281],[28.977267,41.083195],[28.977336,41.083107],[28.977481,41.08298],[28.977818,41.082696],[28.977914,41.082634],[28.97801,41.082582],[28.978363,41.082412],[28.978613,41.082294],[28.97879,41.082221],[28.978932,41.082169],[28.97911,41.082122],[28.979409,41.082048],[28.979765,41.081981],[28.980025,41.081963],[28.980312,41.08196],[28.980817,41.082065],[28.98146,41.08219],[28.98165,41.082241],[28.981873,41.082333],[28.981979,41.082385],[28.982053,41.082419],[28.982232,41.082518],[28.982445,41.082684],[28.982663,41.082841],[28.98285,41.082968],[28.982936,41.083025],[28.983097,41.083105],[28.983295,41.083188],[28.983664,41.083347],[28.983873,41.083429],[28.983963,41.083476],[28.984024,41.083509],[28.984094,41.083569],[28.984165,41.083623],[28.984317,41.083724],[28.984502,41.08384],[28.98501,41.084133],[28.985228,41.08427],[28.985334,41.084357],[28.985433,41.084303],[28.985633,41.084116],[28.985727,41.084018],[28.985802,41.083937],[28.985865,41.083861],[28.985915,41.083778],[28.985955,41.083706],[28.986011,41.083587],[28.986106,41.083365],[28.986151,41.083278],[28.986204,41.083182],[28.986287,41.083055],[28.986331,41.082987],[28.986388,41.082699],[28.986498,41.082326],[28.986717,41.081723],[28.986914,41.081152],[28.98695,41.080972],[28.986913,41.080722],[28.986852,41.080319],[28.986869,41.080211],[28.986896,41.080101],[28.986897,41.080101]]]}},{"type":"Feature","properties":{"id":"TR-Y-34-024-M-0002","level":"yerlesim","type":"mahalle","parent_id":"TR-D-34-024","province_id":"TR-P-34","district_id":"TR-D-34-024","name":"Çeliktepe","source_raw_name":"ÇELİKTEPE","source":"Kullanıcı tarafından sağlanan KML","source_label":"Kullanıcı tarafından sağlanan KML","source_name":"Istanbul Mahalle KML"},"geometry":{"type":"Polygon","coordinates":[[[29.000585,41.087381],[29.000629,41.087288],[29.000667,41.087175],[29.000673,41.087165],[29.000881,41.08702],[29.00094,41.086977],[29.001006,41.086923],[29.001102,41.086824],[29.001129,41.086785],[29.001194,41.08669],[29.001243,41.086624],[29.001384,41.086436],[29.001428,41.086378],[29.001433,41.086378],[29.001586,41.086428],[29.001686,41.086452],[29.001717,41.086455],[29.001915,41.086464],[29.001993,41.08613],[29.002028,41.085987],[29.002057,41.085858],[29.002073,41.085727],[29.002083,41.085661],[29.002119,41.085443],[29.002123,41.085364],[29.002222,41.085068],[29.002238,41.085022],[29.002386,41.08504],[29.002402,41.084927],[29.002457,41.084645],[29.002495,41.084481],[29.002518,41.084374],[29.002535,41.084328],[29.00259,41.084335],[29.002699,41.084344],[29.002956,41.084331],[29.003099,41.084328],[29.003145,41.084321],[29.003144,41.084371],[29.003231,41.084379],[29.003476,41.084395],[29.003732,41.084405],[29.00412,41.084417],[29.004627,41.08446],[29.004689,41.084465],[29.004781,41.084412],[29.004871,41.084342],[29.004969,41.084271],[29.005196,41.083905],[29.00542,41.083565],[29.005712,41.08307],[29.005857,41.082855],[29.006203,41.082426],[29.006356,41.08216],[29.006397,41.082026],[29.006146,41.081939],[29.006086,41.081925],[29.005509,41.081776],[29.005396,41.08174],[29.005058,41.08155],[29.00489,41.081452],[29.004692,41.081334],[29.00458,41.081255],[29.004479,41.081225],[29.004269,41.081121],[29.004088,41.080994],[29.003862,41.080836],[29.003673,41.080705],[29.003572,41.080634],[29.00338,41.080732],[29.003332,41.080739],[29.003271,41.080737],[29.003182,41.080725],[29.002908,41.080636],[29.002649,41.080577],[29.002302,41.080521],[29.001893,41.08054],[29.001349,41.080579],[29.00102,41.0806],[29.000985,41.080602],[29.000861,41.080606],[29.000728,41.080593],[29.000656,41.080582],[29.000528,41.080551],[29.000412,41.080549],[29.000311,41.080562],[29.000169,41.080598],[28.999961,41.080658],[28.999855,41.080665],[28.999579,41.080663],[28.999394,41.08064],[28.999168,41.080636],[28.999022,41.080641],[28.998126,41.080867],[28.997572,41.081068],[28.997334,41.081071],[28.997334,41.081071],[28.997205,41.081098],[28.996603,41.081333],[28.996409,41.081414],[28.996151,41.081516],[28.996001,41.081553],[28.995811,41.081625],[28.995725,41.08167],[28.995507,41.081831],[28.995255,41.082042],[28.995203,41.082093],[28.995176,41.082124],[28.995114,41.082199],[28.995069,41.08225],[28.994993,41.08236],[28.994957,41.0824],[28.994825,41.082531],[28.99476,41.082598],[28.994668,41.082698],[28.994527,41.082907],[28.994462,41.083041],[28.994429,41.083152],[28.994425,41.083182],[28.994438,41.083257],[28.994495,41.083326],[28.994602,41.083416],[28.994711,41.083518],[28.994767,41.083588],[28.994811,41.083658],[28.994898,41.083931],[28.994938,41.084191],[28.994943,41.084325],[28.994927,41.084408],[28.994881,41.084484],[28.994851,41.084516],[28.994687,41.08466],[28.994563,41.084778],[28.994531,41.084836],[28.994493,41.084904],[28.994392,41.085189],[28.994329,41.085325],[28.994277,41.085408],[28.994552,41.085565],[28.994799,41.085679],[28.995416,41.085992],[28.995577,41.086103],[28.996008,41.086397],[28.996228,41.08653],[28.996524,41.086662],[28.997288,41.087008],[28.997578,41.087107],[28.997781,41.08714],[28.997967,41.08715],[28.998171,41.087188],[28.998324,41.087236],[28.998431,41.087303],[28.998532,41.08739],[28.998654,41.087483],[28.998831,41.087612],[28.998912,41.087643],[28.999018,41.08766],[28.999302,41.087634],[28.999578,41.087605],[28.999825,41.087558],[29.000227,41.087426],[29.000423,41.087385],[29.000585,41.087381]]]}},{"type":"Feature","properties":{"id":"TR-Y-34-024-M-0003","level":"yerlesim","type":"mahalle","parent_id":"TR-D-34-024","province_id":"TR-P-34","district_id":"TR-D-34-024","name":"Emniyet Evleri","source_raw_name":"EMNİYET EVLERİ","source":"Kullanıcı tarafından sağlanan KML","source_label":"Kullanıcı tarafından sağlanan KML","source_name":"Istanbul Mahalle KML"},"geometry":{"type":"Polygon","coordinates":[[[29.006117,41.088465],[29.006145,41.088384],[29.006188,41.088234],[29.006203,41.088183],[29.00623,41.088077],[29.006273,41.087908],[29.006325,41.087751],[29.006439,41.087329],[29.006544,41.086989],[29.00658,41.086811],[29.00671,41.086547],[29.006938,41.086266],[29.00695,41.086104],[29.006859,41.086037],[29.006782,41.085956],[29.006797,41.08589],[29.006864,41.085584],[29.00691,41.085455],[29.007082,41.085042],[29.00721,41.084747],[29.007258,41.084553],[29.006996,41.084538],[29.006247,41.084468],[29.005782,41.084437],[29.005375,41.08443],[29.005136,41.084404],[29.00499,41.084371],[29.004871,41.084342],[29.004781,41.084412],[29.004689,41.084465],[29.004627,41.08446],[29.00412,41.084417],[29.003732,41.084405],[29.003476,41.084395],[29.003231,41.084379],[29.003144,41.084371],[29.003145,41.084321],[29.003099,41.084328],[29.002956,41.084331],[29.002699,41.084344],[29.00259,41.084335],[29.002535,41.084328],[29.002518,41.084374],[29.002495,41.084481],[29.002457,41.084645],[29.002402,41.084927],[29.002386,41.08504],[29.002238,41.085022],[29.002222,41.085068],[29.002123,41.085364],[29.002119,41.085443],[29.002083,41.085661],[29.002073,41.085727],[29.002057,41.085858],[29.002028,41.085987],[29.001993,41.08613],[29.001915,41.086464],[29.001717,41.086455],[29.001686,41.086452],[29.001586,41.086428],[29.001433,41.086378],[29.001428,41.086378],[29.001384,41.086436],[29.001243,41.086624],[29.001194,41.08669],[29.001129,41.086785],[29.001102,41.086824],[29.001006,41.086923],[29.00094,41.086977],[29.000881,41.08702],[29.000673,41.087165],[29.000667,41.087175],[29.000629,41.087288],[29.000585,41.087381],[29.000794,41.087439],[29.000878,41.087467],[29.00097,41.087533],[29.001028,41.087607],[29.001334,41.088003],[29.001359,41.08804],[29.001403,41.088079],[29.001689,41.088182],[29.001799,41.088236],[29.001978,41.088332],[29.002304,41.088452],[29.002517,41.088533],[29.002744,41.088681],[29.002963,41.088759],[29.003043,41.088691],[29.003179,41.088574],[29.00322,41.088548],[29.003356,41.088477],[29.00341,41.088466],[29.003461,41.088464],[29.003626,41.088458],[29.003695,41.088455],[29.004224,41.088433],[29.004334,41.088428],[29.005047,41.08842],[29.005604,41.088425],[29.006002,41.088448],[29.006117,41.088465]]]}},{"type":"Feature","properties":{"id":"TR-Y-34-024-M-0004","level":"yerlesim","type":"mahalle","parent_id":"TR-D-34-024","province_id":"TR-P-34","district_id":"TR-D-34-024","name":"Gültepe","source_raw_name":"GÜLTEPE","source":"Kullanıcı tarafından sağlanan KML","source_label":"Kullanıcı tarafından sağlanan KML","source_name":"Istanbul Mahalle KML"},"geometry":{"type":"Polygon","coordinates":[[[28.997334,41.081071],[28.997315,41.080958],[28.997204,41.08084],[28.997156,41.080806],[28.997094,41.080787],[28.996792,41.080882],[28.996578,41.080906],[28.996528,41.080899],[28.996474,41.080878],[28.996347,41.080762],[28.996221,41.080585],[28.996186,41.080511],[28.99595,41.079548],[28.995808,41.079146],[28.996283,41.078977],[28.995749,41.078155],[28.995423,41.077693],[28.995267,41.07749],[28.995113,41.077358],[28.99495,41.077257],[28.994802,41.077093],[28.994632,41.077034],[28.994564,41.077043],[28.994475,41.077104],[28.994308,41.077257],[28.994263,41.077224],[28.994177,41.077108],[28.994309,41.077024],[28.994418,41.076952],[28.994371,41.076894],[28.994335,41.076751],[28.99433,41.076618],[28.994136,41.076617],[28.993996,41.07662],[28.993845,41.076625],[28.99375,41.076631],[28.993498,41.076641],[28.993347,41.076647],[28.992898,41.076646],[28.992731,41.07666],[28.992635,41.076695],[28.992497,41.076781],[28.992063,41.07699],[28.991165,41.077428],[28.990573,41.077731],[28.990066,41.077966],[28.989911,41.078013],[28.989694,41.078056],[28.989756,41.078109],[28.98978,41.078147],[28.989784,41.078205],[28.98976,41.078245],[28.989809,41.078231],[28.990071,41.078216],[28.990343,41.078218],[28.990589,41.078249],[28.990721,41.078319],[28.990767,41.078373],[28.990916,41.078653],[28.990945,41.078705],[28.991108,41.078919],[28.991139,41.078963],[28.991212,41.079059],[28.991258,41.079109],[28.991346,41.079214],[28.991385,41.079268],[28.9915,41.079406],[28.991561,41.079478],[28.991821,41.079713],[28.992272,41.080067],[28.993056,41.080705],[28.993844,41.081327],[28.99432,41.081712],[28.994914,41.082161],[28.995025,41.08218],[28.995114,41.082199],[28.995176,41.082124],[28.995203,41.082093],[28.995255,41.082042],[28.995507,41.081831],[28.995725,41.08167],[28.995811,41.081625],[28.996001,41.081553],[28.996151,41.081516],[28.996409,41.081414],[28.996603,41.081333],[28.997205,41.081098],[28.997334,41.081071],[28.997334,41.081071]]]}},{"type":"Feature","properties":{"id":"TR-Y-34-024-M-0005","level":"yerlesim","type":"mahalle","parent_id":"TR-D-34-024","province_id":"TR-P-34","district_id":"TR-D-34-024","name":"Gürsel","source_raw_name":"GÜRSEL","source":"Kullanıcı tarafından sağlanan KML","source_label":"Kullanıcı tarafından sağlanan KML","source_name":"Istanbul Mahalle KML"},"geometry":{"type":"Polygon","coordinates":[[[28.977345,41.073058],[28.977359,41.073037],[28.977382,41.073002],[28.977429,41.072923],[28.977479,41.072841],[28.977536,41.07275],[28.977638,41.072588],[28.977681,41.07252],[28.977766,41.072387],[28.977851,41.072255],[28.977981,41.072039],[28.978281,41.071596],[28.97833,41.071529],[28.978385,41.071464],[28.978445,41.071396],[28.978515,41.071314],[28.978584,41.071242],[28.978652,41.071184],[28.978773,41.071119],[28.978869,41.071077],[28.979225,41.070957],[28.979292,41.070932],[28.979642,41.070798],[28.979719,41.07077],[28.979681,41.07072],[28.979483,41.070515],[28.979059,41.070129],[28.978851,41.069906],[28.978667,41.069675],[28.978559,41.069453],[28.978426,41.069279],[28.978371,41.069207],[28.978258,41.069052],[28.978143,41.06893],[28.978013,41.068843],[28.977328,41.068711],[28.977069,41.068659],[28.976857,41.068619],[28.976675,41.068554],[28.976546,41.068476],[28.976331,41.068276],[28.976182,41.06813],[28.976072,41.068017],[28.975983,41.067929],[28.975874,41.067885],[28.975535,41.067788],[28.975303,41.067727],[28.974955,41.067637],[28.974555,41.067549],[28.974551,41.067479],[28.974695,41.067038],[28.974766,41.06682],[28.974866,41.066478],[28.974902,41.066368],[28.974876,41.066333],[28.974802,41.066297],[28.974553,41.066229],[28.974177,41.066066],[28.973575,41.065791],[28.972865,41.065435],[28.971418,41.064782],[28.970345,41.064335],[28.970078,41.06476],[28.969551,41.064894],[28.969489,41.065252],[28.969414,41.065438],[28.969363,41.065621],[28.969354,41.065773],[28.969317,41.065909],[28.969227,41.06605],[28.969142,41.066189],[28.969127,41.066306],[28.969114,41.066497],[28.969128,41.066673],[28.969145,41.066768],[28.969162,41.066816],[28.969192,41.066885],[28.969187,41.067],[28.96917,41.067083],[28.969127,41.067177],[28.969116,41.067237],[28.968875,41.067772],[28.9689,41.067855],[28.968895,41.067987],[28.968919,41.068045],[28.969026,41.068111],[28.969176,41.068192],[28.969298,41.068244],[28.969438,41.068234],[28.969287,41.068412],[28.96918,41.068658],[28.969074,41.068941],[28.96898,41.069168],[28.968825,41.069579],[28.968781,41.069763],[28.968766,41.069861],[28.968757,41.070048],[28.96874,41.070087],[28.968703,41.070108],[28.968665,41.07013],[28.968608,41.070159],[28.968546,41.070188],[28.968461,41.070217],[28.968365,41.070252],[28.968261,41.070291],[28.968113,41.070339],[28.967913,41.070423],[28.967803,41.070466],[28.967704,41.070504],[28.96762,41.070537],[28.967548,41.070566],[28.967482,41.070594],[28.967417,41.070623],[28.967349,41.070656],[28.967272,41.070694],[28.96709,41.070792],[28.966864,41.070916],[28.9666,41.071063],[28.966329,41.071231],[28.966236,41.07127],[28.966148,41.071321],[28.966079,41.071362],[28.965778,41.071553],[28.965868,41.071655],[28.965998,41.071779],[28.966229,41.071988],[28.966471,41.072172],[28.966853,41.072459],[28.967191,41.072712],[28.967429,41.072894],[28.967743,41.073131],[28.967911,41.073269],[28.968174,41.07355],[28.968457,41.07387],[28.968634,41.074072],[28.9689,41.074374],[28.969,41.07451],[28.969134,41.07475],[28.969331,41.075136],[28.9695,41.075515],[28.969636,41.075921],[28.969704,41.07606],[28.969758,41.076162],[28.969841,41.076302],[28.970181,41.076864],[28.970329,41.077075],[28.970387,41.077136],[28.97044,41.077116],[28.970518,41.07709],[28.970622,41.07702],[28.970677,41.076946],[28.97079,41.076772],[28.970844,41.076687],[28.970903,41.076607],[28.970974,41.076492],[28.971259,41.075803],[28.97143,41.075558],[28.971586,41.075373],[28.971795,41.075161],[28.972158,41.074853],[28.972509,41.074596],[28.972784,41.074414],[28.972886,41.074346],[28.973022,41.074292],[28.973181,41.074282],[28.973292,41.074321],[28.973381,41.074398],[28.973433,41.074531],[28.973427,41.074686],[28.973334,41.075028],[28.973329,41.075286],[28.973401,41.075628],[28.973396,41.07575],[28.973343,41.07605],[28.973328,41.076177],[28.973302,41.076385],[28.97331,41.07658],[28.973342,41.076738],[28.973366,41.076816],[28.973442,41.07694],[28.973553,41.077003],[28.973711,41.077051],[28.973931,41.07704],[28.974093,41.076992],[28.974238,41.076922],[28.974308,41.07689],[28.974377,41.076853],[28.974533,41.076757],[28.974673,41.076669],[28.974794,41.07657],[28.975031,41.076386],[28.975146,41.07628],[28.975228,41.076192],[28.975573,41.07578],[28.975937,41.075322],[28.976355,41.074834],[28.976501,41.074631],[28.97695,41.073758],[28.977002,41.073663],[28.977165,41.073372],[28.977282,41.07317],[28.977345,41.073058]]]}},{"type":"Feature","properties":{"id":"TR-Y-34-024-M-0006","level":"yerlesim","type":"mahalle","parent_id":"TR-D-34-024","province_id":"TR-P-34","district_id":"TR-D-34-024","name":"Hamidiye","source_raw_name":"HAMİDİYE","source":"Kullanıcı tarafından sağlanan KML","source_label":"Kullanıcı tarafından sağlanan KML","source_name":"Istanbul Mahalle KML"},"geometry":{"type":"Polygon","coordinates":[[[28.965702,41.103628],[28.965809,41.103287],[28.966159,41.10311],[28.967273,41.102951],[28.967918,41.103074],[28.969776,41.102034],[28.97181,41.102683],[28.972277,41.102697],[28.973273,41.102505],[28.974459,41.102413],[28.974999,41.102405],[28.975434,41.102394],[28.975853,41.102456],[28.976027,41.102546],[28.976392,41.10266],[28.976784,41.102759],[28.977056,41.1027],[28.977627,41.102721],[28.978084,41.10239],[28.978486,41.102599],[28.978825,41.102643],[28.979205,41.102728],[28.980048,41.103075],[28.980715,41.103165],[28.984166,41.103824],[28.984676,41.102773],[28.983906,41.102664],[28.983188,41.102617],[28.983083,41.10262],[28.982883,41.102626],[28.982706,41.102636],[28.982508,41.102646],[28.982244,41.102622],[28.982143,41.102605],[28.981886,41.102549],[28.981629,41.102462],[28.981379,41.102365],[28.981075,41.102194],[28.98084,41.101999],[28.980678,41.10182],[28.980534,41.10163],[28.980433,41.101408],[28.980382,41.100985],[28.980346,41.100429],[28.980332,41.099975],[28.980366,41.099805],[28.980476,41.099548],[28.980652,41.099208],[28.980956,41.098722],[28.981125,41.098425],[28.981191,41.098277],[28.981278,41.098054],[28.981389,41.097728],[28.981486,41.097435],[28.981694,41.096811],[28.981731,41.09668],[28.981784,41.096549],[28.981871,41.096395],[28.982114,41.09609],[28.982245,41.095937],[28.982488,41.095655],[28.983057,41.094986],[28.983423,41.094561],[28.98363,41.09431],[28.983715,41.094205],[28.983781,41.094107],[28.983889,41.093917],[28.984111,41.093459],[28.984254,41.09314],[28.98437,41.09288],[28.984475,41.092655],[28.98459,41.092409],[28.984735,41.092111],[28.985003,41.091603],[28.985071,41.091385],[28.985083,41.09132],[28.985098,41.090985],[28.985064,41.090612],[28.985021,41.090349],[28.98499,41.090226],[28.984955,41.090079],[28.984888,41.089889],[28.984788,41.089691],[28.984721,41.089549],[28.984517,41.08938],[28.984194,41.089135],[28.983743,41.088857],[28.983535,41.088771],[28.983422,41.088684],[28.983087,41.088427],[28.982526,41.087949],[28.98162,41.087201],[28.980744,41.08651],[28.980522,41.08634],[28.980039,41.085964],[28.9792,41.085347],[28.978762,41.085019],[28.978696,41.084973],[28.978626,41.085085],[28.978579,41.085187],[28.978551,41.085253],[28.978529,41.085289],[28.978509,41.085325],[28.978346,41.0855],[28.978169,41.085611],[28.977985,41.085671],[28.977801,41.085755],[28.977507,41.085901],[28.977064,41.086134],[28.97644,41.086385],[28.976153,41.0865],[28.975837,41.08663],[28.975605,41.086778],[28.97544,41.086958],[28.975072,41.087602],[28.975033,41.087655],[28.975323,41.087758],[28.975345,41.087779],[28.975344,41.087808],[28.975262,41.08785],[28.975196,41.087866],[28.97509,41.087896],[28.974917,41.087922],[28.974792,41.088002],[28.974742,41.088041],[28.974557,41.088203],[28.974466,41.088287],[28.97431,41.088503],[28.974285,41.088549],[28.974249,41.08863],[28.974209,41.088723],[28.974193,41.088776],[28.974153,41.088924],[28.974163,41.089012],[28.974222,41.089403],[28.974236,41.089494],[28.974289,41.089858],[28.974302,41.089956],[28.974326,41.090078],[28.974329,41.090159],[28.974293,41.090192],[28.974225,41.090204],[28.974159,41.090212],[28.97409,41.090209],[28.974013,41.090183],[28.973957,41.090156],[28.973912,41.090123],[28.973521,41.089814],[28.973326,41.089653],[28.97325,41.089598],[28.973152,41.089532],[28.973124,41.089518],[28.973086,41.089498],[28.973055,41.089487],[28.972858,41.08944],[28.972723,41.089445],[28.97264,41.089472],[28.972324,41.089605],[28.972125,41.089704],[28.971743,41.089921],[28.971709,41.089938],[28.971354,41.090112],[28.971339,41.090122],[28.971329,41.090132],[28.971324,41.090143],[28.971258,41.090394],[28.971175,41.090576],[28.971068,41.090753],[28.971038,41.090801],[28.970692,41.091236],[28.970444,41.091523],[28.970172,41.091634],[28.970053,41.091784],[28.969977,41.091877],[28.969873,41.091992],[28.969755,41.092116],[28.969663,41.092216],[28.969353,41.092114],[28.969378,41.092025],[28.969418,41.091924],[28.96944,41.091793],[28.969441,41.091737],[28.969432,41.091678],[28.9694,41.091607],[28.969348,41.091515],[28.969271,41.091403],[28.969313,41.091344],[28.969568,41.091022],[28.969306,41.090926],[28.969086,41.090846],[28.968645,41.090687],[28.968497,41.090638],[28.96822,41.090539],[28.968178,41.090524],[28.968017,41.090476],[28.968021,41.090545],[28.968005,41.09065],[28.967935,41.090847],[28.967825,41.091077],[28.967763,41.091215],[28.967705,41.091323],[28.967651,41.091419],[28.967567,41.091524],[28.967372,41.091785],[28.967283,41.091887],[28.967078,41.092073],[28.966814,41.092259],[28.96636,41.092579],[28.966171,41.09272],[28.965791,41.092998],[28.965091,41.09352],[28.964525,41.093928],[28.963951,41.094336],[28.963773,41.094455],[28.963034,41.094864],[28.962572,41.095127],[28.962091,41.095468],[28.961476,41.09586],[28.960845,41.096269],[28.960463,41.096539],[28.960257,41.096721],[28.960069,41.096913],[28.959806,41.097234],[28.959581,41.097512],[28.959507,41.097627],[28.959248,41.098177],[28.959113,41.09844],[28.958993,41.098605],[28.958924,41.098679],[28.958703,41.098812],[28.958632,41.098859],[28.95844,41.098954],[28.958224,41.099104],[28.957611,41.099519],[28.957112,41.099843],[28.956853,41.099988],[28.95652,41.100122],[28.956232,41.100197],[28.955904,41.100242],[28.955735,41.100275],[28.955458,41.100358],[28.954703,41.100564],[28.954395,41.100605],[28.954253,41.100637],[28.954111,41.1007],[28.954025,41.100772],[28.953969,41.100855],[28.953944,41.100943],[28.95395,41.101057],[28.95406,41.101242],[28.954249,41.101653],[28.954305,41.101805],[28.954258,41.102546],[28.954166,41.104027],[28.954084,41.104387],[28.953975,41.104666],[28.953937,41.104761],[28.955203,41.105181],[28.955812,41.105369],[28.956532,41.105595],[28.957166,41.105811],[28.957253,41.105947],[28.958312,41.106119],[28.95896,41.106065],[28.959054,41.106057],[28.959949,41.105531],[28.960343,41.105053],[28.96119,41.10469],[28.961638,41.10467],[28.962468,41.104232],[28.962764,41.104148],[28.963721,41.104353],[28.964059,41.10432],[28.964574,41.104059],[28.96483,41.104013],[28.965702,41.103628]]]}},{"type":"Feature","properties":{"id":"TR-Y-34-024-M-0007","level":"yerlesim","type":"mahalle","parent_id":"TR-D-34-024","province_id":"TR-P-34","district_id":"TR-D-34-024","name":"Harmantepe","source_raw_name":"HARMANTEPE","source":"Kullanıcı tarafından sağlanan KML","source_label":"Kullanıcı tarafından sağlanan KML","source_name":"Istanbul Mahalle KML"},"geometry":{"type":"Polygon","coordinates":[[[28.988735,41.082254],[28.989002,41.082134],[28.989164,41.082075],[28.989324,41.082063],[28.989519,41.082055],[28.989704,41.082021],[28.989802,41.08198],[28.989832,41.081962],[28.989857,41.081937],[28.98988,41.08188],[28.990173,41.082133],[28.990194,41.082164],[28.990456,41.082407],[28.990113,41.082586],[28.990262,41.082766],[28.990439,41.083],[28.990517,41.083103],[28.990623,41.083271],[28.990755,41.083443],[28.990981,41.083749],[28.991095,41.083904],[28.991197,41.084045],[28.991337,41.084193],[28.991416,41.084286],[28.991511,41.084415],[28.991694,41.084663],[28.991793,41.084793],[28.991805,41.084816],[28.991815,41.084878],[28.991828,41.084943],[28.99185,41.084988],[28.991875,41.085017],[28.992035,41.085177],[28.992113,41.085246],[28.992209,41.085334],[28.992345,41.085364],[28.992411,41.085421],[28.992488,41.085498],[28.99253,41.085564],[28.992595,41.085638],[28.992634,41.08575],[28.992656,41.085877],[28.992657,41.085877],[28.992823,41.08587],[28.99294,41.085869],[28.993041,41.085867],[28.993051,41.085867],[28.993149,41.085866],[28.993246,41.085856],[28.993295,41.085848],[28.993398,41.085819],[28.993432,41.085804],[28.993659,41.085684],[28.993901,41.085571],[28.993971,41.085542],[28.994202,41.085444],[28.994277,41.085408],[28.994329,41.085325],[28.994392,41.085189],[28.994493,41.084904],[28.994531,41.084836],[28.994563,41.084778],[28.994687,41.08466],[28.994851,41.084516],[28.994881,41.084484],[28.994927,41.084408],[28.994943,41.084325],[28.994938,41.084191],[28.994898,41.083931],[28.994811,41.083658],[28.994767,41.083588],[28.994711,41.083518],[28.994602,41.083416],[28.994495,41.083326],[28.994438,41.083257],[28.994425,41.083182],[28.994429,41.083152],[28.994462,41.083041],[28.994527,41.082907],[28.994668,41.082698],[28.99476,41.082598],[28.994825,41.082531],[28.994957,41.0824],[28.994993,41.08236],[28.995069,41.08225],[28.995114,41.082199],[28.995025,41.08218],[28.994914,41.082161],[28.99432,41.081712],[28.993844,41.081327],[28.993056,41.080705],[28.992272,41.080067],[28.991821,41.079713],[28.991561,41.079478],[28.9915,41.079406],[28.991385,41.079268],[28.991346,41.079214],[28.991258,41.079109],[28.991212,41.079059],[28.991139,41.078963],[28.991108,41.078919],[28.990945,41.078705],[28.990916,41.078653],[28.990767,41.078373],[28.990721,41.078319],[28.990589,41.078249],[28.990343,41.078218],[28.990071,41.078216],[28.989809,41.078231],[28.98976,41.078245],[28.989784,41.078205],[28.98978,41.078147],[28.989756,41.078109],[28.989694,41.078056],[28.989584,41.078077],[28.98953,41.078087],[28.989247,41.078136],[28.989246,41.078137],[28.988717,41.078322],[28.988521,41.078391],[28.988025,41.078612],[28.988025,41.078658],[28.988023,41.078706],[28.987996,41.078775],[28.987966,41.078808],[28.987902,41.078853],[28.98763,41.079064],[28.9875,41.079162],[28.987301,41.079323],[28.987207,41.079403],[28.987069,41.079524],[28.98699,41.079584],[28.986947,41.079626],[28.986914,41.079673],[28.9869,41.079718],[28.986894,41.079753],[28.986888,41.079993],[28.986897,41.080101],[28.98695,41.08022],[28.987146,41.080647],[28.987203,41.080736],[28.987271,41.080837],[28.987364,41.080963],[28.987424,41.081027],[28.987505,41.081103],[28.987565,41.081158],[28.987649,41.081241],[28.987785,41.081335],[28.987813,41.081349],[28.987866,41.081377],[28.987949,41.081423],[28.988097,41.081504],[28.988143,41.081517],[28.988188,41.081516],[28.988241,41.081504],[28.988428,41.081439],[28.988523,41.0814],[28.988578,41.081378],[28.988628,41.081388],[28.988669,41.081416],[28.988684,41.081442],[28.988668,41.081482],[28.988605,41.08155],[28.988708,41.081642],[28.988834,41.081865],[28.988722,41.081886],[28.988447,41.081913],[28.988648,41.08218],[28.988735,41.082254]]]}},{"type":"Feature","properties":{"id":"TR-Y-34-024-M-0008","level":"yerlesim","type":"mahalle","parent_id":"TR-D-34-024","province_id":"TR-P-34","district_id":"TR-D-34-024","name":"Hürriyet","source_raw_name":"HÜRRİYET","source":"Kullanıcı tarafından sağlanan KML","source_label":"Kullanıcı tarafından sağlanan KML","source_name":"Istanbul Mahalle KML"},"geometry":{"type":"Polygon","coordinates":[[[28.989246,41.078137],[28.989246,41.078136],[28.989226,41.078049],[28.989125,41.077894],[28.989081,41.077808],[28.989133,41.077693],[28.989166,41.077584],[28.989204,41.077446],[28.989255,41.077204],[28.989279,41.077109],[28.989324,41.076922],[28.989326,41.076664],[28.989333,41.076566],[28.989347,41.076424],[28.989367,41.076269],[28.989438,41.076019],[28.98953,41.075719],[28.989586,41.075558],[28.989552,41.075363],[28.989488,41.074985],[28.989438,41.074642],[28.989399,41.074436],[28.989352,41.074131],[28.989334,41.074007],[28.9893,41.073827],[28.98931,41.073753],[28.989118,41.073236],[28.989001,41.07296],[28.988914,41.072701],[28.988814,41.07251],[28.988745,41.072453],[28.988428,41.072226],[28.988112,41.071999],[28.987921,41.071916],[28.987783,41.071884],[28.9876,41.071838],[28.987442,41.071788],[28.987284,41.071715],[28.987089,41.071556],[28.986918,41.071404],[28.986775,41.071278],[28.986454,41.071064],[28.98628,41.070993],[28.986202,41.070968],[28.98606,41.070938],[28.9858,41.070811],[28.985666,41.070763],[28.985312,41.070602],[28.985083,41.070688],[28.984941,41.070758],[28.984712,41.070874],[28.984636,41.070832],[28.984337,41.070581],[28.983982,41.070278],[28.983596,41.069945],[28.9835,41.069861],[28.983301,41.069667],[28.983074,41.069461],[28.982676,41.069127],[28.982673,41.069124],[28.982428,41.069305],[28.981724,41.069786],[28.980908,41.070294],[28.979745,41.070761],[28.980042,41.071298],[28.980194,41.071607],[28.980203,41.071991],[28.980272,41.072653],[28.980316,41.072694],[28.980382,41.07275],[28.980495,41.072844],[28.980538,41.072857],[28.980577,41.072876],[28.980604,41.07289],[28.980688,41.072959],[28.980768,41.073031],[28.980811,41.073063],[28.980811,41.073064],[28.980856,41.073097],[28.980908,41.073119],[28.980982,41.073115],[28.981103,41.073091],[28.981172,41.073051],[28.981226,41.072978],[28.981255,41.072933],[28.981286,41.072871],[28.981289,41.072823],[28.981296,41.072673],[28.981297,41.072631],[28.981347,41.072596],[28.981443,41.072566],[28.981563,41.072573],[28.981883,41.073],[28.982013,41.073154],[28.982189,41.073346],[28.982323,41.07349],[28.982402,41.073575],[28.982476,41.073694],[28.982536,41.07378],[28.982572,41.073855],[28.982634,41.073992],[28.98294,41.07472],[28.983039,41.074976],[28.983293,41.075626],[28.98342,41.075849],[28.983557,41.076027],[28.983619,41.076098],[28.983806,41.076311],[28.983992,41.076466],[28.984212,41.076591],[28.984339,41.076657],[28.984431,41.076692],[28.984501,41.076699],[28.984566,41.076686],[28.984639,41.076656],[28.984729,41.07661],[28.984989,41.076475],[28.985075,41.076443],[28.985109,41.076442],[28.98516,41.076464],[28.985687,41.076965],[28.985872,41.077115],[28.986038,41.077241],[28.986216,41.077356],[28.98656,41.077555],[28.986787,41.077688],[28.98698,41.077811],[28.987466,41.078143],[28.988025,41.078612],[28.988521,41.078391],[28.988717,41.078322],[28.989246,41.078137]]]}},{"type":"Feature","properties":{"id":"TR-Y-34-024-M-0009","level":"yerlesim","type":"mahalle","parent_id":"TR-D-34-024","province_id":"TR-P-34","district_id":"TR-D-34-024","name":"Mehmet Akif Ersoy","source_raw_name":"MEHMET AKİF ERSOY","source":"Kullanıcı tarafından sağlanan KML","source_label":"Kullanıcı tarafından sağlanan KML","source_name":"Istanbul Mahalle KML"},"geometry":{"type":"Polygon","coordinates":[[[28.958544,41.063168],[28.95896,41.062584],[28.959112,41.062329],[28.95916,41.062171],[28.959193,41.061955],[28.959181,41.06171],[28.959141,41.061558],[28.959046,41.061358],[28.959003,41.061284],[28.958877,41.061122],[28.958725,41.060951],[28.958393,41.060641],[28.958035,41.060274],[28.957968,41.060196],[28.957532,41.059651],[28.957286,41.05922],[28.957327,41.058835],[28.957304,41.058637],[28.957332,41.058417],[28.95734,41.058321],[28.957503,41.057782],[28.957583,41.057663],[28.957646,41.057589],[28.957952,41.057312],[28.958069,41.057163],[28.958136,41.057115],[28.958231,41.057064],[28.95831,41.057033],[28.958369,41.057022],[28.958487,41.057019],[28.958548,41.056809],[28.959368,41.056447],[28.960903,41.055663],[28.961367,41.055509],[28.961898,41.055401],[28.962106,41.055366],[28.962711,41.055347],[28.962696,41.055316],[28.96253,41.054985],[28.962064,41.053782],[28.961975,41.053629],[28.961885,41.053517],[28.961793,41.053432],[28.961701,41.053369],[28.961552,41.053275],[28.961361,41.053176],[28.960898,41.053015],[28.960601,41.052961],[28.960528,41.052939],[28.960227,41.052912],[28.960076,41.052906],[28.959778,41.05294],[28.959543,41.052987],[28.95926,41.053048],[28.958817,41.053157],[28.958358,41.053272],[28.957687,41.053408],[28.957451,41.053424],[28.957258,41.053429],[28.957134,41.053416],[28.956903,41.053394],[28.956645,41.053381],[28.956645,41.053381],[28.956645,41.053381],[28.955724,41.053653],[28.955659,41.053654],[28.955606,41.053662],[28.955506,41.053747],[28.955283,41.053952],[28.955311,41.054061],[28.955349,41.054222],[28.955488,41.054838],[28.955536,41.054967],[28.955674,41.055296],[28.955721,41.055449],[28.955749,41.0556],[28.955753,41.05567],[28.955729,41.055773],[28.955712,41.055829],[28.955636,41.055931],[28.955498,41.05612],[28.955364,41.056315],[28.955306,41.05644],[28.955267,41.056606],[28.955232,41.056888],[28.955163,41.057362],[28.95512,41.057954],[28.955097,41.058418],[28.954528,41.059251],[28.954474,41.059307],[28.954152,41.059392],[28.954097,41.059388],[28.953892,41.059429],[28.953778,41.059451],[28.953671,41.059494],[28.953117,41.059992],[28.952825,41.060233],[28.952521,41.060466],[28.952226,41.060683],[28.951924,41.060892],[28.951744,41.060999],[28.951288,41.061322],[28.951111,41.061416],[28.950865,41.061584],[28.950756,41.061664],[28.950607,41.061792],[28.950518,41.06188],[28.95046,41.061939],[28.950376,41.062045],[28.950225,41.06227],[28.950215,41.06232],[28.950227,41.062374],[28.950268,41.062422],[28.950295,41.062503],[28.950186,41.062601],[28.950126,41.062634],[28.949931,41.062593],[28.949829,41.062574],[28.94975,41.062559],[28.949583,41.062544],[28.949564,41.062555],[28.949559,41.062568],[28.949565,41.062591],[28.949586,41.062673],[28.949543,41.062883],[28.949539,41.062919],[28.949577,41.062989],[28.949578,41.06299],[28.949605,41.063008],[28.949709,41.063024],[28.949978,41.063043],[28.950588,41.063039],[28.950694,41.063034],[28.950947,41.063029],[28.951122,41.063041],[28.951375,41.063107],[28.951786,41.063231],[28.952325,41.063405],[28.952569,41.063493],[28.952762,41.063563],[28.953581,41.063854],[28.953757,41.063937],[28.953909,41.064047],[28.954121,41.064276],[28.954277,41.064393],[28.954475,41.064508],[28.954829,41.064694],[28.955211,41.064873],[28.955415,41.064972],[28.956015,41.065256],[28.956527,41.065504],[28.956742,41.065603],[28.956867,41.065666],[28.957199,41.0658],[28.957299,41.065836],[28.957546,41.065908],[28.957741,41.064754],[28.957868,41.064051],[28.958544,41.063168]]]}},{"type":"Feature","properties":{"id":"TR-Y-34-024-M-0010","level":"yerlesim","type":"mahalle","parent_id":"TR-D-34-024","province_id":"TR-P-34","district_id":"TR-D-34-024","name":"Merkez","source_raw_name":"MERKEZ","source":"Kullanıcı tarafından sağlanan KML","source_label":"Kullanıcı tarafından sağlanan KML","source_name":"Istanbul Mahalle KML"},"geometry":{"type":"Polygon","coordinates":[[[28.972723,41.089445],[28.972858,41.08944],[28.973055,41.089487],[28.973086,41.089498],[28.973124,41.089518],[28.973152,41.089532],[28.97325,41.089598],[28.973326,41.089653],[28.973521,41.089814],[28.973912,41.090123],[28.973957,41.090156],[28.974013,41.090183],[28.97409,41.090209],[28.974159,41.090212],[28.974225,41.090204],[28.974293,41.090192],[28.974329,41.090159],[28.974326,41.090078],[28.974302,41.089956],[28.974289,41.089858],[28.974236,41.089494],[28.974222,41.089403],[28.974163,41.089012],[28.974153,41.088924],[28.974193,41.088776],[28.974209,41.088723],[28.974249,41.08863],[28.974285,41.088549],[28.97431,41.088503],[28.974466,41.088287],[28.974557,41.088203],[28.974742,41.088041],[28.974792,41.088002],[28.974917,41.087922],[28.97509,41.087896],[28.975196,41.087866],[28.975262,41.08785],[28.975344,41.087808],[28.975345,41.087779],[28.975323,41.087758],[28.975033,41.087655],[28.975072,41.087602],[28.97544,41.086958],[28.975605,41.086778],[28.975837,41.08663],[28.976153,41.0865],[28.97644,41.086385],[28.977064,41.086134],[28.977507,41.085901],[28.977801,41.085755],[28.977985,41.085671],[28.978169,41.085611],[28.978346,41.0855],[28.978509,41.085325],[28.978529,41.085289],[28.978551,41.085253],[28.978579,41.085187],[28.978626,41.085085],[28.978696,41.084973],[28.978762,41.085019],[28.9792,41.085347],[28.980039,41.085964],[28.980522,41.08634],[28.980744,41.08651],[28.98162,41.087201],[28.982526,41.087949],[28.983087,41.088427],[28.983422,41.088684],[28.983535,41.088771],[28.983708,41.088676],[28.984068,41.088395],[28.984012,41.088348],[28.983279,41.087732],[28.983156,41.087521],[28.983036,41.087191],[28.983,41.086784],[28.982993,41.08659],[28.983025,41.086195],[28.983115,41.085957],[28.983269,41.085755],[28.983409,41.085636],[28.983626,41.085485],[28.983811,41.085363],[28.984006,41.085229],[28.984206,41.085097],[28.984422,41.084953],[28.984523,41.084886],[28.984661,41.084795],[28.984728,41.084758],[28.984794,41.084712],[28.984912,41.084626],[28.985101,41.084488],[28.985219,41.084403],[28.985334,41.084357],[28.985228,41.08427],[28.98501,41.084133],[28.984502,41.08384],[28.984317,41.083724],[28.984165,41.083623],[28.984094,41.083569],[28.984024,41.083509],[28.983963,41.083476],[28.983873,41.083429],[28.983664,41.083347],[28.983295,41.083188],[28.983097,41.083105],[28.982936,41.083025],[28.98285,41.082968],[28.982663,41.082841],[28.982445,41.082684],[28.982232,41.082518],[28.982053,41.082419],[28.981979,41.082385],[28.981873,41.082333],[28.98165,41.082241],[28.98146,41.08219],[28.980817,41.082065],[28.980312,41.08196],[28.980025,41.081963],[28.979765,41.081981],[28.979409,41.082048],[28.97911,41.082122],[28.978932,41.082169],[28.97879,41.082221],[28.978613,41.082294],[28.978363,41.082412],[28.97801,41.082582],[28.977914,41.082634],[28.977818,41.082696],[28.977481,41.08298],[28.977336,41.083107],[28.977267,41.083195],[28.977124,41.083281],[28.97692,41.083401],[28.976845,41.08329],[28.976737,41.083127],[28.976652,41.082998],[28.976537,41.082819],[28.976381,41.082539],[28.976035,41.081895],[28.975967,41.081765],[28.975707,41.081275],[28.975456,41.08081],[28.975342,41.080598],[28.975231,41.080411],[28.975133,41.080289],[28.975026,41.080186],[28.974885,41.080082],[28.974634,41.08],[28.974143,41.079811],[28.973645,41.079625],[28.973492,41.079521],[28.973457,41.079456],[28.973431,41.079373],[28.973417,41.079308],[28.973486,41.079259],[28.973712,41.079097],[28.973914,41.078957],[28.974135,41.078812],[28.974181,41.078758],[28.974229,41.078692],[28.97437,41.078594],[28.974488,41.078524],[28.974594,41.07851],[28.974659,41.078484],[28.974712,41.078446],[28.974748,41.078396],[28.974768,41.078351],[28.97477,41.078307],[28.974646,41.078053],[28.974579,41.077921],[28.97454,41.077864],[28.974541,41.077845],[28.974554,41.077829],[28.974775,41.077669],[28.974868,41.077598],[28.975021,41.07748],[28.975228,41.077263],[28.975561,41.076976],[28.975722,41.076788],[28.976034,41.076582],[28.976201,41.076437],[28.976334,41.076327],[28.976486,41.076185],[28.976748,41.075956],[28.976887,41.075836],[28.977072,41.075678],[28.97733,41.075625],[28.97754,41.07557],[28.977683,41.075543],[28.977784,41.075519],[28.977671,41.075369],[28.977647,41.075291],[28.977639,41.075242],[28.977628,41.075098],[28.977623,41.074942],[28.977609,41.074734],[28.977601,41.074661],[28.977705,41.074591],[28.977773,41.07453],[28.977835,41.074476],[28.977976,41.074354],[28.978155,41.074202],[28.978188,41.074166],[28.978272,41.074056],[28.978336,41.073934],[28.978302,41.073774],[28.978252,41.073717],[28.978094,41.073617],[28.977906,41.073493],[28.977794,41.073391],[28.977645,41.073231],[28.977571,41.07317],[28.97739,41.073067],[28.977345,41.073058],[28.977282,41.07317],[28.977165,41.073372],[28.977002,41.073663],[28.97695,41.073758],[28.976501,41.074631],[28.976355,41.074834],[28.975937,41.075322],[28.975573,41.07578],[28.975228,41.076192],[28.975146,41.07628],[28.975031,41.076386],[28.974794,41.07657],[28.974673,41.076669],[28.974533,41.076757],[28.974377,41.076853],[28.974308,41.07689],[28.974238,41.076922],[28.974093,41.076992],[28.973931,41.07704],[28.973711,41.077051],[28.973553,41.077003],[28.973442,41.07694],[28.973366,41.076816],[28.973342,41.076738],[28.97331,41.07658],[28.973302,41.076385],[28.973328,41.076177],[28.973343,41.07605],[28.973396,41.07575],[28.973401,41.075628],[28.973329,41.075286],[28.973334,41.075028],[28.973427,41.074686],[28.973433,41.074531],[28.973381,41.074398],[28.973292,41.074321],[28.973181,41.074282],[28.973022,41.074292],[28.972886,41.074346],[28.972784,41.074414],[28.972509,41.074596],[28.972158,41.074853],[28.971795,41.075161],[28.971586,41.075373],[28.97143,41.075558],[28.971259,41.075803],[28.970974,41.076492],[28.970903,41.076607],[28.970844,41.076687],[28.97079,41.076772],[28.970677,41.076946],[28.970622,41.07702],[28.970518,41.07709],[28.97044,41.077116],[28.970387,41.077136],[28.970329,41.077075],[28.970181,41.076864],[28.969841,41.076302],[28.969758,41.076162],[28.969704,41.07606],[28.969636,41.075921],[28.9695,41.075515],[28.969331,41.075136],[28.969134,41.07475],[28.969,41.07451],[28.9689,41.074374],[28.968634,41.074072],[28.968457,41.07387],[28.968174,41.07355],[28.967911,41.073269],[28.967743,41.073131],[28.967429,41.072894],[28.967191,41.072712],[28.966853,41.072459],[28.966471,41.072172],[28.966229,41.071988],[28.965998,41.071779],[28.965868,41.071655],[28.965778,41.071553],[28.965625,41.071307],[28.965437,41.070955],[28.965149,41.070306],[28.964664,41.069428],[28.964308,41.068773],[28.964168,41.068509],[28.96394,41.06815],[28.96377,41.067938],[28.963574,41.067798],[28.963196,41.067633],[28.962915,41.067541],[28.962043,41.067233],[28.961774,41.067134],[28.9613,41.066946],[28.960853,41.066787],[28.960641,41.06671],[28.960435,41.066634],[28.959849,41.066424],[28.959487,41.066298],[28.958743,41.066139],[28.958081,41.066015],[28.957809,41.065965],[28.957546,41.065908],[28.957299,41.065836],[28.957199,41.0658],[28.956867,41.065666],[28.956742,41.065603],[28.956527,41.065504],[28.956015,41.065256],[28.955415,41.064972],[28.955211,41.064873],[28.954829,41.064694],[28.954475,41.064508],[28.954277,41.064393],[28.954121,41.064276],[28.953909,41.064047],[28.953757,41.063937],[28.953581,41.063854],[28.952762,41.063563],[28.952569,41.063493],[28.952325,41.063405],[28.951786,41.063231],[28.951375,41.063107],[28.951122,41.063041],[28.950947,41.063029],[28.950694,41.063034],[28.950588,41.063039],[28.949978,41.063043],[28.949709,41.063024],[28.949605,41.063008],[28.949578,41.06299],[28.949577,41.062989],[28.949619,41.063073],[28.949615,41.063173],[28.949365,41.063428],[28.949316,41.063541],[28.949072,41.063761],[28.94869,41.064225],[28.94849,41.064401],[28.948173,41.064638],[28.948894,41.064719],[28.949275,41.064849],[28.94995,41.065088],[28.950721,41.065172],[28.951292,41.06513],[28.951325,41.065733],[28.951577,41.065754],[28.952035,41.065967],[28.952418,41.066143],[28.95307,41.06657],[28.953653,41.066958],[28.954483,41.067427],[28.955122,41.067872],[28.95533,41.068022],[28.955524,41.068114],[28.955613,41.068155],[28.955833,41.068252],[28.956076,41.068317],[28.956383,41.068369],[28.956442,41.068379],[28.956655,41.068415],[28.956687,41.068414],[28.957078,41.068468],[28.95729,41.068493],[28.957372,41.068503],[28.957405,41.068507],[28.957549,41.06853],[28.957871,41.068534],[28.957897,41.068536],[28.958265,41.068543],[28.958405,41.068545],[28.958731,41.06854],[28.958803,41.068538],[28.959179,41.06854],[28.959358,41.068576],[28.959692,41.068647],[28.960145,41.068763],[28.96045,41.068871],[28.960909,41.069077],[28.961006,41.069139],[28.961516,41.069458],[28.96178,41.069681],[28.961918,41.069795],[28.961984,41.069858],[28.962044,41.069986],[28.962191,41.070357],[28.962329,41.070846],[28.962429,41.071079],[28.9625,41.071345],[28.962588,41.071624],[28.962681,41.071817],[28.962768,41.071943],[28.962916,41.072093],[28.963031,41.072213],[28.963154,41.072347],[28.963334,41.072551],[28.963515,41.072738],[28.963672,41.072881],[28.96395,41.073168],[28.964411,41.073663],[28.964704,41.073957],[28.965024,41.074278],[28.965431,41.074702],[28.965756,41.075071],[28.965925,41.075269],[28.966157,41.075563],[28.966555,41.076291],[28.966647,41.076463],[28.966754,41.076634],[28.966853,41.076855],[28.966954,41.077043],[28.966995,41.077159],[28.967102,41.077381],[28.967185,41.077687],[28.967273,41.077879],[28.967343,41.078021],[28.967486,41.078264],[28.967598,41.078429],[28.96752,41.078496],[28.967488,41.078538],[28.967468,41.078596],[28.967508,41.078722],[28.967538,41.078792],[28.967587,41.078871],[28.967649,41.078968],[28.967692,41.079025],[28.967733,41.079142],[28.967632,41.079087],[28.96731,41.078869],[28.967186,41.078787],[28.967092,41.078705],[28.967036,41.07866],[28.966916,41.078709],[28.966872,41.078727],[28.966768,41.078788],[28.966612,41.07888],[28.966538,41.07893],[28.966494,41.078982],[28.966582,41.078984],[28.966665,41.078959],[28.966778,41.078913],[28.96685,41.07893],[28.966924,41.078958],[28.966994,41.079],[28.967038,41.079044],[28.967003,41.079066],[28.966913,41.079145],[28.966942,41.079171],[28.967035,41.079263],[28.967103,41.079385],[28.967218,41.079607],[28.967268,41.079646],[28.967454,41.079768],[28.967609,41.079897],[28.967794,41.080076],[28.967937,41.080224],[28.968149,41.080445],[28.968313,41.080542],[28.968543,41.080633],[28.968669,41.080703],[28.968746,41.080747],[28.968779,41.080763],[28.968795,41.080778],[28.968795,41.080804],[28.968791,41.080834],[28.968781,41.080891],[28.968771,41.080912],[28.968757,41.080922],[28.968738,41.080927],[28.968766,41.080943],[28.968778,41.080956],[28.968786,41.08097],[28.968794,41.080994],[28.968795,41.081006],[28.968795,41.081018],[28.968645,41.081129],[28.968345,41.081404],[28.968222,41.081482],[28.968179,41.081502],[28.967763,41.081668],[28.967489,41.081606],[28.967066,41.081473],[28.966891,41.081373],[28.966829,41.081404],[28.966606,41.081537],[28.966523,41.081586],[28.96623,41.081702],[28.966126,41.081734],[28.965886,41.081808],[28.965688,41.081854],[28.965533,41.081891],[28.965118,41.081966],[28.964879,41.082033],[28.964798,41.082057],[28.964696,41.082091],[28.964632,41.082112],[28.964394,41.082198],[28.964195,41.082288],[28.964086,41.082339],[28.963813,41.082455],[28.963606,41.082541],[28.96345,41.082626],[28.963163,41.082821],[28.9631,41.082812],[28.96306,41.082792],[28.963008,41.082742],[28.962949,41.08268],[28.962946,41.082785],[28.962942,41.082929],[28.962934,41.083009],[28.962945,41.083146],[28.963021,41.08346],[28.963081,41.083604],[28.963538,41.084599],[28.963678,41.084904],[28.963967,41.085358],[28.964122,41.085526],[28.964281,41.085666],[28.964549,41.085787],[28.964844,41.085851],[28.965309,41.085917],[28.96591,41.085962],[28.966752,41.086015],[28.967154,41.086026],[28.96782,41.086017],[28.967966,41.086039],[28.968047,41.086063],[28.968086,41.086088],[28.968069,41.086145],[28.968029,41.086199],[28.967921,41.086494],[28.967869,41.086696],[28.967856,41.086763],[28.967811,41.08698],[28.967789,41.087087],[28.967775,41.08717],[28.967763,41.08724],[28.967725,41.087481],[28.967699,41.087586],[28.967622,41.087906],[28.967528,41.088363],[28.967507,41.088517],[28.967513,41.088635],[28.967556,41.088798],[28.967671,41.089205],[28.967777,41.089557],[28.967938,41.090063],[28.968002,41.090271],[28.968006,41.090315],[28.968017,41.090476],[28.968178,41.090524],[28.96822,41.090539],[28.968497,41.090638],[28.968645,41.090687],[28.969086,41.090846],[28.969306,41.090926],[28.969568,41.091022],[28.969313,41.091344],[28.969271,41.091403],[28.969348,41.091515],[28.9694,41.091607],[28.969432,41.091678],[28.969441,41.091737],[28.96944,41.091793],[28.969418,41.091924],[28.969378,41.092025],[28.969353,41.092114],[28.969663,41.092216],[28.969755,41.092116],[28.969873,41.091992],[28.969977,41.091877],[28.970053,41.091784],[28.970172,41.091634],[28.970444,41.091523],[28.970692,41.091236],[28.971038,41.090801],[28.971068,41.090753],[28.971175,41.090576],[28.971258,41.090394],[28.971324,41.090143],[28.971329,41.090132],[28.971339,41.090122],[28.971354,41.090112],[28.971709,41.089938],[28.971743,41.089921],[28.972125,41.089704],[28.972324,41.089605],[28.97264,41.089472],[28.972723,41.089445]]]}},{"type":"Feature","properties":{"id":"TR-Y-34-024-M-0011","level":"yerlesim","type":"mahalle","parent_id":"TR-D-34-024","province_id":"TR-P-34","district_id":"TR-D-34-024","name":"Nurtepe","source_raw_name":"NURTEPE","source":"Kullanıcı tarafından sağlanan KML","source_label":"Kullanıcı tarafından sağlanan KML","source_name":"Istanbul Mahalle KML"},"geometry":{"type":"Polygon","coordinates":[[[28.955524,41.068114],[28.955691,41.068383],[28.955906,41.068943],[28.955971,41.069211],[28.956102,41.07002],[28.956281,41.072286],[28.956194,41.072666],[28.956236,41.07281],[28.9566,41.073461],[28.956878,41.073974],[28.957105,41.074396],[28.957503,41.074696],[28.957896,41.074906],[28.958177,41.075007],[28.958436,41.07513],[28.958513,41.075263],[28.958553,41.075379],[28.95866,41.075584],[28.958756,41.075734],[28.958804,41.075808],[28.958932,41.075992],[28.958994,41.076074],[28.959143,41.07623],[28.959471,41.076507],[28.959754,41.076774],[28.960257,41.077176],[28.960656,41.077516],[28.960981,41.077783],[28.961389,41.078072],[28.961865,41.078419],[28.962568,41.078919],[28.962851,41.079148],[28.962983,41.079305],[28.963308,41.079804],[28.963571,41.080191],[28.96364,41.080355],[28.96364,41.080471],[28.96348,41.081026],[28.96335,41.081381],[28.963221,41.081695],[28.963122,41.081947],[28.963007,41.082358],[28.962981,41.082493],[28.962949,41.08268],[28.963008,41.082742],[28.96306,41.082792],[28.9631,41.082812],[28.963163,41.082821],[28.96345,41.082626],[28.963606,41.082541],[28.963813,41.082455],[28.964086,41.082339],[28.964195,41.082288],[28.964394,41.082198],[28.964632,41.082112],[28.964696,41.082091],[28.964798,41.082057],[28.964879,41.082033],[28.965118,41.081966],[28.965533,41.081891],[28.965688,41.081854],[28.965886,41.081808],[28.966126,41.081734],[28.96623,41.081702],[28.966523,41.081586],[28.966606,41.081537],[28.966829,41.081404],[28.966891,41.081373],[28.967066,41.081473],[28.967489,41.081606],[28.967763,41.081668],[28.968179,41.081502],[28.968222,41.081482],[28.968345,41.081404],[28.968645,41.081129],[28.968795,41.081018],[28.968795,41.081006],[28.968794,41.080994],[28.968786,41.08097],[28.968778,41.080956],[28.968766,41.080943],[28.968738,41.080927],[28.968757,41.080922],[28.968771,41.080912],[28.968781,41.080891],[28.968791,41.080834],[28.968795,41.080804],[28.968795,41.080778],[28.968779,41.080763],[28.968746,41.080747],[28.968669,41.080703],[28.968543,41.080633],[28.968313,41.080542],[28.968149,41.080445],[28.967937,41.080224],[28.967794,41.080076],[28.967609,41.079897],[28.967454,41.079768],[28.967268,41.079646],[28.967218,41.079607],[28.967103,41.079385],[28.967035,41.079263],[28.966942,41.079171],[28.966913,41.079145],[28.967003,41.079066],[28.967038,41.079044],[28.966994,41.079],[28.966924,41.078958],[28.96685,41.07893],[28.966778,41.078913],[28.966665,41.078959],[28.966582,41.078984],[28.966494,41.078982],[28.966538,41.07893],[28.966612,41.07888],[28.966768,41.078788],[28.966872,41.078727],[28.966916,41.078709],[28.967036,41.07866],[28.967092,41.078705],[28.967186,41.078787],[28.96731,41.078869],[28.967632,41.079087],[28.967733,41.079142],[28.967692,41.079025],[28.967649,41.078968],[28.967587,41.078871],[28.967538,41.078792],[28.967508,41.078722],[28.967468,41.078596],[28.967488,41.078538],[28.96752,41.078496],[28.967598,41.078429],[28.967486,41.078264],[28.967343,41.078021],[28.967273,41.077879],[28.967185,41.077687],[28.967102,41.077381],[28.966995,41.077159],[28.966954,41.077043],[28.966853,41.076855],[28.966754,41.076634],[28.966647,41.076463],[28.966555,41.076291],[28.966157,41.075563],[28.965925,41.075269],[28.965756,41.075071],[28.965431,41.074702],[28.965024,41.074278],[28.964704,41.073957],[28.964411,41.073663],[28.96395,41.073168],[28.963672,41.072881],[28.963515,41.072738],[28.963334,41.072551],[28.963154,41.072347],[28.963031,41.072213],[28.962916,41.072093],[28.962768,41.071943],[28.962681,41.071817],[28.962588,41.071624],[28.9625,41.071345],[28.962429,41.071079],[28.962329,41.070846],[28.962191,41.070357],[28.962044,41.069986],[28.961984,41.069858],[28.961918,41.069795],[28.96178,41.069681],[28.961516,41.069458],[28.961006,41.069139],[28.960909,41.069077],[28.96045,41.068871],[28.960145,41.068763],[28.959692,41.068647],[28.959358,41.068576],[28.959179,41.06854],[28.958803,41.068538],[28.958731,41.06854],[28.958405,41.068545],[28.958265,41.068543],[28.957897,41.068536],[28.957871,41.068534],[28.957549,41.06853],[28.957405,41.068507],[28.957372,41.068503],[28.95729,41.068493],[28.957078,41.068468],[28.956687,41.068414],[28.956655,41.068415],[28.956442,41.068379],[28.956383,41.068369],[28.956076,41.068317],[28.955833,41.068252],[28.955613,41.068155],[28.955524,41.068114]]]}},{"type":"Feature","properties":{"id":"TR-Y-34-024-M-0012","level":"yerlesim","type":"mahalle","parent_id":"TR-D-34-024","province_id":"TR-P-34","district_id":"TR-D-34-024","name":"Ortabayır","source_raw_name":"ORTABAYIR","source":"Kullanıcı tarafından sağlanan KML","source_label":"Kullanıcı tarafından sağlanan KML","source_name":"Istanbul Mahalle KML"},"geometry":{"type":"Polygon","coordinates":[[[29.000909,41.074665],[29.000893,41.074694],[29.000683,41.074836],[29.000377,41.075042],[29.0002,41.075191],[29.000127,41.075253],[29.000132,41.075343],[29.000134,41.075433],[29.000119,41.075539],[29.000084,41.075599],[28.99999,41.07568],[28.999926,41.075753],[28.999914,41.075868],[28.999839,41.075999],[28.999782,41.07606],[28.999695,41.076128],[28.999758,41.076137],[28.999886,41.076099],[28.999888,41.076099],[29.000061,41.076095],[29.000146,41.076142],[29.000238,41.076213],[29.000351,41.076328],[29.000479,41.076416],[29.000582,41.076609],[29.000698,41.076832],[29.00075,41.076937],[29.00081,41.077242],[29.000844,41.077569],[29.000694,41.078025],[29.000449,41.078464],[29.00044,41.078738],[29.00088,41.078728],[29.000857,41.0792],[29.00076,41.079584],[29.000736,41.079657],[29.000662,41.079942],[29.000631,41.080071],[29.000528,41.080551],[29.000656,41.080582],[29.000728,41.080593],[29.000861,41.080606],[29.000985,41.080602],[29.00102,41.0806],[29.001349,41.080579],[29.001893,41.08054],[29.002302,41.080521],[29.002649,41.080577],[29.002908,41.080636],[29.003182,41.080725],[29.003271,41.080737],[29.003332,41.080739],[29.00338,41.080732],[29.003572,41.080634],[29.003673,41.080705],[29.003862,41.080836],[29.004088,41.080994],[29.004269,41.081121],[29.004479,41.081225],[29.00458,41.081255],[29.004692,41.081334],[29.00489,41.081452],[29.005058,41.08155],[29.005396,41.08174],[29.005509,41.081776],[29.006086,41.081925],[29.006146,41.081939],[29.006397,41.082026],[29.006712,41.081377],[29.006771,41.081251],[29.006857,41.0811],[29.007056,41.080805],[29.00716,41.080535],[29.007242,41.080351],[29.007328,41.08016],[29.00738,41.079906],[29.007519,41.079903],[29.00758,41.07975],[29.007602,41.079645],[29.007636,41.07954],[29.007645,41.079377],[29.007657,41.079181],[29.007671,41.078966],[29.007687,41.07871],[29.007679,41.078633],[29.007544,41.078273],[29.007453,41.078107],[29.007368,41.077901],[29.007295,41.077688],[29.007226,41.077514],[29.007177,41.077315],[29.007169,41.077281],[29.007157,41.076978],[29.007179,41.076909],[29.00717,41.076693],[29.007174,41.076539],[29.007181,41.076369],[29.007184,41.076131],[29.007154,41.075954],[29.007134,41.075853],[29.006333,41.075542],[29.006013,41.075433],[29.005489,41.075314],[29.004846,41.075178],[29.004212,41.075045],[29.003659,41.074994],[29.003498,41.074998],[29.003262,41.074984],[29.00296,41.074967],[29.002866,41.074983],[29.00259,41.075061],[29.002304,41.07511],[29.002155,41.075103],[29.001853,41.074996],[29.001572,41.074897],[29.001254,41.074785],[29.000909,41.074665]]]}},{"type":"Feature","properties":{"id":"TR-Y-34-024-M-0013","level":"yerlesim","type":"mahalle","parent_id":"TR-D-34-024","province_id":"TR-P-34","district_id":"TR-D-34-024","name":"Seyrantepe","source_raw_name":"SEYRANTEPE","source":"Kullanıcı tarafından sağlanan KML","source_label":"Kullanıcı tarafından sağlanan KML","source_name":"Istanbul Mahalle KML"},"geometry":{"type":"Polygon","coordinates":[[[29.002881,41.099785],[29.002749,41.099721],[29.002461,41.099587],[29.002434,41.099552],[29.002408,41.099506],[29.002408,41.099442],[29.002437,41.099359],[29.001934,41.099022],[29.001847,41.098966],[29.001862,41.098894],[29.001856,41.098839],[29.001757,41.098579],[29.00171,41.098443],[29.001692,41.098389],[29.001621,41.098291],[29.001538,41.098241],[29.00148,41.098205],[29.001386,41.098167],[29.001152,41.09808],[29.000967,41.098008],[29.000727,41.097917],[29.000591,41.097867],[29.000481,41.097827],[29.000367,41.097777],[29.000256,41.097682],[29.000023,41.097639],[28.999881,41.097626],[28.999659,41.097629],[28.999188,41.097654],[28.999132,41.097651],[28.998643,41.097567],[28.998354,41.097463],[28.998177,41.097358],[28.997981,41.097212],[28.997887,41.097124],[28.997672,41.096922],[28.997521,41.096771],[28.997402,41.096667],[28.997239,41.096573],[28.997014,41.096473],[28.996607,41.096297],[28.996434,41.096231],[28.996044,41.096055],[28.99583,41.095957],[28.9955,41.095805],[28.995293,41.095722],[28.995266,41.095714],[28.995265,41.095714],[28.995214,41.095701],[28.995175,41.095692],[28.995071,41.095673],[28.995011,41.095665],[28.994929,41.09566],[28.994796,41.095669],[28.994525,41.095712],[28.994151,41.095762],[28.993681,41.095728],[28.993518,41.095712],[28.99301,41.095672],[28.992512,41.095614],[28.9922,41.095528],[28.991953,41.095433],[28.991828,41.095355],[28.991748,41.095284],[28.991293,41.094874],[28.99059,41.094357],[28.990489,41.094272],[28.99044,41.094195],[28.990408,41.094084],[28.990366,41.093914],[28.990363,41.093757],[28.990359,41.093601],[28.990322,41.093492],[28.990221,41.093341],[28.989915,41.093054],[28.989737,41.09287],[28.989463,41.092588],[28.989147,41.092273],[28.988879,41.091904],[28.988737,41.091745],[28.988538,41.091627],[28.988426,41.091557],[28.988334,41.091455],[28.98828,41.091383],[28.988252,41.091319],[28.988173,41.091028],[28.988063,41.09082],[28.987943,41.090653],[28.987803,41.090505],[28.987687,41.090384],[28.987604,41.090222],[28.987583,41.09005],[28.987784,41.089322],[28.987767,41.089138],[28.987672,41.088958],[28.98758,41.088839],[28.987422,41.088651],[28.987174,41.088491],[28.98696,41.088443],[28.986619,41.088407],[28.986416,41.088392],[28.986309,41.088376],[28.986222,41.088374],[28.986138,41.088354],[28.986093,41.088398],[28.985962,41.088495],[28.985521,41.088851],[28.984846,41.089398],[28.984721,41.089549],[28.984788,41.089691],[28.984888,41.089889],[28.984955,41.090079],[28.98499,41.090226],[28.985021,41.090349],[28.985064,41.090612],[28.985098,41.090985],[28.985083,41.09132],[28.985071,41.091385],[28.985003,41.091603],[28.984735,41.092111],[28.98459,41.092409],[28.984475,41.092655],[28.98437,41.09288],[28.984254,41.09314],[28.984111,41.093459],[28.983889,41.093917],[28.983781,41.094107],[28.983715,41.094205],[28.98363,41.09431],[28.983423,41.094561],[28.983057,41.094986],[28.982488,41.095655],[28.982245,41.095937],[28.982114,41.09609],[28.981871,41.096395],[28.981784,41.096549],[28.981731,41.09668],[28.981694,41.096811],[28.981486,41.097435],[28.981389,41.097728],[28.981278,41.098054],[28.981191,41.098277],[28.981125,41.098425],[28.980956,41.098722],[28.980652,41.099208],[28.980476,41.099548],[28.980366,41.099805],[28.980332,41.099975],[28.980346,41.100429],[28.980382,41.100985],[28.980433,41.101408],[28.980534,41.10163],[28.980678,41.10182],[28.98084,41.101999],[28.981075,41.102194],[28.981379,41.102365],[28.981629,41.102462],[28.981886,41.102549],[28.982143,41.102605],[28.982244,41.102622],[28.982508,41.102646],[28.982706,41.102636],[28.982883,41.102626],[28.983083,41.10262],[28.983188,41.102617],[28.983906,41.102664],[28.98421,41.102087],[28.984391,41.101812],[28.984535,41.101541],[28.984651,41.101327],[28.984945,41.100858],[28.985062,41.100287],[28.985142,41.100168],[28.985238,41.099765],[28.98536,41.09924],[28.985418,41.099061],[28.985575,41.098847],[28.98581,41.098771],[28.986544,41.098656],[28.986976,41.098627],[28.987557,41.098586],[28.987825,41.098558],[28.988084,41.098575],[28.988287,41.09861],[28.988601,41.098747],[28.989097,41.098969],[28.989756,41.099249],[28.990277,41.099444],[28.990677,41.099586],[28.990996,41.099667],[28.991429,41.099758],[28.991639,41.099778],[28.991963,41.099781],[28.992336,41.099774],[28.992691,41.099761],[28.993222,41.099642],[28.993338,41.099623],[28.993964,41.099502],[28.994544,41.099407],[28.995106,41.099351],[28.995459,41.099341],[28.996392,41.099389],[28.99693,41.09951],[28.997288,41.099616],[28.997553,41.09974],[28.997673,41.09985],[28.998134,41.100371],[28.998355,41.100613],[28.998481,41.10071],[28.998727,41.100876],[28.99888,41.100963],[28.99907,41.101035],[28.999183,41.101051],[28.999427,41.101076],[28.999824,41.101045],[29.000267,41.100989],[29.001083,41.100865],[29.001579,41.100676],[29.002037,41.100499],[29.002704,41.09993],[29.002881,41.099785]]]}},{"type":"Feature","properties":{"id":"TR-Y-34-024-M-0014","level":"yerlesim","type":"mahalle","parent_id":"TR-D-34-024","province_id":"TR-P-34","district_id":"TR-D-34-024","name":"Şirintepe","source_raw_name":"ŞİRİNTEPE","source":"Kullanıcı tarafından sağlanan KML","source_label":"Kullanıcı tarafından sağlanan KML","source_name":"Istanbul Mahalle KML"},"geometry":{"type":"Polygon","coordinates":[[[28.989915,41.093054],[28.990465,41.092898],[28.990676,41.092833],[28.990892,41.092737],[28.990998,41.092676],[28.991059,41.092629],[28.99113,41.092574],[28.991283,41.092485],[28.991595,41.09231],[28.992254,41.091943],[28.992552,41.09183],[28.99265,41.091796],[28.992782,41.091672],[28.992455,41.091506],[28.992007,41.091267],[28.991946,41.09123],[28.992445,41.09074],[28.992853,41.090327],[28.993275,41.089906],[28.993403,41.089768],[28.993645,41.089494],[28.9938,41.089297],[28.994274,41.089441],[28.994604,41.089546],[28.995184,41.089735],[28.995461,41.089855],[28.996097,41.090137],[28.996219,41.089932],[28.996231,41.089899],[28.996249,41.089843],[28.996249,41.089791],[28.996214,41.089601],[28.996172,41.089435],[28.9961,41.089282],[28.996015,41.089135],[28.995908,41.088997],[28.995778,41.088851],[28.995718,41.088792],[28.995595,41.088696],[28.995441,41.088546],[28.99535,41.088404],[28.995301,41.088327],[28.995038,41.087901],[28.99487,41.087598],[28.994789,41.08746],[28.994752,41.08737],[28.994705,41.087255],[28.994686,41.087214],[28.994656,41.087159],[28.99462,41.087119],[28.994552,41.087047],[28.99442,41.086916],[28.994113,41.08663],[28.994013,41.086542],[28.993775,41.086312],[28.993717,41.086262],[28.993585,41.086145],[28.993391,41.085943],[28.993299,41.085914],[28.993041,41.085867],[28.99294,41.085869],[28.992823,41.08587],[28.992657,41.085877],[28.992657,41.085877],[28.992397,41.085889],[28.992161,41.085902],[28.992049,41.08591],[28.991846,41.085925],[28.991754,41.085931],[28.9915,41.085928],[28.991347,41.085917],[28.991278,41.085911],[28.990971,41.085858],[28.990873,41.085841],[28.990783,41.085807],[28.990668,41.08578],[28.990578,41.085779],[28.990525,41.085783],[28.990467,41.085791],[28.990404,41.085805],[28.990337,41.085824],[28.990193,41.085881],[28.990116,41.085917],[28.990038,41.085957],[28.989958,41.085998],[28.989723,41.086116],[28.989482,41.086227],[28.989151,41.086387],[28.988887,41.086501],[28.988574,41.086611],[28.988206,41.086685],[28.988042,41.086699],[28.98788,41.086726],[28.987508,41.086853],[28.987288,41.086951],[28.987152,41.087053],[28.986919,41.087278],[28.98684,41.087361],[28.986636,41.087616],[28.986394,41.087964],[28.986138,41.088354],[28.986222,41.088374],[28.986309,41.088376],[28.986416,41.088392],[28.986619,41.088407],[28.98696,41.088443],[28.987174,41.088491],[28.987422,41.088651],[28.98758,41.088839],[28.987672,41.088958],[28.987767,41.089138],[28.987784,41.089322],[28.987583,41.09005],[28.987604,41.090222],[28.987687,41.090384],[28.987803,41.090505],[28.987943,41.090653],[28.988063,41.09082],[28.988173,41.091028],[28.988252,41.091319],[28.98828,41.091383],[28.988334,41.091455],[28.988426,41.091557],[28.988538,41.091627],[28.988737,41.091745],[28.988879,41.091904],[28.989147,41.092273],[28.989463,41.092588],[28.989737,41.09287],[28.989915,41.093054]]]}},{"type":"Feature","properties":{"id":"TR-Y-34-024-M-0015","level":"yerlesim","type":"mahalle","parent_id":"TR-D-34-024","province_id":"TR-P-34","district_id":"TR-D-34-024","name":"Sultan Selim","source_raw_name":"SULTAN SELİM","source":"Kullanıcı tarafından sağlanan KML","source_label":"Kullanıcı tarafından sağlanan KML","source_name":"Istanbul Mahalle KML"},"geometry":{"type":"Polygon","coordinates":[[[28.995265,41.095714],[28.995265,41.095712],[28.995289,41.095481],[28.995297,41.095359],[28.995326,41.095134],[28.995429,41.094852],[28.99551,41.094574],[28.995618,41.094359],[28.995856,41.094189],[28.996176,41.093877],[28.996308,41.093745],[28.996465,41.093624],[28.996567,41.093564],[28.996788,41.093384],[28.996933,41.093259],[28.997013,41.093201],[28.997103,41.093112],[28.997201,41.092998],[28.997318,41.092853],[28.997455,41.092672],[28.997567,41.092706],[28.998095,41.092871],[28.998309,41.092937],[28.998382,41.092819],[28.998689,41.09292],[28.998779,41.092958],[28.998823,41.092991],[28.998844,41.093054],[28.99885,41.09311],[28.998846,41.093166],[28.998829,41.093212],[28.99895,41.093211],[28.99924,41.093209],[28.999355,41.093213],[28.999709,41.09315],[28.999848,41.093104],[28.999948,41.093096],[29,41.093118],[29.000047,41.093164],[29.000113,41.093257],[29.000193,41.093341],[29.000272,41.093302],[29.00037,41.093263],[29.000467,41.093233],[29.000527,41.093218],[29.000597,41.093231],[29.000825,41.093299],[29.001092,41.093342],[29.00127,41.093417],[29.001486,41.093518],[29.001887,41.093369],[29.002116,41.093294],[29.002358,41.093213],[29.002432,41.09316],[29.002553,41.093076],[29.002691,41.093026],[29.003365,41.092895],[29.003811,41.092814],[29.004233,41.092753],[29.004385,41.092736],[29.004544,41.092717],[29.00456,41.092472],[29.004606,41.092245],[29.004649,41.092074],[29.004749,41.091841],[29.004863,41.091442],[29.005239,41.090607],[29.005342,41.09038],[29.005433,41.090161],[29.005587,41.089792],[29.005777,41.089361],[29.005926,41.088964],[29.006074,41.088601],[29.006092,41.088543],[29.006117,41.088465],[29.006002,41.088448],[29.005604,41.088425],[29.005047,41.08842],[29.004334,41.088428],[29.004224,41.088433],[29.003695,41.088455],[29.003626,41.088458],[29.003461,41.088464],[29.00341,41.088466],[29.003356,41.088477],[29.00322,41.088548],[29.003179,41.088574],[29.003043,41.088691],[29.002963,41.088759],[29.002744,41.088681],[29.002517,41.088533],[29.002304,41.088452],[29.001978,41.088332],[29.001799,41.088236],[29.001689,41.088182],[29.001403,41.088079],[29.001359,41.08804],[29.001334,41.088003],[29.001028,41.087607],[29.00097,41.087533],[29.000878,41.087467],[29.000794,41.087439],[29.000585,41.087381],[29.000423,41.087385],[29.000227,41.087426],[28.999825,41.087558],[28.999578,41.087605],[28.999302,41.087634],[28.999018,41.08766],[28.998912,41.087643],[28.998831,41.087612],[28.998654,41.087483],[28.998532,41.08739],[28.998431,41.087303],[28.998324,41.087236],[28.998171,41.087188],[28.997967,41.08715],[28.997781,41.08714],[28.997578,41.087107],[28.997288,41.087008],[28.996524,41.086662],[28.996228,41.08653],[28.996008,41.086397],[28.995577,41.086103],[28.995416,41.085992],[28.994799,41.085679],[28.994552,41.085565],[28.994277,41.085408],[28.994202,41.085444],[28.993971,41.085542],[28.993901,41.085571],[28.993659,41.085684],[28.993432,41.085804],[28.993398,41.085819],[28.993295,41.085848],[28.993246,41.085856],[28.993149,41.085866],[28.993051,41.085867],[28.993041,41.085867],[28.993299,41.085914],[28.993391,41.085943],[28.993585,41.086145],[28.993717,41.086262],[28.993775,41.086312],[28.994013,41.086542],[28.994113,41.08663],[28.99442,41.086916],[28.994552,41.087047],[28.99462,41.087119],[28.994656,41.087159],[28.994686,41.087214],[28.994705,41.087255],[28.994752,41.08737],[28.994789,41.08746],[28.99487,41.087598],[28.995038,41.087901],[28.995301,41.088327],[28.99535,41.088404],[28.995441,41.088546],[28.995595,41.088696],[28.995718,41.088792],[28.995778,41.088851],[28.995908,41.088997],[28.996015,41.089135],[28.9961,41.089282],[28.996172,41.089435],[28.996214,41.089601],[28.996249,41.089791],[28.996249,41.089843],[28.996231,41.089899],[28.996219,41.089932],[28.996097,41.090137],[28.995461,41.089855],[28.995184,41.089735],[28.994604,41.089546],[28.994274,41.089441],[28.9938,41.089297],[28.993645,41.089494],[28.993403,41.089768],[28.993275,41.089906],[28.992853,41.090327],[28.992445,41.09074],[28.991946,41.09123],[28.992007,41.091267],[28.992455,41.091506],[28.992782,41.091672],[28.99265,41.091796],[28.992552,41.09183],[28.992254,41.091943],[28.991595,41.09231],[28.991283,41.092485],[28.99113,41.092574],[28.991059,41.092629],[28.990998,41.092676],[28.990892,41.092737],[28.990676,41.092833],[28.990465,41.092898],[28.989915,41.093054],[28.990221,41.093341],[28.990322,41.093492],[28.990359,41.093601],[28.990363,41.093757],[28.990366,41.093914],[28.990408,41.094084],[28.99044,41.094195],[28.990489,41.094272],[28.99059,41.094357],[28.991293,41.094874],[28.991748,41.095284],[28.991828,41.095355],[28.991953,41.095433],[28.9922,41.095528],[28.992512,41.095614],[28.99301,41.095672],[28.993518,41.095712],[28.993681,41.095728],[28.994151,41.095762],[28.994525,41.095712],[28.994796,41.095669],[28.994929,41.09566],[28.995011,41.095665],[28.995071,41.095673],[28.995175,41.095692],[28.995214,41.095701],[28.995265,41.095714]]]}},{"type":"Feature","properties":{"id":"TR-Y-34-024-M-0016","level":"yerlesim","type":"mahalle","parent_id":"TR-D-34-024","province_id":"TR-P-34","district_id":"TR-D-34-024","name":"Talatpaşa","source_raw_name":"TALATPAŞA","source":"Kullanıcı tarafından sağlanan KML","source_label":"Kullanıcı tarafından sağlanan KML","source_name":"Istanbul Mahalle KML"},"geometry":{"type":"Polygon","coordinates":[[[28.970345,41.064335],[28.969975,41.064177],[28.969669,41.064031],[28.969494,41.063901],[28.969028,41.063325],[28.968616,41.062788],[28.96846,41.062584],[28.967373,41.061243],[28.966722,41.060466],[28.96592,41.059445],[28.965422,41.058843],[28.965064,41.058407],[28.964289,41.057593],[28.963898,41.05717],[28.963418,41.056566],[28.963136,41.056153],[28.962786,41.055528],[28.962711,41.055347],[28.962106,41.055366],[28.961898,41.055401],[28.961367,41.055509],[28.960903,41.055663],[28.959368,41.056447],[28.958548,41.056809],[28.958487,41.057019],[28.958369,41.057022],[28.95831,41.057033],[28.958231,41.057064],[28.958136,41.057115],[28.958069,41.057163],[28.957952,41.057312],[28.957646,41.057589],[28.957583,41.057663],[28.957503,41.057782],[28.95734,41.058321],[28.957332,41.058417],[28.957304,41.058637],[28.957327,41.058835],[28.957286,41.05922],[28.957532,41.059651],[28.957968,41.060196],[28.958035,41.060274],[28.958393,41.060641],[28.958725,41.060951],[28.958877,41.061122],[28.959003,41.061284],[28.959046,41.061358],[28.959141,41.061558],[28.959181,41.06171],[28.959193,41.061955],[28.95916,41.062171],[28.959112,41.062329],[28.95896,41.062584],[28.958544,41.063168],[28.957868,41.064051],[28.957741,41.064754],[28.957546,41.065908],[28.957809,41.065965],[28.958081,41.066015],[28.958743,41.066139],[28.959487,41.066298],[28.959849,41.066424],[28.960435,41.066634],[28.960641,41.06671],[28.960853,41.066787],[28.9613,41.066946],[28.961774,41.067134],[28.962043,41.067233],[28.962915,41.067541],[28.963196,41.067633],[28.963574,41.067798],[28.96377,41.067938],[28.96394,41.06815],[28.964168,41.068509],[28.964308,41.068773],[28.964664,41.069428],[28.965149,41.070306],[28.965437,41.070955],[28.965625,41.071307],[28.965778,41.071553],[28.966079,41.071362],[28.966148,41.071321],[28.966236,41.07127],[28.966329,41.071231],[28.9666,41.071063],[28.966864,41.070916],[28.96709,41.070792],[28.967272,41.070694],[28.967349,41.070656],[28.967417,41.070623],[28.967482,41.070594],[28.967548,41.070566],[28.96762,41.070537],[28.967704,41.070504],[28.967803,41.070466],[28.967913,41.070423],[28.968113,41.070339],[28.968261,41.070291],[28.968365,41.070252],[28.968461,41.070217],[28.968546,41.070188],[28.968608,41.070159],[28.968665,41.07013],[28.968703,41.070108],[28.96874,41.070087],[28.968757,41.070048],[28.968766,41.069861],[28.968781,41.069763],[28.968825,41.069579],[28.96898,41.069168],[28.969074,41.068941],[28.96918,41.068658],[28.969287,41.068412],[28.969438,41.068234],[28.969298,41.068244],[28.969176,41.068192],[28.969026,41.068111],[28.968919,41.068045],[28.968895,41.067987],[28.9689,41.067855],[28.968875,41.067772],[28.969116,41.067237],[28.969127,41.067177],[28.96917,41.067083],[28.969187,41.067],[28.969192,41.066885],[28.969162,41.066816],[28.969145,41.066768],[28.969128,41.066673],[28.969114,41.066497],[28.969127,41.066306],[28.969142,41.066189],[28.969227,41.06605],[28.969317,41.065909],[28.969354,41.065773],[28.969363,41.065621],[28.969414,41.065438],[28.969489,41.065252],[28.969551,41.064894],[28.970078,41.06476],[28.970345,41.064335]]]}},{"type":"Feature","properties":{"id":"TR-Y-34-024-M-0017","level":"yerlesim","type":"mahalle","parent_id":"TR-D-34-024","province_id":"TR-P-34","district_id":"TR-D-34-024","name":"Telsizler","source_raw_name":"TELSİZLER","source":"Kullanıcı tarafından sağlanan KML","source_label":"Kullanıcı tarafından sağlanan KML","source_name":"Istanbul Mahalle KML"},"geometry":{"type":"Polygon","coordinates":[[[29.000528,41.080551],[29.000631,41.080071],[29.000662,41.079942],[29.000736,41.079657],[29.00076,41.079584],[29.000857,41.0792],[29.00088,41.078728],[29.00044,41.078738],[29.000449,41.078464],[29.000694,41.078025],[29.000844,41.077569],[29.00081,41.077242],[29.00075,41.076937],[29.000698,41.076832],[29.000582,41.076609],[29.000479,41.076416],[29.000351,41.076328],[29.000238,41.076213],[29.000146,41.076142],[29.000061,41.076095],[28.999888,41.076099],[28.999886,41.076099],[28.999758,41.076137],[28.999695,41.076128],[28.999782,41.07606],[28.999839,41.075999],[28.999914,41.075868],[28.999926,41.075753],[28.99999,41.07568],[29.000084,41.075599],[29.000119,41.075539],[29.000134,41.075433],[29.000132,41.075343],[29.000127,41.075253],[29.0002,41.075191],[29.000377,41.075042],[29.000683,41.074836],[29.000893,41.074694],[29.000909,41.074665],[29.000514,41.074844],[28.999825,41.07502],[28.999199,41.075213],[28.999045,41.075337],[28.998656,41.075727],[28.998662,41.075832],[28.998226,41.076064],[28.997786,41.076112],[28.997679,41.076111],[28.997164,41.076068],[28.99688,41.076115],[28.996035,41.07648],[28.995695,41.07657],[28.995406,41.076602],[28.995007,41.076613],[28.99433,41.076618],[28.994335,41.076751],[28.994371,41.076894],[28.994418,41.076952],[28.994309,41.077024],[28.994177,41.077108],[28.994263,41.077224],[28.994308,41.077257],[28.994475,41.077104],[28.994564,41.077043],[28.994632,41.077034],[28.994802,41.077093],[28.99495,41.077257],[28.995113,41.077358],[28.995267,41.07749],[28.995423,41.077693],[28.995749,41.078155],[28.996283,41.078977],[28.995808,41.079146],[28.99595,41.079548],[28.996186,41.080511],[28.996221,41.080585],[28.996347,41.080762],[28.996474,41.080878],[28.996528,41.080899],[28.996578,41.080906],[28.996792,41.080882],[28.997094,41.080787],[28.997156,41.080806],[28.997204,41.08084],[28.997315,41.080958],[28.997334,41.081071],[28.997572,41.081068],[28.998126,41.080867],[28.999022,41.080641],[28.999168,41.080636],[28.999394,41.08064],[28.999579,41.080663],[28.999855,41.080665],[28.999961,41.080658],[29.000169,41.080598],[29.000311,41.080562],[29.000412,41.080549],[29.000528,41.080551]]]}},{"type":"Feature","properties":{"id":"TR-Y-34-024-M-0018","level":"yerlesim","type":"mahalle","parent_id":"TR-D-34-024","province_id":"TR-P-34","district_id":"TR-D-34-024","name":"Yahya Kemal","source_raw_name":"YAHYA KEMAL","source":"Kullanıcı tarafından sağlanan KML","source_label":"Kullanıcı tarafından sağlanan KML","source_name":"Istanbul Mahalle KML"},"geometry":{"type":"Polygon","coordinates":[[[28.988648,41.08218],[28.988447,41.081913],[28.988722,41.081886],[28.988834,41.081865],[28.988708,41.081642],[28.988605,41.08155],[28.988668,41.081482],[28.988684,41.081442],[28.988669,41.081416],[28.988628,41.081388],[28.988578,41.081378],[28.988523,41.0814],[28.988428,41.081439],[28.988241,41.081504],[28.988188,41.081516],[28.988143,41.081517],[28.988097,41.081504],[28.987949,41.081423],[28.987866,41.081377],[28.987813,41.081349],[28.987785,41.081335],[28.987649,41.081241],[28.987565,41.081158],[28.987505,41.081103],[28.987424,41.081027],[28.987364,41.080963],[28.987271,41.080837],[28.987203,41.080736],[28.987146,41.080647],[28.98695,41.08022],[28.986897,41.080101],[28.986896,41.080101],[28.986869,41.080211],[28.986852,41.080319],[28.986913,41.080722],[28.98695,41.080972],[28.986914,41.081152],[28.986717,41.081723],[28.986498,41.082326],[28.986388,41.082699],[28.986331,41.082987],[28.986287,41.083055],[28.986204,41.083182],[28.986151,41.083278],[28.986106,41.083365],[28.986011,41.083587],[28.985955,41.083706],[28.985915,41.083778],[28.985865,41.083861],[28.985802,41.083937],[28.985727,41.084018],[28.985633,41.084116],[28.985433,41.084303],[28.985334,41.084357],[28.985219,41.084403],[28.985101,41.084488],[28.984912,41.084626],[28.984794,41.084712],[28.984728,41.084758],[28.984661,41.084795],[28.984523,41.084886],[28.984422,41.084953],[28.984206,41.085097],[28.984006,41.085229],[28.983811,41.085363],[28.983626,41.085485],[28.983409,41.085636],[28.983269,41.085755],[28.983115,41.085957],[28.983025,41.086195],[28.982993,41.08659],[28.983,41.086784],[28.983036,41.087191],[28.983156,41.087521],[28.983279,41.087732],[28.984012,41.088348],[28.984068,41.088395],[28.983708,41.088676],[28.983535,41.088771],[28.983743,41.088857],[28.984194,41.089135],[28.984517,41.08938],[28.984721,41.089549],[28.984846,41.089398],[28.985521,41.088851],[28.985962,41.088495],[28.986093,41.088398],[28.986138,41.088354],[28.986394,41.087964],[28.986636,41.087616],[28.98684,41.087361],[28.986919,41.087278],[28.987152,41.087053],[28.987288,41.086951],[28.987508,41.086853],[28.98788,41.086726],[28.988042,41.086699],[28.988206,41.086685],[28.988574,41.086611],[28.988887,41.086501],[28.989151,41.086387],[28.989482,41.086227],[28.989723,41.086116],[28.989958,41.085998],[28.990038,41.085957],[28.990116,41.085917],[28.990193,41.085881],[28.990337,41.085824],[28.990404,41.085805],[28.990467,41.085791],[28.990525,41.085783],[28.990578,41.085779],[28.990668,41.08578],[28.990783,41.085807],[28.990873,41.085841],[28.990971,41.085858],[28.991278,41.085911],[28.991347,41.085917],[28.9915,41.085928],[28.991754,41.085931],[28.991846,41.085925],[28.992049,41.08591],[28.992161,41.085902],[28.992397,41.085889],[28.992657,41.085877],[28.992657,41.085877],[28.992656,41.085877],[28.992634,41.08575],[28.992595,41.085638],[28.99253,41.085564],[28.992488,41.085498],[28.992411,41.085421],[28.992345,41.085364],[28.992209,41.085334],[28.992113,41.085246],[28.992035,41.085177],[28.991875,41.085017],[28.99185,41.084988],[28.991828,41.084943],[28.991815,41.084878],[28.991805,41.084816],[28.991793,41.084793],[28.991694,41.084663],[28.991511,41.084415],[28.991416,41.084286],[28.991337,41.084193],[28.991197,41.084045],[28.991095,41.083904],[28.990981,41.083749],[28.990755,41.083443],[28.990623,41.083271],[28.990517,41.083103],[28.990439,41.083],[28.990262,41.082766],[28.990113,41.082586],[28.990456,41.082407],[28.990194,41.082164],[28.990173,41.082133],[28.98988,41.08188],[28.989857,41.081937],[28.989832,41.081962],[28.989802,41.08198],[28.989704,41.082021],[28.989519,41.082055],[28.989324,41.082063],[28.989164,41.082075],[28.989002,41.082134],[28.988735,41.082254],[28.988648,41.08218]]]}},{"type":"Feature","properties":{"id":"TR-Y-34-024-M-0019","level":"yerlesim","type":"mahalle","parent_id":"TR-D-34-024","province_id":"TR-P-34","district_id":"TR-D-34-024","name":"Yeşilce","source_raw_name":"YEŞİLCE","source":"Kullanıcı tarafından sağlanan KML","source_label":"Kullanıcı tarafından sağlanan KML","source_name":"Istanbul Mahalle KML"},"geometry":{"type":"Polygon","coordinates":[[[29.004775,41.093857],[29.004672,41.093598],[29.004583,41.093356],[29.004549,41.093122],[29.004541,41.092882],[29.004544,41.092717],[29.004385,41.092736],[29.004233,41.092753],[29.003811,41.092814],[29.003365,41.092895],[29.002691,41.093026],[29.002553,41.093076],[29.002432,41.09316],[29.002358,41.093213],[29.002116,41.093294],[29.001887,41.093369],[29.001486,41.093518],[29.00127,41.093417],[29.001092,41.093342],[29.000825,41.093299],[29.000597,41.093231],[29.000527,41.093218],[29.000467,41.093233],[29.00037,41.093263],[29.000272,41.093302],[29.000193,41.093341],[29.000113,41.093257],[29.000047,41.093164],[29,41.093118],[28.999948,41.093096],[28.999848,41.093104],[28.999709,41.09315],[28.999355,41.093213],[28.99924,41.093209],[28.99895,41.093211],[28.998829,41.093212],[28.998846,41.093166],[28.99885,41.09311],[28.998844,41.093054],[28.998823,41.092991],[28.998779,41.092958],[28.998689,41.09292],[28.998382,41.092819],[28.998309,41.092937],[28.998095,41.092871],[28.997567,41.092706],[28.997455,41.092672],[28.997318,41.092853],[28.997201,41.092998],[28.997103,41.093112],[28.997013,41.093201],[28.996933,41.093259],[28.996788,41.093384],[28.996567,41.093564],[28.996465,41.093624],[28.996308,41.093745],[28.996176,41.093877],[28.995856,41.094189],[28.995618,41.094359],[28.99551,41.094574],[28.995429,41.094852],[28.995326,41.095134],[28.995297,41.095359],[28.995289,41.095481],[28.995265,41.095712],[28.995265,41.095714],[28.995266,41.095714],[28.995293,41.095722],[28.9955,41.095805],[28.99583,41.095957],[28.996044,41.096055],[28.996434,41.096231],[28.996607,41.096297],[28.997014,41.096473],[28.997239,41.096573],[28.997402,41.096667],[28.997521,41.096771],[28.997672,41.096922],[28.997887,41.097124],[28.997981,41.097212],[28.998177,41.097358],[28.998354,41.097463],[28.998643,41.097567],[28.999132,41.097651],[28.999188,41.097654],[28.999659,41.097629],[28.999881,41.097626],[29.000023,41.097639],[29.000256,41.097682],[29.000367,41.097777],[29.000481,41.097827],[29.000591,41.097867],[29.000727,41.097917],[29.000967,41.098008],[29.001152,41.09808],[29.001386,41.098167],[29.00148,41.098205],[29.001538,41.098241],[29.001621,41.098291],[29.001692,41.098389],[29.00171,41.098443],[29.001757,41.098579],[29.001856,41.098839],[29.001862,41.098894],[29.001847,41.098966],[29.001934,41.099022],[29.002437,41.099359],[29.002408,41.099442],[29.002408,41.099506],[29.002434,41.099552],[29.002461,41.099587],[29.002749,41.099721],[29.002881,41.099785],[29.003791,41.099088],[29.003835,41.099065],[29.003887,41.098992],[29.004046,41.098811],[29.004127,41.09868],[29.004287,41.098215],[29.004283,41.097928],[29.004288,41.097816],[29.004312,41.097724],[29.004372,41.09746],[29.004393,41.097379],[29.004469,41.09727],[29.004463,41.097178],[29.00436,41.096549],[29.004307,41.096216],[29.004245,41.095313],[29.004178,41.095018],[29.004134,41.094879],[29.004137,41.094551],[29.004176,41.093873],[29.004775,41.093857]]]}}]}