{"type":"FeatureCollection","name":"turkiye_map.dist.mahalle_geometrileri_by_district.TR-D-41-002","features":[{"type":"Feature","properties":{"id":"TR-Y-41-002-M-0001","level":"yerlesim","type":"mahalle","parent_id":"TR-D-41-002","province_id":"TR-P-41","district_id":"TR-D-41-002","name":"Akse","source_raw_name":"Akse","source":"Kocaeli Büyükşehir Belediyesi Rehber - Mahalle"},"geometry":{"type":"Polygon","coordinates":[[[29.389126,40.839786],[29.388944,40.840285],[29.388457,40.840205],[29.38772,40.841551],[29.385879,40.84253],[29.385744,40.842521],[29.384725,40.843088],[29.384628,40.843056],[29.384263,40.843248],[29.384962,40.843525],[29.385891,40.843369],[29.389558,40.843536],[29.390615,40.844346],[29.392907,40.844033],[29.396275,40.844523],[29.396653,40.844432],[29.397237,40.844094],[29.398047,40.843869],[29.399665,40.843718],[29.400469,40.843464],[29.402411,40.84364],[29.403532,40.843314],[29.404147,40.842431],[29.405152,40.842255],[29.40485,40.842914],[29.404625,40.84387],[29.405223,40.843639],[29.405304,40.844036],[29.406136,40.844402],[29.407734,40.844889],[29.409929,40.845856],[29.410237,40.846034],[29.410972,40.846917],[29.411263,40.847037],[29.411282,40.847228],[29.41256,40.847253],[29.413551,40.847794],[29.415127,40.848226],[29.416948,40.849443],[29.416909,40.849534],[29.418563,40.850377],[29.418732,40.850572],[29.418832,40.850946],[29.42054,40.851741],[29.421143,40.852187],[29.422208,40.852588],[29.422376,40.851219],[29.42299,40.849383],[29.423325,40.848945],[29.424446,40.84919],[29.426097,40.846895],[29.428917,40.844909],[29.430437,40.843636],[29.430549,40.843386],[29.430538,40.842971],[29.429268,40.843442],[29.429444,40.843155],[29.429318,40.842551],[29.429183,40.842507],[29.428149,40.842905],[29.427065,40.841645],[29.426879,40.84067],[29.42617,40.839916],[29.428158,40.839441],[29.428754,40.83893],[29.426221,40.836185],[29.426048,40.836093],[29.423783,40.835741],[29.42419,40.835674],[29.424853,40.835318],[29.425763,40.834244],[29.424416,40.832668],[29.423097,40.832953],[29.422145,40.832358],[29.421021,40.832451],[29.42018,40.832182],[29.416366,40.82863],[29.415441,40.828045],[29.415321,40.828091],[29.415247,40.827348],[29.412392,40.826737],[29.411574,40.826152],[29.409454,40.825479],[29.407094,40.825352],[29.404879,40.824738],[29.404691,40.824382],[29.404518,40.824369],[29.403047,40.824923],[29.400105,40.826524],[29.398138,40.827038],[29.395305,40.827575],[29.394488,40.828447],[29.39183,40.830112],[29.391286,40.830846],[29.390445,40.833908],[29.393149,40.832991],[29.393021,40.834544],[29.392699,40.834648],[29.390902,40.836786],[29.389888,40.837553],[29.389896,40.837819],[29.389529,40.837808],[29.389575,40.838915],[29.389126,40.839786]]]}},{"type":"Feature","properties":{"id":"TR-Y-41-002-M-0002","level":"yerlesim","type":"mahalle","parent_id":"TR-D-41-002","province_id":"TR-P-41","district_id":"TR-D-41-002","name":"Atatürk","source_raw_name":"Atatürk","source":"Kocaeli Büyükşehir Belediyesi Rehber - Mahalle"},"geometry":{"type":"Polygon","coordinates":[[[29.384263,40.843248],[29.384628,40.843056],[29.384725,40.843088],[29.385744,40.842521],[29.385879,40.84253],[29.38772,40.841551],[29.388457,40.840205],[29.388944,40.840285],[29.389575,40.838915],[29.389529,40.837808],[29.389896,40.837819],[29.389888,40.837553],[29.390902,40.836786],[29.392699,40.834648],[29.393021,40.834544],[29.393149,40.832991],[29.390445,40.833908],[29.390331,40.834328],[29.389984,40.834691],[29.388782,40.835541],[29.388121,40.836415],[29.387837,40.836637],[29.387523,40.83681],[29.38628,40.837146],[29.38279,40.835103],[29.380482,40.834896],[29.380086,40.834311],[29.379712,40.833388],[29.379366,40.831962],[29.379568,40.831543],[29.379268,40.830641],[29.378696,40.829954],[29.377947,40.829304],[29.376962,40.828625],[29.376049,40.828163],[29.376027,40.828705],[29.3759,40.828772],[29.375848,40.829123],[29.375953,40.829919],[29.375747,40.830492],[29.375495,40.830824],[29.375345,40.830793],[29.374354,40.831567],[29.371737,40.832284],[29.371673,40.832007],[29.371163,40.831264],[29.370475,40.829622],[29.370127,40.82909],[29.3674,40.830226],[29.367686,40.830668],[29.366329,40.831186],[29.368052,40.832124],[29.369623,40.833804],[29.369842,40.83435],[29.369935,40.835611],[29.370587,40.836233],[29.37071,40.837092],[29.371183,40.837957],[29.370843,40.838077],[29.370535,40.83806],[29.370259,40.838266],[29.370002,40.838277],[29.370056,40.838398],[29.370864,40.838556],[29.371167,40.838536],[29.371921,40.839525],[29.37185,40.839597],[29.372131,40.839545],[29.372886,40.840151],[29.373948,40.840313],[29.37652,40.840402],[29.377421,40.841078],[29.377575,40.841316],[29.379381,40.841227],[29.380197,40.840836],[29.382542,40.841305],[29.383131,40.841907],[29.383384,40.842387],[29.384263,40.843248]]]}},{"type":"Feature","properties":{"id":"TR-Y-41-002-M-0003","level":"yerlesim","type":"mahalle","parent_id":"TR-D-41-002","province_id":"TR-P-41","district_id":"TR-D-41-002","name":"Çayırova","source_raw_name":"Çayırova","source":"Kocaeli Büyükşehir Belediyesi Rehber - Mahalle"},"geometry":{"type":"Polygon","coordinates":[[[29.374094,40.827098],[29.374876,40.826591],[29.374996,40.826342],[29.374991,40.824413],[29.374751,40.822606],[29.375131,40.8216],[29.374952,40.820887],[29.375027,40.820759],[29.375178,40.820835],[29.373609,40.817256],[29.373063,40.815364],[29.372625,40.814722],[29.372546,40.814755],[29.370452,40.812058],[29.368692,40.811706],[29.368623,40.811784],[29.368203,40.81172],[29.366606,40.812994],[29.367074,40.813775],[29.3672,40.8138],[29.367148,40.813973],[29.3673,40.814468],[29.367848,40.815366],[29.368762,40.816626],[29.369709,40.817693],[29.370366,40.818796],[29.371832,40.821775],[29.372001,40.822309],[29.372168,40.824165],[29.372623,40.824682],[29.373209,40.82567],[29.373685,40.827074],[29.373816,40.827198],[29.374094,40.827098]]]}},{"type":"Feature","properties":{"id":"TR-Y-41-002-M-0004","level":"yerlesim","type":"mahalle","parent_id":"TR-D-41-002","province_id":"TR-P-41","district_id":"TR-D-41-002","name":"Cumhuriyet","source_raw_name":"Cumhuriyet","source":"Kocaeli Büyükşehir Belediyesi Rehber - Mahalle"},"geometry":{"type":"Polygon","coordinates":[[[29.392934,40.873279],[29.395784,40.870601],[29.391461,40.868363],[29.387473,40.86603],[29.38467,40.864176],[29.38269,40.862748],[29.37969,40.860388],[29.378347,40.859122],[29.376806,40.857228],[29.376145,40.856148],[29.375568,40.854925],[29.37508,40.853532],[29.374794,40.852091],[29.374673,40.850579],[29.37493,40.847549],[29.374883,40.846457],[29.374126,40.843181],[29.373157,40.840209],[29.372886,40.840151],[29.372131,40.839545],[29.37185,40.839597],[29.371921,40.839525],[29.371167,40.838536],[29.370864,40.838556],[29.370056,40.838398],[29.369051,40.839569],[29.368286,40.84003],[29.366625,40.842351],[29.363603,40.84752],[29.362971,40.849018],[29.361754,40.849135],[29.361724,40.849211],[29.361892,40.850022],[29.362356,40.851084],[29.363147,40.85199],[29.364326,40.853044],[29.368359,40.855936],[29.368055,40.856015],[29.367755,40.856332],[29.366089,40.856018],[29.365652,40.857137],[29.364674,40.858265],[29.364536,40.859009],[29.364853,40.859154],[29.36593,40.859222],[29.366587,40.859355],[29.366908,40.860451],[29.367184,40.862432],[29.367324,40.862726],[29.36752,40.86286],[29.368294,40.863066],[29.369516,40.864091],[29.371243,40.863879],[29.371968,40.864632],[29.37223,40.865191],[29.372562,40.86519],[29.372775,40.865297],[29.372786,40.865663],[29.373544,40.866964],[29.374324,40.867339],[29.3749,40.868392],[29.374339,40.868592],[29.37554,40.869492],[29.375798,40.869371],[29.377412,40.870577],[29.37795,40.870644],[29.377423,40.871327],[29.378282,40.871566],[29.37937,40.872338],[29.37967,40.872358],[29.380098,40.872593],[29.381121,40.872755],[29.383052,40.873238],[29.384763,40.873837],[29.388005,40.874094],[29.390857,40.874835],[29.392934,40.873279]]]}},{"type":"Feature","properties":{"id":"TR-Y-41-002-M-0005","level":"yerlesim","type":"mahalle","parent_id":"TR-D-41-002","province_id":"TR-P-41","district_id":"TR-D-41-002","name":"Emek","source_raw_name":"Emek","source":"Kocaeli Büyükşehir Belediyesi Rehber - Mahalle"},"geometry":{"type":"Polygon","coordinates":[[[29.416363,40.82355],[29.416246,40.822299],[29.415558,40.821042],[29.415425,40.8203],[29.414954,40.81939],[29.413756,40.817796],[29.413366,40.817724],[29.41307,40.817123],[29.411508,40.815234],[29.411225,40.814416],[29.41052,40.814378],[29.407666,40.814586],[29.407349,40.814449],[29.407383,40.814015],[29.403482,40.815559],[29.400491,40.816211],[29.398822,40.816694],[29.397008,40.816451],[29.395843,40.816554],[29.394562,40.81645],[29.393719,40.816535],[29.393965,40.816876],[29.394225,40.81785],[29.394442,40.817874],[29.394098,40.819782],[29.394506,40.820415],[29.39607,40.821688],[29.396574,40.821897],[29.39655,40.822264],[29.397208,40.822153],[29.397768,40.822157],[29.398263,40.822264],[29.399142,40.822755],[29.399809,40.823558],[29.399982,40.823618],[29.401311,40.823629],[29.404691,40.824382],[29.404879,40.824738],[29.407094,40.825352],[29.409454,40.825479],[29.411574,40.826152],[29.412392,40.826737],[29.415247,40.827348],[29.415531,40.825533],[29.416129,40.82436],[29.416363,40.82355]]]}},{"type":"Feature","properties":{"id":"TR-Y-41-002-M-0006","level":"yerlesim","type":"mahalle","parent_id":"TR-D-41-002","province_id":"TR-P-41","district_id":"TR-D-41-002","name":"İnönü","source_raw_name":"İnönü","source":"Kocaeli Büyükşehir Belediyesi Rehber - Mahalle"},"geometry":{"type":"Polygon","coordinates":[[[29.396913,40.827286],[29.398922,40.826863],[29.400105,40.826524],[29.403047,40.824923],[29.404518,40.824369],[29.401311,40.823629],[29.399982,40.823618],[29.399809,40.823558],[29.399142,40.822755],[29.39814,40.822229],[29.397208,40.822153],[29.39655,40.822264],[29.396574,40.821897],[29.39607,40.821688],[29.394506,40.820415],[29.394132,40.819855],[29.394152,40.819233],[29.394442,40.817874],[29.394225,40.81785],[29.394152,40.817656],[29.393759,40.817722],[29.39348,40.81757],[29.392423,40.817682],[29.392381,40.817567],[29.391788,40.817753],[29.390564,40.81793],[29.390288,40.81795],[29.390283,40.817886],[29.389594,40.81803],[29.389107,40.818033],[29.388941,40.819064],[29.387865,40.820588],[29.387178,40.82058],[29.385483,40.820302],[29.385091,40.821106],[29.384779,40.822128],[29.384542,40.822482],[29.384845,40.822855],[29.385379,40.823249],[29.388276,40.82468],[29.392038,40.825558],[29.393228,40.825538],[29.394295,40.825935],[29.394926,40.826058],[29.395305,40.827575],[29.396913,40.827286]]]}},{"type":"Feature","properties":{"id":"TR-Y-41-002-M-0007","level":"yerlesim","type":"mahalle","parent_id":"TR-D-41-002","province_id":"TR-P-41","district_id":"TR-D-41-002","name":"Özgürlük","source_raw_name":"Özgürlük","source":"Kocaeli Büyükşehir Belediyesi Rehber - Mahalle"},"geometry":{"type":"Polygon","coordinates":[[[29.38638,40.8371],[29.387523,40.83681],[29.387837,40.836637],[29.388121,40.836415],[29.388782,40.835541],[29.389476,40.835113],[29.390331,40.834328],[29.391286,40.830846],[29.391661,40.830298],[29.392035,40.829952],[29.394488,40.828447],[29.395305,40.827575],[29.394926,40.826058],[29.394295,40.825935],[29.393228,40.825538],[29.392038,40.825558],[29.388276,40.82468],[29.385379,40.823249],[29.384601,40.822617],[29.382152,40.823035],[29.381466,40.823265],[29.381194,40.823122],[29.380995,40.822873],[29.380363,40.822701],[29.380165,40.822744],[29.379921,40.823089],[29.379794,40.823084],[29.378485,40.822301],[29.377593,40.821952],[29.377837,40.821721],[29.377238,40.821238],[29.376503,40.820823],[29.376348,40.821289],[29.375027,40.820759],[29.374952,40.820887],[29.375131,40.8216],[29.374751,40.822606],[29.374991,40.824413],[29.374996,40.826342],[29.374876,40.826591],[29.374236,40.827026],[29.373816,40.827198],[29.374161,40.827499],[29.374654,40.827729],[29.376049,40.828163],[29.376962,40.828625],[29.377947,40.829304],[29.378969,40.83026],[29.379358,40.830813],[29.379568,40.831543],[29.379366,40.831962],[29.379712,40.833388],[29.380086,40.834311],[29.380482,40.834896],[29.38279,40.835103],[29.385629,40.836801],[29.38628,40.837146],[29.38638,40.8371]]]}},{"type":"Feature","properties":{"id":"TR-Y-41-002-M-0008","level":"yerlesim","type":"mahalle","parent_id":"TR-D-41-002","province_id":"TR-P-41","district_id":"TR-D-41-002","name":"Şekerpınar","source_raw_name":"Şekerpınar","source":"Kocaeli Büyükşehir Belediyesi Rehber - Mahalle"},"geometry":{"type":"Polygon","coordinates":[[[29.413492,40.876141],[29.41327,40.874767],[29.413434,40.873996],[29.4132,40.873568],[29.413586,40.873164],[29.414029,40.872442],[29.415255,40.871555],[29.41688,40.869573],[29.419807,40.867267],[29.417552,40.866141],[29.418224,40.863422],[29.420081,40.863676],[29.419992,40.863109],[29.420104,40.862559],[29.419921,40.86197],[29.420604,40.860435],[29.419366,40.86025],[29.419438,40.859771],[29.419088,40.859575],[29.419372,40.857893],[29.420735,40.858011],[29.420717,40.856873],[29.420931,40.855666],[29.422004,40.853432],[29.422208,40.852588],[29.421143,40.852187],[29.42054,40.851741],[29.418832,40.850946],[29.418732,40.850572],[29.418563,40.850377],[29.416909,40.849534],[29.416948,40.849443],[29.415127,40.848226],[29.413551,40.847794],[29.41256,40.847253],[29.411282,40.847228],[29.411263,40.847037],[29.410972,40.846917],[29.410237,40.846034],[29.409929,40.845856],[29.407734,40.844889],[29.406136,40.844402],[29.405304,40.844036],[29.405223,40.843639],[29.404625,40.84387],[29.40485,40.842914],[29.405152,40.842255],[29.404147,40.842431],[29.403532,40.843314],[29.402411,40.84364],[29.400469,40.843464],[29.399665,40.843718],[29.398047,40.843869],[29.397237,40.844094],[29.396653,40.844432],[29.396275,40.844523],[29.392907,40.844033],[29.390615,40.844346],[29.389558,40.843536],[29.385891,40.843369],[29.384962,40.843525],[29.384263,40.843248],[29.383384,40.842387],[29.383131,40.841907],[29.382542,40.841305],[29.382093,40.841189],[29.380197,40.840836],[29.379381,40.841227],[29.377575,40.841316],[29.377421,40.841078],[29.37652,40.840402],[29.373948,40.840313],[29.373157,40.840209],[29.374126,40.843181],[29.374883,40.846457],[29.37493,40.847549],[29.374673,40.850579],[29.374794,40.852091],[29.37508,40.853532],[29.375568,40.854925],[29.376145,40.856148],[29.377105,40.857643],[29.378347,40.859122],[29.37969,40.860388],[29.38269,40.862748],[29.38467,40.864176],[29.387473,40.86603],[29.391461,40.868363],[29.395784,40.870601],[29.393619,40.87271],[29.390857,40.874835],[29.392212,40.875269],[29.396367,40.876308],[29.398246,40.877381],[29.399622,40.877735],[29.401244,40.879075],[29.40202,40.879373],[29.405134,40.88],[29.40651,40.880114],[29.406974,40.88012],[29.408131,40.879658],[29.409035,40.879629],[29.409856,40.879842],[29.4105,40.879762],[29.412261,40.879208],[29.412518,40.87932],[29.412913,40.879333],[29.413415,40.879171],[29.413941,40.878263],[29.413492,40.876141]]]}},{"type":"Feature","properties":{"id":"TR-Y-41-002-M-0009","level":"yerlesim","type":"mahalle","parent_id":"TR-D-41-002","province_id":"TR-P-41","district_id":"TR-D-41-002","name":"Yenimahalle","source_raw_name":"Yeni","source":"Kocaeli Büyükşehir Belediyesi Rehber - Mahalle"},"geometry":{"type":"Polygon","coordinates":[[[29.374759,40.831185],[29.375345,40.830793],[29.375495,40.830824],[29.375747,40.830492],[29.375953,40.829919],[29.375848,40.829123],[29.3759,40.828772],[29.376027,40.828705],[29.376049,40.828163],[29.374654,40.827729],[29.374161,40.827499],[29.373685,40.827074],[29.373209,40.82567],[29.372623,40.824682],[29.372168,40.824165],[29.372001,40.822309],[29.371371,40.820724],[29.369709,40.817693],[29.368762,40.816626],[29.367848,40.815366],[29.3673,40.814468],[29.367148,40.813973],[29.3672,40.8138],[29.367074,40.813775],[29.366606,40.812994],[29.36224,40.816489],[29.362466,40.816527],[29.362986,40.817011],[29.363759,40.818429],[29.364216,40.818819],[29.364161,40.819083],[29.363668,40.819474],[29.363595,40.819672],[29.363698,40.820968],[29.364041,40.821529],[29.364213,40.822147],[29.36426,40.822957],[29.36387,40.823311],[29.363476,40.823472],[29.36334,40.823658],[29.363348,40.82401],[29.363818,40.824755],[29.364099,40.825594],[29.364005,40.826057],[29.364088,40.827126],[29.36431,40.827374],[29.365195,40.827915],[29.365454,40.828643],[29.36618,40.829543],[29.366301,40.829985],[29.366118,40.830908],[29.366329,40.831186],[29.367686,40.830668],[29.3674,40.830226],[29.370127,40.82909],[29.370475,40.829622],[29.371163,40.831264],[29.371673,40.832007],[29.371737,40.832284],[29.374354,40.831567],[29.374759,40.831185]]]}}]}