{"type":"FeatureCollection","name":"turkiye_map.dist.mahalle_geometrileri_by_district.TR-D-34-008","features":[{"type":"Feature","properties":{"id":"TR-Y-34-008-M-0001","level":"yerlesim","type":"mahalle","parent_id":"TR-D-34-008","province_id":"TR-P-34","district_id":"TR-D-34-008","name":"Altınşehir","source_raw_name":"ALTINŞEHİR","source":"Kullanıcı tarafından sağlanan KML","source_label":"Kullanıcı tarafından sağlanan KML","source_name":"Istanbul Mahalle KML"},"geometry":{"type":"Polygon","coordinates":[[[28.759,41.071406],[28.75899,41.07094],[28.758949,41.070425],[28.758794,41.070047],[28.758469,41.069514],[28.758446,41.068618],[28.758504,41.068164],[28.758565,41.067631],[28.758265,41.067436],[28.7581,41.067065],[28.758257,41.066775],[28.758261,41.066568],[28.757985,41.066215],[28.757911,41.06584],[28.757957,41.065516],[28.758115,41.065211],[28.758019,41.064941],[28.757801,41.064712],[28.757674,41.06389],[28.757397,41.063221],[28.757229,41.062803],[28.757164,41.062457],[28.756958,41.062102],[28.756946,41.061169],[28.756948,41.061114],[28.756948,41.061108],[28.756193,41.061049],[28.755741,41.06102],[28.75542,41.061],[28.755117,41.06098],[28.75443,41.060974],[28.753692,41.060968],[28.752351,41.06103],[28.750424,41.061235],[28.749372,41.06142],[28.748281,41.061614],[28.747656,41.061737],[28.747598,41.061749],[28.747581,41.061789],[28.747561,41.061827],[28.747364,41.062193],[28.747184,41.062483],[28.747127,41.06257],[28.746983,41.062867],[28.746859,41.063052],[28.74687,41.063266],[28.746875,41.063349],[28.746719,41.064004],[28.746644,41.064147],[28.746552,41.064299],[28.746292,41.064708],[28.746202,41.064811],[28.746155,41.064886],[28.746129,41.064952],[28.74598,41.065149],[28.745842,41.065383],[28.745718,41.065599],[28.745667,41.065754],[28.745621,41.065892],[28.745629,41.065974],[28.745653,41.066089],[28.745684,41.066281],[28.745715,41.066441],[28.745739,41.066553],[28.745743,41.066687],[28.745732,41.066813],[28.745661,41.066978],[28.745618,41.067041],[28.745538,41.067159],[28.745434,41.06728],[28.745347,41.067379],[28.745243,41.067504],[28.745136,41.067671],[28.744846,41.068289],[28.744818,41.068453],[28.74475,41.068794],[28.744629,41.069511],[28.744373,41.070261],[28.744275,41.070497],[28.744158,41.070799],[28.743793,41.071795],[28.743746,41.071902],[28.74362,41.072182],[28.743281,41.072851],[28.743171,41.073056],[28.742899,41.073548],[28.742612,41.074026],[28.742589,41.074183],[28.742596,41.074182],[28.742744,41.074152],[28.742744,41.074147],[28.743452,41.073941],[28.748914,41.073085],[28.749181,41.07305],[28.749521,41.072995],[28.749803,41.072946],[28.75028,41.072857],[28.750397,41.072839],[28.750642,41.072798],[28.750953,41.072753],[28.751026,41.072738],[28.751269,41.072689],[28.751623,41.07263],[28.75181,41.072168],[28.751927,41.072364],[28.751995,41.072502],[28.75212,41.072534],[28.752542,41.07248],[28.753171,41.072372],[28.753516,41.072317],[28.75371,41.072262],[28.754281,41.072177],[28.75444,41.072147],[28.754671,41.072098],[28.754868,41.072061],[28.755145,41.072032],[28.75551,41.07196],[28.755731,41.071906],[28.756131,41.071838],[28.756213,41.071822],[28.756353,41.071801],[28.759,41.071406]]]}},{"type":"Feature","properties":{"id":"TR-Y-34-008-M-0002","level":"yerlesim","type":"mahalle","parent_id":"TR-D-34-008","province_id":"TR-P-34","district_id":"TR-D-34-008","name":"Bahçeşehir 1. Kısım","source_raw_name":"BAHÇEŞEHİR 1. KISIM","source":"Kullanıcı tarafından sağlanan KML","source_label":"Kullanıcı tarafından sağlanan KML","source_name":"Istanbul Mahalle KML"},"geometry":{"type":"Polygon","coordinates":[[[28.689202,41.106139],[28.689549,41.105806],[28.690169,41.105464],[28.690979,41.104815],[28.691164,41.104586],[28.691324,41.104088],[28.691527,41.103637],[28.691665,41.103341],[28.691834,41.102158],[28.691944,41.101742],[28.692451,41.100461],[28.692564,41.099843],[28.692691,41.09915],[28.69275,41.098563],[28.692722,41.097708],[28.692603,41.096431],[28.69235,41.095391],[28.691808,41.09422],[28.691329,41.093326],[28.691115,41.091847],[28.691458,41.090724],[28.692178,41.090066],[28.692222,41.089977],[28.692098,41.089297],[28.692067,41.089305],[28.692067,41.089267],[28.692123,41.089136],[28.692448,41.088171],[28.692514,41.087971],[28.692555,41.087836],[28.692651,41.087539],[28.692781,41.087198],[28.692867,41.086965],[28.692926,41.086807],[28.692985,41.086621],[28.693028,41.086476],[28.693092,41.086256],[28.693173,41.085984],[28.693317,41.085597],[28.693398,41.085372],[28.693458,41.085234],[28.693468,41.085102],[28.693485,41.084902],[28.693504,41.084749],[28.693526,41.084587],[28.693551,41.084395],[28.693578,41.084155],[28.693576,41.083921],[28.693597,41.083551],[28.693636,41.083166],[28.693668,41.08279],[28.693727,41.08249],[28.693821,41.082191],[28.693895,41.081964],[28.694,41.081758],[28.694375,41.081176],[28.694568,41.080903],[28.694873,41.080453],[28.695038,41.080189],[28.695129,41.080033],[28.695228,41.079877],[28.695294,41.079781],[28.695666,41.079183],[28.69601,41.078695],[28.696139,41.078452],[28.696322,41.078157],[28.696522,41.077861],[28.696675,41.077618],[28.696817,41.077323],[28.69691,41.077172],[28.697042,41.077051],[28.697206,41.076924],[28.697275,41.076912],[28.697339,41.076883],[28.697552,41.076763],[28.697729,41.076662],[28.697953,41.076541],[28.698223,41.076389],[28.698376,41.076285],[28.698464,41.076196],[28.698529,41.076117],[28.698586,41.076023],[28.698658,41.075877],[28.698726,41.075702],[28.698844,41.075325],[28.699101,41.074601],[28.699257,41.074174],[28.699255,41.074112],[28.699519,41.07334],[28.699963,41.072055],[28.700061,41.071684],[28.700102,41.070821],[28.700179,41.069443],[28.700177,41.069269],[28.700197,41.068929],[28.700232,41.068289],[28.700287,41.067208],[28.70031,41.066508],[28.700322,41.066032],[28.7003,41.065862],[28.700277,41.065799],[28.70024,41.065699],[28.700186,41.065596],[28.7,41.065364],[28.699797,41.065117],[28.699676,41.064951],[28.699488,41.064724],[28.699265,41.06452],[28.699327,41.064371],[28.699459,41.064048],[28.699636,41.063679],[28.699158,41.063511],[28.699958,41.061778],[28.700689,41.060237],[28.700862,41.059982],[28.701037,41.059727],[28.701543,41.059138],[28.70162,41.059049],[28.701589,41.059051],[28.700733,41.059109],[28.700328,41.05912],[28.700081,41.059123],[28.699702,41.059112],[28.69912,41.05913],[28.697737,41.059055],[28.696787,41.058946],[28.695836,41.058832],[28.694866,41.058682],[28.693743,41.058426],[28.692949,41.058218],[28.692918,41.058209],[28.691668,41.057848],[28.691484,41.058193],[28.691335,41.058473],[28.691228,41.058591],[28.691225,41.058592],[28.690836,41.058781],[28.690136,41.059068],[28.689808,41.059201],[28.689379,41.059382],[28.689363,41.059389],[28.689215,41.059483],[28.688981,41.059699],[28.68887,41.059853],[28.688786,41.060011],[28.688723,41.060201],[28.68867,41.060507],[28.688562,41.061093],[28.688503,41.061318],[28.688459,41.061439],[28.6883,41.06174],[28.68825,41.061823],[28.687997,41.06211],[28.68764,41.062421],[28.687341,41.062604],[28.686639,41.062949],[28.686339,41.063126],[28.686001,41.063365],[28.68556,41.063742],[28.685446,41.063875],[28.685286,41.064139],[28.685101,41.064835],[28.684747,41.066162],[28.684706,41.066317],[28.68432,41.067785],[28.684205,41.068223],[28.684011,41.068963],[28.684,41.069066],[28.684011,41.069186],[28.684056,41.06934],[28.684111,41.069481],[28.684154,41.069595],[28.684154,41.069595],[28.684154,41.069596],[28.684374,41.069719],[28.684501,41.06979],[28.684749,41.069889],[28.684964,41.069915],[28.686038,41.06997],[28.686545,41.070041],[28.687002,41.07015],[28.687472,41.07033],[28.687836,41.070539],[28.688137,41.070774],[28.688138,41.070775],[28.688496,41.071151],[28.688905,41.071579],[28.689029,41.071709],[28.689563,41.072269],[28.689719,41.072432],[28.689779,41.072494],[28.689779,41.072494],[28.689903,41.072587],[28.690049,41.072666],[28.690161,41.072709],[28.690381,41.072744],[28.691257,41.072817],[28.691257,41.072817],[28.691197,41.072987],[28.691136,41.073158],[28.691096,41.073268],[28.691033,41.073411],[28.690845,41.073635],[28.690585,41.073978],[28.690495,41.074097],[28.690277,41.074332],[28.690172,41.074393],[28.690165,41.074462],[28.690124,41.07451],[28.689961,41.074589],[28.689893,41.074649],[28.689671,41.074844],[28.689633,41.074878],[28.689562,41.074965],[28.689492,41.075052],[28.689399,41.075141],[28.689309,41.075197],[28.689134,41.075297],[28.68884,41.075487],[28.688516,41.075729],[28.688516,41.07573],[28.687973,41.076147],[28.687682,41.076413],[28.687547,41.076583],[28.687377,41.07677],[28.687306,41.076807],[28.687293,41.076814],[28.687255,41.076931],[28.687097,41.077109],[28.686977,41.077144],[28.686873,41.077219],[28.686758,41.07723],[28.686676,41.077275],[28.686712,41.077342],[28.686769,41.077397],[28.686757,41.077447],[28.68672,41.077492],[28.686636,41.077554],[28.686514,41.077706],[28.686235,41.077973],[28.686125,41.078106],[28.686017,41.078159],[28.685883,41.078284],[28.685798,41.078286],[28.685797,41.078287],[28.685017,41.079104],[28.684925,41.079218],[28.684802,41.079406],[28.684703,41.079421],[28.684695,41.079423],[28.684539,41.079413],[28.684516,41.079412],[28.684163,41.079442],[28.684147,41.079443],[28.683963,41.079426],[28.683933,41.079423],[28.683873,41.079449],[28.683812,41.079512],[28.683763,41.079574],[28.683742,41.079605],[28.683727,41.079603],[28.683725,41.079602],[28.683685,41.079583],[28.683668,41.079573],[28.683608,41.079563],[28.683525,41.079553],[28.68349,41.079553],[28.683442,41.079552],[28.683407,41.079552],[28.683299,41.079569],[28.683204,41.079586],[28.683132,41.07963],[28.683071,41.079674],[28.682987,41.079745],[28.682938,41.079799],[28.682925,41.079844],[28.682936,41.079898],[28.682911,41.079934],[28.682826,41.08005],[28.682752,41.080148],[28.682679,41.080246],[28.682655,41.080282],[28.682642,41.0803],[28.682618,41.080326],[28.682594,41.080353],[28.682545,41.080398],[28.682521,41.080433],[28.682496,41.08046],[28.682484,41.080487],[28.68246,41.080505],[28.682423,41.080531],[28.682376,41.080549],[28.682339,41.080566],[28.682292,41.080584],[28.682255,41.08061],[28.682244,41.080618],[28.682219,41.080637],[28.682183,41.080655],[28.682147,41.080663],[28.682099,41.080672],[28.682028,41.08068],[28.682004,41.080698],[28.681968,41.080715],[28.681943,41.080733],[28.681919,41.08076],[28.681909,41.080763],[28.681895,41.080768],[28.68186,41.080759],[28.681824,41.08075],[28.681806,41.080745],[28.681788,41.080749],[28.68174,41.080767],[28.681715,41.080802],[28.681703,41.080838],[28.681692,41.08085],[28.68136,41.081075],[28.681306,41.081092],[28.681142,41.081143],[28.680915,41.081209],[28.680751,41.081422],[28.680444,41.081624],[28.680083,41.081879],[28.679685,41.082286],[28.67947,41.082497],[28.679338,41.082527],[28.679186,41.082544],[28.679113,41.082571],[28.679081,41.082688],[28.679104,41.082759],[28.679286,41.082969],[28.679254,41.083072],[28.679161,41.083142],[28.679013,41.083191],[28.678769,41.083301],[28.678714,41.083424],[28.678694,41.083565],[28.678554,41.083651],[28.67853,41.083659],[28.678404,41.083702],[28.678184,41.083698],[28.677986,41.083781],[28.677816,41.083925],[28.67769,41.084098],[28.677544,41.08422],[28.677214,41.08429],[28.676947,41.084435],[28.67693,41.084445],[28.676529,41.084611],[28.6762,41.084815],[28.676089,41.08495],[28.676043,41.085007],[28.675943,41.085307],[28.675938,41.085565],[28.675938,41.085567],[28.675982,41.085706],[28.676096,41.085878],[28.676069,41.086246],[28.67595,41.086358],[28.675837,41.086399],[28.675668,41.086427],[28.675617,41.086461],[28.675564,41.086528],[28.67553,41.08657],[28.675281,41.086791],[28.675197,41.086937],[28.675112,41.087003],[28.674879,41.087074],[28.674812,41.087174],[28.674582,41.087313],[28.674311,41.08764],[28.674033,41.088029],[28.673883,41.088363],[28.673787,41.088471],[28.673602,41.088577],[28.673178,41.088702],[28.673108,41.088774],[28.67302,41.088864],[28.672632,41.088905],[28.672535,41.08903],[28.672461,41.089125],[28.672393,41.089472],[28.67235,41.08969],[28.672191,41.089885],[28.672255,41.090007],[28.672126,41.090374],[28.671974,41.090519],[28.671688,41.090691],[28.671388,41.090767],[28.671212,41.091149],[28.671179,41.091222],[28.670942,41.091428],[28.670709,41.091744],[28.670569,41.092115],[28.670758,41.092327],[28.670755,41.092465],[28.670755,41.092741],[28.670745,41.093001],[28.670631,41.093142],[28.67037,41.093197],[28.670109,41.093571],[28.670073,41.093621],[28.670033,41.09369],[28.669947,41.093837],[28.669705,41.094057],[28.669432,41.094137],[28.668679,41.094401],[28.668416,41.094528],[28.668271,41.094618],[28.668278,41.094752],[28.668283,41.094836],[28.668484,41.095027],[28.668579,41.095229],[28.668625,41.095382],[28.668636,41.095418],[28.668371,41.0957],[28.668348,41.09572],[28.667829,41.0962],[28.667415,41.096422],[28.667214,41.096535],[28.667068,41.096619],[28.667004,41.096769],[28.666898,41.096801],[28.666798,41.0968],[28.666705,41.096769],[28.666572,41.096739],[28.666451,41.096737],[28.666328,41.096794],[28.666218,41.097019],[28.666099,41.097144],[28.665948,41.097234],[28.66588,41.098245],[28.66586,41.098555],[28.665854,41.098648],[28.665625,41.098914],[28.665497,41.099062],[28.665481,41.099081],[28.664784,41.099889],[28.664753,41.099925],[28.664535,41.100178],[28.664155,41.10062],[28.664081,41.100707],[28.663942,41.100867],[28.663912,41.100876],[28.663673,41.100944],[28.66357,41.100973],[28.663469,41.101025],[28.663182,41.101175],[28.663089,41.101248],[28.663069,41.101263],[28.662929,41.101267],[28.662663,41.101292],[28.662455,41.101392],[28.662297,41.101519],[28.662276,41.101648],[28.662261,41.101743],[28.662214,41.101914],[28.662241,41.101957],[28.662753,41.102677],[28.6631,41.102903],[28.663332,41.102947],[28.66367,41.103277],[28.663946,41.103645],[28.664394,41.104015],[28.664821,41.104265],[28.665258,41.104529],[28.665516,41.104688],[28.665579,41.104745],[28.666005,41.105131],[28.666221,41.105431],[28.666337,41.105594],[28.666846,41.105799],[28.667379,41.106235],[28.667861,41.106538],[28.66794,41.106576],[28.668121,41.106664],[28.668791,41.107055],[28.670658,41.107927],[28.671575,41.108396],[28.67224,41.10862],[28.672256,41.108626],[28.673021,41.108883],[28.673603,41.109079],[28.674534,41.109386],[28.675548,41.109668],[28.676132,41.10983],[28.676789,41.110013],[28.677802,41.110353],[28.67875,41.110138],[28.67921,41.110084],[28.679801,41.110043],[28.680132,41.110069],[28.680422,41.110091],[28.68062,41.110117],[28.68083,41.110155],[28.681162,41.110243],[28.681773,41.110457],[28.682225,41.110623],[28.682573,41.110731],[28.682861,41.110801],[28.683281,41.110865],[28.683479,41.110876],[28.683572,41.110882],[28.683681,41.110881],[28.683756,41.11084],[28.684419,41.110377],[28.684716,41.11018],[28.685113,41.109951],[28.685282,41.109822],[28.685328,41.109782],[28.685458,41.10967],[28.68559,41.109558],[28.685748,41.109447],[28.685927,41.109356],[28.686136,41.109264],[28.686726,41.109059],[28.687019,41.108944],[28.687295,41.108791],[28.687492,41.108656],[28.687624,41.108546],[28.687708,41.10844],[28.687776,41.108303],[28.687813,41.10818],[28.687813,41.107864],[28.687841,41.107612],[28.687886,41.107473],[28.687899,41.107433],[28.687936,41.107284],[28.688011,41.107097],[28.68809,41.106952],[28.688193,41.106791],[28.688315,41.106647],[28.68841,41.106559],[28.688836,41.106292],[28.689202,41.106139]]]}},{"type":"Feature","properties":{"id":"TR-Y-34-008-M-0003","level":"yerlesim","type":"mahalle","parent_id":"TR-D-34-008","province_id":"TR-P-34","district_id":"TR-D-34-008","name":"Bahçeşehir 2. Kısım","source_raw_name":"BAHÇEŞEHİR 2. KISIM","source":"Kullanıcı tarafından sağlanan KML","source_label":"Kullanıcı tarafından sağlanan KML","source_name":"Istanbul Mahalle KML"},"geometry":{"type":"Polygon","coordinates":[[[28.643924,41.101954],[28.644069,41.101914],[28.644317,41.101951],[28.64443,41.101962],[28.644485,41.101962],[28.644706,41.101926],[28.644858,41.10188],[28.644961,41.101829],[28.645022,41.101764],[28.645129,41.101625],[28.645257,41.101391],[28.645358,41.10121],[28.645497,41.101048],[28.645637,41.100972],[28.645736,41.100947],[28.646998,41.101028],[28.64772,41.10104],[28.647807,41.101046],[28.6481,41.101008],[28.648169,41.100993],[28.648458,41.100949],[28.648688,41.100879],[28.648971,41.100802],[28.649541,41.100665],[28.649755,41.10065],[28.650025,41.100623],[28.650198,41.100599],[28.650331,41.100558],[28.650687,41.100401],[28.651117,41.100222],[28.651505,41.100067],[28.65195,41.099947],[28.652198,41.099867],[28.652456,41.099763],[28.65254,41.099723],[28.652657,41.099658],[28.65276,41.099622],[28.652799,41.099605],[28.652902,41.099587],[28.652987,41.099574],[28.653155,41.099593],[28.653819,41.099701],[28.654849,41.099839],[28.65552,41.099941],[28.656098,41.100033],[28.656266,41.100059],[28.656385,41.100077],[28.656484,41.099972],[28.656637,41.099743],[28.656711,41.09955],[28.656752,41.09935],[28.656803,41.098814],[28.65697,41.098518],[28.657321,41.098086],[28.657373,41.098057],[28.657374,41.098058],[28.657866,41.098436],[28.658667,41.099051],[28.658758,41.099108],[28.658759,41.099108],[28.659031,41.099365],[28.65903,41.099409],[28.659084,41.099551],[28.659284,41.099735],[28.659391,41.099891],[28.659395,41.099975],[28.659464,41.100104],[28.659465,41.100104],[28.659647,41.100106],[28.659648,41.100107],[28.659762,41.100216],[28.659905,41.100352],[28.659922,41.10055],[28.660062,41.100836],[28.660177,41.100962],[28.660277,41.101072],[28.660561,41.101454],[28.660786,41.10158],[28.660919,41.101667],[28.661141,41.101814],[28.661242,41.101881],[28.661686,41.102161],[28.661783,41.102223],[28.661808,41.102238],[28.66182,41.102223],[28.661999,41.102001],[28.66219,41.101877],[28.662214,41.101914],[28.662261,41.101743],[28.662276,41.101648],[28.662297,41.101519],[28.662455,41.101392],[28.662663,41.101292],[28.662929,41.101267],[28.663069,41.101263],[28.663089,41.101248],[28.663182,41.101175],[28.663469,41.101025],[28.66357,41.100973],[28.663673,41.100944],[28.663912,41.100876],[28.663942,41.100867],[28.664081,41.100707],[28.664155,41.10062],[28.664535,41.100178],[28.664753,41.099925],[28.664784,41.099889],[28.665481,41.099081],[28.665497,41.099062],[28.665625,41.098914],[28.665854,41.098648],[28.66586,41.098555],[28.66588,41.098245],[28.665948,41.097234],[28.666099,41.097144],[28.666218,41.097019],[28.666328,41.096794],[28.666451,41.096737],[28.666572,41.096739],[28.666705,41.096769],[28.666798,41.0968],[28.666898,41.096801],[28.667004,41.096769],[28.667068,41.096619],[28.667214,41.096535],[28.667415,41.096422],[28.667829,41.0962],[28.668348,41.09572],[28.668371,41.0957],[28.668636,41.095418],[28.668625,41.095382],[28.668579,41.095229],[28.668484,41.095027],[28.668283,41.094836],[28.668278,41.094752],[28.668271,41.094618],[28.668416,41.094528],[28.668679,41.094401],[28.669432,41.094137],[28.669705,41.094057],[28.669947,41.093837],[28.670033,41.09369],[28.670073,41.093621],[28.670109,41.093571],[28.67037,41.093197],[28.670631,41.093142],[28.670745,41.093001],[28.670755,41.092741],[28.670755,41.092465],[28.670758,41.092327],[28.670569,41.092115],[28.670709,41.091744],[28.670942,41.091428],[28.671179,41.091222],[28.671212,41.091149],[28.671388,41.090767],[28.671688,41.090691],[28.671974,41.090519],[28.672126,41.090374],[28.672255,41.090007],[28.672191,41.089885],[28.67235,41.08969],[28.672393,41.089472],[28.672461,41.089125],[28.672535,41.08903],[28.672632,41.088905],[28.67302,41.088864],[28.673108,41.088774],[28.673178,41.088702],[28.673602,41.088577],[28.673787,41.088471],[28.673883,41.088363],[28.674033,41.088029],[28.674311,41.08764],[28.674582,41.087313],[28.674812,41.087174],[28.674879,41.087074],[28.675112,41.087003],[28.675197,41.086937],[28.675281,41.086791],[28.67553,41.08657],[28.675564,41.086528],[28.675617,41.086461],[28.675668,41.086427],[28.675837,41.086399],[28.67595,41.086358],[28.676069,41.086246],[28.676096,41.085878],[28.675982,41.085706],[28.675938,41.085567],[28.675938,41.085565],[28.675943,41.085307],[28.676043,41.085007],[28.676089,41.08495],[28.6762,41.084815],[28.676529,41.084611],[28.67693,41.084445],[28.676947,41.084435],[28.677214,41.08429],[28.677544,41.08422],[28.67769,41.084098],[28.677816,41.083925],[28.677986,41.083781],[28.678184,41.083698],[28.678404,41.083702],[28.67853,41.083659],[28.678554,41.083651],[28.678694,41.083565],[28.678714,41.083424],[28.678769,41.083301],[28.679013,41.083191],[28.679161,41.083142],[28.679254,41.083072],[28.679286,41.082969],[28.679104,41.082759],[28.679081,41.082688],[28.679113,41.082571],[28.679186,41.082544],[28.679338,41.082527],[28.67947,41.082497],[28.679685,41.082286],[28.680083,41.081879],[28.680444,41.081624],[28.680751,41.081422],[28.680915,41.081209],[28.681142,41.081143],[28.681306,41.081092],[28.68136,41.081075],[28.681692,41.08085],[28.681703,41.080838],[28.681715,41.080802],[28.68174,41.080767],[28.681788,41.080749],[28.681806,41.080745],[28.681824,41.08075],[28.68186,41.080759],[28.681895,41.080768],[28.681909,41.080763],[28.681919,41.08076],[28.681943,41.080733],[28.681968,41.080715],[28.682004,41.080698],[28.682028,41.08068],[28.682099,41.080672],[28.682147,41.080663],[28.682183,41.080655],[28.682219,41.080637],[28.682244,41.080618],[28.682255,41.08061],[28.682292,41.080584],[28.682339,41.080566],[28.682376,41.080549],[28.682423,41.080531],[28.68246,41.080505],[28.682484,41.080487],[28.682496,41.08046],[28.682521,41.080433],[28.682545,41.080398],[28.682594,41.080353],[28.682618,41.080326],[28.682642,41.0803],[28.682655,41.080282],[28.682679,41.080246],[28.682752,41.080148],[28.682826,41.08005],[28.682911,41.079934],[28.682936,41.079898],[28.682925,41.079844],[28.682938,41.079799],[28.682987,41.079745],[28.683071,41.079674],[28.683132,41.07963],[28.683204,41.079586],[28.683299,41.079569],[28.683407,41.079552],[28.683442,41.079552],[28.68349,41.079553],[28.683525,41.079553],[28.683608,41.079563],[28.683668,41.079573],[28.683685,41.079583],[28.683725,41.079602],[28.683727,41.079603],[28.683742,41.079605],[28.683763,41.079574],[28.683812,41.079512],[28.683873,41.079449],[28.683933,41.079423],[28.683963,41.079426],[28.684147,41.079443],[28.684163,41.079442],[28.684516,41.079412],[28.684539,41.079413],[28.684695,41.079423],[28.684703,41.079421],[28.684802,41.079406],[28.684925,41.079218],[28.685017,41.079104],[28.685797,41.078287],[28.685798,41.078286],[28.685883,41.078284],[28.686017,41.078159],[28.686125,41.078106],[28.686235,41.077973],[28.686514,41.077706],[28.686636,41.077554],[28.68672,41.077492],[28.686757,41.077447],[28.686769,41.077397],[28.686712,41.077342],[28.686676,41.077275],[28.686758,41.07723],[28.686873,41.077219],[28.686977,41.077144],[28.687097,41.077109],[28.687255,41.076931],[28.687293,41.076814],[28.687306,41.076807],[28.687377,41.07677],[28.687547,41.076583],[28.687682,41.076413],[28.687973,41.076147],[28.688516,41.07573],[28.688516,41.075729],[28.68884,41.075487],[28.689134,41.075297],[28.689309,41.075197],[28.689399,41.075141],[28.689492,41.075052],[28.689562,41.074965],[28.689633,41.074878],[28.689671,41.074844],[28.689893,41.074649],[28.689961,41.074589],[28.690124,41.07451],[28.690165,41.074462],[28.690172,41.074393],[28.690277,41.074332],[28.690495,41.074097],[28.690585,41.073978],[28.690845,41.073635],[28.691033,41.073411],[28.691096,41.073268],[28.691136,41.073158],[28.691197,41.072987],[28.691257,41.072817],[28.691257,41.072817],[28.690381,41.072744],[28.690161,41.072709],[28.690049,41.072666],[28.689903,41.072587],[28.689779,41.072494],[28.689779,41.072494],[28.689719,41.072432],[28.689563,41.072269],[28.689029,41.071709],[28.688905,41.071579],[28.688496,41.071151],[28.688138,41.070775],[28.688137,41.070774],[28.687836,41.070539],[28.687472,41.07033],[28.687002,41.07015],[28.686545,41.070041],[28.686038,41.06997],[28.684964,41.069915],[28.684749,41.069889],[28.684501,41.06979],[28.684374,41.069719],[28.684154,41.069596],[28.684154,41.069595],[28.684154,41.069595],[28.684111,41.069481],[28.684056,41.06934],[28.684011,41.069186],[28.684,41.069066],[28.684011,41.068963],[28.684205,41.068223],[28.68432,41.067785],[28.684706,41.066317],[28.684747,41.066162],[28.685101,41.064835],[28.685286,41.064139],[28.685446,41.063875],[28.68556,41.063742],[28.686001,41.063365],[28.686339,41.063126],[28.686639,41.062949],[28.687341,41.062604],[28.68764,41.062421],[28.687997,41.06211],[28.68825,41.061823],[28.6883,41.06174],[28.688459,41.061439],[28.688503,41.061318],[28.688562,41.061093],[28.68867,41.060507],[28.688723,41.060201],[28.688786,41.060011],[28.68887,41.059853],[28.688981,41.059699],[28.689215,41.059483],[28.689363,41.059389],[28.689379,41.059382],[28.689808,41.059201],[28.690136,41.059068],[28.690836,41.058781],[28.691225,41.058592],[28.691228,41.058591],[28.690802,41.058708],[28.690692,41.058738],[28.69055,41.058777],[28.690334,41.058848],[28.690084,41.058929],[28.689733,41.059043],[28.689521,41.059112],[28.689453,41.059142],[28.689188,41.05926],[28.689042,41.059325],[28.689016,41.059337],[28.688648,41.059501],[28.688437,41.059595],[28.688098,41.059745],[28.688006,41.059796],[28.68788,41.059866],[28.687341,41.060164],[28.687239,41.06022],[28.687234,41.060225],[28.686962,41.060514],[28.686892,41.060589],[28.686617,41.06088],[28.686604,41.060895],[28.686579,41.06092],[28.686344,41.061167],[28.686253,41.061262],[28.686093,41.061322],[28.685635,41.061494],[28.685591,41.061509],[28.685463,41.061552],[28.684892,41.061744],[28.68465,41.061825],[28.684502,41.061875],[28.684114,41.061996],[28.683946,41.062048],[28.683337,41.062238],[28.683218,41.062275],[28.683154,41.062295],[28.683111,41.062311],[28.682816,41.062424],[28.682624,41.06249],[28.682537,41.06252],[28.682357,41.062564],[28.682304,41.062565],[28.681728,41.062576],[28.68166,41.062577],[28.68165,41.062577],[28.680901,41.062623],[28.680794,41.06263],[28.680689,41.062653],[28.680137,41.062774],[28.679988,41.062811],[28.679932,41.062825],[28.679244,41.062996],[28.679087,41.063035],[28.678856,41.063093],[28.678401,41.063168],[28.678306,41.063184],[28.677528,41.063313],[28.677513,41.063315],[28.676939,41.06341],[28.676521,41.063479],[28.676204,41.063532],[28.676133,41.063543],[28.675999,41.063574],[28.675573,41.063671],[28.67527,41.06374],[28.675144,41.063768],[28.674915,41.063842],[28.674701,41.06391],[28.674282,41.064044],[28.674029,41.064125],[28.673718,41.064224],[28.673517,41.064292],[28.673391,41.064334],[28.672784,41.064538],[28.672565,41.064611],[28.672539,41.06462],[28.6722,41.064871],[28.672059,41.064975],[28.671885,41.065104],[28.671723,41.06522],[28.671574,41.065327],[28.671209,41.065587],[28.671101,41.065664],[28.67064,41.065994],[28.670613,41.066013],[28.670105,41.066376],[28.669967,41.066475],[28.669574,41.066756],[28.669559,41.066767],[28.669056,41.067125],[28.669006,41.067161],[28.668916,41.067226],[28.668614,41.067442],[28.668449,41.067556],[28.668419,41.067577],[28.668332,41.067638],[28.668331,41.067638],[28.667936,41.067913],[28.667887,41.067947],[28.667854,41.06797],[28.667726,41.068063],[28.667422,41.068283],[28.667395,41.068302],[28.667319,41.068357],[28.667,41.068588],[28.66699,41.068595],[28.666856,41.068692],[28.666711,41.068797],[28.66665,41.068829],[28.666649,41.068829],[28.666564,41.068873],[28.666508,41.068902],[28.666468,41.068929],[28.666424,41.068959],[28.666317,41.069032],[28.665777,41.069398],[28.665679,41.069459],[28.665319,41.069684],[28.664999,41.069883],[28.664741,41.070053],[28.663843,41.07065],[28.663827,41.07066],[28.663761,41.070701],[28.663658,41.070765],[28.662964,41.071198],[28.661933,41.07184],[28.661786,41.071931],[28.660793,41.07255],[28.660731,41.072589],[28.660605,41.072669],[28.660309,41.072856],[28.660274,41.072878],[28.659663,41.073263],[28.6595,41.073366],[28.658392,41.07407],[28.658199,41.074192],[28.657729,41.074497],[28.656685,41.075172],[28.656373,41.075371],[28.656019,41.075597],[28.655798,41.075732],[28.655624,41.075839],[28.655553,41.075879],[28.655455,41.07592],[28.655394,41.075966],[28.655309,41.076066],[28.655108,41.076424],[28.654804,41.076963],[28.65472,41.077113],[28.654541,41.077432],[28.654507,41.077491],[28.653903,41.078564],[28.653792,41.078762],[28.653618,41.079071],[28.653489,41.079301],[28.653149,41.079905],[28.652996,41.080178],[28.652936,41.080287],[28.652862,41.08058],[28.652782,41.080895],[28.652793,41.081145],[28.65281,41.081543],[28.65284,41.082238],[28.652802,41.082529],[28.652764,41.082818],[28.652713,41.08299],[28.652648,41.083205],[28.652561,41.0835],[28.652548,41.083541],[28.652406,41.084016],[28.652316,41.084324],[28.652294,41.0844],[28.652204,41.084708],[28.65197,41.085449],[28.651908,41.085648],[28.651735,41.086065],[28.651489,41.086415],[28.651094,41.086802],[28.650769,41.087121],[28.649958,41.087886],[28.649275,41.088531],[28.649023,41.088768],[28.648344,41.089411],[28.648253,41.089497],[28.647079,41.090608],[28.647064,41.090622],[28.646229,41.091422],[28.645932,41.091772],[28.645828,41.091981],[28.645767,41.092103],[28.645474,41.092937],[28.645166,41.093811],[28.644884,41.094637],[28.644692,41.095073],[28.644552,41.095233],[28.644486,41.095309],[28.643975,41.095646],[28.643569,41.095895],[28.642252,41.096703],[28.642044,41.09683],[28.641519,41.097146],[28.641094,41.097371],[28.640725,41.097593],[28.639866,41.098105],[28.6399,41.098141],[28.639978,41.098221],[28.640588,41.098813],[28.640896,41.099127],[28.641187,41.099424],[28.641367,41.100046],[28.641366,41.100077],[28.641385,41.100118],[28.64142,41.10021],[28.641663,41.100565],[28.641714,41.100639],[28.641983,41.100946],[28.64221,41.101205],[28.642349,41.101297],[28.642475,41.1014],[28.642616,41.101511],[28.642739,41.1016],[28.64274,41.101601],[28.642872,41.101702],[28.642901,41.101776],[28.642922,41.101793],[28.643138,41.101963],[28.643218,41.102065],[28.643228,41.102078],[28.643337,41.102235],[28.643334,41.102336],[28.64337,41.102345],[28.643418,41.102359],[28.643678,41.102099],[28.643787,41.102014],[28.643924,41.101954]]]}},{"type":"Feature","properties":{"id":"TR-Y-34-008-M-0004","level":"yerlesim","type":"mahalle","parent_id":"TR-D-34-008","province_id":"TR-P-34","district_id":"TR-D-34-008","name":"Başak","source_raw_name":"BAŞAK","source":"Kullanıcı tarafından sağlanan KML","source_label":"Kullanıcı tarafından sağlanan KML","source_name":"Istanbul Mahalle KML"},"geometry":{"type":"Polygon","coordinates":[[[28.811521,41.136178],[28.81231,41.136172],[28.813633,41.136225],[28.814814,41.13628],[28.818175,41.136401],[28.81935,41.13643],[28.819902,41.136389],[28.820473,41.136337],[28.823238,41.135641],[28.824324,41.135487],[28.824653,41.135418],[28.824824,41.135405],[28.824824,41.135405],[28.824682,41.134535],[28.824646,41.134286],[28.824698,41.134228],[28.825351,41.133408],[28.826205,41.132416],[28.826364,41.132217],[28.827333,41.131018],[28.828097,41.130487],[28.828831,41.130001],[28.829484,41.129596],[28.829662,41.129477],[28.829826,41.12938],[28.8309,41.128734],[28.831186,41.128567],[28.831419,41.12845],[28.831643,41.128341],[28.831793,41.128255],[28.832024,41.128119],[28.832238,41.127995],[28.832359,41.127926],[28.83242,41.127884],[28.832515,41.127818],[28.833546,41.127103],[28.835684,41.125619],[28.83628,41.125205],[28.837684,41.124231],[28.838727,41.123507],[28.83989,41.1227],[28.840582,41.12222],[28.841315,41.121711],[28.841488,41.121591],[28.842164,41.121122],[28.842965,41.120566],[28.843746,41.120023],[28.843797,41.119988],[28.843848,41.119953],[28.843967,41.11987],[28.844747,41.119329],[28.844859,41.119251],[28.845407,41.118872],[28.845443,41.118848],[28.845498,41.118742],[28.84577,41.118229],[28.845794,41.118185],[28.845818,41.11814],[28.845833,41.118104],[28.845947,41.117626],[28.845945,41.117409],[28.845941,41.117184],[28.8458,41.116882],[28.845755,41.116781],[28.84567,41.11659],[28.845644,41.116534],[28.845611,41.116484],[28.845479,41.116289],[28.845354,41.116104],[28.845159,41.115816],[28.845055,41.11564],[28.845004,41.115524],[28.844867,41.115219],[28.844911,41.11435],[28.84499,41.112794],[28.84526,41.11243],[28.845561,41.112023],[28.846396,41.111659],[28.846924,41.111428],[28.847607,41.110995],[28.848105,41.110495],[28.848537,41.109683],[28.848991,41.108829],[28.849311,41.108228],[28.84942,41.108024],[28.8499,41.10712],[28.84998,41.106718],[28.850017,41.106532],[28.850054,41.106146],[28.850054,41.106145],[28.850062,41.105963],[28.850086,41.105679],[28.850121,41.105275],[28.850121,41.105275],[28.850143,41.105023],[28.850192,41.104451],[28.850206,41.104213],[28.850487,41.102648],[28.850552,41.102285],[28.850621,41.10164],[28.850339,41.100922],[28.850253,41.100693],[28.850134,41.100375],[28.850082,41.100237],[28.849871,41.099698],[28.849669,41.099184],[28.848937,41.097644],[28.848629,41.097209],[28.847022,41.095273],[28.846842,41.094959],[28.846617,41.094579],[28.846476,41.094201],[28.846341,41.093707],[28.846022,41.092851],[28.845653,41.091862],[28.845256,41.090877],[28.84488,41.089537],[28.844338,41.087608],[28.84425,41.087247],[28.844064,41.086484],[28.843744,41.085401],[28.843348,41.08392],[28.843292,41.083744],[28.843209,41.083505],[28.843171,41.083408],[28.84291,41.082931],[28.84275,41.082675],[28.842685,41.082573],[28.842558,41.082373],[28.84246,41.082219],[28.842229,41.081848],[28.841363,41.080538],[28.839879,41.078218],[28.839465,41.077491],[28.838682,41.075543],[28.838132,41.074164],[28.837487,41.072399],[28.833769,41.06888],[28.832911,41.068034],[28.83139,41.068605],[28.829213,41.069581],[28.82894,41.069671],[28.828746,41.069714],[28.827497,41.069829],[28.826134,41.069905],[28.823744,41.069978],[28.822699,41.070123],[28.821807,41.070268],[28.819817,41.070757],[28.8166,41.070739],[28.816217,41.070668],[28.815979,41.070599],[28.815754,41.070511],[28.815051,41.070051],[28.814158,41.069987],[28.814667,41.070913],[28.814813,41.071222],[28.814866,41.071444],[28.814887,41.071573],[28.814881,41.071652],[28.814557,41.072151],[28.814168,41.073446],[28.813982,41.075123],[28.813568,41.076345],[28.812285,41.079372],[28.81097,41.083023],[28.810872,41.083222],[28.810584,41.083555],[28.810129,41.083957],[28.809512,41.084313],[28.808188,41.084824],[28.807569,41.085085],[28.806762,41.085527],[28.806399,41.086242],[28.806134,41.086521],[28.80592,41.086592],[28.805111,41.087089],[28.80481,41.087407],[28.803041,41.09043],[28.802793,41.090459],[28.802424,41.090609],[28.801916,41.093498],[28.801797,41.09456],[28.801078,41.099006],[28.797149,41.098616],[28.796966,41.098728],[28.796673,41.100113],[28.796415,41.101886],[28.796335,41.102506],[28.796386,41.102703],[28.796316,41.103311],[28.794261,41.104518],[28.794141,41.104646],[28.794008,41.104665],[28.794537,41.106109],[28.795115,41.107595],[28.795681,41.108896],[28.796302,41.110434],[28.797482,41.113518],[28.798742,41.116263],[28.799339,41.117627],[28.799871,41.118087],[28.80031,41.11837],[28.800859,41.118847],[28.801242,41.119066],[28.801673,41.119277],[28.802397,41.119478],[28.803715,41.119785],[28.80442,41.119992],[28.805067,41.120278],[28.805626,41.120684],[28.805811,41.12095],[28.80594,41.121202],[28.806348,41.124456],[28.806554,41.125592],[28.806905,41.126106],[28.806202,41.12695],[28.805094,41.128003],[28.80404,41.129326],[28.803342,41.130077],[28.801702,41.131377],[28.801026,41.131947],[28.799814,41.132951],[28.797157,41.135288],[28.795903,41.136381],[28.79485,41.137396],[28.794124,41.138233],[28.793812,41.13896],[28.794867,41.139955],[28.795304,41.140424],[28.796044,41.141496],[28.79658,41.142598],[28.796743,41.143097],[28.797156,41.144086],[28.799419,41.142796],[28.805613,41.138649],[28.807096,41.137649],[28.807708,41.137277],[28.808242,41.137011],[28.808833,41.136759],[28.80929,41.136593],[28.809869,41.136434],[28.810496,41.136298],[28.810945,41.136234],[28.811521,41.136178]]]}},{"type":"Feature","properties":{"id":"TR-Y-34-008-M-0005","level":"yerlesim","type":"mahalle","parent_id":"TR-D-34-008","province_id":"TR-P-34","district_id":"TR-D-34-008","name":"Başakşehir","source_raw_name":"BAŞAKŞEHİR","source":"Kullanıcı tarafından sağlanan KML","source_label":"Kullanıcı tarafından sağlanan KML","source_name":"Istanbul Mahalle KML"},"geometry":{"type":"Polygon","coordinates":[[[28.794124,41.138233],[28.79485,41.137396],[28.795903,41.136381],[28.797157,41.135288],[28.799814,41.132951],[28.801026,41.131947],[28.801702,41.131377],[28.803342,41.130077],[28.80404,41.129326],[28.805094,41.128003],[28.806202,41.12695],[28.806905,41.126106],[28.806554,41.125592],[28.806348,41.124456],[28.80594,41.121202],[28.805811,41.12095],[28.805626,41.120684],[28.805067,41.120278],[28.80442,41.119992],[28.803715,41.119785],[28.802397,41.119478],[28.801673,41.119277],[28.801242,41.119066],[28.800859,41.118847],[28.80031,41.11837],[28.799871,41.118087],[28.799339,41.117627],[28.798742,41.116263],[28.797482,41.113518],[28.796302,41.110434],[28.795681,41.108896],[28.795115,41.107595],[28.794537,41.106109],[28.794008,41.104665],[28.79363,41.103314],[28.793181,41.101781],[28.792978,41.101329],[28.792332,41.100088],[28.791664,41.098767],[28.791181,41.097431],[28.790558,41.095738],[28.789153,41.093361],[28.788661,41.092526],[28.788282,41.091855],[28.787919,41.091148],[28.786465,41.091553],[28.783537,41.089487],[28.783144,41.089027],[28.783077,41.08857],[28.78321,41.088124],[28.78211,41.087896],[28.780402,41.087251],[28.774729,41.087468],[28.775104,41.088155],[28.775985,41.090471],[28.776104,41.09114],[28.776114,41.0917],[28.775961,41.092546],[28.775026,41.092744],[28.773549,41.092829],[28.772808,41.092946],[28.771707,41.093365],[28.770453,41.093843],[28.770221,41.093043],[28.767065,41.09545],[28.766507,41.095819],[28.766199,41.096023],[28.766373,41.096423],[28.771772,41.099237],[28.773512,41.10047],[28.772697,41.106746],[28.77217,41.11063],[28.772012,41.112228],[28.772007,41.113037],[28.772033,41.113348],[28.772048,41.113434],[28.772123,41.113742],[28.772247,41.114008],[28.772335,41.114158],[28.77255,41.114426],[28.772785,41.114656],[28.773068,41.114869],[28.773305,41.115009],[28.773728,41.115184],[28.774146,41.115309],[28.774742,41.115403],[28.776328,41.115587],[28.776608,41.115629],[28.776943,41.115696],[28.777377,41.115812],[28.777669,41.115909],[28.777924,41.116003],[28.778441,41.116243],[28.778799,41.116444],[28.779175,41.116704],[28.780191,41.117591],[28.784249,41.121063],[28.786165,41.12571],[28.788973,41.127253],[28.790465,41.128826],[28.79057,41.129135],[28.790706,41.129492],[28.791127,41.131247],[28.791214,41.131723],[28.791229,41.132112],[28.790874,41.13519],[28.790896,41.135579],[28.790935,41.135773],[28.790977,41.135919],[28.791073,41.136145],[28.791183,41.136351],[28.791387,41.136652],[28.791516,41.136799],[28.793029,41.138221],[28.793812,41.13896],[28.794124,41.138233]]]}},{"type":"Feature","properties":{"id":"TR-Y-34-008-M-0006","level":"yerlesim","type":"mahalle","parent_id":"TR-D-34-008","province_id":"TR-P-34","district_id":"TR-D-34-008","name":"Güvercintepe","source_raw_name":"GÜVERCİNTEPE","source":"Kullanıcı tarafından sağlanan KML","source_label":"Kullanıcı tarafından sağlanan KML","source_name":"Istanbul Mahalle KML"},"geometry":{"type":"Polygon","coordinates":[[[28.738431,41.106638],[28.738504,41.106783],[28.738522,41.106885],[28.738597,41.107215],[28.738874,41.108115],[28.738888,41.10821],[28.739197,41.108268],[28.740142,41.108097],[28.740062,41.107908],[28.74012,41.107701],[28.740125,41.107683],[28.740342,41.10774],[28.74053,41.107724],[28.740853,41.107605],[28.741127,41.10749],[28.741446,41.10742],[28.741606,41.107445],[28.741655,41.107722],[28.742198,41.10765],[28.742294,41.107793],[28.742505,41.10771],[28.742717,41.1076],[28.742818,41.107531],[28.743101,41.107243],[28.74326,41.107083],[28.743343,41.106957],[28.743412,41.106883],[28.743464,41.106815],[28.743688,41.106778],[28.743796,41.106744],[28.743858,41.106678],[28.743875,41.106571],[28.743865,41.106469],[28.74383,41.106339],[28.743808,41.106216],[28.743808,41.106133],[28.743828,41.106079],[28.743877,41.106023],[28.743943,41.105993],[28.74463,41.10592],[28.744974,41.105921],[28.745884,41.105635],[28.74627,41.105352],[28.746758,41.104737],[28.747096,41.104569],[28.747831,41.10422],[28.748273,41.103934],[28.748725,41.103762],[28.748818,41.103723],[28.749191,41.103581],[28.749687,41.10351],[28.750843,41.103555],[28.751686,41.103503],[28.752653,41.103488],[28.753222,41.103447],[28.753508,41.103366],[28.753941,41.102574],[28.754741,41.103107],[28.75566,41.102993],[28.75594,41.102934],[28.756039,41.102903],[28.756127,41.102844],[28.756192,41.102824],[28.756259,41.10276],[28.756297,41.102743],[28.756355,41.102737],[28.756522,41.102751],[28.756581,41.102745],[28.75686,41.102673],[28.75707,41.102638],[28.757261,41.102657],[28.757379,41.102656],[28.757467,41.102636],[28.757518,41.102606],[28.757714,41.102502],[28.75802,41.102416],[28.758168,41.102331],[28.758381,41.102226],[28.75849,41.102147],[28.758797,41.101939],[28.758961,41.101854],[28.759373,41.101733],[28.759438,41.101656],[28.759607,41.101536],[28.759684,41.101462],[28.759826,41.101293],[28.759873,41.101208],[28.759985,41.101019],[28.760073,41.100931],[28.760128,41.100877],[28.760201,41.100797],[28.760263,41.100725],[28.760336,41.100578],[28.760407,41.100406],[28.760462,41.100255],[28.760459,41.100193],[28.760395,41.099753],[28.760307,41.099642],[28.76069,41.098774],[28.760798,41.098732],[28.760808,41.098718],[28.761141,41.098701],[28.761323,41.098594],[28.761428,41.098494],[28.761474,41.098383],[28.761466,41.098279],[28.761351,41.098086],[28.761265,41.098079],[28.761186,41.098063],[28.76097,41.097752],[28.760889,41.097472],[28.760713,41.097178],[28.760524,41.09682],[28.760374,41.096454],[28.760328,41.096188],[28.760348,41.096057],[28.760834,41.095167],[28.761033,41.094885],[28.761168,41.094634],[28.761167,41.094549],[28.761148,41.094481],[28.761067,41.094372],[28.761044,41.094304],[28.761081,41.094237],[28.761353,41.094159],[28.761535,41.094125],[28.761641,41.094086],[28.761752,41.094096],[28.761887,41.094115],[28.762031,41.094085],[28.762195,41.094054],[28.762405,41.094261],[28.762956,41.094278],[28.76335,41.094263],[28.763817,41.094408],[28.764076,41.09442],[28.764188,41.094375],[28.764344,41.094218],[28.764308,41.094188],[28.763112,41.093152],[28.762704,41.091887],[28.761953,41.089731],[28.761835,41.08953],[28.760845,41.088843],[28.760635,41.088809],[28.758362,41.08835],[28.758075,41.087056],[28.758929,41.085576],[28.758748,41.082587],[28.759424,41.079595],[28.758715,41.076747],[28.759409,41.074453],[28.75902,41.073179],[28.759,41.071406],[28.756353,41.071801],[28.756213,41.071822],[28.756131,41.071838],[28.755731,41.071906],[28.75551,41.07196],[28.755145,41.072032],[28.754868,41.072061],[28.754671,41.072098],[28.75444,41.072147],[28.754281,41.072177],[28.75371,41.072262],[28.753516,41.072317],[28.753171,41.072372],[28.752542,41.07248],[28.75212,41.072534],[28.751995,41.072502],[28.751927,41.072364],[28.75181,41.072168],[28.751623,41.07263],[28.751269,41.072689],[28.751026,41.072738],[28.750953,41.072753],[28.750642,41.072798],[28.750397,41.072839],[28.75028,41.072857],[28.749803,41.072946],[28.749521,41.072995],[28.749181,41.07305],[28.748914,41.073085],[28.743452,41.073941],[28.742744,41.074147],[28.742744,41.074152],[28.742596,41.074182],[28.742589,41.074183],[28.742588,41.074196],[28.742515,41.074416],[28.742467,41.074523],[28.742226,41.07474],[28.742031,41.074857],[28.741799,41.074995],[28.741551,41.075113],[28.741086,41.075324],[28.74042,41.075622],[28.740216,41.075763],[28.740032,41.075932],[28.739922,41.076053],[28.739849,41.076225],[28.739853,41.076339],[28.739875,41.076529],[28.739912,41.076707],[28.739953,41.076856],[28.740136,41.07752],[28.740287,41.078153],[28.740343,41.078378],[28.740448,41.079054],[28.740515,41.079212],[28.74056,41.07943],[28.740611,41.079632],[28.740757,41.080163],[28.740823,41.080399],[28.740946,41.080796],[28.741103,41.081243],[28.741453,41.081957],[28.741501,41.082109],[28.741579,41.082431],[28.741708,41.083034],[28.741883,41.083952],[28.741934,41.084309],[28.742046,41.085793],[28.742108,41.086568],[28.742149,41.087194],[28.742163,41.087419],[28.742208,41.087818],[28.742197,41.088017],[28.742132,41.088323],[28.742054,41.088363],[28.741959,41.088436],[28.741866,41.088495],[28.741702,41.088562],[28.741597,41.0886],[28.741242,41.088673],[28.741123,41.088696],[28.740862,41.088754],[28.740678,41.088803],[28.740441,41.088893],[28.74021,41.089],[28.739995,41.089138],[28.739838,41.089262],[28.739672,41.089391],[28.73906,41.089931],[28.738062,41.090886],[28.737822,41.091122],[28.737652,41.091359],[28.737586,41.09153],[28.73755,41.091623],[28.737671,41.092084],[28.737725,41.092282],[28.737847,41.092564],[28.738088,41.092947],[28.738335,41.093294],[28.738492,41.093443],[28.738856,41.093864],[28.739026,41.094126],[28.739117,41.094302],[28.739312,41.094718],[28.739439,41.095021],[28.73958,41.09541],[28.739636,41.095622],[28.739663,41.095753],[28.739696,41.096004],[28.73967,41.096355],[28.739625,41.096527],[28.739084,41.097731],[28.739043,41.097853],[28.739021,41.097956],[28.738939,41.098502],[28.738901,41.099047],[28.73891,41.099152],[28.738923,41.099364],[28.738935,41.099496],[28.738971,41.099699],[28.739005,41.099837],[28.739133,41.100103],[28.739289,41.100386],[28.739398,41.100643],[28.739375,41.100748],[28.739334,41.100865],[28.739279,41.100998],[28.739191,41.101154],[28.738984,41.101552],[28.738829,41.10191],[28.738745,41.10217],[28.738614,41.102885],[28.738531,41.103341],[28.738479,41.103627],[28.738358,41.104541],[28.738284,41.104926],[28.738176,41.105519],[28.738144,41.105802],[28.738145,41.105925],[28.738173,41.10607],[28.738212,41.106204],[28.738253,41.106304],[28.73839,41.106554],[28.73842,41.106615],[28.738431,41.106638]]]}},{"type":"Feature","properties":{"id":"TR-Y-34-008-M-0007","level":"yerlesim","type":"mahalle","parent_id":"TR-D-34-008","province_id":"TR-P-34","district_id":"TR-D-34-008","name":"Kayabaşı","source_raw_name":"KAYABAŞI","source":"Kullanıcı tarafından sağlanan KML","source_label":"Kullanıcı tarafından sağlanan KML","source_name":"Istanbul Mahalle KML"},"geometry":{"type":"Polygon","coordinates":[[[28.785107,41.149245],[28.785266,41.149233],[28.785516,41.14929],[28.785694,41.149324],[28.785918,41.149293],[28.786152,41.149221],[28.786497,41.14905],[28.786869,41.148896],[28.787192,41.148771],[28.787655,41.148665],[28.788417,41.148525],[28.788591,41.148519],[28.789505,41.148686],[28.789783,41.148788],[28.790928,41.147925],[28.792268,41.146907],[28.793145,41.146325],[28.793813,41.145924],[28.794822,41.145371],[28.795537,41.144976],[28.797156,41.144086],[28.796743,41.143097],[28.79658,41.142598],[28.796044,41.141496],[28.795304,41.140424],[28.794867,41.139955],[28.793812,41.13896],[28.793029,41.138221],[28.791516,41.136799],[28.791387,41.136652],[28.791183,41.136351],[28.791073,41.136145],[28.790977,41.135919],[28.790935,41.135773],[28.790896,41.135579],[28.790874,41.13519],[28.791229,41.132112],[28.791214,41.131723],[28.791127,41.131247],[28.790706,41.129492],[28.79057,41.129135],[28.790465,41.128826],[28.788973,41.127253],[28.786165,41.12571],[28.784249,41.121063],[28.780191,41.117591],[28.779175,41.116704],[28.778799,41.116444],[28.778441,41.116243],[28.777924,41.116003],[28.777669,41.115909],[28.777377,41.115812],[28.776943,41.115696],[28.776608,41.115629],[28.776328,41.115587],[28.774742,41.115403],[28.774146,41.115309],[28.773728,41.115184],[28.773305,41.115009],[28.773068,41.114869],[28.772785,41.114656],[28.77255,41.114426],[28.772335,41.114158],[28.772247,41.114008],[28.772123,41.113742],[28.772048,41.113434],[28.772033,41.113348],[28.772007,41.113037],[28.772012,41.112228],[28.77217,41.11063],[28.772697,41.106746],[28.773512,41.10047],[28.771772,41.099237],[28.766373,41.096423],[28.766199,41.096023],[28.765996,41.095638],[28.764353,41.094209],[28.764344,41.094218],[28.764188,41.094375],[28.764076,41.09442],[28.763817,41.094408],[28.76335,41.094263],[28.762956,41.094278],[28.762405,41.094261],[28.762195,41.094054],[28.762031,41.094085],[28.761887,41.094115],[28.761752,41.094096],[28.761641,41.094086],[28.761535,41.094125],[28.761353,41.094159],[28.761081,41.094237],[28.761044,41.094304],[28.761067,41.094372],[28.761148,41.094481],[28.761167,41.094549],[28.761168,41.094634],[28.761033,41.094885],[28.760834,41.095167],[28.760348,41.096057],[28.760328,41.096188],[28.760374,41.096454],[28.760524,41.09682],[28.760713,41.097178],[28.760889,41.097472],[28.76097,41.097752],[28.761186,41.098063],[28.761265,41.098079],[28.761351,41.098086],[28.761466,41.098279],[28.761474,41.098383],[28.761428,41.098494],[28.761323,41.098594],[28.761141,41.098701],[28.760808,41.098718],[28.760798,41.098732],[28.76069,41.098774],[28.760307,41.099642],[28.760395,41.099753],[28.760459,41.100193],[28.760462,41.100255],[28.760407,41.100406],[28.760336,41.100578],[28.760263,41.100725],[28.760201,41.100797],[28.760128,41.100877],[28.760073,41.100931],[28.759985,41.101019],[28.759873,41.101208],[28.759826,41.101293],[28.759684,41.101462],[28.759607,41.101536],[28.759438,41.101656],[28.759373,41.101733],[28.758961,41.101854],[28.758797,41.101939],[28.75849,41.102147],[28.758381,41.102226],[28.758168,41.102331],[28.75802,41.102416],[28.757714,41.102502],[28.757518,41.102606],[28.757467,41.102636],[28.757379,41.102656],[28.757261,41.102657],[28.75707,41.102638],[28.75686,41.102673],[28.756581,41.102745],[28.756522,41.102751],[28.756355,41.102737],[28.756297,41.102743],[28.756259,41.10276],[28.756192,41.102824],[28.756127,41.102844],[28.756039,41.102903],[28.75594,41.102934],[28.75566,41.102993],[28.754741,41.103107],[28.753941,41.102574],[28.753508,41.103366],[28.753222,41.103447],[28.752653,41.103488],[28.751686,41.103503],[28.750843,41.103555],[28.749687,41.10351],[28.749191,41.103581],[28.748818,41.103723],[28.748725,41.103762],[28.748273,41.103934],[28.747831,41.10422],[28.747096,41.104569],[28.746758,41.104737],[28.74627,41.105352],[28.745884,41.105635],[28.744974,41.105921],[28.74463,41.10592],[28.743943,41.105993],[28.743877,41.106023],[28.743828,41.106079],[28.743808,41.106133],[28.743808,41.106216],[28.74383,41.106339],[28.743865,41.106469],[28.743875,41.106571],[28.743858,41.106678],[28.743796,41.106744],[28.743688,41.106778],[28.743464,41.106815],[28.743412,41.106883],[28.743343,41.106957],[28.74326,41.107083],[28.743101,41.107243],[28.742818,41.107531],[28.742717,41.1076],[28.742505,41.10771],[28.742294,41.107793],[28.742198,41.10765],[28.741655,41.107722],[28.741606,41.107445],[28.741446,41.10742],[28.741127,41.10749],[28.740853,41.107605],[28.74053,41.107724],[28.740342,41.10774],[28.740125,41.107683],[28.74012,41.107701],[28.740062,41.107908],[28.740142,41.108097],[28.739197,41.108268],[28.738888,41.10821],[28.738874,41.108115],[28.738597,41.107215],[28.738522,41.106885],[28.738504,41.106783],[28.738431,41.106638],[28.738238,41.106591],[28.73787,41.106577],[28.737546,41.106565],[28.737184,41.106888],[28.736707,41.1067],[28.736565,41.106721],[28.736553,41.106529],[28.736388,41.106463],[28.736286,41.106693],[28.735704,41.106843],[28.735254,41.106413],[28.734541,41.106442],[28.734205,41.106385],[28.734279,41.106464],[28.734131,41.106505],[28.734006,41.106543],[28.73394,41.106593],[28.733976,41.10664],[28.734114,41.106709],[28.734474,41.106808],[28.73449,41.106835],[28.734374,41.106857],[28.734143,41.106811],[28.734145,41.106814],[28.734068,41.106905],[28.733476,41.107194],[28.732812,41.107549],[28.732027,41.107769],[28.731476,41.10805],[28.731309,41.108137],[28.731249,41.108291],[28.73116,41.108538],[28.730384,41.10912],[28.729667,41.109488],[28.728795,41.109572],[28.727836,41.109575],[28.727026,41.10923],[28.726284,41.10844],[28.725459,41.107921],[28.724929,41.107794],[28.724633,41.107482],[28.72434,41.106996],[28.724114,41.106792],[28.723526,41.106839],[28.723097,41.107128],[28.721905,41.107036],[28.721941,41.108012],[28.722716,41.10858],[28.723024,41.108939],[28.723474,41.109441],[28.724304,41.110205],[28.724791,41.110512],[28.725553,41.110935],[28.725937,41.111097],[28.726244,41.111212],[28.726658,41.111358],[28.727,41.111518],[28.727225,41.111625],[28.727498,41.111708],[28.72798,41.111725],[28.728201,41.111776],[28.729195,41.112188],[28.730108,41.112467],[28.730646,41.11271],[28.730934,41.11279],[28.731156,41.112797],[28.731613,41.112649],[28.731803,41.112625],[28.732021,41.11273],[28.73211,41.112871],[28.732461,41.113204],[28.732658,41.113431],[28.732661,41.11362],[28.732401,41.113991],[28.732226,41.114263],[28.732209,41.114461],[28.732259,41.114552],[28.732483,41.11477],[28.732635,41.114966],[28.732701,41.115088],[28.732711,41.115277],[28.732588,41.115659],[28.732386,41.116231],[28.732367,41.116283],[28.732443,41.116262],[28.732687,41.116196],[28.732713,41.116189],[28.732725,41.11636],[28.732854,41.116519],[28.732977,41.116604],[28.733233,41.116683],[28.73336,41.116729],[28.733434,41.116791],[28.733433,41.116945],[28.733454,41.11705],[28.733494,41.117119],[28.733718,41.117318],[28.733792,41.11745],[28.733892,41.117558],[28.734008,41.117683],[28.734259,41.117842],[28.734489,41.117889],[28.734525,41.117941],[28.734754,41.118026],[28.73517,41.118159],[28.736129,41.118432],[28.736165,41.118274],[28.7363,41.118258],[28.73646,41.118176],[28.736563,41.118087],[28.736708,41.118022],[28.736845,41.118025],[28.737089,41.118074],[28.737154,41.118107],[28.737595,41.11831],[28.738167,41.118573],[28.738198,41.118592],[28.738228,41.118611],[28.738382,41.118686],[28.739274,41.118935],[28.740034,41.118989],[28.740379,41.11893],[28.740955,41.118806],[28.741158,41.118709],[28.741323,41.118618],[28.741486,41.118569],[28.741595,41.118582],[28.741694,41.118626],[28.741717,41.11867],[28.741696,41.118991],[28.741802,41.11944],[28.741876,41.119508],[28.742686,41.11972],[28.742841,41.119822],[28.7429,41.119948],[28.743325,41.119791],[28.743936,41.119694],[28.744446,41.119735],[28.745005,41.119593],[28.745315,41.119678],[28.745578,41.119616],[28.745706,41.119617],[28.745877,41.119698],[28.746047,41.119817],[28.746692,41.119999],[28.747438,41.1202],[28.747478,41.1199],[28.747494,41.119874],[28.747586,41.11986],[28.747673,41.119829],[28.748009,41.119708],[28.748569,41.119486],[28.748893,41.119355],[28.749018,41.119308],[28.74919,41.119202],[28.749318,41.119212],[28.749338,41.11953],[28.749458,41.119726],[28.749502,41.11978],[28.749737,41.120073],[28.750193,41.120565],[28.750351,41.120744],[28.750951,41.12099],[28.751056,41.121001],[28.751418,41.121017],[28.751424,41.121022],[28.751714,41.121175],[28.751741,41.121134],[28.751847,41.121201],[28.752187,41.12162],[28.75271,41.122069],[28.752874,41.122177],[28.753307,41.12241],[28.753526,41.122525],[28.753841,41.122724],[28.754431,41.123024],[28.755564,41.123307],[28.755606,41.123324],[28.755715,41.123307],[28.755789,41.123316],[28.756622,41.123431],[28.757289,41.123512],[28.757974,41.123581],[28.757988,41.123582],[28.758245,41.123634],[28.75843,41.123697],[28.758608,41.123847],[28.758622,41.123859],[28.759153,41.124305],[28.75939,41.124449],[28.760011,41.124951],[28.760208,41.125199],[28.760269,41.125304],[28.760355,41.125525],[28.760384,41.125764],[28.760372,41.12594],[28.760313,41.126255],[28.760047,41.127123],[28.760032,41.127221],[28.760047,41.127339],[28.760089,41.127444],[28.760151,41.127552],[28.761415,41.129331],[28.761819,41.12991],[28.76204,41.130334],[28.762104,41.130509],[28.76217,41.130773],[28.762208,41.131019],[28.762173,41.131716],[28.762015,41.132168],[28.761814,41.132644],[28.763095,41.133802],[28.763399,41.134054],[28.763544,41.134145],[28.76376,41.134178],[28.763996,41.134204],[28.764207,41.134191],[28.765296,41.133925],[28.76593,41.133754],[28.76634,41.133718],[28.76681,41.133763],[28.767356,41.1339],[28.767829,41.134094],[28.76907,41.134752],[28.770474,41.13526],[28.769694,41.13719],[28.769024,41.138775],[28.770914,41.139326],[28.771567,41.139575],[28.772257,41.140142],[28.772954,41.140737],[28.774375,41.141881],[28.774565,41.142134],[28.774736,41.14256],[28.774829,41.142836],[28.775073,41.143218],[28.77561,41.143788],[28.777145,41.14536],[28.778491,41.14675],[28.779469,41.147732],[28.780534,41.148728],[28.78098,41.14913],[28.781222,41.149242],[28.781607,41.149323],[28.78194,41.149366],[28.782328,41.149373],[28.782727,41.149398],[28.78322,41.149455],[28.783534,41.149471],[28.783848,41.14946],[28.784455,41.149381],[28.784709,41.149318],[28.784921,41.149266],[28.785107,41.149245]]]}},{"type":"Feature","properties":{"id":"TR-Y-34-008-M-0008","level":"yerlesim","type":"mahalle","parent_id":"TR-D-34-008","province_id":"TR-P-34","district_id":"TR-D-34-008","name":"Şahintepesi","source_raw_name":"ŞAHİNTEPE","source":"Kullanıcı tarafından sağlanan KML","source_label":"Kullanıcı tarafından sağlanan KML","source_name":"Istanbul Mahalle KML"},"geometry":{"type":"Polygon","coordinates":[[[28.738431,41.106638],[28.73842,41.106615],[28.73839,41.106554],[28.738253,41.106304],[28.738212,41.106204],[28.738173,41.10607],[28.738145,41.105925],[28.738144,41.105802],[28.738176,41.105519],[28.738284,41.104926],[28.738358,41.104541],[28.738479,41.103627],[28.738531,41.103341],[28.738614,41.102885],[28.738745,41.10217],[28.738829,41.10191],[28.738984,41.101552],[28.739191,41.101154],[28.739279,41.100998],[28.739334,41.100865],[28.739375,41.100748],[28.739398,41.100643],[28.739289,41.100386],[28.739133,41.100103],[28.739005,41.099837],[28.738971,41.099699],[28.738935,41.099496],[28.738923,41.099364],[28.73891,41.099152],[28.738901,41.099047],[28.738939,41.098502],[28.739021,41.097956],[28.739043,41.097853],[28.739084,41.097731],[28.739625,41.096527],[28.73967,41.096355],[28.739696,41.096004],[28.739663,41.095753],[28.739636,41.095622],[28.73958,41.09541],[28.739439,41.095021],[28.739312,41.094718],[28.739117,41.094302],[28.739026,41.094126],[28.738856,41.093864],[28.738492,41.093443],[28.738335,41.093294],[28.738088,41.092947],[28.737847,41.092564],[28.737725,41.092282],[28.737671,41.092084],[28.73755,41.091623],[28.737586,41.09153],[28.737652,41.091359],[28.737822,41.091122],[28.738062,41.090886],[28.73906,41.089931],[28.739672,41.089391],[28.739838,41.089262],[28.739995,41.089138],[28.74021,41.089],[28.740441,41.088893],[28.740678,41.088803],[28.740862,41.088754],[28.741123,41.088696],[28.741242,41.088673],[28.741597,41.0886],[28.741702,41.088562],[28.741866,41.088495],[28.741959,41.088436],[28.742054,41.088363],[28.742132,41.088323],[28.742197,41.088017],[28.742208,41.087818],[28.742163,41.087419],[28.742149,41.087194],[28.742108,41.086568],[28.742046,41.085793],[28.741934,41.084309],[28.741883,41.083952],[28.741708,41.083034],[28.741579,41.082431],[28.741501,41.082109],[28.741453,41.081957],[28.741103,41.081243],[28.740946,41.080796],[28.740823,41.080399],[28.740757,41.080163],[28.740611,41.079632],[28.74056,41.07943],[28.740515,41.079212],[28.740448,41.079054],[28.740343,41.078378],[28.740287,41.078153],[28.740136,41.07752],[28.739953,41.076856],[28.739912,41.076707],[28.739875,41.076529],[28.739853,41.076339],[28.739849,41.076225],[28.739922,41.076053],[28.740032,41.075932],[28.740216,41.075763],[28.74042,41.075622],[28.741086,41.075324],[28.741551,41.075113],[28.741799,41.074995],[28.742031,41.074857],[28.742226,41.07474],[28.742467,41.074523],[28.742515,41.074416],[28.742588,41.074196],[28.742589,41.074183],[28.742612,41.074026],[28.742899,41.073548],[28.743171,41.073056],[28.743281,41.072851],[28.74362,41.072182],[28.743746,41.071902],[28.743793,41.071795],[28.744158,41.070799],[28.744275,41.070497],[28.744373,41.070261],[28.744629,41.069511],[28.74475,41.068794],[28.744818,41.068453],[28.744846,41.068289],[28.745136,41.067671],[28.745243,41.067504],[28.745347,41.067379],[28.745434,41.06728],[28.745538,41.067159],[28.745618,41.067041],[28.745661,41.066978],[28.745732,41.066813],[28.745743,41.066687],[28.745739,41.066553],[28.745715,41.066441],[28.745684,41.066281],[28.745653,41.066089],[28.745629,41.065974],[28.745621,41.065892],[28.745667,41.065754],[28.745718,41.065599],[28.745842,41.065383],[28.74598,41.065149],[28.746129,41.064952],[28.746155,41.064886],[28.746202,41.064811],[28.746292,41.064708],[28.746552,41.064299],[28.746644,41.064147],[28.746719,41.064004],[28.746875,41.063349],[28.74687,41.063266],[28.746859,41.063052],[28.746983,41.062867],[28.747127,41.06257],[28.747184,41.062483],[28.747364,41.062193],[28.747561,41.061827],[28.747581,41.061789],[28.747598,41.061749],[28.747131,41.06184],[28.745705,41.062038],[28.744928,41.062098],[28.74481,41.06209],[28.744629,41.062235],[28.744283,41.062505],[28.744048,41.062698],[28.743449,41.063153],[28.743324,41.06336],[28.74315,41.063654],[28.742719,41.063585],[28.742419,41.063535],[28.741994,41.063479],[28.741596,41.063436],[28.741287,41.063365],[28.741216,41.063347],[28.740791,41.063193],[28.740702,41.063154],[28.740614,41.06311],[28.74044,41.063014],[28.740307,41.062959],[28.740032,41.062842],[28.739731,41.062753],[28.739474,41.06272],[28.739131,41.062713],[28.739004,41.062725],[28.738557,41.06281],[28.738134,41.062898],[28.737898,41.062929],[28.737708,41.062934],[28.737513,41.06292],[28.737325,41.062894],[28.737178,41.06286],[28.737094,41.062836],[28.73699,41.062796],[28.736852,41.06274],[28.73669,41.062657],[28.736212,41.06236],[28.7359,41.062149],[28.735525,41.062363],[28.734879,41.062669],[28.734144,41.062974],[28.733461,41.063297],[28.732822,41.063683],[28.732155,41.063932],[28.731917,41.063969],[28.732058,41.064145],[28.732127,41.064252],[28.732202,41.064377],[28.732267,41.06447],[28.732503,41.064778],[28.732682,41.064971],[28.732762,41.065078],[28.732785,41.065087],[28.732801,41.065094],[28.732877,41.065114],[28.732723,41.065117],[28.732651,41.065125],[28.732537,41.065137],[28.732407,41.065161],[28.732325,41.065184],[28.732243,41.065224],[28.732165,41.065274],[28.732077,41.06533],[28.73176,41.065696],[28.731474,41.065865],[28.730935,41.065993],[28.730546,41.066106],[28.73015,41.066247],[28.730113,41.066263],[28.729561,41.066505],[28.729493,41.06654],[28.729081,41.06677],[28.728947,41.066903],[28.728862,41.06702],[28.728808,41.067113],[28.72878,41.067174],[28.728618,41.067602],[28.728587,41.067696],[28.728549,41.067786],[28.728517,41.067861],[28.728452,41.068014],[28.728319,41.068332],[28.728274,41.068422],[28.728197,41.068561],[28.728059,41.068821],[28.727852,41.069149],[28.72781,41.069232],[28.727589,41.069605],[28.727483,41.0698],[28.727064,41.070407],[28.726967,41.070543],[28.726696,41.0709],[28.726335,41.071277],[28.726181,41.071424],[28.72604,41.07154],[28.725549,41.07193],[28.725385,41.072032],[28.725285,41.072103],[28.725112,41.072216],[28.724886,41.072364],[28.723948,41.072997],[28.723746,41.073151],[28.723369,41.073401],[28.723087,41.073615],[28.722851,41.073803],[28.7227,41.073943],[28.722477,41.074156],[28.722272,41.074366],[28.721998,41.074646],[28.721749,41.074889],[28.721612,41.07502],[28.721501,41.075127],[28.720933,41.075683],[28.720735,41.075897],[28.720665,41.075964],[28.719826,41.076756],[28.719714,41.076863],[28.719055,41.077508],[28.718955,41.077606],[28.71879,41.077765],[28.718656,41.07788],[28.717836,41.07862],[28.717663,41.078767],[28.717509,41.078873],[28.716765,41.07945],[28.716075,41.079947],[28.715565,41.080372],[28.715508,41.080428],[28.715422,41.080541],[28.715352,41.080621],[28.715202,41.080833],[28.714832,41.081337],[28.714162,41.082085],[28.714088,41.082181],[28.713804,41.082499],[28.713759,41.082522],[28.713697,41.082571],[28.713463,41.082703],[28.713392,41.082744],[28.712907,41.082951],[28.712683,41.083055],[28.71214,41.083285],[28.711769,41.083441],[28.711469,41.083563],[28.71087,41.083841],[28.710574,41.084031],[28.710409,41.084156],[28.710288,41.084258],[28.710165,41.084418],[28.710057,41.084561],[28.709582,41.085195],[28.709118,41.085841],[28.709001,41.086004],[28.708693,41.086351],[28.708448,41.086583],[28.708221,41.086729],[28.707851,41.086905],[28.707261,41.087164],[28.706666,41.087441],[28.706224,41.08762],[28.706078,41.08771],[28.705879,41.087935],[28.705825,41.088039],[28.705802,41.088231],[28.705811,41.088383],[28.70601,41.088868],[28.706167,41.0892],[28.706282,41.089566],[28.706279,41.089849],[28.706159,41.090302],[28.705831,41.090903],[28.705507,41.091385],[28.704923,41.092175],[28.704768,41.09234],[28.704372,41.092758],[28.703829,41.09327],[28.703801,41.093296],[28.70372,41.093374],[28.703174,41.093897],[28.70305,41.094076],[28.702643,41.094666],[28.702492,41.094885],[28.702016,41.095577],[28.701724,41.09597],[28.700481,41.097658],[28.699807,41.098529],[28.69907,41.099514],[28.698734,41.099992],[28.698272,41.100599],[28.698033,41.100896],[28.697722,41.10117],[28.697431,41.101406],[28.697289,41.101509],[28.69665,41.101972],[28.695961,41.102448],[28.695144,41.103027],[28.695176,41.10304],[28.695801,41.103192],[28.696046,41.103259],[28.696255,41.103306],[28.696476,41.103305],[28.696759,41.103396],[28.696982,41.103419],[28.697242,41.103445],[28.697341,41.103443],[28.697448,41.103423],[28.697682,41.103365],[28.697774,41.103333],[28.697949,41.103323],[28.69851,41.103286],[28.698783,41.103243],[28.699113,41.103199],[28.699561,41.103191],[28.700305,41.103156],[28.700426,41.103171],[28.701086,41.103372],[28.701264,41.1034],[28.701452,41.103447],[28.701593,41.103426],[28.702425,41.10314],[28.702624,41.103134],[28.702693,41.103138],[28.702775,41.103137],[28.703091,41.103218],[28.703405,41.103418],[28.703576,41.103456],[28.704435,41.103668],[28.704795,41.103931],[28.705004,41.104243],[28.705283,41.104415],[28.705378,41.104449],[28.705402,41.104471],[28.705556,41.104502],[28.705889,41.104513],[28.706211,41.104502],[28.706436,41.104487],[28.70667,41.10446],[28.70714,41.104424],[28.707385,41.104407],[28.707538,41.104395],[28.707893,41.104362],[28.707992,41.104352],[28.708164,41.104342],[28.708505,41.104332],[28.708796,41.104318],[28.709011,41.104306],[28.709098,41.104302],[28.709292,41.104308],[28.709483,41.104322],[28.709673,41.104343],[28.709918,41.104368],[28.710114,41.104436],[28.71043,41.104523],[28.710664,41.104587],[28.710747,41.104802],[28.710818,41.104988],[28.711079,41.105343],[28.711226,41.105437],[28.711629,41.105711],[28.711801,41.105903],[28.711923,41.106056],[28.712113,41.106183],[28.712277,41.106343],[28.712735,41.106733],[28.713075,41.10706],[28.713399,41.107365],[28.714364,41.106839],[28.714591,41.106723],[28.715368,41.106158],[28.715814,41.105762],[28.716079,41.105527],[28.716722,41.10564],[28.717423,41.105763],[28.719077,41.106061],[28.72026,41.106273],[28.720696,41.106329],[28.721623,41.106448],[28.721622,41.106755],[28.721691,41.106813],[28.721889,41.106844],[28.721905,41.107036],[28.723097,41.107128],[28.723526,41.106839],[28.724114,41.106792],[28.72434,41.106996],[28.724633,41.107482],[28.724929,41.107794],[28.725459,41.107921],[28.726284,41.10844],[28.727026,41.10923],[28.727836,41.109575],[28.728795,41.109572],[28.729667,41.109488],[28.730384,41.10912],[28.73116,41.108538],[28.731249,41.108291],[28.731309,41.108137],[28.731476,41.10805],[28.732027,41.107769],[28.732812,41.107549],[28.733476,41.107194],[28.734068,41.106905],[28.734145,41.106814],[28.734143,41.106811],[28.734374,41.106857],[28.73449,41.106835],[28.734474,41.106808],[28.734114,41.106709],[28.733976,41.10664],[28.73394,41.106593],[28.734006,41.106543],[28.734131,41.106505],[28.734279,41.106464],[28.734205,41.106385],[28.734541,41.106442],[28.735254,41.106413],[28.735704,41.106843],[28.736286,41.106693],[28.736388,41.106463],[28.736553,41.106529],[28.736565,41.106721],[28.736707,41.1067],[28.737184,41.106888],[28.737546,41.106565],[28.73787,41.106577],[28.738238,41.106591],[28.738431,41.106638]]]}},{"type":"Feature","properties":{"id":"TR-Y-34-008-M-0009","level":"yerlesim","type":"mahalle","parent_id":"TR-D-34-008","province_id":"TR-P-34","district_id":"TR-D-34-008","name":"Şamlar","source_raw_name":"ŞAMLAR","source":"Kullanıcı tarafından sağlanan KML","source_label":"Kullanıcı tarafından sağlanan KML","source_name":"Istanbul Mahalle KML"},"geometry":{"type":"MultiPolygon","coordinates":[[[[28.691435,41.119399],[28.691568,41.119229],[28.691737,41.119102],[28.692066,41.119044],[28.692245,41.119063],[28.692806,41.119198],[28.692926,41.119202],[28.693672,41.118745],[28.693683,41.11836],[28.694169,41.117986],[28.694374,41.117762],[28.694623,41.117509],[28.694928,41.117447],[28.695325,41.117455],[28.695591,41.117568],[28.695729,41.117751],[28.695924,41.117849],[28.696125,41.117845],[28.696357,41.117818],[28.697274,41.117483],[28.69774,41.117439],[28.69847,41.117351],[28.699073,41.117014],[28.699317,41.116828],[28.699755,41.116671],[28.700527,41.116475],[28.700903,41.116126],[28.701111,41.115934],[28.701495,41.115595],[28.701762,41.11548],[28.702099,41.115316],[28.702476,41.115041],[28.703039,41.114524],[28.703608,41.113862],[28.703932,41.113683],[28.704243,41.113512],[28.704704,41.113238],[28.705581,41.112707],[28.706055,41.112321],[28.706687,41.111969],[28.706835,41.111627],[28.706707,41.111243],[28.706645,41.111037],[28.706645,41.111036],[28.706581,41.110734],[28.706608,41.110667],[28.70666,41.110638],[28.706786,41.110659],[28.707101,41.110723],[28.707485,41.110784],[28.707935,41.110857],[28.708589,41.11092],[28.708891,41.110949],[28.709188,41.110806],[28.709501,41.110375],[28.709902,41.110317],[28.710445,41.110248],[28.710798,41.109956],[28.710943,41.109787],[28.711188,41.109512],[28.711407,41.109265],[28.711946,41.108908],[28.712343,41.108568],[28.71252,41.108086],[28.712771,41.107655],[28.713294,41.107412],[28.713399,41.107365],[28.713075,41.10706],[28.712735,41.106733],[28.712277,41.106343],[28.712113,41.106183],[28.711923,41.106056],[28.711801,41.105903],[28.711629,41.105711],[28.711226,41.105437],[28.711079,41.105343],[28.710818,41.104988],[28.710747,41.104802],[28.710664,41.104587],[28.71043,41.104523],[28.710114,41.104436],[28.709918,41.104368],[28.709673,41.104343],[28.709483,41.104322],[28.709292,41.104308],[28.709098,41.104302],[28.709011,41.104306],[28.708796,41.104318],[28.708505,41.104332],[28.708164,41.104342],[28.707992,41.104352],[28.707893,41.104362],[28.707538,41.104395],[28.707385,41.104407],[28.70714,41.104424],[28.70667,41.10446],[28.706436,41.104487],[28.706211,41.104502],[28.705889,41.104513],[28.705556,41.104502],[28.705402,41.104471],[28.705378,41.104449],[28.705283,41.104415],[28.705004,41.104243],[28.704795,41.103931],[28.704435,41.103668],[28.703576,41.103456],[28.703405,41.103418],[28.703091,41.103218],[28.702775,41.103137],[28.702693,41.103138],[28.702624,41.103134],[28.702425,41.10314],[28.701593,41.103426],[28.701452,41.103447],[28.701264,41.1034],[28.701086,41.103372],[28.700426,41.103171],[28.700305,41.103156],[28.699561,41.103191],[28.699113,41.103199],[28.698905,41.103227],[28.698783,41.103243],[28.69851,41.103286],[28.697949,41.103323],[28.697774,41.103333],[28.697682,41.103365],[28.697448,41.103423],[28.697341,41.103443],[28.697242,41.103445],[28.696982,41.103419],[28.696759,41.103396],[28.696476,41.103305],[28.696349,41.103305],[28.696255,41.103306],[28.696046,41.103259],[28.695921,41.103225],[28.695801,41.103192],[28.695176,41.10304],[28.695144,41.103027],[28.693091,41.104204],[28.692008,41.104889],[28.691433,41.105193],[28.690801,41.105547],[28.690246,41.105793],[28.68999,41.105862],[28.689202,41.106139],[28.688836,41.106292],[28.68841,41.106559],[28.688315,41.106647],[28.688193,41.106791],[28.68809,41.106952],[28.688011,41.107097],[28.687936,41.107284],[28.687899,41.107433],[28.687886,41.107473],[28.687841,41.107612],[28.687813,41.107864],[28.687813,41.10818],[28.687776,41.108303],[28.687708,41.10844],[28.687624,41.108546],[28.687492,41.108656],[28.687295,41.108791],[28.687019,41.108944],[28.686726,41.109059],[28.686136,41.109264],[28.685927,41.109356],[28.685748,41.109447],[28.68559,41.109558],[28.685458,41.10967],[28.685328,41.109782],[28.685282,41.109822],[28.685113,41.109951],[28.684716,41.11018],[28.684419,41.110377],[28.683756,41.11084],[28.683681,41.110881],[28.683572,41.110882],[28.683479,41.110876],[28.683281,41.110865],[28.682861,41.110801],[28.682573,41.110731],[28.682225,41.110623],[28.681773,41.110457],[28.681162,41.110243],[28.68083,41.110155],[28.68062,41.110117],[28.680422,41.110091],[28.680132,41.110069],[28.679801,41.110043],[28.67921,41.110084],[28.67875,41.110138],[28.677802,41.110353],[28.677335,41.11056],[28.676938,41.110835],[28.675917,41.111406],[28.675428,41.111606],[28.675171,41.111692],[28.674458,41.111877],[28.674163,41.111895],[28.673916,41.112464],[28.674276,41.113809],[28.674312,41.113869],[28.674451,41.113992],[28.674618,41.114129],[28.675205,41.114543],[28.675363,41.114925],[28.675712,41.115248],[28.676227,41.115605],[28.676616,41.115826],[28.677122,41.116228],[28.677166,41.116364],[28.677247,41.116489],[28.677829,41.117144],[28.67818,41.117594],[28.678548,41.117865],[28.678637,41.117952],[28.678685,41.11801],[28.678731,41.118095],[28.678812,41.118284],[28.678939,41.118645],[28.678969,41.11892],[28.679004,41.119077],[28.679042,41.119184],[28.679068,41.119218],[28.679125,41.119265],[28.679252,41.11935],[28.679745,41.11968],[28.680202,41.120244],[28.680397,41.120661],[28.680894,41.121046],[28.681789,41.12193],[28.682404,41.12258],[28.682946,41.12313],[28.683003,41.123319],[28.683711,41.123682],[28.684616,41.124477],[28.68563,41.124228],[28.685895,41.12418],[28.686747,41.123775],[28.687023,41.123566],[28.687273,41.123377],[28.687511,41.12301],[28.687698,41.122778],[28.68794,41.122486],[28.687941,41.122485],[28.688494,41.122068],[28.688765,41.12199],[28.689034,41.121912],[28.689427,41.121757],[28.689814,41.121449],[28.690013,41.121133],[28.69037,41.120774],[28.690579,41.120564],[28.691335,41.119886],[28.691432,41.119606],[28.691424,41.119478],[28.691435,41.119399]]],[[[28.73529,41.124376],[28.734253,41.124378],[28.734226,41.124802],[28.735451,41.124878],[28.73551,41.125055],[28.735502,41.125503],[28.735875,41.125769],[28.735803,41.126216],[28.7351,41.126402],[28.734887,41.126549],[28.734775,41.126856],[28.734764,41.126885],[28.734571,41.12706],[28.73456,41.12717],[28.734533,41.127442],[28.734254,41.128292],[28.734251,41.128547],[28.734248,41.128741],[28.734402,41.128977],[28.734524,41.129166],[28.734767,41.129639],[28.73482,41.130312],[28.734963,41.130619],[28.734901,41.131006],[28.734896,41.131038],[28.734893,41.131236],[28.734881,41.131875],[28.735111,41.132327],[28.735339,41.13256],[28.735648,41.132787],[28.735473,41.133098],[28.735517,41.133637],[28.735564,41.133856],[28.735655,41.134276],[28.73591,41.134911],[28.736128,41.135643],[28.736231,41.135789],[28.736365,41.135901],[28.736668,41.136007],[28.736973,41.136048],[28.737285,41.136035],[28.737616,41.135933],[28.737875,41.13578],[28.737828,41.134484],[28.737999,41.133988],[28.738179,41.133935],[28.739159,41.133378],[28.7394,41.133242],[28.739803,41.133043],[28.739908,41.132989],[28.740468,41.132754],[28.740735,41.132697],[28.741492,41.132925],[28.741821,41.133056],[28.741998,41.133099],[28.742637,41.133067],[28.743072,41.133215],[28.743281,41.133236],[28.743992,41.133388],[28.744457,41.133356],[28.74463,41.133298],[28.74512,41.133417],[28.746098,41.133746],[28.746068,41.133953],[28.746146,41.134025],[28.74633,41.134047],[28.746381,41.134048],[28.746988,41.134079],[28.748214,41.132971],[28.748526,41.132606],[28.748713,41.132604],[28.749234,41.132316],[28.74968,41.131974],[28.750184,41.131774],[28.750264,41.131732],[28.750352,41.131788],[28.750419,41.131847],[28.750834,41.132205],[28.752143,41.132237],[28.754026,41.132085],[28.754601,41.131265],[28.754603,41.131266],[28.755758,41.131433],[28.756042,41.131527],[28.756826,41.131785],[28.757156,41.131913],[28.75753,41.13195],[28.757966,41.131993],[28.758206,41.132003],[28.75919,41.132729],[28.75945,41.132967],[28.759777,41.133266],[28.761001,41.134387],[28.762307,41.135636],[28.765526,41.137656],[28.768767,41.1387],[28.769024,41.138775],[28.769694,41.13719],[28.770474,41.13526],[28.76907,41.134752],[28.767829,41.134094],[28.767356,41.1339],[28.76681,41.133763],[28.76634,41.133718],[28.76593,41.133754],[28.765296,41.133925],[28.764207,41.134191],[28.763996,41.134204],[28.76376,41.134178],[28.763544,41.134145],[28.763399,41.134054],[28.763095,41.133802],[28.761814,41.132644],[28.762015,41.132168],[28.762173,41.131716],[28.762208,41.131019],[28.76217,41.130773],[28.762104,41.130509],[28.76204,41.130334],[28.761819,41.12991],[28.761415,41.129331],[28.760151,41.127552],[28.760089,41.127444],[28.760047,41.127339],[28.760032,41.127221],[28.760047,41.127123],[28.760313,41.126255],[28.760372,41.12594],[28.760384,41.125764],[28.760373,41.125581],[28.760355,41.125525],[28.760269,41.125304],[28.760208,41.125199],[28.760011,41.124951],[28.75939,41.124449],[28.759153,41.124305],[28.758622,41.123859],[28.758608,41.123847],[28.75843,41.123697],[28.758245,41.123634],[28.757988,41.123582],[28.757974,41.123581],[28.757289,41.123512],[28.756622,41.123431],[28.755789,41.123316],[28.755715,41.123307],[28.755606,41.123324],[28.755564,41.123307],[28.754431,41.123024],[28.753841,41.122724],[28.753526,41.122525],[28.753307,41.12241],[28.752874,41.122177],[28.75271,41.122069],[28.752187,41.12162],[28.751847,41.121201],[28.751741,41.121134],[28.751714,41.121175],[28.751424,41.121022],[28.751418,41.121017],[28.751056,41.121001],[28.750951,41.12099],[28.750351,41.120744],[28.750193,41.120565],[28.749737,41.120073],[28.749502,41.11978],[28.749458,41.119726],[28.749338,41.11953],[28.749318,41.119212],[28.74919,41.119202],[28.749018,41.119308],[28.748893,41.119355],[28.748569,41.119486],[28.748009,41.119708],[28.747673,41.119829],[28.747586,41.11986],[28.747494,41.119874],[28.747478,41.1199],[28.747438,41.1202],[28.746692,41.119999],[28.746047,41.119817],[28.745877,41.119698],[28.745706,41.119617],[28.745578,41.119616],[28.745315,41.119678],[28.745005,41.119593],[28.744446,41.119735],[28.743936,41.119694],[28.743325,41.119791],[28.7429,41.119948],[28.742841,41.119822],[28.742686,41.11972],[28.741876,41.119508],[28.741802,41.11944],[28.741696,41.118991],[28.741717,41.11867],[28.741694,41.118626],[28.741595,41.118582],[28.741486,41.118569],[28.741323,41.118618],[28.741158,41.118709],[28.740955,41.118806],[28.740379,41.11893],[28.740034,41.118989],[28.739274,41.118935],[28.738382,41.118686],[28.738228,41.118611],[28.738198,41.118592],[28.738167,41.118573],[28.737595,41.11831],[28.737154,41.118107],[28.737089,41.118074],[28.736845,41.118025],[28.736708,41.118022],[28.736563,41.118087],[28.73646,41.118176],[28.7363,41.118258],[28.736165,41.118274],[28.736129,41.118432],[28.73517,41.118159],[28.734754,41.118026],[28.734525,41.117941],[28.734489,41.117889],[28.734259,41.117842],[28.734008,41.117683],[28.733892,41.117558],[28.733792,41.11745],[28.733718,41.117318],[28.733494,41.117119],[28.733454,41.11705],[28.733433,41.116945],[28.733434,41.116791],[28.73336,41.116729],[28.733233,41.116683],[28.732977,41.116604],[28.732854,41.116519],[28.732725,41.11636],[28.732713,41.116189],[28.732687,41.116196],[28.732443,41.116262],[28.732367,41.116283],[28.732098,41.116953],[28.731876,41.117684],[28.731856,41.118084],[28.732057,41.118139],[28.732214,41.118502],[28.732063,41.118782],[28.731674,41.118697],[28.731454,41.118675],[28.731351,41.118769],[28.731233,41.119054],[28.731317,41.119274],[28.731609,41.119492],[28.731788,41.119641],[28.731779,41.120118],[28.731845,41.120295],[28.732034,41.120292],[28.732127,41.120355],[28.732046,41.120645],[28.732424,41.121316],[28.732687,41.121395],[28.732958,41.121722],[28.733134,41.121772],[28.733403,41.121841],[28.734005,41.122639],[28.734402,41.122996],[28.734657,41.123137],[28.734992,41.123093],[28.735286,41.122882],[28.735559,41.122789],[28.735765,41.122868],[28.735819,41.123021],[28.73577,41.123254],[28.735554,41.123685],[28.735348,41.12402],[28.73529,41.124376]]]]}},{"type":"Feature","properties":{"id":"TR-Y-34-008-M-0010","level":"yerlesim","type":"mahalle","parent_id":"TR-D-34-008","province_id":"TR-P-34","district_id":"TR-D-34-008","name":"Ziya Gökalp","source_raw_name":"ZİYA GÖKALP","source":"Kullanıcı tarafından sağlanan KML","source_label":"Kullanıcı tarafından sağlanan KML","source_name":"Istanbul Mahalle KML"},"geometry":{"type":"Polygon","coordinates":[[[28.793686,41.073955],[28.79368,41.073708],[28.793509,41.073694],[28.793363,41.073603],[28.793127,41.073797],[28.792863,41.073625],[28.792889,41.073077],[28.791423,41.072245],[28.791147,41.071985],[28.791986,41.071176],[28.79241,41.070858],[28.792516,41.070627],[28.79244,41.069918],[28.793289,41.067749],[28.793373,41.067586],[28.793327,41.067488],[28.793591,41.067],[28.79304,41.066922],[28.790457,41.066715],[28.789972,41.066759],[28.789226,41.06667],[28.78701,41.06652],[28.786693,41.066467],[28.786364,41.068033],[28.786032,41.069421],[28.785715,41.070714],[28.785633,41.071194],[28.78563,41.071474],[28.785633,41.0717],[28.785657,41.071956],[28.785783,41.072592],[28.786216,41.073721],[28.785341,41.073963],[28.784535,41.074256],[28.784285,41.073919],[28.782889,41.074001],[28.782534,41.074169],[28.780333,41.073076],[28.780176,41.072976],[28.780102,41.072924],[28.779703,41.07228],[28.779637,41.072041],[28.779498,41.071891],[28.779457,41.071594],[28.779497,41.071083],[28.779384,41.070168],[28.77927,41.069993],[28.779399,41.069663],[28.779392,41.06942],[28.779341,41.069063],[28.779721,41.069089],[28.780347,41.069103],[28.781322,41.0691],[28.782329,41.069111],[28.782851,41.069127],[28.784097,41.069159],[28.784162,41.069116],[28.78433,41.068938],[28.784412,41.068451],[28.783513,41.067499],[28.782355,41.067365],[28.780929,41.06789],[28.780612,41.067815],[28.780167,41.067475],[28.78069,41.066475],[28.780874,41.066002],[28.780917,41.065714],[28.780927,41.065532],[28.780927,41.065159],[28.780931,41.064392],[28.781949,41.064183],[28.782558,41.063975],[28.782641,41.064088],[28.783207,41.064248],[28.783333,41.064323],[28.784468,41.064526],[28.787117,41.064554],[28.787324,41.064483],[28.787585,41.06442],[28.787806,41.064369],[28.789298,41.064409],[28.791498,41.064427],[28.791958,41.064414],[28.796075,41.064282],[28.797876,41.063912],[28.798834,41.063799],[28.799735,41.063652],[28.800757,41.063447],[28.800787,41.063507],[28.802328,41.063144],[28.802612,41.063078],[28.802813,41.063068],[28.803146,41.063207],[28.803245,41.063313],[28.803625,41.064314],[28.803633,41.064553],[28.803997,41.06486],[28.804126,41.064822],[28.804859,41.064695],[28.805484,41.064707],[28.806462,41.064818],[28.808007,41.065107],[28.80958,41.065471],[28.809996,41.065808],[28.810109,41.066284],[28.810099,41.067194],[28.810102,41.067628],[28.810651,41.067552],[28.811157,41.067515],[28.811558,41.067489],[28.81196,41.067474],[28.812566,41.067451],[28.813486,41.067402],[28.813616,41.067357],[28.813762,41.065742],[28.813804,41.065329],[28.813594,41.064756],[28.813489,41.064592],[28.813385,41.064149],[28.813165,41.063779],[28.812991,41.063484],[28.812704,41.062918],[28.811793,41.061587],[28.811799,41.061428],[28.811778,41.061379],[28.811748,41.061293],[28.811425,41.061279],[28.81107,41.061263],[28.810612,41.061242],[28.810083,41.061235],[28.809635,41.061234],[28.809178,41.061232],[28.808792,41.061245],[28.808318,41.061272],[28.807896,41.061297],[28.807537,41.061318],[28.807256,41.06134],[28.806929,41.061371],[28.806604,41.061403],[28.805804,41.061502],[28.805247,41.061584],[28.80479,41.061665],[28.804183,41.061778],[28.803724,41.061871],[28.803088,41.06202],[28.802539,41.062161],[28.801735,41.062385],[28.800687,41.062731],[28.800055,41.062918],[28.797509,41.063482],[28.796167,41.06373],[28.795354,41.063854],[28.794369,41.063973],[28.793676,41.064026],[28.792679,41.064079],[28.79178,41.064102],[28.791371,41.064104],[28.790542,41.064082],[28.789417,41.063995],[28.788534,41.063927],[28.786912,41.063689],[28.785949,41.063514],[28.785399,41.063412],[28.784674,41.063275],[28.784089,41.063155],[28.784042,41.063146],[28.783303,41.063009],[28.782623,41.062891],[28.782023,41.062793],[28.781314,41.062692],[28.7806,41.062595],[28.780028,41.062528],[28.779223,41.062441],[28.778388,41.062364],[28.777646,41.062309],[28.776893,41.062268],[28.7762,41.062235],[28.77534,41.062208],[28.774422,41.0622],[28.773403,41.062203],[28.772701,41.062223],[28.771963,41.062248],[28.771318,41.062278],[28.77073,41.062314],[28.769926,41.062357],[28.769092,41.062399],[28.76857,41.062423],[28.767989,41.062435],[28.767411,41.062437],[28.766816,41.062431],[28.766252,41.062417],[28.765595,41.062383],[28.764959,41.062331],[28.764291,41.062271],[28.763802,41.062218],[28.763334,41.062158],[28.762866,41.062092],[28.762269,41.061995],[28.761651,41.061888],[28.760995,41.061769],[28.760074,41.061595],[28.759202,41.061435],[28.758602,41.061333],[28.757579,41.061181],[28.756948,41.061108],[28.756948,41.061114],[28.756946,41.061169],[28.756958,41.062102],[28.757164,41.062457],[28.757229,41.062803],[28.757397,41.063221],[28.757674,41.06389],[28.757801,41.064712],[28.758019,41.064941],[28.758115,41.065211],[28.757957,41.065516],[28.757911,41.06584],[28.757985,41.066215],[28.758261,41.066568],[28.758257,41.066775],[28.7581,41.067065],[28.758265,41.067436],[28.758565,41.067631],[28.758504,41.068164],[28.758446,41.068618],[28.758469,41.069514],[28.758794,41.070047],[28.758949,41.070425],[28.75899,41.07094],[28.759,41.071406],[28.75902,41.073179],[28.759409,41.074453],[28.758715,41.076747],[28.759424,41.079595],[28.758748,41.082587],[28.758929,41.085576],[28.758075,41.087056],[28.758362,41.08835],[28.760635,41.088809],[28.760845,41.088843],[28.761835,41.08953],[28.761953,41.089731],[28.762704,41.091887],[28.763112,41.093152],[28.764308,41.094188],[28.764344,41.094218],[28.764353,41.094209],[28.765996,41.095638],[28.766199,41.096023],[28.766507,41.095819],[28.767065,41.09545],[28.770221,41.093043],[28.770453,41.093843],[28.771707,41.093365],[28.772808,41.092946],[28.773549,41.092829],[28.775026,41.092744],[28.775961,41.092546],[28.776114,41.0917],[28.776104,41.09114],[28.775985,41.090471],[28.775104,41.088155],[28.774729,41.087468],[28.780402,41.087251],[28.78211,41.087896],[28.78321,41.088124],[28.783077,41.08857],[28.783144,41.089027],[28.783537,41.089487],[28.786465,41.091553],[28.787919,41.091148],[28.787694,41.090715],[28.787335,41.090057],[28.78676,41.08915],[28.78628,41.088499],[28.786005,41.088088],[28.785591,41.087339],[28.785331,41.086836],[28.784725,41.085701],[28.784656,41.085528],[28.784624,41.085347],[28.784617,41.085169],[28.784633,41.085012],[28.784681,41.084873],[28.784799,41.084592],[28.785114,41.08387],[28.785625,41.082677],[28.785689,41.082442],[28.785728,41.082094],[28.785751,41.081682],[28.785736,41.08129],[28.785744,41.080798],[28.785751,41.080672],[28.785764,41.080477],[28.785817,41.080274],[28.78636,41.07848],[28.786397,41.078107],[28.78645,41.077608],[28.786483,41.077552],[28.786522,41.077533],[28.786922,41.077628],[28.787215,41.077705],[28.787259,41.077723],[28.787252,41.07775],[28.7875,41.077848],[28.787808,41.077983],[28.78819,41.078197],[28.788461,41.078338],[28.788976,41.078585],[28.789191,41.078695],[28.789683,41.078931],[28.79007,41.079102],[28.790108,41.079152],[28.790218,41.079194],[28.790478,41.079269],[28.790742,41.079323],[28.791073,41.079383],[28.791185,41.079384],[28.791321,41.079363],[28.791764,41.079221],[28.792155,41.079093],[28.793035,41.078825],[28.793418,41.07864],[28.793562,41.078528],[28.793581,41.077234],[28.793546,41.076305],[28.793435,41.075653],[28.793466,41.075503],[28.793503,41.075311],[28.793641,41.074705],[28.793681,41.074333],[28.793686,41.073955]]]}},{"type":"Feature","properties":{"id":"TR-Y-34-008-M-SRC-ASKERIBOLGE","level":"yerlesim","type":"mahalle","parent_id":"TR-D-34-008","province_id":"TR-P-34","district_id":"TR-D-34-008","name":"Askeri Bölge","source_raw_name":"ASKERİ BÖLGE","source":"Kullanıcı tarafından sağlanan KML","source_label":"Kullanıcı tarafından sağlanan KML","source_name":"Istanbul Mahalle KML","source_only":true},"geometry":{"type":"Polygon","coordinates":[[[28.840824,41.12728],[28.840876,41.12725],[28.840889,41.127242],[28.840917,41.127225],[28.84106,41.127135],[28.841097,41.127111],[28.841154,41.127075],[28.841227,41.127029],[28.841295,41.126986],[28.841396,41.12688],[28.841468,41.126806],[28.84151,41.126761],[28.841538,41.126731],[28.841581,41.12667],[28.841796,41.126365],[28.841884,41.126241],[28.841997,41.126059],[28.84235,41.125485],[28.842484,41.125264],[28.842609,41.125057],[28.842637,41.12501],[28.842774,41.124775],[28.84289,41.124578],[28.843038,41.124325],[28.843099,41.124215],[28.843238,41.123962],[28.843359,41.123608],[28.843374,41.123447],[28.843378,41.123404],[28.843381,41.123373],[28.843378,41.123301],[28.843369,41.123144],[28.843356,41.122939],[28.843353,41.122888],[28.843358,41.122769],[28.843369,41.122526],[28.843438,41.122259],[28.843583,41.121956],[28.843831,41.121668],[28.844095,41.121446],[28.844095,41.121442],[28.844097,41.121431],[28.844097,41.121344],[28.844091,41.121287],[28.844107,41.12126],[28.844124,41.121231],[28.84415,41.121186],[28.844191,41.121116],[28.844224,41.12106],[28.844243,41.121028],[28.844275,41.120973],[28.844304,41.12092],[28.844368,41.120749],[28.844386,41.120699],[28.844411,41.120635],[28.844437,41.120567],[28.844456,41.120518],[28.844471,41.120476],[28.844491,41.120417],[28.844518,41.120353],[28.844527,41.120336],[28.844555,41.120282],[28.844668,41.120068],[28.844964,41.119575],[28.845078,41.119385],[28.845097,41.119366],[28.845456,41.119017],[28.845708,41.118771],[28.845773,41.118711],[28.845934,41.118559],[28.845986,41.118459],[28.846026,41.118382],[28.846133,41.118154],[28.84623,41.117919],[28.846249,41.117869],[28.846305,41.117612],[28.846326,41.117511],[28.846341,41.117245],[28.846347,41.11717],[28.846348,41.117145],[28.846346,41.117097],[28.846345,41.117081],[28.846342,41.117057],[28.846339,41.117029],[28.846335,41.116995],[28.846333,41.116968],[28.846329,41.116936],[28.846326,41.116901],[28.846325,41.116887],[28.846322,41.116833],[28.846321,41.116796],[28.846321,41.116754],[28.84632,41.116729],[28.846319,41.116693],[28.846318,41.116669],[28.846318,41.116635],[28.846317,41.116576],[28.846317,41.116552],[28.846317,41.116528],[28.846317,41.116502],[28.846317,41.116462],[28.846316,41.116426],[28.846315,41.116396],[28.846315,41.116367],[28.846315,41.116345],[28.846311,41.116276],[28.846308,41.116259],[28.846304,41.116238],[28.846293,41.116176],[28.846275,41.116095],[28.846275,41.116077],[28.846277,41.116066],[28.84629,41.116034],[28.846332,41.115941],[28.846367,41.11586],[28.846408,41.115767],[28.846485,41.115592],[28.846523,41.115506],[28.84657,41.115395],[28.846589,41.115351],[28.846592,41.115324],[28.845055,41.115224],[28.845011,41.11484],[28.845009,41.114797],[28.844986,41.114355],[28.845212,41.113615],[28.84554,41.11254],[28.846799,41.11271],[28.847344,41.112318],[28.847878,41.111931],[28.847984,41.111851],[28.848064,41.111791],[28.848092,41.111766],[28.848136,41.111721],[28.848236,41.111532],[28.848462,41.111117],[28.848877,41.110356],[28.849552,41.109127],[28.850025,41.10824],[28.850137,41.108055],[28.850314,41.107763],[28.850394,41.107632],[28.850419,41.107501],[28.850431,41.107434],[28.850441,41.107384],[28.850462,41.107267],[28.850482,41.107162],[28.850378,41.106681],[28.850354,41.106568],[28.850054,41.106146],[28.850017,41.106532],[28.84998,41.106718],[28.8499,41.10712],[28.84942,41.108024],[28.849311,41.108228],[28.848991,41.108829],[28.848537,41.109683],[28.848105,41.110495],[28.847607,41.110995],[28.846924,41.111428],[28.846396,41.111659],[28.845561,41.112023],[28.84526,41.11243],[28.84499,41.112794],[28.844911,41.11435],[28.844867,41.115219],[28.845004,41.115524],[28.845055,41.11564],[28.845159,41.115816],[28.845354,41.116104],[28.845479,41.116289],[28.845611,41.116484],[28.845644,41.116534],[28.84567,41.11659],[28.845755,41.116781],[28.8458,41.116882],[28.845932,41.117166],[28.845941,41.117184],[28.845945,41.117409],[28.845949,41.117603],[28.845947,41.117626],[28.845833,41.118104],[28.845818,41.11814],[28.845794,41.118185],[28.84577,41.118229],[28.845498,41.118742],[28.845443,41.118848],[28.845407,41.118872],[28.844859,41.119251],[28.844747,41.119329],[28.843967,41.11987],[28.843848,41.119953],[28.843797,41.119988],[28.843746,41.120023],[28.842965,41.120566],[28.842164,41.121122],[28.841488,41.121591],[28.841315,41.121711],[28.840582,41.12222],[28.83989,41.1227],[28.838727,41.123507],[28.837684,41.124231],[28.83628,41.125205],[28.835684,41.125619],[28.833546,41.127103],[28.832515,41.127818],[28.83242,41.127884],[28.832359,41.127926],[28.832411,41.127912],[28.832558,41.127873],[28.832646,41.12785],[28.832899,41.127798],[28.833201,41.127736],[28.833588,41.127638],[28.833995,41.127497],[28.834417,41.12735],[28.834826,41.12721],[28.834972,41.127159],[28.835098,41.127109],[28.835291,41.127025],[28.835478,41.126943],[28.835636,41.126874],[28.835744,41.126826],[28.83592,41.126787],[28.836049,41.126766],[28.836242,41.126734],[28.836478,41.126705],[28.83677,41.126711],[28.837006,41.12672],[28.837418,41.126743],[28.837611,41.126755],[28.837796,41.126767],[28.837908,41.126783],[28.838075,41.126869],[28.838658,41.126966],[28.83892,41.127009],[28.839688,41.127111],[28.840171,41.127175],[28.840567,41.127227],[28.84068,41.127242],[28.840824,41.12728]]]}},{"type":"Feature","properties":{"id":"TR-Y-34-008-OSB-IKITELLIOSB","level":"yerlesim","type":"mahalle","parent_id":"TR-D-34-008","province_id":"TR-P-34","district_id":"TR-D-34-008","name":"İkitelli OSB","source_raw_name":"İkitelli OSB","source":"Kullanıcı tarafından sağlanan KML","source_label":"Kullanıcı tarafından sağlanan KML","source_name":"Istanbul Mahalle KML","source_only":true,"osb":true},"geometry":{"type":"Polygon","coordinates":[[[28.796966,41.098728],[28.797149,41.098616],[28.801078,41.099006],[28.801797,41.09456],[28.801916,41.093498],[28.802424,41.090609],[28.802793,41.090459],[28.803041,41.09043],[28.80481,41.087407],[28.805111,41.087089],[28.80592,41.086592],[28.806134,41.086521],[28.806399,41.086242],[28.806762,41.085527],[28.807569,41.085085],[28.808188,41.084824],[28.809512,41.084313],[28.810129,41.083957],[28.810584,41.083555],[28.810872,41.083222],[28.81097,41.083023],[28.812285,41.079372],[28.813568,41.076345],[28.813982,41.075123],[28.814168,41.073446],[28.814557,41.072151],[28.814881,41.071652],[28.814887,41.071573],[28.814866,41.071444],[28.814813,41.071222],[28.814667,41.070913],[28.814158,41.069987],[28.813793,41.069225],[28.813552,41.068763],[28.813496,41.06842],[28.813536,41.067937],[28.813616,41.067357],[28.813486,41.067402],[28.812566,41.067451],[28.81196,41.067474],[28.811558,41.067489],[28.811157,41.067515],[28.810651,41.067552],[28.810102,41.067628],[28.810099,41.067194],[28.810109,41.066284],[28.809996,41.065808],[28.80958,41.065471],[28.808007,41.065107],[28.806462,41.064818],[28.805484,41.064707],[28.804859,41.064695],[28.804126,41.064822],[28.803997,41.06486],[28.803633,41.064553],[28.803625,41.064314],[28.803245,41.063313],[28.803146,41.063207],[28.802813,41.063068],[28.802612,41.063078],[28.802328,41.063144],[28.800787,41.063507],[28.800757,41.063447],[28.799735,41.063652],[28.798834,41.063799],[28.797876,41.063912],[28.796075,41.064282],[28.791958,41.064414],[28.791498,41.064427],[28.789298,41.064409],[28.787806,41.064369],[28.787585,41.06442],[28.787324,41.064483],[28.787117,41.064554],[28.784468,41.064526],[28.783333,41.064323],[28.783207,41.064248],[28.782641,41.064088],[28.782558,41.063975],[28.781949,41.064183],[28.780931,41.064392],[28.780927,41.065159],[28.780927,41.065532],[28.780917,41.065714],[28.780874,41.066002],[28.78069,41.066475],[28.780167,41.067475],[28.780612,41.067815],[28.780929,41.06789],[28.782355,41.067365],[28.783513,41.067499],[28.784412,41.068451],[28.78433,41.068938],[28.784162,41.069116],[28.784097,41.069159],[28.782851,41.069127],[28.782329,41.069111],[28.781322,41.0691],[28.780347,41.069103],[28.779721,41.069089],[28.779341,41.069063],[28.779392,41.06942],[28.779399,41.069663],[28.77927,41.069993],[28.779384,41.070168],[28.779497,41.071083],[28.779457,41.071594],[28.779498,41.071891],[28.779637,41.072041],[28.779703,41.07228],[28.780102,41.072924],[28.780194,41.072981],[28.780333,41.073076],[28.782534,41.074169],[28.782889,41.074001],[28.784285,41.073919],[28.784535,41.074256],[28.785341,41.073963],[28.786216,41.073721],[28.785783,41.072592],[28.785657,41.071956],[28.785633,41.0717],[28.78563,41.071474],[28.785633,41.071194],[28.785715,41.070714],[28.786032,41.069421],[28.786364,41.068033],[28.786693,41.066467],[28.78701,41.06652],[28.789226,41.06667],[28.789972,41.066759],[28.790457,41.066715],[28.79304,41.066922],[28.793591,41.067],[28.793327,41.067488],[28.793373,41.067586],[28.793289,41.067749],[28.79244,41.069918],[28.792516,41.070627],[28.79241,41.070858],[28.791986,41.071176],[28.791147,41.071985],[28.791423,41.072245],[28.792889,41.073077],[28.792863,41.073625],[28.793127,41.073797],[28.793363,41.073603],[28.793509,41.073694],[28.79368,41.073708],[28.793686,41.073955],[28.793681,41.074333],[28.793641,41.074705],[28.793503,41.075311],[28.793466,41.075503],[28.793435,41.075653],[28.793546,41.076305],[28.793581,41.077234],[28.793562,41.078528],[28.793418,41.07864],[28.793035,41.078825],[28.792155,41.079093],[28.791764,41.079221],[28.791321,41.079363],[28.791185,41.079384],[28.791073,41.079383],[28.790742,41.079323],[28.790478,41.079269],[28.790218,41.079194],[28.790108,41.079152],[28.79007,41.079102],[28.789683,41.078931],[28.789191,41.078695],[28.788976,41.078585],[28.788461,41.078338],[28.78819,41.078197],[28.787808,41.077983],[28.7875,41.077848],[28.787252,41.07775],[28.787259,41.077723],[28.787215,41.077705],[28.786922,41.077628],[28.786522,41.077533],[28.786483,41.077552],[28.78645,41.077608],[28.786397,41.078107],[28.78636,41.07848],[28.785817,41.080274],[28.785764,41.080477],[28.785751,41.080672],[28.785744,41.080798],[28.785736,41.08129],[28.78575,41.081674],[28.785728,41.082094],[28.785689,41.082442],[28.785625,41.082677],[28.785114,41.08387],[28.784799,41.084592],[28.784681,41.084873],[28.784633,41.085012],[28.784617,41.085169],[28.784624,41.085347],[28.784656,41.085528],[28.784725,41.085701],[28.785331,41.086836],[28.785591,41.087339],[28.786005,41.088088],[28.78628,41.088499],[28.78676,41.08915],[28.787335,41.090057],[28.787694,41.090715],[28.787919,41.091148],[28.788282,41.091855],[28.788661,41.092526],[28.789153,41.093361],[28.790558,41.095738],[28.791181,41.097431],[28.791664,41.098767],[28.792332,41.100088],[28.792978,41.101329],[28.793181,41.101781],[28.79363,41.103314],[28.794008,41.104665],[28.794141,41.104646],[28.794261,41.104518],[28.796316,41.103311],[28.796386,41.102703],[28.796335,41.102506],[28.796415,41.101886],[28.796673,41.100113],[28.796966,41.098728]]]}}]}