{"type":"FeatureCollection","name":"turkiye_map.dist.mahalle_geometrileri_by_district.TR-D-77-005","features":[{"type":"Feature","properties":{"id":"TR-Y-77-005-K-0001","level":"yerlesim","type":"mahalle","parent_id":"TR-D-77-005","province_id":"TR-P-77","district_id":"TR-D-77-005","name":"Akköy","source_raw_name":"Akköy","source":"Kullanıcı tarafından sağlanan KML","source_label":"Kullanıcı tarafından sağlanan KML","source_name":"Yalova Mahalle KML - kullanici tarafindan saglandi"},"geometry":{"type":"Polygon","coordinates":[[[29.198237,40.655971],[29.198503,40.655936],[29.199145,40.655957],[29.199779,40.656026],[29.200109,40.656054],[29.200384,40.655929],[29.200605,40.655852],[29.200862,40.655852],[29.201247,40.655831],[29.201614,40.655817],[29.201981,40.655866],[29.202211,40.655866],[29.202541,40.655845],[29.202835,40.655831],[29.203101,40.655838],[29.203478,40.655866],[29.203845,40.655824],[29.204184,40.65588],[29.204478,40.655901],[29.204689,40.655901],[29.204928,40.655901],[29.205166,40.65588],[29.205405,40.655873],[29.205598,40.655873],[29.20579,40.655873],[29.206295,40.65588],[29.206809,40.655915],[29.208179,40.655929],[29.208557,40.655949],[29.20856,40.655949],[29.20856,40.655949],[29.208484,40.655847],[29.20814,40.65585],[29.20814,40.65585],[29.207818,40.65507],[29.20782,40.655015],[29.207425,40.654481],[29.207063,40.65403],[29.206805,40.65372],[29.20665,40.653619],[29.206204,40.653213],[29.20568,40.652711],[29.205387,40.652419],[29.205227,40.652258],[29.205012,40.652054],[29.204577,40.651693],[29.204561,40.651675],[29.204231,40.651228],[29.203799,40.650439],[29.203784,40.650438],[29.203176,40.649298],[29.202836,40.648218],[29.20229,40.648114],[29.202102,40.64779],[29.201452,40.647599],[29.201518,40.647162],[29.201381,40.646854],[29.201739,40.646504],[29.201991,40.645962],[29.201629,40.645093],[29.201626,40.644398],[29.202379,40.644024],[29.20247,40.643959],[29.20227,40.643618],[29.203448,40.641866],[29.203274,40.641274],[29.203653,40.640562],[29.204864,40.6401],[29.20561,40.639481],[29.206576,40.63948],[29.207419,40.639389],[29.207909,40.638699],[29.208118,40.63915],[29.208255,40.639204],[29.208762,40.638567],[29.2099,40.637966],[29.20978,40.637779],[29.209779,40.637771],[29.210551,40.636764],[29.210874,40.636602],[29.210934,40.636568],[29.210975,40.636551],[29.21134,40.636367],[29.212056,40.636023],[29.212345,40.635665],[29.212859,40.63445],[29.212891,40.634359],[29.21296,40.634213],[29.212971,40.634208],[29.21363,40.633373],[29.213373,40.633279],[29.213653,40.632879],[29.214284,40.633071],[29.214582,40.632394],[29.215089,40.631665],[29.21536,40.631492],[29.215367,40.631485],[29.215619,40.631329],[29.21573,40.631255],[29.217375,40.630206],[29.217375,40.630206],[29.217469,40.630093],[29.217381,40.630033],[29.217272,40.629784],[29.217242,40.629441],[29.21715,40.629426],[29.216866,40.628713],[29.216779,40.628626],[29.21656,40.628412],[29.216532,40.628388],[29.216039,40.628147],[29.215866,40.628103],[29.215701,40.628083],[29.215473,40.627904],[29.215345,40.627804],[29.215224,40.627637],[29.21512,40.627222],[29.214993,40.626893],[29.214916,40.626785],[29.214792,40.62663],[29.214687,40.626481],[29.214602,40.626445],[29.214367,40.626435],[29.214097,40.626363],[29.213989,40.62629],[29.213935,40.62618],[29.213832,40.625838],[29.213645,40.625608],[29.213593,40.625466],[29.213459,40.625279],[29.21344,40.625261],[29.213227,40.62506],[29.212823,40.624811],[29.212281,40.624632],[29.212116,40.62456],[29.211894,40.624482],[29.211703,40.624364],[29.211509,40.62411],[29.211467,40.62404],[29.211365,40.623908],[29.211291,40.62374],[29.211015,40.623458],[29.210802,40.623243],[29.210777,40.623196],[29.210669,40.623077],[29.210361,40.622806],[29.21048,40.622663],[29.21038,40.622497],[29.210178,40.622379],[29.209969,40.62233],[29.209586,40.622215],[29.20958,40.622208],[29.209575,40.622207],[29.209565,40.622191],[29.209312,40.621902],[29.209067,40.621799],[29.208655,40.621679],[29.20856,40.621676],[29.208385,40.621633],[29.208179,40.621576],[29.207905,40.621525],[29.207418,40.621354],[29.206927,40.621013],[29.206791,40.620951],[29.206577,40.620886],[29.206327,40.620823],[29.205832,40.620409],[29.204816,40.61963],[29.203553,40.619068],[29.202019,40.618383],[29.201881,40.618321],[29.201514,40.618151],[29.200594,40.617724],[29.200534,40.617665],[29.200208,40.617223],[29.200141,40.617165],[29.199412,40.616528],[29.199402,40.616471],[29.199853,40.61629],[29.200518,40.615639],[29.200803,40.61563],[29.200826,40.615099],[29.200774,40.615005],[29.200851,40.614969],[29.200872,40.614925],[29.200636,40.614871],[29.200092,40.614797],[29.199631,40.614666],[29.198788,40.614358],[29.198622,40.61429],[29.197893,40.614011],[29.197618,40.614072],[29.197244,40.614061],[29.197147,40.614049],[29.196993,40.613955],[29.196632,40.613707],[29.196331,40.613539],[29.195892,40.613312],[29.195301,40.612829],[29.19517,40.61271],[29.194799,40.612092],[29.194815,40.611359],[29.194807,40.611166],[29.194749,40.611042],[29.194688,40.610917],[29.194497,40.6106],[29.194419,40.610458],[29.194332,40.61031],[29.194279,40.610179],[29.194204,40.609777],[29.19415,40.609593],[29.194087,40.609498],[29.194037,40.609447],[29.193907,40.609362],[29.193773,40.609188],[29.193611,40.608806],[29.19353,40.608711],[29.193171,40.608346],[29.193122,40.608261],[29.193063,40.607937],[29.193077,40.607876],[29.193131,40.607832],[29.192754,40.607786],[29.19242,40.607795],[29.191885,40.607795],[29.191351,40.607896],[29.190995,40.608057],[29.189871,40.609197],[29.189315,40.609605],[29.188312,40.60996],[29.186996,40.610207],[29.186579,40.610312],[29.18577,40.610419],[29.185528,40.61076],[29.185466,40.610974],[29.185463,40.610998],[29.185434,40.611095],[29.185425,40.611114],[29.185274,40.611632],[29.184615,40.612106],[29.18396,40.612375],[29.183414,40.612541],[29.183282,40.612591],[29.183157,40.61265],[29.183028,40.612717],[29.182472,40.61281],[29.180489,40.613067],[29.179627,40.613161],[29.179648,40.613168],[29.179466,40.613179],[29.179316,40.613195],[29.178852,40.613221],[29.178691,40.613242],[29.178342,40.613276],[29.178085,40.613333],[29.176704,40.613396],[29.17579,40.613439],[29.17492,40.613762],[29.173865,40.614193],[29.173845,40.614996],[29.173686,40.615083],[29.173589,40.615016],[29.173442,40.614856],[29.173365,40.614798],[29.173268,40.614803],[29.173132,40.614927],[29.172974,40.615115],[29.17218,40.616144],[29.171882,40.616512],[29.171725,40.616677],[29.171553,40.616815],[29.170864,40.617269],[29.17039,40.61763],[29.170218,40.617736],[29.169659,40.618014],[29.168226,40.618681],[29.167926,40.61881],[29.167359,40.619011],[29.167211,40.619087],[29.167053,40.619201],[29.166889,40.619335],[29.166388,40.619768],[29.166363,40.619855],[29.166271,40.620103],[29.16624,40.620287],[29.166228,40.620506],[29.166238,40.620667],[29.166414,40.621783],[29.166438,40.622065],[29.166423,40.622317],[29.166344,40.622774],[29.16625,40.623155],[29.166201,40.623262],[29.166151,40.623334],[29.166052,40.623448],[29.166031,40.623518],[29.166387,40.62405],[29.166491,40.624223],[29.166562,40.624385],[29.166573,40.624529],[29.166552,40.624662],[29.166456,40.625028],[29.166385,40.625395],[29.166346,40.625511],[29.166181,40.625842],[29.165635,40.626854],[29.165538,40.627003],[29.16541,40.627146],[29.165225,40.62728],[29.165009,40.627407],[29.164575,40.627636],[29.164398,40.62771],[29.164289,40.627723],[29.164151,40.627688],[29.164075,40.627699],[29.16396,40.627798],[29.163768,40.628061],[29.163536,40.628413],[29.16305,40.629177],[29.162828,40.629541],[29.162646,40.629862],[29.162347,40.630435],[29.162446,40.630596],[29.162423,40.630791],[29.162558,40.63102],[29.162737,40.631182],[29.162721,40.631332],[29.163106,40.631513],[29.163274,40.63198],[29.163247,40.632296],[29.163304,40.632444],[29.163423,40.632807],[29.163473,40.63292],[29.163544,40.633028],[29.163625,40.633134],[29.163885,40.63345],[29.164223,40.633844],[29.164405,40.634031],[29.16447,40.634063],[29.165033,40.634643],[29.165282,40.634977],[29.165752,40.635342],[29.165819,40.635438],[29.165461,40.6357],[29.165438,40.635723],[29.165403,40.635738],[29.165162,40.635878],[29.165071,40.636023],[29.165256,40.636342],[29.165333,40.636386],[29.165553,40.63654],[29.165696,40.636656],[29.16575,40.636792],[29.165829,40.636929],[29.165868,40.637056],[29.165962,40.637184],[29.166124,40.63734],[29.166259,40.637466],[29.166421,40.637691],[29.166646,40.637789],[29.167123,40.637972],[29.16725,40.638129],[29.167202,40.638198],[29.166752,40.638569],[29.166844,40.638778],[29.166858,40.638895],[29.166997,40.639318],[29.167028,40.639547],[29.167088,40.63977],[29.167315,40.639914],[29.167457,40.640015],[29.167418,40.640045],[29.167431,40.640173],[29.167465,40.640388],[29.16762,40.640565],[29.167759,40.640682],[29.168218,40.640763],[29.168696,40.641156],[29.169191,40.641497],[29.168987,40.641678],[29.168808,40.64181],[29.168935,40.64188],[29.169134,40.641854],[29.169348,40.641892],[29.169633,40.642032],[29.170025,40.641979],[29.170358,40.641943],[29.170938,40.641852],[29.17104,40.641901],[29.171077,40.641809],[29.171317,40.642146],[29.172116,40.642428],[29.172704,40.642635],[29.17288,40.642725],[29.173162,40.642856],[29.173275,40.642899],[29.174014,40.643316],[29.174585,40.643584],[29.176245,40.643706],[29.176243,40.643709],[29.176296,40.643709],[29.176148,40.64294],[29.176089,40.642627],[29.177668,40.642681],[29.178151,40.642706],[29.178722,40.642748],[29.179507,40.642833],[29.179971,40.642867],[29.180498,40.64283],[29.181276,40.642746],[29.181516,40.642766],[29.181721,40.642816],[29.182056,40.64289],[29.182455,40.642994],[29.182985,40.643123],[29.183126,40.64314],[29.183155,40.643164],[29.183519,40.643256],[29.183874,40.64337],[29.184137,40.64342],[29.184713,40.643419],[29.184975,40.643529],[29.185303,40.643745],[29.185465,40.643892],[29.185605,40.644102],[29.185731,40.644187],[29.185907,40.644297],[29.186125,40.644487],[29.186311,40.644687],[29.186372,40.644781],[29.186496,40.6449],[29.186591,40.644968],[29.186772,40.645017],[29.187169,40.645046],[29.187352,40.645062],[29.18746,40.645082],[29.187536,40.645079],[29.187793,40.645329],[29.188065,40.645547],[29.188317,40.645756],[29.18855,40.645938],[29.188782,40.646089],[29.189068,40.646288],[29.189225,40.646434],[29.189358,40.646499],[29.189749,40.646712],[29.189749,40.646712],[29.189838,40.64676],[29.190062,40.647063],[29.1903,40.647533],[29.190544,40.647863],[29.190527,40.647992],[29.190684,40.648043],[29.190703,40.648098],[29.190698,40.648147],[29.19065,40.648214],[29.190753,40.648401],[29.19081,40.648447],[29.190811,40.64855],[29.190863,40.648692],[29.190886,40.648751],[29.19106,40.649005],[29.191086,40.649058],[29.191168,40.649179],[29.191003,40.649331],[29.190937,40.649392],[29.191037,40.649502],[29.191037,40.649656],[29.191039,40.649764],[29.191038,40.649949],[29.191039,40.649976],[29.191109,40.650128],[29.191172,40.650264],[29.191192,40.650299],[29.191265,40.650426],[29.191621,40.650316],[29.191621,40.650317],[29.191623,40.650317],[29.191732,40.650422],[29.192017,40.65087],[29.192124,40.651129],[29.192178,40.651608],[29.192102,40.652063],[29.192142,40.652217],[29.192261,40.652512],[29.192392,40.652749],[29.192539,40.65305],[29.192706,40.653432],[29.192787,40.65368],[29.192767,40.653994],[29.192714,40.654421],[29.192719,40.654636],[29.192808,40.655039],[29.192928,40.655334],[29.193058,40.655655],[29.193202,40.656094],[29.193274,40.656144],[29.193438,40.656589],[29.193441,40.65661],[29.193556,40.65659],[29.193959,40.6565],[29.194473,40.656395],[29.194804,40.656368],[29.195079,40.656368],[29.195327,40.656326],[29.195465,40.656249],[29.195648,40.656207],[29.19597,40.656173],[29.196309,40.656145],[29.196722,40.656103],[29.197227,40.656089],[29.197475,40.656068],[29.197677,40.656047],[29.198071,40.656005],[29.198237,40.655971]]]}},{"type":"Feature","properties":{"id":"TR-Y-77-005-K-0002","level":"yerlesim","type":"mahalle","parent_id":"TR-D-77-005","province_id":"TR-P-77","district_id":"TR-D-77-005","name":"Yenimahalle","source_raw_name":"Yenimahalle","source":"Kullanıcı tarafından sağlanan KML","source_label":"Kullanıcı tarafından sağlanan KML","source_name":"Yalova Mahalle KML - kullanici tarafindan saglandi"},"geometry":{"type":"Polygon","coordinates":[[[29.20665,40.615194],[29.206687,40.614477],[29.206672,40.614376],[29.206664,40.613913],[29.206732,40.613796],[29.206923,40.613505],[29.206976,40.613405],[29.207018,40.613346],[29.207355,40.612919],[29.207935,40.61221],[29.208106,40.611938],[29.208162,40.611825],[29.208289,40.611582],[29.208311,40.611566],[29.208349,40.611499],[29.208393,40.611484],[29.208485,40.611478],[29.209214,40.61138],[29.209296,40.611352],[29.209443,40.611332],[29.209634,40.61127],[29.210017,40.611225],[29.210125,40.611248],[29.210753,40.611138],[29.21086,40.611162],[29.210943,40.611152],[29.211243,40.610959],[29.211765,40.610713],[29.212119,40.610542],[29.212355,40.610381],[29.212528,40.610279],[29.212617,40.610236],[29.212129,40.609621],[29.212004,40.609476],[29.212004,40.609475],[29.212015,40.609399],[29.21209,40.609338],[29.212269,40.609312],[29.212296,40.609366],[29.212408,40.609074],[29.212429,40.608996],[29.212433,40.608938],[29.212419,40.608847],[29.212394,40.608757],[29.212316,40.608588],[29.212271,40.608524],[29.212192,40.608447],[29.211873,40.608241],[29.211499,40.608027],[29.211326,40.607942],[29.211182,40.607895],[29.210827,40.607829],[29.210747,40.607807],[29.210717,40.607776],[29.210714,40.60774],[29.210739,40.607567],[29.210742,40.607286],[29.210732,40.606965],[29.210714,40.606816],[29.210677,40.606693],[29.210628,40.606582],[29.210517,40.606376],[29.21045,40.606279],[29.210369,40.60619],[29.210102,40.60595],[29.210026,40.60589],[29.209971,40.605858],[29.209838,40.605802],[29.209776,40.605759],[29.209684,40.605677],[29.209335,40.605331],[29.209185,40.605174],[29.209179,40.605171],[29.208653,40.604619],[29.208456,40.604434],[29.208245,40.604286],[29.208011,40.604207],[29.207765,40.604166],[29.207517,40.60414],[29.207277,40.604124],[29.207186,40.604123],[29.206955,40.604185],[29.206409,40.60432],[29.206399,40.604231],[29.206436,40.603996],[29.206467,40.603937],[29.20583,40.603612],[29.205745,40.603201],[29.205586,40.602875],[29.205451,40.602652],[29.20509,40.602639],[29.205169,40.60226],[29.205042,40.601928],[29.204813,40.601727],[29.204622,40.601497],[29.204566,40.601106],[29.204574,40.601103],[29.204389,40.600817],[29.204348,40.60072],[29.204345,40.600622],[29.204404,40.600333],[29.204407,40.600256],[29.204414,40.600231],[29.204406,40.600228],[29.204229,40.600127],[29.20418,40.600092],[29.204136,40.600046],[29.204094,40.599994],[29.20405,40.59994],[29.203996,40.599885],[29.203913,40.59983],[29.203779,40.599777],[29.203618,40.599724],[29.203449,40.599671],[29.203287,40.599618],[29.203149,40.599564],[29.203058,40.599508],[29.202992,40.599452],[29.202933,40.599396],[29.202871,40.599341],[29.20279,40.59929],[29.202674,40.599246],[29.202539,40.599205],[29.202399,40.599163],[29.202261,40.599115],[29.202137,40.59905],[29.20204,40.598952],[29.201958,40.598837],[29.201883,40.598716],[29.201817,40.598595],[29.201768,40.598481],[29.20175,40.598378],[29.201748,40.598282],[29.20175,40.598188],[29.201744,40.598092],[29.201715,40.59799],[29.20164,40.597876],[29.201538,40.597755],[29.201423,40.597628],[29.201291,40.597491],[29.201122,40.597327],[29.200888,40.597118],[29.200621,40.596884],[29.200345,40.596647],[29.20008,40.596421],[29.199856,40.596235],[29.199711,40.596124],[29.199609,40.596055],[29.199525,40.596001],[29.199454,40.595953],[29.199404,40.595906],[29.19939,40.595859],[29.199391,40.595848],[29.19939,40.595844],[29.199396,40.595796],[29.199449,40.595596],[29.199616,40.594793],[29.199734,40.594288],[29.19978,40.594119],[29.199837,40.593946],[29.199917,40.593767],[29.200106,40.593404],[29.200205,40.593235],[29.200307,40.593095],[29.200409,40.593009],[29.200702,40.592855],[29.200766,40.592791],[29.20078,40.592701],[29.200767,40.592597],[29.200711,40.592382],[29.200667,40.592288],[29.200603,40.592216],[29.200391,40.592048],[29.200353,40.591999],[29.200368,40.591957],[29.200411,40.591918],[29.200568,40.591805],[29.200648,40.591728],[29.200781,40.59157],[29.201258,40.59095],[29.201608,40.590554],[29.201845,40.590307],[29.201963,40.590205],[29.202205,40.590022],[29.202343,40.589935],[29.202521,40.589852],[29.202769,40.589777],[29.203056,40.589706],[29.203639,40.589577],[29.203891,40.589531],[29.204073,40.589511],[29.204458,40.589497],[29.204552,40.589476],[29.20461,40.589427],[29.204649,40.589362],[29.2047,40.589216],[29.204707,40.589136],[29.204688,40.589048],[29.204582,40.588762],[29.204553,40.588655],[29.204532,40.588403],[29.204529,40.588137],[29.204531,40.588003],[29.204564,40.587601],[29.204593,40.587349],[29.204661,40.586938],[29.204658,40.586821],[29.204629,40.586679],[29.204486,40.586216],[29.204441,40.586088],[29.204317,40.585801],[29.20429,40.585691],[29.204237,40.585295],[29.204172,40.584619],[29.204166,40.584425],[29.204172,40.584072],[29.204181,40.583906],[29.204199,40.583755],[29.204234,40.583633],[29.204278,40.583526],[29.204377,40.583324],[29.204655,40.582834],[29.204691,40.582756],[29.204695,40.582706],[29.204656,40.5826],[29.204656,40.582546],[29.204682,40.582461],[29.204768,40.582253],[29.204814,40.582155],[29.204862,40.582079],[29.204908,40.582047],[29.204955,40.58204],[29.205341,40.58208],[29.205552,40.582087],[29.205901,40.582055],[29.206284,40.582004],[29.20646,40.581964],[29.206607,40.581903],[29.206861,40.581752],[29.206978,40.581668],[29.207082,40.581573],[29.207164,40.58146],[29.20737,40.58108],[29.207449,40.580956],[29.207544,40.580837],[29.20786,40.580485],[29.207954,40.580356],[29.208028,40.580211],[29.208216,40.579757],[29.208289,40.579634],[29.20838,40.579555],[29.20848,40.5795],[29.208585,40.579454],[29.208805,40.579371],[29.209291,40.579223],[29.209822,40.579087],[29.209954,40.579034],[29.210129,40.57894],[29.210735,40.578573],[29.210929,40.578446],[29.2111,40.57832],[29.211412,40.578067],[29.211556,40.577938],[29.211681,40.5778],[29.211771,40.577648],[29.211907,40.577324],[29.211965,40.57716],[29.212013,40.576994],[29.212066,40.57666],[29.212087,40.576341],[29.21207,40.576213],[29.212014,40.576134],[29.211937,40.576081],[29.211779,40.575993],[29.21173,40.575946],[29.21173,40.575888],[29.211826,40.575672],[29.211856,40.575565],[29.21187,40.575411],[29.211879,40.575045],[29.211874,40.574864],[29.211855,40.574701],[29.211809,40.574578],[29.211748,40.574475],[29.21161,40.574296],[29.211535,40.574223],[29.211453,40.574172],[29.211203,40.574054],[29.211141,40.573999],[29.211113,40.573918],[29.211104,40.573824],[29.211105,40.573723],[29.211117,40.57362],[29.211153,40.573515],[29.211232,40.573404],[29.211547,40.573059],[29.211631,40.572937],[29.211676,40.572804],[29.211701,40.572667],[29.211747,40.572261],[29.211808,40.571827],[29.211812,40.571733],[29.211799,40.571653],[29.211778,40.571581],[29.211689,40.571356],[29.211549,40.571046],[29.211492,40.570938],[29.211424,40.570835],[29.211332,40.57074],[29.210912,40.570382],[29.21082,40.570288],[29.210396,40.569807],[29.210225,40.569605],[29.210145,40.5695],[29.210078,40.569387],[29.210036,40.569258],[29.209954,40.568853],[29.209919,40.568737],[29.209867,40.568651],[29.209574,40.568343],[29.209044,40.567708],[29.208913,40.567556],[29.208691,40.567318],[29.208481,40.567105],[29.208251,40.566885],[29.20723,40.565954],[29.207117,40.565842],[29.207027,40.565738],[29.206878,40.565537],[29.206814,40.565434],[29.206769,40.565323],[29.206755,40.565197],[29.206775,40.564794],[29.206775,40.56467],[29.20676,40.564561],[29.20671,40.564364],[29.206466,40.563521],[29.2064,40.56335],[29.206312,40.563173],[29.20621,40.562994],[29.206001,40.562664],[29.205905,40.56256],[29.205825,40.56255],[29.205753,40.562591],[29.205617,40.562702],[29.205552,40.562735],[29.205488,40.562724],[29.205284,40.562606],[29.205188,40.562573],[29.20505,40.562559],[29.20472,40.562556],[29.204359,40.562568],[29.203523,40.56264],[29.203313,40.562651],[29.203108,40.56265],[29.202708,40.562633],[29.202345,40.562606],[29.202208,40.562587],[29.201981,40.56254],[29.201879,40.562511],[29.201788,40.56247],[29.201717,40.562407],[29.201531,40.562176],[29.201444,40.562097],[29.201317,40.562019],[29.200686,40.56169],[29.200019,40.561265],[29.199868,40.56118],[29.199743,40.561127],[29.19953,40.561059],[29.199442,40.561015],[29.199391,40.560936],[29.199403,40.560792],[29.199557,40.560244],[29.199584,40.56009],[29.199565,40.559988],[29.199522,40.559915],[29.199419,40.559774],[29.199377,40.559673],[29.199353,40.559518],[29.199339,40.559336],[29.199323,40.558952],[29.19932,40.558768],[29.199331,40.558307],[29.199326,40.558175],[29.199297,40.558074],[29.199221,40.558031],[29.19912,40.55802],[29.199006,40.558022],[29.198877,40.558034],[29.198717,40.558064],[29.198259,40.558197],[29.19737,40.558475],[29.196949,40.558594],[29.196803,40.558627],[29.196638,40.558652],[29.196104,40.558705],[29.195922,40.558707],[29.195738,40.558687],[29.195554,40.558655],[29.195194,40.558573],[29.195032,40.558513],[29.194899,40.558426],[29.194783,40.558325],[29.194573,40.558109],[29.19449,40.557997],[29.194439,40.55788],[29.194375,40.557638],[29.194332,40.557368],[29.194296,40.556654],[29.194275,40.556485],[29.194237,40.55634],[29.194094,40.555957],[29.194061,40.555836],[29.194054,40.55572],[29.194074,40.555496],[29.194094,40.555388],[29.194126,40.555287],[29.194179,40.555201],[29.194316,40.555044],[29.194765,40.554575],[29.194952,40.554366],[29.195085,40.554172],[29.195196,40.553979],[29.195239,40.553876],[29.195266,40.553763],[29.195295,40.553519],[29.195303,40.553389],[29.195301,40.553243],[29.195283,40.55307],[29.195224,40.552686],[29.195098,40.551925],[29.195023,40.551544],[29.194963,40.551334],[29.194867,40.55109],[29.194396,40.550039],[29.194127,40.549335],[29.194053,40.549114],[29.194,40.548909],[29.193986,40.548733],[29.193993,40.548572],[29.194029,40.548256],[29.194056,40.548087],[29.194097,40.547898],[29.194196,40.547494],[29.194254,40.547291],[29.194328,40.547092],[29.19443,40.546902],[29.194547,40.546717],[29.194799,40.54636],[29.194933,40.546196],[29.195077,40.546054],[29.195513,40.545681],[29.195631,40.545572],[29.195705,40.54548],[29.195757,40.545396],[29.195828,40.54524],[29.195838,40.545168],[29.195814,40.545102],[29.195607,40.544835],[29.19532,40.544405],[29.19523,40.544295],[29.195117,40.54419],[29.194992,40.54409],[29.194733,40.543906],[29.194608,40.543844],[29.194492,40.543827],[29.19438,40.543836],[29.194172,40.543881],[29.194086,40.543917],[29.194028,40.543971],[29.193985,40.544036],[29.193849,40.544279],[29.193584,40.544692],[29.193402,40.54494],[29.193327,40.545003],[29.193259,40.545039],[29.193192,40.545064],[29.193048,40.545095],[29.192958,40.545093],[29.192761,40.545071],[29.192664,40.545053],[29.192576,40.545019],[29.192505,40.54496],[29.192444,40.544886],[29.192259,40.544625],[29.192017,40.544256],[29.191933,40.544117],[29.191851,40.543959],[29.191701,40.543558],[29.191565,40.543145],[29.191516,40.542976],[29.191493,40.542866],[29.191469,40.542627],[29.191445,40.542493],[29.191318,40.541999],[29.191238,40.541715],[29.191149,40.541438],[29.191044,40.541195],[29.190906,40.541018],[29.190753,40.540879],[29.190593,40.540754],[29.190277,40.540535],[29.190128,40.540454],[29.189695,40.540242],[29.189546,40.540149],[29.189391,40.540021],[29.18875,40.539427],[29.188592,40.539301],[29.188277,40.539073],[29.188119,40.538967],[29.187959,40.538874],[29.187797,40.538802],[29.187632,40.538742],[29.18674,40.538443],[29.186353,40.538306],[29.186172,40.538234],[29.185863,40.538079],[29.185433,40.537841],[29.185247,40.537804],[29.185098,40.537735],[29.18496,40.53765],[29.184819,40.537549],[29.184659,40.537414],[29.184007,40.536761],[29.183766,40.536546],[29.183504,40.536386],[29.183207,40.536329],[29.182892,40.536327],[29.182275,40.536352],[29.182019,40.536332],[29.181844,40.536253],[29.181714,40.536142],[29.181594,40.536022],[29.18146,40.535902],[29.181277,40.535794],[29.181,40.535711],[29.180672,40.535642],[29.180326,40.53558],[29.179978,40.535527],[29.179639,40.535493],[29.179322,40.535493],[29.179017,40.535512],[29.178419,40.535569],[29.178123,40.535605],[29.17754,40.5357],[29.177247,40.535756],[29.176944,40.53582],[29.176614,40.535909],[29.176234,40.536041],[29.175828,40.536197],[29.173757,40.537013],[29.172955,40.537343],[29.172577,40.537531],[29.172237,40.537756],[29.171918,40.538],[29.171613,40.538249],[29.171329,40.538493],[29.171096,40.538718],[29.170954,40.538908],[29.170685,40.539409],[29.170545,40.539585],[29.170313,40.539778],[29.170031,40.539981],[29.169729,40.540186],[29.169418,40.540388],[29.169093,40.540578],[29.168752,40.540745],[29.167728,40.54119],[29.167453,40.541327],[29.167275,40.541452],[29.167151,40.541572],[29.167046,40.541694],[29.16695,40.541829],[29.166859,40.542],[29.166776,40.542238],[29.16654,40.543058],[29.166466,40.543278],[29.166398,40.543407],[29.166331,40.543488],[29.166265,40.543552],[29.166117,40.543671],[29.165823,40.543877],[29.165738,40.543946],[29.165694,40.54401],[29.165728,40.544066],[29.166008,40.544256],[29.16614,40.544388],[29.166312,40.544619],[29.166503,40.544902],[29.166889,40.545493],[29.167165,40.545941],[29.167249,40.546095],[29.167314,40.546234],[29.167353,40.546366],[29.16733,40.546491],[29.167192,40.546605],[29.166991,40.546712],[29.166763,40.546813],[29.166512,40.5469],[29.166223,40.546954],[29.165867,40.546945],[29.165476,40.546903],[29.164687,40.546802],[29.164335,40.546768],[29.164055,40.546769],[29.163814,40.54679],[29.163585,40.546822],[29.163356,40.54687],[29.163111,40.546957],[29.162835,40.547116],[29.162541,40.547314],[29.162238,40.547533],[29.161926,40.547774],[29.16159,40.548062],[29.161216,40.548433],[29.160029,40.549678],[29.159663,40.55003],[29.159347,40.550275],[29.159059,40.55046],[29.158781,40.550622],[29.158508,40.550766],[29.158243,40.550885],[29.157986,40.550962],[29.157202,40.551125],[29.156878,40.551214],[29.156468,40.551363],[29.156011,40.551542],[29.155104,40.551916],[29.154735,40.552083],[29.154504,40.552213],[29.154349,40.552323],[29.15422,40.552429],[29.153957,40.552677],[29.153613,40.55306],[29.153429,40.553274],[29.15325,40.553499],[29.153087,40.553742],[29.152957,40.554017],[29.152846,40.55431],[29.152749,40.554605],[29.152675,40.554894],[29.152662,40.555158],[29.152757,40.555376],[29.152912,40.555569],[29.15309,40.555752],[29.153281,40.555932],[29.153488,40.556109],[29.15372,40.556282],[29.154214,40.55662],[29.15446,40.556778],[29.154695,40.556914],[29.154909,40.557007],[29.15551,40.557222],[29.155714,40.55733],[29.155926,40.557498],[29.15614,40.557699],[29.156347,40.557914],[29.156529,40.558136],[29.156644,40.55837],[29.156636,40.558623],[29.156561,40.558886],[29.15638,40.559426],[29.156334,40.559703],[29.156368,40.55999],[29.156447,40.560281],[29.156547,40.560573],[29.156664,40.560858],[29.156815,40.561124],[29.157023,40.561356],[29.157261,40.561568],[29.157732,40.561964],[29.157907,40.562141],[29.158577,40.561831],[29.15879,40.561736],[29.158979,40.561661],[29.159125,40.56162],[29.159251,40.5616],[29.159375,40.561589],[29.159518,40.561589],[29.159718,40.561613],[29.160022,40.561678],[29.160755,40.56186],[29.161415,40.562043],[29.161608,40.562119],[29.161742,40.562188],[29.161854,40.562257],[29.161957,40.562332],[29.162056,40.562425],[29.162149,40.562551],[29.162337,40.562854],[29.163194,40.564297],[29.163359,40.564557],[29.163517,40.564786],[29.163829,40.565202],[29.163993,40.565407],[29.164179,40.56562],[29.164403,40.565847],[29.164892,40.566317],[29.165125,40.566552],[29.165316,40.56678],[29.16543,40.566996],[29.165501,40.567205],[29.165602,40.5676],[29.16568,40.567982],[29.165695,40.568165],[29.165679,40.56828],[29.165626,40.568433],[29.165392,40.568993],[29.165211,40.569467],[29.164853,40.57052],[29.164728,40.570945],[29.164673,40.571191],[29.164656,40.57133],[29.164636,40.571623],[29.164635,40.571769],[29.164651,40.571911],[29.164698,40.572043],[29.164833,40.572294],[29.164985,40.572538],[29.165336,40.573001],[29.165532,40.573274],[29.165848,40.573748],[29.166233,40.574367],[29.166343,40.574526],[29.166492,40.574701],[29.166713,40.574903],[29.16786,40.575843],[29.168056,40.576017],[29.168141,40.576103],[29.168224,40.576209],[29.168306,40.57635],[29.16847,40.576688],[29.168553,40.576876],[29.168634,40.577091],[29.168797,40.577649],[29.169016,40.578488],[29.169133,40.578973],[29.169177,40.579116],[29.169244,40.579271],[29.169355,40.579448],[29.169491,40.579636],[29.169633,40.579827],[29.169901,40.580166],[29.170003,40.580274],[29.170172,40.580429],[29.17034,40.580551],[29.170433,40.580593],[29.170629,40.580658],[29.170726,40.580683],[29.170816,40.580696],[29.170896,40.580689],[29.170969,40.580669],[29.171107,40.580613],[29.171171,40.58057],[29.171228,40.580503],[29.17139,40.580261],[29.171451,40.580188],[29.171525,40.58013],[29.171605,40.580081],[29.171974,40.579888],[29.172193,40.579784],[29.172302,40.579742],[29.172401,40.579725],[29.172486,40.579754],[29.172561,40.57981],[29.17263,40.579875],[29.172689,40.579947],[29.172725,40.580027],[29.17272,40.580122],[29.172626,40.58043],[29.172607,40.580525],[29.172611,40.580609],[29.172653,40.580762],[29.172835,40.581304],[29.172881,40.581423],[29.172931,40.581512],[29.172987,40.581548],[29.173047,40.581555],[29.173167,40.581539],[29.173223,40.581524],[29.173271,40.5815],[29.173355,40.58144],[29.173392,40.581406],[29.17342,40.581366],[29.173431,40.581314],[29.173439,40.581139],[29.173456,40.581092],[29.173497,40.581063],[29.173608,40.58103],[29.173723,40.581018],[29.173774,40.58103],[29.173868,40.581078],[29.173912,40.581112],[29.173952,40.581168],[29.173985,40.581261],[29.174041,40.58149],[29.174082,40.581696],[29.174092,40.58186],[29.174111,40.581901],[29.174217,40.582022],[29.174355,40.582146],[29.174434,40.582186],[29.174527,40.58219],[29.174948,40.582108],[29.175193,40.58207],[29.175447,40.582044],[29.175575,40.582044],[29.175702,40.582066],[29.17583,40.582099],[29.176077,40.582177],[29.176187,40.582221],[29.176275,40.582272],[29.176429,40.582389],[29.176508,40.582468],[29.176603,40.58259],[29.17701,40.583294],[29.177165,40.583543],[29.177337,40.583757],[29.17754,40.583906],[29.177759,40.584019],[29.178203,40.584232],[29.178412,40.58437],[29.178597,40.584562],[29.178771,40.584786],[29.178946,40.585028],[29.17935,40.585619],[29.180288,40.587042],[29.18098,40.588105],[29.182754,40.590861],[29.183426,40.591829],[29.183557,40.592062],[29.183673,40.592343],[29.183887,40.592977],[29.183988,40.59331],[29.18408,40.593661],[29.184157,40.594043],[29.184224,40.59444],[29.184337,40.595224],[29.184367,40.595573],[29.184357,40.59585],[29.184326,40.596088],[29.184223,40.596671],[29.184212,40.596768],[29.184215,40.596876],[29.184227,40.596916],[29.184255,40.596944],[29.184311,40.596955],[29.184463,40.59696],[29.184546,40.596971],[29.184638,40.597005],[29.184744,40.597085],[29.184856,40.597189],[29.18507,40.597415],[29.185149,40.597526],[29.185184,40.597631],[29.18521,40.597845],[29.185246,40.597982],[29.185351,40.59819],[29.185584,40.598529],[29.185534,40.599193],[29.18676,40.600098],[29.186903,40.600296],[29.187111,40.600604],[29.187184,40.600689],[29.187389,40.600858],[29.18762,40.601021],[29.187736,40.601089],[29.18785,40.601136],[29.188281,40.601267],[29.188426,40.601347],[29.18868,40.601517],[29.188711,40.601609],[29.188476,40.601743],[29.188016,40.602094],[29.187736,40.602277],[29.187658,40.602375],[29.187625,40.602543],[29.187646,40.602648],[29.187703,40.602742],[29.18777,40.602834],[29.187958,40.603071],[29.187975,40.603133],[29.188014,40.603412],[29.188107,40.603704],[29.188115,40.603769],[29.188098,40.603825],[29.187966,40.604012],[29.187974,40.604138],[29.187984,40.604227],[29.187979,40.604296],[29.187978,40.604305],[29.187049,40.604817],[29.18681,40.604971],[29.186763,40.60501],[29.186732,40.605058],[29.186688,40.60517],[29.186661,40.60532],[29.18666,40.60544],[29.186674,40.605721],[29.186705,40.605987],[29.186739,40.606086],[29.186873,40.606345],[29.186923,40.606462],[29.187158,40.607212],[29.187222,40.607381],[29.187291,40.607504],[29.187361,40.607602],[29.187575,40.607854],[29.187779,40.608072],[29.187844,40.60815],[29.187902,40.608241],[29.187947,40.608358],[29.188061,40.608752],[29.188102,40.60887],[29.188102,40.608871],[29.188148,40.608968],[29.188241,40.609131],[29.188712,40.609819],[29.189315,40.609605],[29.189871,40.609197],[29.190995,40.608057],[29.191351,40.607896],[29.191885,40.607795],[29.19242,40.607795],[29.192754,40.607786],[29.193131,40.607832],[29.193077,40.607876],[29.193063,40.607937],[29.193122,40.608261],[29.193171,40.608346],[29.19353,40.608711],[29.193611,40.608806],[29.193773,40.609188],[29.193907,40.609362],[29.194037,40.609447],[29.194087,40.609498],[29.19415,40.609593],[29.194204,40.609777],[29.194279,40.610179],[29.194332,40.61031],[29.194419,40.610458],[29.194497,40.6106],[29.194688,40.610917],[29.194749,40.611042],[29.194807,40.611166],[29.194815,40.611359],[29.194799,40.612092],[29.19517,40.61271],[29.195301,40.612829],[29.195892,40.613312],[29.196331,40.613539],[29.196632,40.613707],[29.196993,40.613955],[29.197147,40.614049],[29.197244,40.614061],[29.197618,40.614072],[29.197893,40.614011],[29.198622,40.61429],[29.198788,40.614358],[29.199631,40.614666],[29.200092,40.614797],[29.200636,40.614871],[29.200872,40.614925],[29.200952,40.614878],[29.201289,40.61478],[29.201414,40.614737],[29.201547,40.614675],[29.202025,40.614427],[29.202053,40.614413],[29.202077,40.614401],[29.202086,40.614398],[29.202093,40.614395],[29.202167,40.614372],[29.202247,40.614356],[29.202407,40.614345],[29.20251,40.614351],[29.202815,40.614408],[29.203156,40.614483],[29.203936,40.614691],[29.20407,40.614718],[29.204181,40.614724],[29.204576,40.614688],[29.204579,40.614688],[29.204579,40.614688],[29.205376,40.6147],[29.205376,40.6147],[29.205397,40.614701],[29.205345,40.61494],[29.20665,40.615194],[29.20665,40.615194]]]}},{"type":"Feature","properties":{"id":"TR-Y-77-005-M-0001","level":"yerlesim","type":"mahalle","parent_id":"TR-D-77-005","province_id":"TR-P-77","district_id":"TR-D-77-005","name":"Gökçedere","source_raw_name":"Gökçedere","source":"Kullanıcı tarafından sağlanan KML","source_label":"Kullanıcı tarafından sağlanan KML","source_name":"Yalova Mahalle KML - kullanici tarafindan saglandi"},"geometry":{"type":"Polygon","coordinates":[[[29.173268,40.614803],[29.173365,40.614798],[29.173442,40.614856],[29.173589,40.615016],[29.173686,40.615083],[29.173845,40.614996],[29.173865,40.614193],[29.17492,40.613762],[29.17579,40.613439],[29.176704,40.613396],[29.178085,40.613333],[29.178342,40.613276],[29.178691,40.613242],[29.178852,40.613221],[29.179316,40.613195],[29.179466,40.613179],[29.179648,40.613168],[29.179627,40.613161],[29.180489,40.613067],[29.182472,40.61281],[29.183028,40.612717],[29.183157,40.61265],[29.183282,40.612591],[29.183414,40.612541],[29.18396,40.612375],[29.184615,40.612106],[29.185274,40.611632],[29.185425,40.611114],[29.185434,40.611095],[29.185463,40.610998],[29.185466,40.610974],[29.185528,40.61076],[29.18577,40.610419],[29.186579,40.610312],[29.186996,40.610207],[29.188312,40.60996],[29.188712,40.609819],[29.188241,40.609131],[29.188148,40.608968],[29.188102,40.608871],[29.188102,40.60887],[29.188061,40.608752],[29.187947,40.608358],[29.187902,40.608241],[29.187844,40.60815],[29.187779,40.608072],[29.187575,40.607854],[29.187361,40.607602],[29.187291,40.607504],[29.187222,40.607381],[29.187158,40.607212],[29.186923,40.606462],[29.186873,40.606345],[29.186739,40.606086],[29.186705,40.605987],[29.186674,40.605721],[29.18666,40.60544],[29.186661,40.60532],[29.186688,40.60517],[29.186732,40.605058],[29.186763,40.60501],[29.18681,40.604971],[29.187049,40.604817],[29.187978,40.604305],[29.187984,40.604227],[29.187974,40.604138],[29.187966,40.604012],[29.188098,40.603825],[29.188115,40.603769],[29.188107,40.603704],[29.188014,40.603412],[29.187975,40.603133],[29.187958,40.603071],[29.18777,40.602834],[29.187703,40.602742],[29.187646,40.602648],[29.187625,40.602543],[29.187658,40.602375],[29.187736,40.602277],[29.188016,40.602094],[29.188476,40.601743],[29.188711,40.601609],[29.18868,40.601517],[29.188426,40.601347],[29.188281,40.601267],[29.18785,40.601136],[29.187736,40.601089],[29.18762,40.601021],[29.187389,40.600858],[29.187184,40.600689],[29.187111,40.600604],[29.186903,40.600296],[29.184379,40.601645],[29.183245,40.601483],[29.181554,40.601728],[29.179562,40.602001],[29.178981,40.601674],[29.177686,40.601494],[29.177458,40.60179],[29.177322,40.601772],[29.177031,40.601692],[29.176802,40.601566],[29.176146,40.600995],[29.175966,40.600966],[29.175884,40.600782],[29.175645,40.600609],[29.175236,40.600485],[29.175065,40.600563],[29.175018,40.600763],[29.174943,40.60102],[29.174922,40.601507],[29.174869,40.601694],[29.174849,40.601741],[29.174849,40.601778],[29.173524,40.601967],[29.17341,40.601994],[29.173198,40.60213],[29.173062,40.602193],[29.172523,40.602383],[29.171678,40.602219],[29.170723,40.602137],[29.168649,40.601128],[29.167667,40.600473],[29.167449,40.600173],[29.166849,40.5987],[29.166794,40.598127],[29.166494,40.597335],[29.165948,40.596599],[29.164993,40.595808],[29.164311,40.595044],[29.16382,40.594553],[29.163329,40.593352],[29.162033,40.591456],[29.161433,40.591333],[29.160805,40.590979],[29.160683,40.590638],[29.160219,40.589826],[29.159278,40.589389],[29.15745,40.588666],[29.156631,40.588557],[29.156208,40.588966],[29.155403,40.589676],[29.154899,40.589771],[29.154326,40.58958],[29.15363,40.589471],[29.153003,40.589144],[29.152317,40.589021],[29.152234,40.589315],[29.152174,40.589468],[29.152097,40.589607],[29.151986,40.589716],[29.151858,40.589808],[29.151589,40.589971],[29.151454,40.590039],[29.15132,40.590088],[29.150929,40.590202],[29.150803,40.590245],[29.150684,40.590299],[29.150456,40.590421],[29.150348,40.590486],[29.150252,40.590554],[29.150177,40.59063],[29.150115,40.590709],[29.15,40.590881],[29.149944,40.590985],[29.149713,40.591545],[29.149646,40.591655],[29.149566,40.591715],[29.14948,40.591748],[29.149312,40.591798],[29.149245,40.59184],[29.149204,40.591911],[29.149125,40.592182],[29.149084,40.592264],[29.149015,40.592331],[29.148933,40.592389],[29.148537,40.592631],[29.148496,40.592666],[29.148459,40.592719],[29.148427,40.592805],[29.148372,40.593023],[29.148331,40.593276],[29.148323,40.593948],[29.1483,40.594118],[29.148244,40.594282],[29.148023,40.594747],[29.147975,40.594878],[29.147971,40.594976],[29.14799,40.595056],[29.14802,40.595128],[29.148057,40.595195],[29.148104,40.595252],[29.14817,40.595293],[29.148396,40.595387],[29.148458,40.595423],[29.148497,40.595469],[29.148522,40.59552],[29.148554,40.595629],[29.148554,40.595687],[29.148529,40.595751],[29.148416,40.595969],[29.148391,40.596067],[29.14839,40.596201],[29.148445,40.596842],[29.148461,40.597502],[29.148471,40.597639],[29.148534,40.59789],[29.148536,40.597978],[29.148486,40.598104],[29.148342,40.598304],[29.147939,40.598789],[29.147736,40.599022],[29.147562,40.599207],[29.147444,40.599303],[29.147358,40.599348],[29.147133,40.599437],[29.147048,40.599488],[29.146867,40.599611],[29.146706,40.599733],[29.146578,40.599872],[29.146413,40.600085],[29.146393,40.600125],[29.1464,40.60016],[29.146455,40.600185],[29.14663,40.600221],[29.14673,40.600235],[29.146839,40.60024],[29.146963,40.600233],[29.147359,40.600189],[29.147477,40.600184],[29.14757,40.600195],[29.147651,40.600215],[29.147805,40.600275],[29.147888,40.600332],[29.147983,40.600427],[29.148292,40.600779],[29.1484,40.600876],[29.148514,40.600938],[29.148759,40.601017],[29.149076,40.601085],[29.150419,40.601282],[29.150582,40.601319],[29.150701,40.601355],[29.150906,40.601436],[29.151008,40.601493],[29.151463,40.601866],[29.151604,40.601947],[29.151778,40.601999],[29.151969,40.602036],[29.15235,40.602091],[29.15251,40.602107],[29.152785,40.602101],[29.152863,40.602108],[29.152948,40.602144],[29.153049,40.602233],[29.153278,40.602479],[29.153404,40.602603],[29.153547,40.602709],[29.153725,40.602779],[29.154302,40.602924],[29.154458,40.60298],[29.154555,40.603054],[29.15474,40.603304],[29.154819,40.603372],[29.154932,40.603415],[29.155339,40.603499],[29.155464,40.603537],[29.155567,40.603594],[29.155742,40.603735],[29.15582,40.603814],[29.155883,40.603906],[29.15592,40.604021],[29.155957,40.604281],[29.155965,40.604415],[29.155962,40.604547],[29.155936,40.604678],[29.155834,40.60505],[29.155836,40.605148],[29.155891,40.605209],[29.156164,40.605327],[29.15625,40.605384],[29.156322,40.605472],[29.156557,40.605888],[29.156615,40.605958],[29.156675,40.606014],[29.156812,40.606117],[29.156915,40.60617],[29.157072,40.606226],[29.157644,40.606397],[29.157826,40.606441],[29.157984,40.606466],[29.158394,40.60651],[29.158498,40.606539],[29.158559,40.606592],[29.158596,40.606658],[29.158645,40.6068],[29.158654,40.606868],[29.158641,40.606932],[29.158618,40.606994],[29.158287,40.607682],[29.158142,40.608004],[29.157983,40.608385],[29.157913,40.608573],[29.157871,40.608745],[29.157878,40.608887],[29.157913,40.609012],[29.158008,40.609248],[29.158065,40.609362],[29.158132,40.609471],[29.158344,40.609789],[29.158402,40.609887],[29.15844,40.609976],[29.158489,40.610144],[29.158504,40.610231],[29.158503,40.610329],[29.158475,40.610446],[29.158346,40.610834],[29.15832,40.610953],[29.158322,40.611053],[29.15834,40.611143],[29.158594,40.612074],[29.158651,40.61221],[29.158726,40.6123],[29.158975,40.612477],[29.15904,40.612535],[29.159075,40.6126],[29.159103,40.612736],[29.159102,40.612799],[29.159079,40.612844],[29.159014,40.612859],[29.158928,40.612857],[29.158642,40.61283],[29.158457,40.612824],[29.158369,40.612827],[29.158291,40.61284],[29.158237,40.612882],[29.158227,40.612977],[29.158241,40.613101],[29.158341,40.613681],[29.158427,40.614297],[29.158449,40.614568],[29.158471,40.614644],[29.158528,40.614716],[29.158653,40.614783],[29.159324,40.615034],[29.159468,40.615097],[29.161526,40.616097],[29.162895,40.616832],[29.163896,40.617394],[29.164062,40.617472],[29.164245,40.617536],[29.164822,40.617703],[29.165005,40.617763],[29.165171,40.617831],[29.165326,40.617904],[29.165607,40.618052],[29.165704,40.618124],[29.165736,40.618193],[29.165734,40.618259],[29.165715,40.618396],[29.16573,40.618474],[29.165788,40.618566],[29.166049,40.618881],[29.166132,40.618998],[29.166201,40.61913],[29.166263,40.619269],[29.166366,40.619545],[29.166395,40.619668],[29.166388,40.619768],[29.166889,40.619335],[29.167053,40.619201],[29.167211,40.619087],[29.167359,40.619011],[29.167926,40.61881],[29.168226,40.618681],[29.169659,40.618014],[29.170218,40.617736],[29.17039,40.61763],[29.170864,40.617269],[29.171553,40.616815],[29.171725,40.616677],[29.171882,40.616512],[29.17218,40.616144],[29.172974,40.615115],[29.173132,40.614927],[29.173268,40.614803]]]}},{"type":"Feature","properties":{"id":"TR-Y-77-005-M-0002","level":"yerlesim","type":"mahalle","parent_id":"TR-D-77-005","province_id":"TR-P-77","district_id":"TR-D-77-005","name":"Üvezpınar","source_raw_name":"Üvezpınar","source":"Kullanıcı tarafından sağlanan KML","source_label":"Kullanıcı tarafından sağlanan KML","source_name":"Yalova Mahalle KML - kullanici tarafindan saglandi"},"geometry":{"type":"Polygon","coordinates":[[[29.175065,40.600563],[29.175236,40.600485],[29.175645,40.600609],[29.175884,40.600782],[29.175966,40.600966],[29.176146,40.600995],[29.176802,40.601566],[29.177031,40.601692],[29.177322,40.601772],[29.177458,40.60179],[29.177686,40.601494],[29.178981,40.601674],[29.179562,40.602001],[29.181554,40.601728],[29.183245,40.601483],[29.184379,40.601645],[29.186903,40.600296],[29.18676,40.600098],[29.185534,40.599193],[29.185584,40.598529],[29.185351,40.59819],[29.185246,40.597982],[29.18521,40.597845],[29.185184,40.597631],[29.185149,40.597526],[29.18507,40.597415],[29.184856,40.597189],[29.184744,40.597085],[29.184638,40.597005],[29.184546,40.596971],[29.184463,40.59696],[29.184311,40.596955],[29.184255,40.596944],[29.184227,40.596916],[29.184215,40.596876],[29.184212,40.596768],[29.184223,40.596671],[29.184326,40.596088],[29.184357,40.59585],[29.184367,40.595573],[29.184337,40.595224],[29.184224,40.59444],[29.184157,40.594043],[29.18408,40.593661],[29.183988,40.59331],[29.183887,40.592977],[29.183673,40.592343],[29.183557,40.592062],[29.183426,40.591829],[29.182754,40.590861],[29.18098,40.588105],[29.180288,40.587042],[29.17935,40.585619],[29.178946,40.585028],[29.178771,40.584786],[29.178597,40.584562],[29.178412,40.58437],[29.178203,40.584232],[29.177759,40.584019],[29.17754,40.583906],[29.177337,40.583757],[29.177165,40.583543],[29.17701,40.583294],[29.176603,40.58259],[29.176508,40.582468],[29.176429,40.582389],[29.176275,40.582272],[29.176187,40.582221],[29.176077,40.582177],[29.17583,40.582099],[29.175702,40.582066],[29.175575,40.582044],[29.175447,40.582044],[29.175193,40.58207],[29.174948,40.582108],[29.174527,40.58219],[29.174434,40.582186],[29.174355,40.582146],[29.174217,40.582022],[29.174111,40.581901],[29.174092,40.58186],[29.174082,40.581696],[29.174041,40.58149],[29.173985,40.581261],[29.173952,40.581168],[29.173912,40.581112],[29.173868,40.581078],[29.173774,40.58103],[29.173723,40.581018],[29.173608,40.58103],[29.173497,40.581063],[29.173456,40.581092],[29.173439,40.581139],[29.173431,40.581314],[29.17342,40.581366],[29.173392,40.581406],[29.173355,40.58144],[29.173271,40.5815],[29.173223,40.581524],[29.173167,40.581539],[29.173047,40.581555],[29.172987,40.581548],[29.172931,40.581512],[29.172881,40.581423],[29.172835,40.581304],[29.172653,40.580762],[29.172611,40.580609],[29.172607,40.580525],[29.172626,40.58043],[29.17272,40.580122],[29.172725,40.580027],[29.172689,40.579947],[29.17263,40.579875],[29.172561,40.57981],[29.172486,40.579754],[29.172401,40.579725],[29.172302,40.579742],[29.172193,40.579784],[29.171974,40.579888],[29.171605,40.580081],[29.171525,40.58013],[29.171451,40.580188],[29.17139,40.580261],[29.171228,40.580503],[29.171171,40.58057],[29.171107,40.580613],[29.170969,40.580669],[29.170896,40.580689],[29.170816,40.580696],[29.170726,40.580683],[29.170629,40.580658],[29.170433,40.580593],[29.17034,40.580551],[29.170172,40.580429],[29.170003,40.580274],[29.169901,40.580166],[29.169633,40.579827],[29.169491,40.579636],[29.169355,40.579448],[29.169244,40.579271],[29.169177,40.579116],[29.169133,40.578973],[29.169016,40.578488],[29.168797,40.577649],[29.168634,40.577091],[29.168553,40.576876],[29.16847,40.576688],[29.168306,40.57635],[29.168224,40.576209],[29.168141,40.576103],[29.168056,40.576017],[29.16786,40.575843],[29.166713,40.574903],[29.166492,40.574701],[29.166343,40.574526],[29.166233,40.574367],[29.165848,40.573748],[29.165532,40.573274],[29.165336,40.573001],[29.164985,40.572538],[29.164833,40.572294],[29.164698,40.572043],[29.164651,40.571911],[29.164635,40.571769],[29.164636,40.571623],[29.164656,40.57133],[29.164673,40.571191],[29.164728,40.570945],[29.164853,40.57052],[29.165211,40.569467],[29.165392,40.568993],[29.165626,40.568433],[29.165679,40.56828],[29.165695,40.568165],[29.16568,40.567982],[29.165602,40.5676],[29.165501,40.567205],[29.16543,40.566996],[29.165316,40.56678],[29.165125,40.566552],[29.164892,40.566317],[29.164403,40.565847],[29.164179,40.56562],[29.163993,40.565407],[29.163829,40.565202],[29.163517,40.564786],[29.163359,40.564557],[29.163194,40.564297],[29.162337,40.562854],[29.162149,40.562551],[29.162056,40.562425],[29.161957,40.562332],[29.161854,40.562257],[29.161742,40.562188],[29.161608,40.562119],[29.161415,40.562043],[29.160755,40.56186],[29.160022,40.561678],[29.159718,40.561613],[29.159518,40.561589],[29.159375,40.561589],[29.159251,40.5616],[29.159125,40.56162],[29.158979,40.561661],[29.15879,40.561736],[29.158577,40.561831],[29.157907,40.562141],[29.157984,40.562287],[29.158008,40.562416],[29.158011,40.562823],[29.158033,40.563657],[29.158018,40.563901],[29.157973,40.564178],[29.157842,40.564771],[29.157767,40.565065],[29.157684,40.565338],[29.157582,40.565577],[29.157468,40.565798],[29.157339,40.566022],[29.157179,40.566271],[29.156936,40.566596],[29.156539,40.567059],[29.156061,40.567596],[29.155051,40.5687],[29.154572,40.569191],[29.154145,40.569579],[29.153338,40.57025],[29.152898,40.570632],[29.152351,40.57116],[29.151614,40.571954],[29.150778,40.572888],[29.148432,40.575551],[29.148278,40.575569],[29.148168,40.575551],[29.147988,40.575492],[29.14715,40.575176],[29.147049,40.575145],[29.146985,40.575135],[29.146918,40.575136],[29.146805,40.575153],[29.146553,40.575208],[29.145786,40.575392],[29.144011,40.575819],[29.143364,40.575963],[29.142815,40.576065],[29.14185,40.576211],[29.141406,40.576268],[29.141016,40.576301],[29.140719,40.576295],[29.140232,40.576238],[29.139976,40.576217],[29.139656,40.576228],[29.139216,40.576299],[29.137672,40.57662],[29.137194,40.576704],[29.136795,40.576744],[29.13644,40.576761],[29.135532,40.57678],[29.13535,40.576792],[29.133018,40.577101],[29.132835,40.577119],[29.132813,40.577118],[29.132789,40.577106],[29.133522,40.578073],[29.134324,40.579075],[29.136672,40.581954],[29.138492,40.584123],[29.138633,40.584302],[29.138799,40.58454],[29.138832,40.584582],[29.138856,40.584597],[29.138933,40.584611],[29.139044,40.584647],[29.139326,40.584759],[29.142875,40.586285],[29.143227,40.586433],[29.143929,40.586712],[29.144266,40.586861],[29.144377,40.586922],[29.144488,40.586998],[29.144824,40.587269],[29.144944,40.587377],[29.145365,40.587788],[29.145512,40.587921],[29.145663,40.588028],[29.145822,40.588087],[29.145986,40.588119],[29.146159,40.588141],[29.148436,40.588376],[29.148623,40.588398],[29.148837,40.588434],[29.148932,40.588457],[29.14905,40.588497],[29.149213,40.58857],[29.149936,40.588924],[29.150179,40.589059],[29.150252,40.589092],[29.150349,40.589116],[29.150495,40.589126],[29.151024,40.589126],[29.151609,40.5891],[29.151859,40.589066],[29.151972,40.589027],[29.152177,40.588937],[29.152264,40.588909],[29.15232,40.588924],[29.152317,40.589021],[29.153003,40.589144],[29.15363,40.589471],[29.154326,40.58958],[29.154899,40.589771],[29.155403,40.589676],[29.156208,40.588966],[29.156631,40.588557],[29.15745,40.588666],[29.159278,40.589389],[29.160219,40.589826],[29.160683,40.590638],[29.160805,40.590979],[29.161433,40.591333],[29.162033,40.591456],[29.163329,40.593352],[29.16382,40.594553],[29.164311,40.595044],[29.164993,40.595808],[29.165948,40.596599],[29.166494,40.597335],[29.166794,40.598127],[29.166849,40.5987],[29.167449,40.600173],[29.167667,40.600473],[29.168649,40.601128],[29.170723,40.602137],[29.171678,40.602219],[29.172523,40.602383],[29.173062,40.602193],[29.173198,40.60213],[29.17341,40.601994],[29.173524,40.601967],[29.174849,40.601778],[29.174849,40.601741],[29.174869,40.601694],[29.174922,40.601507],[29.174943,40.60102],[29.175018,40.600763],[29.175065,40.600563]]]}}]}