{"type":"FeatureCollection","name":"turkiye_map.dist.mahalle_geometrileri_by_district.TR-D-34-009","features":[{"type":"Feature","properties":{"id":"TR-Y-34-009-M-0001","level":"yerlesim","type":"mahalle","parent_id":"TR-D-34-009","province_id":"TR-P-34","district_id":"TR-D-34-009","name":"Altıntepsi","source_raw_name":"ALTINTEPSİ","source":"Kullanıcı tarafından sağlanan KML","source_label":"Kullanıcı tarafından sağlanan KML","source_name":"Istanbul Mahalle KML"},"geometry":{"type":"Polygon","coordinates":[[[28.899061,41.042346],[28.899822,41.042077],[28.900668,41.041798],[28.900712,41.041783],[28.90158,41.041529],[28.902097,41.041392],[28.902159,41.041374],[28.902567,41.041274],[28.903154,41.041147],[28.903135,41.041122],[28.903088,41.041061],[28.902997,41.040935],[28.903265,41.040879],[28.903572,41.040803],[28.903834,41.040722],[28.904115,41.040635],[28.904415,41.040546],[28.904522,41.040514],[28.904677,41.040465],[28.904954,41.040386],[28.905202,41.040294],[28.905681,41.040105],[28.905792,41.04007],[28.905942,41.039986],[28.906426,41.039732],[28.90669,41.039569],[28.906991,41.039369],[28.907114,41.039294],[28.907312,41.039139],[28.907465,41.039009],[28.907582,41.038886],[28.907591,41.038767],[28.907515,41.038679],[28.90732,41.038499],[28.907085,41.038322],[28.906824,41.038154],[28.906822,41.038153],[28.906579,41.037979],[28.906368,41.037833],[28.905965,41.037549],[28.905857,41.037477],[28.905564,41.037261],[28.90521,41.037003],[28.904915,41.036746],[28.904714,41.036536],[28.904679,41.0365],[28.904549,41.036369],[28.904544,41.036364],[28.903991,41.036644],[28.903964,41.036658],[28.903486,41.036895],[28.903475,41.036901],[28.903446,41.036873],[28.903199,41.037026],[28.902943,41.036747],[28.90281,41.036634],[28.902617,41.036456],[28.902559,41.036406],[28.902554,41.036401],[28.902221,41.036213],[28.901901,41.036033],[28.901793,41.035968],[28.9016,41.03586],[28.901556,41.035844],[28.901506,41.035833],[28.901262,41.035781],[28.901066,41.035739],[28.900643,41.035649],[28.900368,41.035598],[28.900184,41.035559],[28.899917,41.035494],[28.899767,41.035461],[28.899677,41.035442],[28.899308,41.035357],[28.898952,41.035277],[28.898866,41.035245],[28.898718,41.035252],[28.898624,41.035256],[28.898426,41.035268],[28.89774,41.035302],[28.897629,41.035307],[28.897149,41.035337],[28.89709,41.035327],[28.896577,41.035345],[28.896048,41.035362],[28.895329,41.035259],[28.89521,41.035241],[28.895149,41.035311],[28.895039,41.035426],[28.894975,41.03549],[28.894883,41.035574],[28.894755,41.035659],[28.894574,41.035755],[28.894033,41.036041],[28.893877,41.036127],[28.89305,41.036381],[28.892862,41.036438],[28.892627,41.036486],[28.892394,41.036533],[28.890904,41.036833],[28.890834,41.036852],[28.890595,41.03693],[28.890179,41.037078],[28.890008,41.037149],[28.889757,41.037264],[28.889592,41.037344],[28.889337,41.037487],[28.889084,41.03764],[28.888907,41.037761],[28.888586,41.037996],[28.888379,41.038173],[28.888022,41.038514],[28.887465,41.039215],[28.886132,41.041472],[28.886085,41.04155],[28.886084,41.041552],[28.885486,41.042551],[28.885181,41.043099],[28.884995,41.043483],[28.884933,41.043632],[28.88482,41.043975],[28.884774,41.044154],[28.884748,41.044275],[28.88471,41.044593],[28.884698,41.044803],[28.884701,41.044944],[28.884708,41.045146],[28.884732,41.045425],[28.884738,41.045517],[28.884944,41.045485],[28.885809,41.045371],[28.886235,41.045321],[28.886746,41.045264],[28.887591,41.045173],[28.88898,41.04502],[28.889607,41.044941],[28.890131,41.044873],[28.89063,41.044803],[28.891958,41.04458],[28.89272,41.044424],[28.893324,41.044288],[28.893871,41.044141],[28.894367,41.044004],[28.89504,41.043799],[28.895883,41.043518],[28.896305,41.043365],[28.89725,41.043022],[28.899047,41.042351],[28.899061,41.042346]]]}},{"type":"Feature","properties":{"id":"TR-Y-34-009-M-0002","level":"yerlesim","type":"mahalle","parent_id":"TR-D-34-009","province_id":"TR-P-34","district_id":"TR-D-34-009","name":"Cevatpaşa","source_raw_name":"CEVATPAŞA","source":"Kullanıcı tarafından sağlanan KML","source_label":"Kullanıcı tarafından sağlanan KML","source_name":"Istanbul Mahalle KML"},"geometry":{"type":"Polygon","coordinates":[[[28.882493,41.075199],[28.882726,41.075107],[28.882731,41.075106],[28.882731,41.075106],[28.882732,41.075106],[28.883707,41.074723],[28.883893,41.074653],[28.884076,41.074584],[28.884334,41.074487],[28.884722,41.074345],[28.884912,41.074277],[28.885142,41.074195],[28.885365,41.074108],[28.885516,41.074045],[28.885647,41.073983],[28.885751,41.07393],[28.885885,41.073845],[28.886011,41.073762],[28.886161,41.073661],[28.886347,41.073537],[28.886479,41.073447],[28.886653,41.073329],[28.886863,41.07319],[28.886975,41.073114],[28.887085,41.073035],[28.887139,41.073],[28.888175,41.072296],[28.888442,41.072128],[28.888578,41.072049],[28.888668,41.072003],[28.888764,41.071956],[28.888899,41.071891],[28.889188,41.07176],[28.889343,41.071694],[28.889541,41.071612],[28.889959,41.07144],[28.890075,41.071389],[28.890036,41.071348],[28.889961,41.071275],[28.889885,41.07121],[28.889517,41.070935],[28.88923,41.070717],[28.888998,41.070545],[28.888802,41.070399],[28.888558,41.070214],[28.888435,41.070124],[28.888395,41.070094],[28.88835,41.070061],[28.888243,41.069974],[28.887803,41.069646],[28.887294,41.069265],[28.886989,41.069037],[28.88682,41.06891],[28.886765,41.068869],[28.886577,41.068729],[28.886392,41.068592],[28.886017,41.068321],[28.885952,41.068272],[28.885367,41.067934],[28.885089,41.067806],[28.884826,41.067696],[28.8847,41.067648],[28.884304,41.067522],[28.883951,41.067428],[28.883785,41.067392],[28.883671,41.067372],[28.883558,41.067353],[28.883423,41.067327],[28.883,41.067279],[28.882774,41.067263],[28.882513,41.067252],[28.882245,41.067254],[28.881946,41.067264],[28.881565,41.067298],[28.881212,41.067352],[28.88108,41.067378],[28.881027,41.06745],[28.880968,41.067524],[28.880948,41.067552],[28.880783,41.067777],[28.880727,41.067852],[28.880517,41.068142],[28.880098,41.068741],[28.879753,41.069221],[28.879043,41.07022],[28.878534,41.070937],[28.878482,41.070989],[28.878567,41.071062],[28.878739,41.071234],[28.878897,41.071469],[28.878959,41.071597],[28.878981,41.071772],[28.87898,41.071804],[28.878927,41.07342],[28.878911,41.073618],[28.878904,41.074041],[28.878889,41.074342],[28.878888,41.074464],[28.878885,41.074734],[28.878873,41.074914],[28.878848,41.07553],[28.878835,41.076516],[28.878826,41.076822],[28.878752,41.07731],[28.878858,41.077215],[28.87895,41.07713],[28.878982,41.077103],[28.879076,41.077027],[28.87917,41.076949],[28.879284,41.076862],[28.879446,41.07673],[28.879604,41.076605],[28.879681,41.076547],[28.879715,41.076519],[28.879792,41.07646],[28.879927,41.076355],[28.880015,41.076288],[28.880052,41.076263],[28.880167,41.07618],[28.880281,41.076107],[28.880317,41.076086],[28.880345,41.076069],[28.880387,41.076047],[28.880517,41.075984],[28.880615,41.075944],[28.880755,41.075887],[28.88095,41.075809],[28.881159,41.075721],[28.881509,41.075578],[28.881634,41.075541],[28.881755,41.075495],[28.881852,41.075456],[28.881943,41.075421],[28.882019,41.075392],[28.882089,41.075365],[28.882199,41.075322],[28.882249,41.0753],[28.882314,41.075266],[28.882369,41.075245],[28.882493,41.075199]]]}},{"type":"Feature","properties":{"id":"TR-Y-34-009-M-0003","level":"yerlesim","type":"mahalle","parent_id":"TR-D-34-009","province_id":"TR-P-34","district_id":"TR-D-34-009","name":"İsmetpaşa","source_raw_name":"İSMET PAŞA","source":"Kullanıcı tarafından sağlanan KML","source_label":"Kullanıcı tarafından sağlanan KML","source_name":"Istanbul Mahalle KML"},"geometry":{"type":"Polygon","coordinates":[[[28.899061,41.042346],[28.899144,41.042554],[28.899308,41.043019],[28.899396,41.043272],[28.899576,41.043863],[28.899599,41.043959],[28.899656,41.044166],[28.899714,41.044393],[28.899762,41.044567],[28.899795,41.044731],[28.899843,41.04497],[28.899879,41.045167],[28.899986,41.045801],[28.900025,41.046159],[28.901664,41.046217],[28.901757,41.046242],[28.902051,41.046224],[28.902382,41.046166],[28.902453,41.046156],[28.902926,41.046048],[28.903412,41.045932],[28.903658,41.045873],[28.903891,41.045825],[28.904379,41.045716],[28.90475,41.04562],[28.90486,41.045594],[28.905013,41.045556],[28.905105,41.045522],[28.905184,41.045478],[28.9054,41.04542],[28.906026,41.045286],[28.906313,41.045216],[28.906422,41.04519],[28.906911,41.045092],[28.907049,41.045069],[28.907432,41.045007],[28.907633,41.044975],[28.907772,41.044953],[28.907811,41.044946],[28.907917,41.044927],[28.908068,41.044895],[28.908307,41.044842],[28.908729,41.044731],[28.909353,41.044569],[28.909619,41.0445],[28.909807,41.044443],[28.910095,41.044357],[28.91037,41.044274],[28.910898,41.044115],[28.911264,41.044007],[28.911407,41.043966],[28.911461,41.043957],[28.911468,41.043858],[28.911504,41.043622],[28.911558,41.043267],[28.911582,41.043106],[28.911654,41.042641],[28.911719,41.042223],[28.911729,41.042147],[28.911749,41.042074],[28.91181,41.041876],[28.911897,41.041682],[28.912127,41.041166],[28.912254,41.040857],[28.912346,41.040631],[28.912423,41.04042],[28.912439,41.040332],[28.912448,41.04026],[28.912459,41.040185],[28.912477,41.039997],[28.912481,41.039879],[28.912283,41.039923],[28.911462,41.040091],[28.911162,41.04014],[28.910861,41.040189],[28.910255,41.040277],[28.909409,41.040379],[28.907584,41.040565],[28.906981,41.040619],[28.906313,41.040684],[28.905071,41.040827],[28.904693,41.040881],[28.904341,41.040934],[28.903818,41.041019],[28.903431,41.041091],[28.903154,41.041147],[28.902567,41.041274],[28.902159,41.041374],[28.902097,41.041392],[28.90158,41.041529],[28.900712,41.041783],[28.900668,41.041798],[28.899822,41.042077],[28.899061,41.042346]]]}},{"type":"Feature","properties":{"id":"TR-Y-34-009-M-0004","level":"yerlesim","type":"mahalle","parent_id":"TR-D-34-009","province_id":"TR-P-34","district_id":"TR-D-34-009","name":"Kartaltepe","source_raw_name":"KARTALTEPE","source":"Kullanıcı tarafından sağlanan KML","source_label":"Kullanıcı tarafından sağlanan KML","source_name":"Istanbul Mahalle KML"},"geometry":{"type":"Polygon","coordinates":[[[28.903169,41.059924],[28.903241,41.05986],[28.903297,41.059809],[28.903329,41.05978],[28.903331,41.059779],[28.903415,41.059719],[28.903637,41.059561],[28.903924,41.059355],[28.904104,41.059226],[28.90432,41.059073],[28.904494,41.058944],[28.904608,41.058859],[28.904819,41.058708],[28.905047,41.05855],[28.905141,41.058487],[28.905243,41.058432],[28.905459,41.058309],[28.905628,41.058194],[28.905938,41.057988],[28.90645,41.057584],[28.9066,41.05748],[28.906696,41.057414],[28.906995,41.057208],[28.907271,41.057019],[28.907456,41.056893],[28.907617,41.056784],[28.907842,41.056628],[28.908081,41.056458],[28.908242,41.056344],[28.909042,41.055758],[28.908985,41.055718],[28.90883,41.055625],[28.908258,41.055283],[28.907909,41.055046],[28.907909,41.055046],[28.907747,41.054967],[28.90766,41.05493],[28.907651,41.054926],[28.90762,41.054919],[28.907574,41.054908],[28.907481,41.054902],[28.907321,41.054834],[28.907299,41.054824],[28.907211,41.054802],[28.906847,41.054711],[28.906663,41.054665],[28.906588,41.054597],[28.906337,41.054364],[28.906143,41.054195],[28.905995,41.054069],[28.905903,41.053988],[28.90585,41.053946],[28.90581,41.053908],[28.905756,41.053855],[28.905566,41.053695],[28.90554,41.053674],[28.905508,41.053644],[28.905457,41.053602],[28.90526,41.053422],[28.90501,41.053213],[28.904948,41.053163],[28.904754,41.052995],[28.904663,41.052903],[28.904722,41.052744],[28.904574,41.052602],[28.904553,41.052567],[28.903522,41.051652],[28.903468,41.051607],[28.903157,41.051413],[28.902703,41.051148],[28.902484,41.051042],[28.902325,41.050904],[28.902308,41.05089],[28.902176,41.050755],[28.902068,41.050638],[28.901967,41.050532],[28.901908,41.050496],[28.901827,41.050439],[28.901631,41.05036],[28.901293,41.050251],[28.901181,41.050224],[28.901181,41.050224],[28.901014,41.050172],[28.900713,41.050084],[28.900521,41.050017],[28.900251,41.049934],[28.900144,41.04989],[28.90013,41.04986],[28.900086,41.049762],[28.900072,41.049875],[28.900071,41.049882],[28.900067,41.049915],[28.900044,41.050071],[28.899971,41.050737],[28.899951,41.050857],[28.899895,41.051071],[28.899835,41.051251],[28.899781,41.051386],[28.899622,41.051734],[28.899562,41.051854],[28.899406,41.052148],[28.899232,41.052427],[28.899102,41.052626],[28.899025,41.052737],[28.898949,41.052826],[28.898922,41.052865],[28.898744,41.053074],[28.898521,41.053323],[28.898292,41.053572],[28.897998,41.053901],[28.897774,41.054145],[28.897649,41.054284],[28.897604,41.054333],[28.897401,41.054562],[28.897265,41.054733],[28.897191,41.054845],[28.897107,41.054972],[28.896785,41.055409],[28.896484,41.055817],[28.896292,41.056076],[28.896203,41.056199],[28.896088,41.056351],[28.895942,41.056547],[28.895735,41.056826],[28.895707,41.056862],[28.895594,41.057012],[28.89542,41.05725],[28.895066,41.057726],[28.894931,41.057906],[28.894679,41.058246],[28.894593,41.058364],[28.894379,41.05865],[28.894269,41.058798],[28.894174,41.058915],[28.894028,41.059087],[28.893893,41.059244],[28.893746,41.059413],[28.893572,41.05962],[28.893522,41.059679],[28.893321,41.059922],[28.893002,41.060307],[28.892848,41.060504],[28.892725,41.060666],[28.892648,41.060769],[28.892701,41.060774],[28.892843,41.060786],[28.89312,41.060793],[28.893531,41.060793],[28.893553,41.060793],[28.893727,41.060795],[28.894048,41.060808],[28.894664,41.060812],[28.894799,41.060831],[28.895037,41.060857],[28.895225,41.060908],[28.895415,41.060932],[28.895482,41.060949],[28.89555,41.060965],[28.89569,41.06097],[28.89573,41.060971],[28.896033,41.060988],[28.896249,41.060963],[28.896659,41.060899],[28.89699,41.060844],[28.897142,41.060841],[28.897278,41.060832],[28.897462,41.060827],[28.897831,41.060852],[28.898109,41.060869],[28.8986,41.0609],[28.898899,41.060912],[28.898899,41.060912],[28.898989,41.060917],[28.899197,41.060937],[28.89936,41.060947],[28.899661,41.060973],[28.899787,41.060952],[28.89981,41.060994],[28.899814,41.061002],[28.899849,41.061011],[28.899879,41.061011],[28.899952,41.061003],[28.900001,41.060985],[28.900041,41.060965],[28.90007,41.060947],[28.900408,41.060877],[28.900674,41.060848],[28.900764,41.060826],[28.900929,41.060757],[28.901081,41.060711],[28.901164,41.060693],[28.902014,41.060388],[28.902518,41.060194],[28.902908,41.059988],[28.903094,41.059889],[28.903169,41.059924]]]}},{"type":"Feature","properties":{"id":"TR-Y-34-009-M-0005","level":"yerlesim","type":"mahalle","parent_id":"TR-D-34-009","province_id":"TR-P-34","district_id":"TR-D-34-009","name":"Kocatepe","source_raw_name":"KOCATEPE","source":"Kullanıcı tarafından sağlanan KML","source_label":"Kullanıcı tarafından sağlanan KML","source_name":"Istanbul Mahalle KML"},"geometry":{"type":"Polygon","coordinates":[[[28.900086,41.049762],[28.900095,41.049695],[28.900111,41.049549],[28.900123,41.049465],[28.900149,41.049229],[28.900165,41.049017],[28.900168,41.048922],[28.900168,41.048685],[28.900169,41.048592],[28.900175,41.04839],[28.900171,41.04816],[28.900166,41.047967],[28.90015,41.047741],[28.900142,41.047584],[28.90012,41.047351],[28.900107,41.047139],[28.900098,41.047052],[28.900068,41.046639],[28.90005,41.046445],[28.900025,41.046159],[28.899986,41.045801],[28.899879,41.045167],[28.899843,41.04497],[28.899795,41.044731],[28.899762,41.044567],[28.899714,41.044393],[28.899656,41.044166],[28.899599,41.043959],[28.899576,41.043863],[28.899396,41.043272],[28.899308,41.043019],[28.899144,41.042554],[28.899061,41.042346],[28.899047,41.042351],[28.89725,41.043022],[28.896305,41.043365],[28.895883,41.043518],[28.89504,41.043799],[28.894367,41.044004],[28.893871,41.044141],[28.893324,41.044288],[28.89272,41.044424],[28.891958,41.04458],[28.89063,41.044803],[28.890131,41.044873],[28.889607,41.044941],[28.88898,41.04502],[28.887591,41.045173],[28.886746,41.045264],[28.886235,41.045321],[28.885809,41.045371],[28.884944,41.045485],[28.884738,41.045517],[28.884745,41.0456],[28.884772,41.045939],[28.884812,41.046422],[28.884833,41.046683],[28.88486,41.046994],[28.884876,41.047186],[28.884894,41.047347],[28.8849,41.047418],[28.884929,41.047686],[28.884967,41.048019],[28.884991,41.048222],[28.885026,41.048507],[28.885067,41.048789],[28.885103,41.049046],[28.885144,41.049304],[28.88521,41.04972],[28.885322,41.050289],[28.885402,41.050712],[28.885408,41.050751],[28.885422,41.050816],[28.88544,41.050906],[28.885447,41.05094],[28.885533,41.051406],[28.885684,41.052314],[28.885708,41.052526],[28.885735,41.052691],[28.885779,41.053026],[28.885812,41.053318],[28.885891,41.054101],[28.885908,41.054313],[28.88592,41.054465],[28.885932,41.054645],[28.88595,41.054933],[28.885966,41.055263],[28.885972,41.055405],[28.885982,41.05559],[28.885987,41.055844],[28.88599,41.056069],[28.885985,41.056232],[28.885986,41.056278],[28.885987,41.056304],[28.886434,41.056371],[28.886745,41.056423],[28.88717,41.056506],[28.887271,41.056524],[28.887624,41.056603],[28.887899,41.056667],[28.888141,41.056728],[28.888624,41.05686],[28.888875,41.056936],[28.889142,41.057019],[28.889976,41.057311],[28.890388,41.057453],[28.890606,41.057531],[28.891294,41.057747],[28.891213,41.057887],[28.891185,41.05794],[28.891124,41.058049],[28.891054,41.058172],[28.890799,41.058579],[28.890723,41.058698],[28.890656,41.058801],[28.890585,41.058913],[28.890549,41.058969],[28.890504,41.059067],[28.89038,41.059246],[28.890204,41.059487],[28.8902,41.059493],[28.890059,41.059799],[28.890277,41.059879],[28.890594,41.060024],[28.8909,41.06016],[28.891237,41.060314],[28.891649,41.060504],[28.891938,41.060629],[28.892063,41.06068],[28.892167,41.060708],[28.892295,41.060745],[28.892494,41.060755],[28.892597,41.060765],[28.892648,41.060769],[28.892725,41.060666],[28.892848,41.060504],[28.893002,41.060307],[28.893321,41.059922],[28.893522,41.059679],[28.893572,41.05962],[28.893746,41.059413],[28.893893,41.059244],[28.894028,41.059087],[28.894174,41.058915],[28.894269,41.058798],[28.894379,41.05865],[28.894593,41.058364],[28.894679,41.058246],[28.894931,41.057906],[28.895066,41.057726],[28.89542,41.05725],[28.895594,41.057012],[28.895707,41.056862],[28.895735,41.056826],[28.895942,41.056547],[28.896088,41.056351],[28.896203,41.056199],[28.896292,41.056076],[28.896484,41.055817],[28.896785,41.055409],[28.897107,41.054972],[28.897191,41.054845],[28.897265,41.054733],[28.897401,41.054562],[28.897604,41.054333],[28.897649,41.054284],[28.897774,41.054145],[28.897998,41.053901],[28.898292,41.053572],[28.898521,41.053323],[28.898744,41.053074],[28.898922,41.052865],[28.898949,41.052826],[28.899025,41.052737],[28.899102,41.052626],[28.899232,41.052427],[28.899406,41.052148],[28.899562,41.051854],[28.899622,41.051734],[28.899781,41.051386],[28.899835,41.051251],[28.899895,41.051071],[28.899951,41.050857],[28.899971,41.050737],[28.900044,41.050071],[28.900067,41.049915],[28.900071,41.049882],[28.900072,41.049875],[28.900086,41.049762]]]}},{"type":"Feature","properties":{"id":"TR-Y-34-009-M-0006","level":"yerlesim","type":"mahalle","parent_id":"TR-D-34-009","province_id":"TR-P-34","district_id":"TR-D-34-009","name":"Muratpaşa","source_raw_name":"MURATPAŞA","source":"Kullanıcı tarafından sağlanan KML","source_label":"Kullanıcı tarafından sağlanan KML","source_name":"Istanbul Mahalle KML"},"geometry":{"type":"Polygon","coordinates":[[[28.910991,41.051591],[28.911037,41.051503],[28.911096,41.051398],[28.911207,41.051219],[28.911331,41.051022],[28.911624,41.050614],[28.911485,41.050616],[28.911543,41.050445],[28.911659,41.050076],[28.911763,41.049691],[28.911778,41.049609],[28.911844,41.049041],[28.911789,41.048789],[28.911707,41.048455],[28.911684,41.048358],[28.911583,41.047964],[28.911555,41.047862],[28.911495,41.04766],[28.911462,41.047547],[28.911442,41.04748],[28.911317,41.046921],[28.911231,41.046537],[28.911212,41.046334],[28.911209,41.045994],[28.911207,41.045821],[28.911243,41.045492],[28.911281,41.04524],[28.911275,41.045081],[28.911311,41.04482],[28.911367,41.044814],[28.911369,41.044741],[28.911389,41.044556],[28.91141,41.044353],[28.911439,41.044105],[28.911461,41.043957],[28.911407,41.043966],[28.911264,41.044007],[28.910898,41.044115],[28.91037,41.044274],[28.910095,41.044357],[28.909807,41.044443],[28.909619,41.0445],[28.909353,41.044569],[28.908729,41.044731],[28.908307,41.044842],[28.908068,41.044895],[28.907917,41.044927],[28.907811,41.044946],[28.907772,41.044953],[28.907633,41.044975],[28.907432,41.045007],[28.907049,41.045069],[28.906911,41.045092],[28.906422,41.04519],[28.906313,41.045216],[28.906026,41.045286],[28.9054,41.04542],[28.905184,41.045478],[28.905105,41.045522],[28.905013,41.045556],[28.90486,41.045594],[28.90475,41.04562],[28.904379,41.045716],[28.903891,41.045825],[28.903658,41.045873],[28.903412,41.045932],[28.902926,41.046048],[28.902453,41.046156],[28.902382,41.046166],[28.902051,41.046224],[28.901757,41.046242],[28.901664,41.046217],[28.900025,41.046159],[28.90005,41.046445],[28.900068,41.046639],[28.900098,41.047052],[28.900107,41.047139],[28.90012,41.047351],[28.900142,41.047584],[28.90015,41.047741],[28.900166,41.047967],[28.900171,41.04816],[28.900175,41.04839],[28.900169,41.048592],[28.900168,41.048685],[28.900168,41.048922],[28.900165,41.049017],[28.900149,41.049229],[28.900123,41.049465],[28.900111,41.049549],[28.900095,41.049695],[28.900086,41.049762],[28.90013,41.04986],[28.900144,41.04989],[28.900251,41.049934],[28.900521,41.050017],[28.900713,41.050084],[28.901014,41.050172],[28.901181,41.050224],[28.901181,41.050224],[28.901293,41.050251],[28.901631,41.05036],[28.901827,41.050439],[28.901908,41.050496],[28.901967,41.050532],[28.902068,41.050638],[28.902176,41.050755],[28.902308,41.05089],[28.902325,41.050904],[28.902484,41.051042],[28.902703,41.051148],[28.903157,41.051413],[28.903468,41.051607],[28.903522,41.051652],[28.904553,41.052567],[28.904574,41.052602],[28.904722,41.052744],[28.904663,41.052903],[28.904754,41.052995],[28.904948,41.053163],[28.90501,41.053213],[28.90526,41.053422],[28.905457,41.053602],[28.905508,41.053644],[28.90554,41.053674],[28.905566,41.053695],[28.905756,41.053855],[28.90581,41.053908],[28.90585,41.053946],[28.905903,41.053988],[28.905995,41.054069],[28.906143,41.054195],[28.906337,41.054364],[28.906588,41.054597],[28.906663,41.054665],[28.906847,41.054711],[28.907211,41.054802],[28.907299,41.054824],[28.907321,41.054834],[28.907481,41.054902],[28.907574,41.054908],[28.90762,41.054919],[28.907651,41.054926],[28.90766,41.05493],[28.907747,41.054967],[28.907909,41.055046],[28.907909,41.055046],[28.908258,41.055283],[28.90883,41.055625],[28.908985,41.055718],[28.909042,41.055758],[28.909111,41.055703],[28.909246,41.055593],[28.909374,41.055486],[28.909526,41.055345],[28.909653,41.055202],[28.909743,41.055098],[28.909808,41.055014],[28.909852,41.054949],[28.90991,41.054854],[28.909954,41.054779],[28.909974,41.054744],[28.910066,41.054542],[28.910136,41.054384],[28.910218,41.054202],[28.910275,41.054075],[28.910339,41.053926],[28.910442,41.053739],[28.910479,41.053632],[28.910501,41.05359],[28.910616,41.053233],[28.910653,41.053065],[28.91067,41.052782],[28.910685,41.052684],[28.910705,41.05251],[28.910713,41.052441],[28.910744,41.052275],[28.910781,41.052111],[28.910801,41.052047],[28.910818,41.051984],[28.910874,41.051846],[28.910879,41.051834],[28.91091,41.051769],[28.910943,41.051689],[28.910991,41.051591]]]}},{"type":"Feature","properties":{"id":"TR-Y-34-009-M-0007","level":"yerlesim","type":"mahalle","parent_id":"TR-D-34-009","province_id":"TR-P-34","district_id":"TR-D-34-009","name":"Orta","source_raw_name":"ORTA","source":"Kullanıcı tarafından sağlanan KML","source_label":"Kullanıcı tarafından sağlanan KML","source_name":"Istanbul Mahalle KML"},"geometry":{"type":"Polygon","coordinates":[[[28.919053,41.035701],[28.919175,41.03551],[28.919344,41.03523],[28.919532,41.034861],[28.919632,41.03464],[28.919749,41.034354],[28.920045,41.033507],[28.920087,41.033381],[28.920178,41.03311],[28.920242,41.032931],[28.920398,41.032528],[28.920514,41.032272],[28.920614,41.032072],[28.92086,41.031656],[28.921152,41.031242],[28.921313,41.031042],[28.921472,41.030862],[28.921729,41.030593],[28.921949,41.030388],[28.922195,41.030166],[28.922582,41.029845],[28.923996,41.028696],[28.923198,41.026853],[28.922731,41.025826],[28.922349,41.02519],[28.921796,41.024342],[28.921363,41.024393],[28.920939,41.024428],[28.92056,41.024391],[28.920431,41.024461],[28.920194,41.025413],[28.920096,41.025608],[28.9199,41.025861],[28.919476,41.026188],[28.919104,41.02647],[28.919047,41.026516],[28.918888,41.026646],[28.918846,41.026683],[28.918795,41.026728],[28.918739,41.026779],[28.91871,41.026805],[28.918682,41.026828],[28.9186,41.026902],[28.918493,41.026997],[28.918457,41.027029],[28.918322,41.027164],[28.918254,41.027233],[28.918166,41.027322],[28.918108,41.027381],[28.91803,41.027459],[28.917907,41.027578],[28.917783,41.027697],[28.917698,41.02778],[28.917409,41.028049],[28.916812,41.028589],[28.916615,41.028768],[28.916556,41.028819],[28.916357,41.029001],[28.916292,41.029064],[28.916196,41.029157],[28.916124,41.029228],[28.916072,41.02928],[28.916013,41.029337],[28.915795,41.029587],[28.915405,41.03],[28.915229,41.030191],[28.915041,41.030575],[28.914866,41.030749],[28.914865,41.030751],[28.913995,41.031116],[28.914103,41.031274],[28.914068,41.031294],[28.914092,41.031317],[28.913804,41.031461],[28.913458,41.031656],[28.913198,41.031797],[28.913105,41.03185],[28.91292,41.031948],[28.91193,41.032467],[28.911912,41.032479],[28.911691,41.032211],[28.911362,41.031834],[28.911263,41.03177],[28.911043,41.031669],[28.910352,41.031512],[28.910209,41.031495],[28.909695,41.031451],[28.909426,41.031467],[28.909368,41.031504],[28.909281,41.031522],[28.909109,41.031561],[28.908958,41.031676],[28.908884,41.0317],[28.908863,41.031707],[28.90892,41.031807],[28.908961,41.031879],[28.909051,41.032154],[28.909081,41.032213],[28.909132,41.032466],[28.909312,41.032742],[28.909315,41.032746],[28.909593,41.033046],[28.909881,41.03336],[28.910008,41.033496],[28.910545,41.034073],[28.910376,41.034136],[28.910004,41.034275],[28.909858,41.034314],[28.909765,41.03434],[28.909691,41.03436],[28.909496,41.034414],[28.909477,41.03442],[28.90943,41.034436],[28.909237,41.034488],[28.909153,41.03451],[28.908956,41.034562],[28.908819,41.034561],[28.908794,41.034561],[28.908708,41.034563],[28.908673,41.034564],[28.908644,41.034562],[28.908594,41.034572],[28.908559,41.034583],[28.908488,41.034607],[28.908324,41.034675],[28.908191,41.034727],[28.908182,41.034736],[28.908066,41.034792],[28.907952,41.034847],[28.907838,41.034898],[28.907679,41.034968],[28.907657,41.034978],[28.907645,41.034983],[28.907494,41.035053],[28.90747,41.035073],[28.907409,41.035097],[28.907293,41.03513],[28.906812,41.035248],[28.906548,41.035311],[28.906305,41.035365],[28.905992,41.035443],[28.90568,41.035521],[28.905467,41.035574],[28.9053,41.035618],[28.905058,41.035683],[28.904947,41.035713],[28.904269,41.035934],[28.904217,41.035975],[28.904544,41.036364],[28.904549,41.036369],[28.904679,41.0365],[28.904714,41.036536],[28.904915,41.036746],[28.90521,41.037003],[28.905564,41.037261],[28.905857,41.037477],[28.905965,41.037549],[28.906368,41.037833],[28.906579,41.037979],[28.906822,41.038153],[28.906824,41.038154],[28.907085,41.038322],[28.90732,41.038499],[28.907515,41.038679],[28.907591,41.038767],[28.907701,41.038705],[28.90796,41.038393],[28.908282,41.038],[28.908373,41.037904],[28.908465,41.03781],[28.908721,41.037594],[28.908774,41.037523],[28.909024,41.037306],[28.909274,41.037077],[28.90938,41.036983],[28.90957,41.036787],[28.909705,41.036652],[28.909708,41.036649],[28.90972,41.036632],[28.909872,41.036421],[28.910099,41.036113],[28.910221,41.035944],[28.910297,41.035835],[28.910463,41.035652],[28.910882,41.035716],[28.911422,41.035789],[28.911637,41.035821],[28.911752,41.035824],[28.911812,41.035806],[28.911932,41.035718],[28.911915,41.035568],[28.911882,41.035207],[28.911901,41.03474],[28.911933,41.03455],[28.912835,41.034679],[28.91297,41.034717],[28.913709,41.034819],[28.913928,41.03483],[28.914253,41.03486],[28.914555,41.034892],[28.914883,41.034992],[28.91529,41.035104],[28.915337,41.035259],[28.915348,41.035326],[28.915418,41.035364],[28.915546,41.035417],[28.915891,41.035497],[28.916358,41.035579],[28.916718,41.035663],[28.91707,41.035383],[28.917205,41.03523],[28.919053,41.035701]]]}},{"type":"Feature","properties":{"id":"TR-Y-34-009-M-0008","level":"yerlesim","type":"mahalle","parent_id":"TR-D-34-009","province_id":"TR-P-34","district_id":"TR-D-34-009","name":"Terazidere","source_raw_name":"TERAZİDERE","source":"Kullanıcı tarafından sağlanan KML","source_label":"Kullanıcı tarafından sağlanan KML","source_name":"Istanbul Mahalle KML"},"geometry":{"type":"Polygon","coordinates":[[[28.904544,41.036364],[28.904217,41.035975],[28.904099,41.035847],[28.904096,41.035844],[28.90391,41.03562],[28.903823,41.035499],[28.903779,41.035422],[28.903579,41.035083],[28.903427,41.034802],[28.903341,41.034599],[28.903241,41.0344],[28.903423,41.034357],[28.903554,41.034317],[28.903721,41.034188],[28.903803,41.034108],[28.903968,41.033898],[28.904055,41.033791],[28.90419,41.033612],[28.904205,41.033591],[28.904281,41.033481],[28.904298,41.033461],[28.904434,41.033304],[28.90452,41.033172],[28.904563,41.033108],[28.904797,41.03276],[28.904829,41.032713],[28.904919,41.032556],[28.905068,41.032309],[28.905122,41.032171],[28.905123,41.03217],[28.905255,41.031947],[28.905186,41.031629],[28.905141,41.031451],[28.905009,41.030914],[28.904925,41.03054],[28.904835,41.030062],[28.905332,41.029772],[28.90554,41.029677],[28.904962,41.029527],[28.904548,41.029471],[28.90288,41.029246],[28.902737,41.029215],[28.902367,41.029097],[28.901627,41.028595],[28.90149,41.028494],[28.901088,41.02821],[28.901065,41.028193],[28.90108,41.028027],[28.901076,41.027842],[28.901068,41.027766],[28.90104,41.027695],[28.900506,41.027728],[28.899729,41.027717],[28.899605,41.027716],[28.8992,41.027711],[28.899141,41.027707],[28.899113,41.027705],[28.899111,41.027724],[28.899088,41.028217],[28.899028,41.028555],[28.899008,41.028644],[28.898988,41.028727],[28.898948,41.028877],[28.898895,41.029045],[28.898821,41.02927],[28.898746,41.029474],[28.89868,41.029637],[28.898625,41.029751],[28.898572,41.029858],[28.898514,41.029968],[28.898399,41.030169],[28.898346,41.030258],[28.898291,41.030341],[28.898096,41.030605],[28.897967,41.030762],[28.897889,41.030853],[28.897616,41.031088],[28.897571,41.031131],[28.897511,41.031218],[28.89748,41.031282],[28.897462,41.03133],[28.897388,41.031504],[28.897304,41.031703],[28.897155,41.032053],[28.8971,41.032188],[28.897056,41.032315],[28.896997,41.0325],[28.896936,41.032689],[28.896842,41.032947],[28.896828,41.032981],[28.896766,41.033107],[28.896681,41.033273],[28.896558,41.033509],[28.896453,41.033713],[28.896417,41.033777],[28.89636,41.033887],[28.896275,41.034],[28.896166,41.034153],[28.896149,41.034176],[28.896093,41.034254],[28.89521,41.035241],[28.895329,41.035259],[28.896048,41.035362],[28.896577,41.035345],[28.89709,41.035327],[28.897149,41.035337],[28.897629,41.035307],[28.89774,41.035302],[28.898426,41.035268],[28.898624,41.035256],[28.898718,41.035252],[28.898866,41.035245],[28.898952,41.035277],[28.899308,41.035357],[28.899677,41.035442],[28.899767,41.035461],[28.899917,41.035494],[28.900184,41.035559],[28.900368,41.035598],[28.900643,41.035649],[28.901066,41.035739],[28.901262,41.035781],[28.901506,41.035833],[28.901556,41.035844],[28.9016,41.03586],[28.901793,41.035968],[28.901901,41.036033],[28.902221,41.036213],[28.902554,41.036401],[28.902559,41.036406],[28.902617,41.036456],[28.90281,41.036634],[28.902943,41.036747],[28.903199,41.037026],[28.903446,41.036873],[28.903475,41.036901],[28.903486,41.036895],[28.903964,41.036658],[28.903991,41.036644],[28.904544,41.036364]]]}},{"type":"Feature","properties":{"id":"TR-Y-34-009-M-0009","level":"yerlesim","type":"mahalle","parent_id":"TR-D-34-009","province_id":"TR-P-34","district_id":"TR-D-34-009","name":"Vatan","source_raw_name":"VATAN","source":"Kullanıcı tarafından sağlanan KML","source_label":"Kullanıcı tarafından sağlanan KML","source_name":"Istanbul Mahalle KML"},"geometry":{"type":"Polygon","coordinates":[[[28.908594,41.034572],[28.908644,41.034562],[28.908673,41.034564],[28.908708,41.034563],[28.908794,41.034561],[28.908819,41.034561],[28.908956,41.034562],[28.909153,41.03451],[28.909237,41.034488],[28.90943,41.034436],[28.909477,41.03442],[28.909496,41.034414],[28.909691,41.03436],[28.909765,41.03434],[28.909858,41.034314],[28.910004,41.034275],[28.910376,41.034136],[28.910545,41.034073],[28.910008,41.033496],[28.909881,41.03336],[28.909593,41.033046],[28.909315,41.032746],[28.909312,41.032742],[28.909132,41.032466],[28.909081,41.032213],[28.909051,41.032154],[28.908961,41.031879],[28.90892,41.031807],[28.908863,41.031707],[28.908835,41.031612],[28.908815,41.031544],[28.908579,41.031025],[28.908397,41.030634],[28.908189,41.03057],[28.907169,41.030268],[28.906932,41.030201],[28.906924,41.030198],[28.906588,41.030078],[28.906585,41.030077],[28.906177,41.029915],[28.905783,41.029768],[28.90554,41.029677],[28.905332,41.029772],[28.904835,41.030062],[28.904925,41.03054],[28.905009,41.030914],[28.905141,41.031451],[28.905186,41.031629],[28.905255,41.031947],[28.905123,41.03217],[28.905122,41.032171],[28.905068,41.032309],[28.904919,41.032556],[28.904829,41.032713],[28.904797,41.03276],[28.904563,41.033108],[28.90452,41.033172],[28.904434,41.033304],[28.904298,41.033461],[28.904281,41.033481],[28.904205,41.033591],[28.90419,41.033612],[28.904055,41.033791],[28.903968,41.033898],[28.903803,41.034108],[28.903721,41.034188],[28.903554,41.034317],[28.903423,41.034357],[28.903241,41.0344],[28.903341,41.034599],[28.903427,41.034802],[28.903579,41.035083],[28.903779,41.035422],[28.903823,41.035499],[28.90391,41.03562],[28.904096,41.035844],[28.904099,41.035847],[28.904217,41.035975],[28.904269,41.035934],[28.904947,41.035713],[28.905058,41.035683],[28.9053,41.035618],[28.905467,41.035574],[28.90568,41.035521],[28.905992,41.035443],[28.906305,41.035365],[28.906548,41.035311],[28.906812,41.035248],[28.907293,41.03513],[28.907409,41.035097],[28.90747,41.035073],[28.907494,41.035053],[28.907645,41.034983],[28.907657,41.034978],[28.907679,41.034968],[28.907838,41.034898],[28.907952,41.034847],[28.908066,41.034792],[28.908182,41.034736],[28.908191,41.034727],[28.908324,41.034675],[28.908488,41.034607],[28.908559,41.034583],[28.908594,41.034572]]]}},{"type":"Feature","properties":{"id":"TR-Y-34-009-M-0010","level":"yerlesim","type":"mahalle","parent_id":"TR-D-34-009","province_id":"TR-P-34","district_id":"TR-D-34-009","name":"Yenidoğan","source_raw_name":"YENİDOĞAN","source":"Kullanıcı tarafından sağlanan KML","source_label":"Kullanıcı tarafından sağlanan KML","source_name":"Istanbul Mahalle KML"},"geometry":{"type":"Polygon","coordinates":[[[28.911624,41.050614],[28.912008,41.05006],[28.912555,41.04927],[28.912637,41.049176],[28.912744,41.049084],[28.912843,41.049006],[28.912964,41.048911],[28.913065,41.048842],[28.913192,41.048765],[28.913279,41.048714],[28.913373,41.048661],[28.913454,41.048615],[28.913528,41.048572],[28.913734,41.048448],[28.913849,41.048375],[28.914012,41.048271],[28.91419,41.048155],[28.914308,41.048083],[28.914434,41.047994],[28.914542,41.04791],[28.914628,41.047832],[28.914672,41.047791],[28.914713,41.047748],[28.914793,41.047658],[28.915201,41.047113],[28.915881,41.046106],[28.91607,41.045851],[28.916167,41.045703],[28.916377,41.045393],[28.916391,41.045373],[28.916402,41.045303],[28.916444,41.045226],[28.91648,41.045156],[28.916524,41.045071],[28.916579,41.044965],[28.916669,41.044802],[28.91682,41.044526],[28.916964,41.044266],[28.917046,41.044114],[28.9171,41.044016],[28.917167,41.043893],[28.917243,41.043771],[28.917276,41.04372],[28.917319,41.043657],[28.917455,41.043484],[28.917919,41.04297],[28.918186,41.042689],[28.918369,41.042504],[28.918159,41.042445],[28.917796,41.04251],[28.916429,41.042853],[28.916339,41.042871],[28.916282,41.042884],[28.915805,41.042994],[28.915643,41.043031],[28.91585,41.042069],[28.915997,41.041467],[28.916161,41.040768],[28.916366,41.039791],[28.916417,41.039616],[28.916523,41.039265],[28.917391,41.038884],[28.917705,41.038643],[28.917899,41.038337],[28.917703,41.03817],[28.917864,41.037761],[28.918052,41.037469],[28.918108,41.037381],[28.91843,41.037103],[28.919183,41.036151],[28.919328,41.03582],[28.919053,41.035701],[28.917205,41.03523],[28.91707,41.035383],[28.916718,41.035663],[28.916358,41.035579],[28.915891,41.035497],[28.915546,41.035417],[28.915418,41.035364],[28.915348,41.035326],[28.915337,41.035259],[28.91529,41.035104],[28.914883,41.034992],[28.914555,41.034892],[28.914253,41.03486],[28.913928,41.03483],[28.913709,41.034819],[28.91297,41.034717],[28.912835,41.034679],[28.911933,41.03455],[28.911901,41.03474],[28.911882,41.035207],[28.911915,41.035568],[28.911932,41.035718],[28.911812,41.035806],[28.911752,41.035824],[28.911637,41.035821],[28.911422,41.035789],[28.910882,41.035716],[28.910463,41.035652],[28.910297,41.035835],[28.910221,41.035944],[28.910099,41.036113],[28.909872,41.036421],[28.90972,41.036632],[28.909708,41.036649],[28.909705,41.036652],[28.90957,41.036787],[28.90938,41.036983],[28.909274,41.037077],[28.909024,41.037306],[28.908774,41.037523],[28.908721,41.037594],[28.908465,41.03781],[28.908373,41.037904],[28.908282,41.038],[28.90796,41.038393],[28.907701,41.038705],[28.907591,41.038767],[28.907582,41.038886],[28.907465,41.039009],[28.907312,41.039139],[28.907114,41.039294],[28.906991,41.039369],[28.90669,41.039569],[28.906426,41.039732],[28.905942,41.039986],[28.905792,41.04007],[28.905681,41.040105],[28.905202,41.040294],[28.904954,41.040386],[28.904677,41.040465],[28.904522,41.040514],[28.904415,41.040546],[28.904115,41.040635],[28.903834,41.040722],[28.903572,41.040803],[28.903265,41.040879],[28.902997,41.040935],[28.903088,41.041061],[28.903135,41.041122],[28.903154,41.041147],[28.903431,41.041091],[28.903818,41.041019],[28.904341,41.040934],[28.904693,41.040881],[28.905071,41.040827],[28.906313,41.040684],[28.906981,41.040619],[28.907584,41.040565],[28.909409,41.040379],[28.910255,41.040277],[28.910861,41.040189],[28.911162,41.04014],[28.911462,41.040091],[28.912283,41.039923],[28.912481,41.039879],[28.912477,41.039997],[28.912459,41.040185],[28.912448,41.04026],[28.912439,41.040332],[28.912423,41.04042],[28.912346,41.040631],[28.912254,41.040857],[28.912127,41.041166],[28.911897,41.041682],[28.91181,41.041876],[28.911749,41.042074],[28.911729,41.042147],[28.911719,41.042223],[28.911654,41.042641],[28.911582,41.043106],[28.911558,41.043267],[28.911504,41.043622],[28.911468,41.043858],[28.911461,41.043957],[28.911439,41.044105],[28.91141,41.044353],[28.911389,41.044556],[28.911369,41.044741],[28.911367,41.044814],[28.911311,41.04482],[28.911275,41.045081],[28.911281,41.04524],[28.911243,41.045492],[28.911207,41.045821],[28.911209,41.045994],[28.911212,41.046334],[28.911231,41.046537],[28.911317,41.046921],[28.911442,41.04748],[28.911462,41.047547],[28.911495,41.04766],[28.911555,41.047862],[28.911583,41.047964],[28.911684,41.048358],[28.911707,41.048455],[28.911789,41.048789],[28.911844,41.049041],[28.911778,41.049609],[28.911763,41.049691],[28.911659,41.050076],[28.911543,41.050445],[28.911485,41.050616],[28.911624,41.050614]]]}},{"type":"Feature","properties":{"id":"TR-Y-34-009-M-0011","level":"yerlesim","type":"mahalle","parent_id":"TR-D-34-009","province_id":"TR-P-34","district_id":"TR-D-34-009","name":"Yıldırım","source_raw_name":"YILDIRIM","source":"Kullanıcı tarafından sağlanan KML","source_label":"Kullanıcı tarafından sağlanan KML","source_name":"Istanbul Mahalle KML"},"geometry":{"type":"Polygon","coordinates":[[[28.89327,41.070008],[28.893425,41.069943],[28.893571,41.069874],[28.893693,41.069812],[28.893876,41.069708],[28.894263,41.069453],[28.894653,41.06918],[28.894884,41.069013],[28.895079,41.068871],[28.89548,41.06858],[28.895532,41.068541],[28.89585,41.068302],[28.89621,41.068021],[28.896471,41.067821],[28.896631,41.067688],[28.896995,41.067407],[28.897259,41.067212],[28.897432,41.067084],[28.897589,41.066973],[28.897905,41.066754],[28.898388,41.066435],[28.899884,41.065409],[28.900242,41.06516],[28.900377,41.065057],[28.900458,41.06496],[28.900534,41.064837],[28.900582,41.064746],[28.900685,41.064559],[28.901841,41.062324],[28.901965,41.062078],[28.902053,41.061898],[28.902157,41.061681],[28.902261,41.061465],[28.902311,41.061359],[28.90235,41.061275],[28.902387,41.061196],[28.902432,41.061101],[28.902498,41.060959],[28.90254,41.06087],[28.902555,41.060838],[28.902569,41.060809],[28.902575,41.060796],[28.902593,41.060758],[28.902616,41.060707],[28.902708,41.060515],[28.902747,41.060446],[28.902779,41.060391],[28.902825,41.060319],[28.902881,41.060243],[28.902909,41.060205],[28.90296,41.060141],[28.903049,41.060042],[28.903118,41.05997],[28.903169,41.059924],[28.903094,41.059889],[28.902908,41.059988],[28.902518,41.060194],[28.902014,41.060388],[28.901164,41.060693],[28.901081,41.060711],[28.900929,41.060757],[28.900764,41.060826],[28.900674,41.060848],[28.900408,41.060877],[28.90007,41.060947],[28.900041,41.060965],[28.900001,41.060985],[28.899952,41.061003],[28.899879,41.061011],[28.899849,41.061011],[28.899814,41.061002],[28.89981,41.060994],[28.899787,41.060952],[28.899661,41.060973],[28.89936,41.060947],[28.899197,41.060937],[28.898989,41.060917],[28.898899,41.060912],[28.898899,41.060912],[28.8986,41.0609],[28.898109,41.060869],[28.897831,41.060852],[28.897462,41.060827],[28.897278,41.060832],[28.897142,41.060841],[28.89699,41.060844],[28.896659,41.060899],[28.896249,41.060963],[28.896033,41.060988],[28.89573,41.060971],[28.89569,41.06097],[28.89555,41.060965],[28.895482,41.060949],[28.895415,41.060932],[28.895225,41.060908],[28.895037,41.060857],[28.894799,41.060831],[28.894664,41.060812],[28.894048,41.060808],[28.893727,41.060795],[28.893553,41.060793],[28.893531,41.060793],[28.89312,41.060793],[28.892843,41.060786],[28.892701,41.060774],[28.892648,41.060769],[28.892597,41.060765],[28.892494,41.060755],[28.892295,41.060745],[28.892167,41.060708],[28.892063,41.06068],[28.891938,41.060629],[28.891649,41.060504],[28.891237,41.060314],[28.8909,41.06016],[28.890594,41.060024],[28.890277,41.059879],[28.890059,41.059799],[28.8902,41.059493],[28.890204,41.059487],[28.89038,41.059246],[28.890504,41.059067],[28.890549,41.058969],[28.890585,41.058913],[28.890656,41.058801],[28.890723,41.058698],[28.890799,41.058579],[28.891054,41.058172],[28.891124,41.058049],[28.891185,41.05794],[28.891213,41.057887],[28.891294,41.057747],[28.890606,41.057531],[28.890388,41.057453],[28.889976,41.057311],[28.889142,41.057019],[28.888875,41.056936],[28.888624,41.05686],[28.888141,41.056728],[28.887899,41.056667],[28.887624,41.056603],[28.887271,41.056524],[28.88717,41.056506],[28.886745,41.056423],[28.886434,41.056371],[28.885987,41.056304],[28.885985,41.056386],[28.885989,41.05691],[28.885973,41.057463],[28.88595,41.057865],[28.885937,41.058031],[28.885875,41.058622],[28.885859,41.05871],[28.885788,41.059246],[28.885654,41.059833],[28.885573,41.060137],[28.885403,41.060668],[28.885308,41.06093],[28.885217,41.061163],[28.885174,41.061272],[28.885008,41.061651],[28.884916,41.061842],[28.884827,41.062025],[28.88458,41.062485],[28.884468,41.062674],[28.884367,41.062839],[28.884082,41.063274],[28.883632,41.063919],[28.883427,41.064193],[28.883337,41.064317],[28.883303,41.064363],[28.88108,41.067378],[28.881212,41.067352],[28.881565,41.067298],[28.881946,41.067264],[28.882245,41.067254],[28.882513,41.067252],[28.882774,41.067263],[28.883,41.067279],[28.883423,41.067327],[28.883558,41.067353],[28.883671,41.067372],[28.883785,41.067392],[28.883951,41.067428],[28.884304,41.067522],[28.8847,41.067648],[28.884826,41.067696],[28.885089,41.067806],[28.885367,41.067934],[28.885952,41.068272],[28.886017,41.068321],[28.886392,41.068592],[28.886577,41.068729],[28.886765,41.068869],[28.88682,41.06891],[28.886989,41.069037],[28.887294,41.069265],[28.887803,41.069646],[28.888243,41.069974],[28.88835,41.070061],[28.888395,41.070094],[28.888435,41.070124],[28.888558,41.070214],[28.888802,41.070399],[28.888998,41.070545],[28.88923,41.070717],[28.889517,41.070935],[28.889885,41.07121],[28.889961,41.071275],[28.890036,41.071348],[28.890075,41.071389],[28.890101,41.071378],[28.890179,41.071349],[28.890304,41.071297],[28.890731,41.07112],[28.891136,41.070951],[28.891507,41.070792],[28.891692,41.070712],[28.892363,41.070399],[28.892816,41.070201],[28.892987,41.070129],[28.89327,41.070008]]]}}]}