{"type":"FeatureCollection","name":"turkiye_map.dist.mahalle_geometrileri_by_district.TR-D-20-009","features":[{"type":"Feature","properties":{"id":"TR-Y-20-009-M-0001","level":"yerlesim","type":"mahalle","parent_id":"TR-D-20-009","province_id":"TR-P-20","district_id":"TR-D-20-009","name":"Akpınar","source_raw_name":"AKPINAR","source":"Kamuya açık veri ve kent rehberi servisleri","source_label":"Kamuya açık veri ve kent rehberi servisleri","source_name":"Denizli Adres Bilgi Sistemi - Mahalle Sınırları"},"geometry":{"type":"Polygon","coordinates":[[[29.167538,37.056745],[29.174433,37.051858],[29.177912,37.051978],[29.179442,37.050701],[29.182098,37.047124],[29.18088,37.045678],[29.180853,37.045533],[29.180349,37.042887],[29.180299,37.042787],[29.1794,37.041024],[29.179361,37.040947],[29.178717,37.0404],[29.177688,37.039524],[29.177648,37.039423],[29.176499,37.036454],[29.176414,37.030126],[29.175841,37.026652],[29.176268,37.024818],[29.17849,37.021731],[29.180106,37.018231],[29.180707,37.014439],[29.180323,37.012273],[29.17953,37.010226],[29.179948,37.009208],[29.179706,37.008147],[29.179705,37.008145],[29.177747,37.003631],[29.174446,36.998862],[29.172549,36.99666],[29.168409,36.99334],[29.161394,36.989768],[29.159816,36.989266],[29.158448,36.989285],[29.158444,36.989287],[29.155999,36.988621],[29.153713,36.986929],[29.153184,36.985914],[29.153212,36.983401],[29.15415,36.979913],[29.154152,36.97991],[29.149384,36.978205],[29.145231,36.976006],[29.143852,36.974813],[29.141787,36.973012],[29.140282,36.971698],[29.119863,36.964459],[29.110506,36.967222],[29.10359,36.970293],[29.103256,36.969197],[29.098419,36.97517],[29.099503,36.978365],[29.099918,36.979585],[29.100184,36.980369],[29.102152,36.986165],[29.100092,36.989683],[29.098816,36.991862],[29.092953,37.004197],[29.09272,37.004689],[29.098891,37.010696],[29.110431,37.015313],[29.120665,37.015257],[29.12068,37.015257],[29.125602,37.015229],[29.125603,37.015229],[29.125892,37.017719],[29.125923,37.018403],[29.126096,37.02213],[29.126974,37.025484],[29.128607,37.029578],[29.132764,37.035692],[29.137671,37.043076],[29.143207,37.048995],[29.145959,37.051205],[29.146387,37.051549],[29.14946,37.053468],[29.150687,37.054234],[29.157581,37.057181],[29.158433,37.057665],[29.162896,37.060199],[29.165419,37.060115],[29.167127,37.058959],[29.167538,37.056745]]]}},{"type":"Feature","properties":{"id":"TR-Y-20-009-M-0002","level":"yerlesim","type":"mahalle","parent_id":"TR-D-20-009","province_id":"TR-P-20","district_id":"TR-D-20-009","name":"Arıkaya","source_raw_name":"ARIKAYA","source":"Kamuya açık veri ve kent rehberi servisleri","source_label":"Kamuya açık veri ve kent rehberi servisleri","source_name":"Denizli Adres Bilgi Sistemi - Mahalle Sınırları"},"geometry":{"type":"Polygon","coordinates":[[[29.372863,36.981523],[29.377904,36.978454],[29.379917,36.974491],[29.383163,36.97113],[29.38369,36.96716],[29.37753,36.963551],[29.376963,36.958772],[29.368094,36.954864],[29.357199,36.946515],[29.351063,36.93934],[29.3502,36.92875],[29.348328,36.935495],[29.34162,36.942723],[29.338762,36.946112],[29.337287,36.948616],[29.336653,36.95352],[29.335947,36.955389],[29.334018,36.957677],[29.333582,36.959079],[29.333996,36.960274],[29.334943,36.96113],[29.334105,36.962439],[29.332452,36.962862],[29.331536,36.963721],[29.329949,36.964333],[29.328734,36.964704],[29.326746,36.965044],[29.324888,36.965763],[29.324135,36.967244],[29.323654,36.968294],[29.323683,36.968834],[29.324452,36.969379],[29.323944,36.969977],[29.323935,36.970952],[29.325549,36.971798],[29.327562,36.973296],[29.328657,36.973906],[29.331543,36.974945],[29.334266,36.974867],[29.337103,36.974837],[29.338891,36.97573],[29.341092,36.975649],[29.34347,36.975198],[29.346484,36.974843],[29.349902,36.975954],[29.351604,36.976616],[29.353879,36.976824],[29.355658,36.977943],[29.35728,36.978539],[29.361093,36.979604],[29.364425,36.979818],[29.36581,36.979564],[29.368489,36.980035],[29.371328,36.980899],[29.372863,36.981523]]]}},{"type":"Feature","properties":{"id":"TR-Y-20-009-M-0003","level":"yerlesim","type":"mahalle","parent_id":"TR-D-20-009","province_id":"TR-P-20","district_id":"TR-D-20-009","name":"Ayvacık","source_raw_name":"AYVACIK","source":"Kamuya açık veri ve kent rehberi servisleri","source_label":"Kamuya açık veri ve kent rehberi servisleri","source_name":"Denizli Adres Bilgi Sistemi - Mahalle Sınırları"},"geometry":{"type":"Polygon","coordinates":[[[29.433533,37.087109],[29.439791,37.086195],[29.441558,37.08624],[29.442413,37.080764],[29.442222,37.0759],[29.441168,37.071395],[29.441073,37.065842],[29.437981,37.061363],[29.433356,37.056006],[29.433376,37.054825],[29.428643,37.048046],[29.418732,37.047601],[29.406322,37.049724],[29.406193,37.050227],[29.405044,37.054685],[29.405712,37.064423],[29.404001,37.064415],[29.403236,37.064793],[29.403121,37.065026],[29.403154,37.065374],[29.40413,37.067644],[29.404462,37.068604],[29.404607,37.069072],[29.404602,37.070094],[29.404601,37.070097],[29.403643,37.072301],[29.402722,37.073018],[29.402293,37.073637],[29.402179,37.074002],[29.40228,37.075086],[29.404908,37.074991],[29.410335,37.075962],[29.418484,37.076511],[29.425146,37.076035],[29.429127,37.076672],[29.433375,37.077854],[29.434263,37.080362],[29.434238,37.083701],[29.433533,37.087109]]]}},{"type":"Feature","properties":{"id":"TR-Y-20-009-M-0004","level":"yerlesim","type":"mahalle","parent_id":"TR-D-20-009","province_id":"TR-P-20","district_id":"TR-D-20-009","name":"Belevi","source_raw_name":"BELEVİ","source":"Kamuya açık veri ve kent rehberi servisleri","source_label":"Kamuya açık veri ve kent rehberi servisleri","source_name":"Denizli Adres Bilgi Sistemi - Mahalle Sınırları"},"geometry":{"type":"Polygon","coordinates":[[[29.379271,37.108909],[29.378802,37.103918],[29.387734,37.104009],[29.38774,37.104002],[29.390992,37.100258],[29.394641,37.096009],[29.401283,37.09015],[29.40626,37.086313],[29.407607,37.084389],[29.407659,37.082336],[29.407219,37.080628],[29.40511,37.078113],[29.40228,37.075086],[29.402179,37.074002],[29.402178,37.07399],[29.402284,37.073651],[29.402293,37.073637],[29.402714,37.073039],[29.403639,37.07231],[29.403643,37.072301],[29.404359,37.07072],[29.404601,37.070097],[29.404602,37.070094],[29.404607,37.069072],[29.404462,37.068604],[29.40413,37.067644],[29.403154,37.065374],[29.403121,37.065026],[29.403236,37.064793],[29.404001,37.064415],[29.389846,37.064343],[29.384413,37.061732],[29.385656,37.064041],[29.385547,37.06629],[29.385076,37.068538],[29.383974,37.070419],[29.382104,37.072079],[29.379285,37.07337],[29.377103,37.074448],[29.375012,37.075307],[29.373877,37.075664],[29.370647,37.075562],[29.367013,37.075599],[29.365802,37.078447],[29.364934,37.081008],[29.365261,37.08133],[29.365401,37.081682],[29.365104,37.08213],[29.364901,37.082327],[29.364428,37.082785],[29.363696,37.083124],[29.362666,37.084289],[29.358693,37.087996],[29.356967,37.090004],[29.355955,37.092496],[29.355317,37.094066],[29.353264,37.100941],[29.352477,37.104171],[29.352986,37.105696],[29.357178,37.10998],[29.361505,37.115179],[29.363608,37.119376],[29.36444,37.122272],[29.363763,37.1241],[29.363186,37.126599],[29.363433,37.127765],[29.365132,37.129283],[29.375251,37.134953],[29.376996,37.132299],[29.377737,37.129864],[29.379083,37.126951],[29.380779,37.125356],[29.382305,37.123381],[29.384361,37.12014],[29.385743,37.114],[29.37928,37.108997],[29.379271,37.108909]]]}},{"type":"Feature","properties":{"id":"TR-Y-20-009-M-0005","level":"yerlesim","type":"mahalle","parent_id":"TR-D-20-009","province_id":"TR-P-20","district_id":"TR-D-20-009","name":"Bıçakçı","source_raw_name":"BIÇAKÇI","source":"Kamuya açık veri ve kent rehberi servisleri","source_label":"Kamuya açık veri ve kent rehberi servisleri","source_name":"Denizli Adres Bilgi Sistemi - Mahalle Sınırları"},"geometry":{"type":"Polygon","coordinates":[[[29.349405,37.040655],[29.349708,37.040551],[29.349714,37.040551],[29.350105,37.04059],[29.350304,37.040611],[29.350538,37.040635],[29.35054,37.040635],[29.351101,37.040952],[29.352858,37.0401],[29.354344,37.038582],[29.356965,37.03717],[29.358604,37.035727],[29.359288,37.034851],[29.353179,37.032361],[29.345791,37.026956],[29.345313,37.024967],[29.344382,37.025822],[29.341334,37.024871],[29.337887,37.023802],[29.335243,37.022533],[29.333003,37.020741],[29.331012,37.019621],[29.329887,37.019381],[29.327197,37.019104],[29.325301,37.019618],[29.316439,37.030388],[29.312703,37.037191],[29.311932,37.037974],[29.311404,37.039177],[29.31253,37.039766],[29.322872,37.045171],[29.326692,37.047167],[29.326932,37.047293],[29.328049,37.047877],[29.328256,37.047962],[29.328563,37.048089],[29.33435,37.05048],[29.334562,37.050536],[29.337048,37.051196],[29.338761,37.050774],[29.3393,37.050641],[29.341011,37.050051],[29.342189,37.049195],[29.342042,37.048382],[29.343214,37.047749],[29.345306,37.047018],[29.345534,37.04533],[29.345889,37.04505],[29.34595,37.045003],[29.346267,37.044839],[29.346436,37.044751],[29.346777,37.044557],[29.346936,37.044467],[29.347228,37.044293],[29.347619,37.044062],[29.347645,37.04404],[29.347988,37.043742],[29.347994,37.043737],[29.348044,37.043415],[29.34807,37.043246],[29.348093,37.043151],[29.348169,37.04285],[29.34818,37.042837],[29.348415,37.042563],[29.348456,37.042509],[29.348664,37.042238],[29.348667,37.042229],[29.348795,37.041855],[29.348815,37.04182],[29.349014,37.041455],[29.349145,37.040839],[29.349402,37.040656],[29.349405,37.040655]]]}},{"type":"Feature","properties":{"id":"TR-Y-20-009-M-0006","level":"yerlesim","type":"mahalle","parent_id":"TR-D-20-009","province_id":"TR-P-20","district_id":"TR-D-20-009","name":"Çamlıbel","source_raw_name":"ÇAMLIBEL","source":"Kamuya açık veri ve kent rehberi servisleri","source_label":"Kamuya açık veri ve kent rehberi servisleri","source_name":"Denizli Adres Bilgi Sistemi - Mahalle Sınırları"},"geometry":{"type":"Polygon","coordinates":[[[29.361705,37.165425],[29.346326,37.165752],[29.341364,37.165073],[29.335324,37.164298],[29.335139,37.167657],[29.336584,37.174344],[29.338049,37.178708],[29.340443,37.183657],[29.342859,37.185994],[29.347292,37.189047],[29.353796,37.192443],[29.361089,37.194598],[29.371077,37.196933],[29.370959,37.196117],[29.368235,37.193875],[29.362826,37.187218],[29.365768,37.186664],[29.36633,37.186015],[29.368564,37.185205],[29.370714,37.184291],[29.372007,37.183338],[29.37219,37.1819],[29.37169,37.180217],[29.370588,37.178738],[29.368317,37.178828],[29.365632,37.177237],[29.364402,37.175757],[29.363397,37.173009],[29.362789,37.168893],[29.361705,37.165425]]]}},{"type":"Feature","properties":{"id":"TR-Y-20-009-M-0007","level":"yerlesim","type":"mahalle","parent_id":"TR-D-20-009","province_id":"TR-P-20","district_id":"TR-D-20-009","name":"Cevizli","source_raw_name":"CEVİZLİ","source":"Kamuya açık veri ve kent rehberi servisleri","source_label":"Kamuya açık veri ve kent rehberi servisleri","source_name":"Denizli Adres Bilgi Sistemi - Mahalle Sınırları"},"geometry":{"type":"Polygon","coordinates":[[[29.292248,37.042469],[29.292585,37.042309],[29.294058,37.043876],[29.294104,37.043856],[29.297898,37.042198],[29.301488,37.040886],[29.304818,37.040605],[29.307954,37.039739],[29.31049,37.039038],[29.311404,37.039177],[29.311932,37.037974],[29.312703,37.037191],[29.316439,37.030388],[29.325301,37.019618],[29.324233,37.017045],[29.32084,37.014079],[29.319724,37.01279],[29.318876,37.009985],[29.317513,37.007877],[29.313621,37.0038],[29.311818,37.002097],[29.309611,37.00083],[29.308423,36.99954],[29.308138,36.998897],[29.304274,36.998155],[29.300347,36.998743],[29.296749,36.999071],[29.293152,36.999311],[29.287051,36.999362],[29.284125,36.997772],[29.282298,36.995139],[29.281016,36.992423],[29.278633,36.99101],[29.276035,36.989334],[29.273534,36.988882],[29.271032,36.988604],[29.268525,36.988764],[29.266131,36.988487],[29.263192,36.988293],[29.26047,36.988276],[29.259049,36.988704],[29.257309,36.988431],[29.25439,36.986228],[29.252332,36.98508],[29.249829,36.984569],[29.246927,36.982549],[29.238927,36.979079],[29.235371,36.976893],[29.234759,36.978337],[29.235067,36.978495],[29.235077,36.978517],[29.235274,36.978929],[29.235271,36.978963],[29.235246,36.979266],[29.235038,36.980152],[29.234766,36.981154],[29.234765,36.981159],[29.233253,36.982045],[29.233232,36.982509],[29.234245,36.984762],[29.237742,36.988056],[29.238214,36.989573],[29.238544,36.993091],[29.238542,36.993093],[29.237564,36.99372],[29.2344,36.996214],[29.2344,36.996214],[29.244568,36.99872],[29.246382,36.99983],[29.248209,37.002229],[29.247719,37.003669],[29.251143,37.006297],[29.25379,37.00916],[29.254898,37.010871],[29.255639,37.01695],[29.256663,37.019583],[29.257799,37.023639],[29.257931,37.025424],[29.257139,37.027163],[29.25561,37.030141],[29.255576,37.031143],[29.256113,37.032449],[29.261028,37.03847],[29.262543,37.040388],[29.266035,37.042286],[29.27058,37.043867],[29.274347,37.044101],[29.274432,37.044106],[29.276736,37.044395],[29.277763,37.044534],[29.277944,37.044574],[29.28029,37.045103],[29.281345,37.045352],[29.282241,37.045564],[29.283863,37.045947],[29.284717,37.045519],[29.286527,37.044641],[29.286644,37.044584],[29.287589,37.044323],[29.287936,37.044228],[29.289652,37.043709],[29.289725,37.043675],[29.291335,37.042906],[29.292248,37.042469]]]}},{"type":"Feature","properties":{"id":"TR-Y-20-009-M-0008","level":"yerlesim","type":"mahalle","parent_id":"TR-D-20-009","province_id":"TR-P-20","district_id":"TR-D-20-009","name":"Çiğdemli","source_raw_name":"ÇİĞDEMLİ","source":"Kamuya açık veri ve kent rehberi servisleri","source_label":"Kamuya açık veri ve kent rehberi servisleri","source_name":"Denizli Adres Bilgi Sistemi - Mahalle Sınırları"},"geometry":{"type":"Polygon","coordinates":[[[29.436711,37.164817],[29.441335,37.168529],[29.445838,37.171504],[29.447543,37.172779],[29.447699,37.169508],[29.447451,37.167238],[29.447861,37.165341],[29.449387,37.163924],[29.452755,37.163095],[29.452637,37.161195],[29.45213,37.158449],[29.450628,37.156437],[29.447034,37.152147],[29.446845,37.150932],[29.446545,37.137688],[29.445147,37.130612],[29.444769,37.128183],[29.446118,37.123968],[29.446992,37.121408],[29.448658,37.119676],[29.445925,37.118793],[29.440738,37.117634],[29.439799,37.116835],[29.438188,37.117584],[29.427596,37.119235],[29.422636,37.119324],[29.419609,37.119876],[29.415864,37.121711],[29.411876,37.124301],[29.400244,37.136912],[29.400681,37.13746],[29.40471,37.144989],[29.407487,37.148693],[29.411225,37.152627],[29.413977,37.154534],[29.419498,37.155941],[29.423343,37.156441],[29.426222,37.157386],[29.428341,37.158198],[29.431334,37.160042],[29.436711,37.164817]]]}},{"type":"Feature","properties":{"id":"TR-Y-20-009-M-0009","level":"yerlesim","type":"mahalle","parent_id":"TR-D-20-009","province_id":"TR-P-20","district_id":"TR-D-20-009","name":"Cumaalanı","source_raw_name":"CUMAALANI","source":"Kamuya açık veri ve kent rehberi servisleri","source_label":"Kamuya açık veri ve kent rehberi servisleri","source_name":"Denizli Adres Bilgi Sistemi - Mahalle Sınırları"},"geometry":{"type":"Polygon","coordinates":[[[29.387152,37.125261],[29.385953,37.124838],[29.383348,37.124888],[29.380779,37.125356],[29.379083,37.126951],[29.377737,37.129864],[29.376996,37.132299],[29.375251,37.134953],[29.365132,37.129283],[29.363433,37.127765],[29.363186,37.126599],[29.361122,37.12765],[29.353804,37.137481],[29.352373,37.139701],[29.351249,37.140998],[29.356085,37.146303],[29.357903,37.149055],[29.359769,37.151087],[29.361046,37.15202],[29.361427,37.152536],[29.360823,37.158257],[29.361705,37.165425],[29.368283,37.167483],[29.370978,37.167874],[29.373156,37.168709],[29.374526,37.16875],[29.377661,37.16987],[29.384702,37.17387],[29.388638,37.176021],[29.392581,37.177341],[29.395779,37.178056],[29.39994,37.178211],[29.401939,37.177988],[29.403735,37.177098],[29.404569,37.176583],[29.404301,37.17384],[29.404649,37.171629],[29.404987,37.170607],[29.40611,37.169489],[29.409644,37.166237],[29.426222,37.157386],[29.423343,37.156441],[29.419498,37.155941],[29.413977,37.154534],[29.411225,37.152627],[29.407487,37.148693],[29.40471,37.144989],[29.400681,37.13746],[29.400244,37.136912],[29.397072,37.137666],[29.395308,37.137689],[29.393949,37.137297],[29.393354,37.136524],[29.392288,37.134497],[29.389613,37.128194],[29.387152,37.125261]]]}},{"type":"Feature","properties":{"id":"TR-Y-20-009-M-0010","level":"yerlesim","type":"mahalle","parent_id":"TR-D-20-009","province_id":"TR-P-20","district_id":"TR-D-20-009","name":"Elmalı","source_raw_name":"ELMALI","source":"Kamuya açık veri ve kent rehberi servisleri","source_label":"Kamuya açık veri ve kent rehberi servisleri","source_name":"Denizli Adres Bilgi Sistemi - Mahalle Sınırları"},"geometry":{"type":"Polygon","coordinates":[[[29.289346,36.989499],[29.288963,36.987966],[29.290572,36.985935],[29.290584,36.984659],[29.293062,36.983207],[29.294664,36.981814],[29.294521,36.980091],[29.294614,36.978688],[29.294147,36.977601],[29.295581,36.977227],[29.298206,36.973987],[29.298775,36.971711],[29.300464,36.970171],[29.299954,36.967645],[29.301254,36.965387],[29.299663,36.964479],[29.301021,36.961665],[29.300525,36.9576],[29.300339,36.95435],[29.298773,36.95236],[29.299028,36.950043],[29.299789,36.948253],[29.299761,36.946197],[29.298986,36.94436],[29.297201,36.942472],[29.291808,36.943557],[29.288826,36.944954],[29.286881,36.944496],[29.284002,36.944702],[29.280463,36.945947],[29.276183,36.947112],[29.274276,36.948585],[29.27515,36.951317],[29.272567,36.949697],[29.268172,36.94959],[29.26627,36.950059],[29.267947,36.952315],[29.268636,36.953361],[29.266347,36.952465],[29.264754,36.951814],[29.263263,36.951083],[29.262146,36.950504],[29.261712,36.950184],[29.261479,36.950444],[29.261467,36.950458],[29.260974,36.950537],[29.260947,36.950529],[29.260301,36.950339],[29.259701,36.950154],[29.259534,36.950103],[29.258934,36.949929],[29.258043,36.949698],[29.256906,36.949402],[29.256893,36.949398],[29.256246,36.94945],[29.256219,36.949452],[29.255972,36.949589],[29.255747,36.949714],[29.255731,36.949711],[29.253197,36.949236],[29.252246,36.948344],[29.252251,36.948323],[29.252386,36.947803],[29.252374,36.947729],[29.252366,36.947677],[29.252391,36.947648],[29.252641,36.947346],[29.252637,36.94733],[29.252573,36.947108],[29.252036,36.946891],[29.251879,36.946732],[29.251475,36.946309],[29.250921,36.945665],[29.250423,36.945368],[29.249269,36.944788],[29.249249,36.944778],[29.248798,36.944682],[29.247739,36.944455],[29.247711,36.944436],[29.246144,36.943362],[29.246103,36.943334],[29.243609,36.942008],[29.243606,36.942008],[29.241647,36.941916],[29.241411,36.941931],[29.221721,36.943165],[29.216714,36.943478],[29.216558,36.943502],[29.206732,36.945043],[29.206628,36.945059],[29.206599,36.945059],[29.19163,36.944802],[29.197838,36.956294],[29.217458,36.953693],[29.217456,36.959846],[29.21845,36.963759],[29.220796,36.966509],[29.22484,36.969758],[29.230049,36.972234],[29.231373,36.973708],[29.234938,36.976614],[29.234995,36.976661],[29.235371,36.976892],[29.238927,36.979079],[29.246927,36.982549],[29.249829,36.984569],[29.252332,36.98508],[29.25439,36.986228],[29.257309,36.988431],[29.259049,36.988704],[29.26047,36.988276],[29.263192,36.988293],[29.266131,36.988487],[29.268525,36.988764],[29.271032,36.988604],[29.273534,36.988882],[29.276035,36.989334],[29.278633,36.99101],[29.281016,36.992423],[29.285586,36.991964],[29.288305,36.990322],[29.289346,36.989499]]]}},{"type":"Feature","properties":{"id":"TR-Y-20-009-M-0011","level":"yerlesim","type":"mahalle","parent_id":"TR-D-20-009","province_id":"TR-P-20","district_id":"TR-D-20-009","name":"Emecik","source_raw_name":"EMECİK","source":"Kamuya açık veri ve kent rehberi servisleri","source_label":"Kamuya açık veri ve kent rehberi servisleri","source_name":"Denizli Adres Bilgi Sistemi - Mahalle Sınırları"},"geometry":{"type":"Polygon","coordinates":[[[29.261028,37.03847],[29.256113,37.032449],[29.255576,37.031143],[29.25561,37.030141],[29.257139,37.027163],[29.257931,37.025424],[29.257799,37.023639],[29.256663,37.019583],[29.255639,37.01695],[29.254898,37.010871],[29.25379,37.00916],[29.251143,37.006297],[29.247719,37.003669],[29.248209,37.002229],[29.246382,36.99983],[29.244568,36.99872],[29.2344,36.996214],[29.2344,36.996214],[29.234398,36.996215],[29.233017,36.997547],[29.233017,36.997547],[29.229436,36.99905],[29.226564,37.000244],[29.221037,37.000761],[29.221035,37.000763],[29.219198,37.003728],[29.219196,37.003731],[29.217008,37.005744],[29.214596,37.006941],[29.210968,37.008103],[29.207503,37.009398],[29.202936,37.011285],[29.202936,37.011286],[29.203167,37.013491],[29.203856,37.015822],[29.203843,37.017088],[29.203672,37.01876],[29.20284,37.020469],[29.202,37.022872],[29.20178,37.024504],[29.202161,37.026997],[29.203314,37.02876],[29.205759,37.033512],[29.206784,37.036149],[29.206789,37.036153],[29.207351,37.036675],[29.207807,37.037093],[29.207807,37.037093],[29.207811,37.037097],[29.208553,37.037377],[29.208571,37.037384],[29.208723,37.037784],[29.208727,37.037795],[29.208607,37.03864],[29.208934,37.039046],[29.208945,37.039049],[29.209577,37.039264],[29.209578,37.039264],[29.209836,37.039509],[29.210099,37.039675],[29.210372,37.039846],[29.210664,37.039955],[29.211259,37.039927],[29.211272,37.039923],[29.21177,37.039781],[29.211807,37.039776],[29.212237,37.039717],[29.212242,37.039719],[29.212402,37.039808],[29.212532,37.039777],[29.213178,37.039589],[29.21333,37.039555],[29.214557,37.039284],[29.218353,37.038447],[29.218516,37.038411],[29.222071,37.038022],[29.223919,37.035507],[29.224494,37.035948],[29.227375,37.037635],[29.228184,37.038542],[29.231137,37.039901],[29.236257,37.042804],[29.238287,37.044348],[29.240863,37.045923],[29.242291,37.046397],[29.245564,37.046418],[29.248261,37.046134],[29.248351,37.044708],[29.24872,37.042681],[29.24872,37.042681],[29.252055,37.040944],[29.252096,37.04094],[29.256894,37.040417],[29.259004,37.039137],[29.261028,37.03847]]]}},{"type":"Feature","properties":{"id":"TR-Y-20-009-M-0012","level":"yerlesim","type":"mahalle","parent_id":"TR-D-20-009","province_id":"TR-P-20","district_id":"TR-D-20-009","name":"Ericek","source_raw_name":"ERİCEK","source":"Kamuya açık veri ve kent rehberi servisleri","source_label":"Kamuya açık veri ve kent rehberi servisleri","source_name":"Denizli Adres Bilgi Sistemi - Mahalle Sınırları"},"geometry":{"type":"Polygon","coordinates":[[[29.195803,37.070061],[29.203753,37.069823],[29.211062,37.071214],[29.220769,37.075212],[29.226252,37.073246],[29.227608,37.068692],[29.225972,37.068806],[29.225196,37.069098],[29.22331,37.069001],[29.22209,37.068206],[29.221951,37.066706],[29.222853,37.064888],[29.222853,37.064888],[29.224168,37.063282],[29.226746,37.06154],[29.227522,37.060361],[29.227941,37.058515],[29.22824,37.054908],[29.22824,37.054908],[29.227743,37.052612],[29.224571,37.053533],[29.222461,37.053502],[29.219536,37.053865],[29.212103,37.05588],[29.206835,37.057308],[29.204975,37.057812],[29.20198,37.058953],[29.201835,37.059008],[29.199532,37.05922],[29.19507,37.058806],[29.18834,37.050854],[29.186788,37.049135],[29.185907,37.048757],[29.185897,37.048753],[29.182098,37.047124],[29.179442,37.050701],[29.177912,37.051978],[29.174433,37.051858],[29.167538,37.056745],[29.167127,37.058959],[29.165419,37.060115],[29.162896,37.060199],[29.165527,37.062601],[29.167699,37.064583],[29.168723,37.072639],[29.168865,37.073752],[29.169037,37.075104],[29.16905,37.075208],[29.169052,37.075217],[29.169273,37.075135],[29.171917,37.074128],[29.177551,37.072036],[29.184547,37.071223],[29.194113,37.070118],[29.195803,37.070061]]]}},{"type":"Feature","properties":{"id":"TR-Y-20-009-M-0013","level":"yerlesim","type":"mahalle","parent_id":"TR-D-20-009","province_id":"TR-P-20","district_id":"TR-D-20-009","name":"Gökçeyaka","source_raw_name":"GÖKÇEYAKA","source":"Kamuya açık veri ve kent rehberi servisleri","source_label":"Kamuya açık veri ve kent rehberi servisleri","source_name":"Denizli Adres Bilgi Sistemi - Mahalle Sınırları"},"geometry":{"type":"Polygon","coordinates":[[[29.292004,37.085075],[29.293566,37.084895],[29.296003,37.085534],[29.298575,37.086229],[29.302876,37.087043],[29.30457,37.087243],[29.305698,37.085662],[29.306587,37.085042],[29.3075,37.084405],[29.311823,37.080396],[29.313004,37.078635],[29.318261,37.072563],[29.319355,37.071202],[29.318997,37.069366],[29.31804,37.067479],[29.317606,37.066624],[29.316847,37.065451],[29.316287,37.064585],[29.314561,37.061917],[29.312886,37.059327],[29.312399,37.058487],[29.311739,37.057353],[29.310559,37.054378],[29.308794,37.051767],[29.308137,37.050891],[29.308133,37.050886],[29.307286,37.051415],[29.306837,37.051383],[29.306307,37.050768],[29.306093,37.05052],[29.305443,37.050098],[29.305443,37.050098],[29.303868,37.049587],[29.302601,37.049064],[29.302196,37.048639],[29.300548,37.048083],[29.295828,37.045654],[29.294036,37.043886],[29.292585,37.042309],[29.292248,37.042469],[29.291335,37.042906],[29.289725,37.043675],[29.287589,37.044323],[29.286527,37.044641],[29.283863,37.045947],[29.282241,37.045564],[29.281345,37.045352],[29.277944,37.044574],[29.274347,37.044101],[29.27058,37.043867],[29.266035,37.042286],[29.262543,37.040388],[29.261028,37.03847],[29.259004,37.039137],[29.256894,37.040417],[29.252096,37.04094],[29.24872,37.042681],[29.248351,37.044708],[29.248345,37.044741],[29.248261,37.046134],[29.245564,37.046418],[29.244997,37.048655],[29.244025,37.050398],[29.241716,37.052734],[29.239781,37.052713],[29.236385,37.051101],[29.235017,37.050887],[29.233701,37.049484],[29.231971,37.048516],[29.229833,37.047518],[29.229012,37.047786],[29.228118,37.048519],[29.227626,37.049882],[29.227574,37.051713],[29.227743,37.052612],[29.227756,37.052682],[29.22824,37.054908],[29.22824,37.054908],[29.228261,37.055004],[29.227946,37.058493],[29.227941,37.058515],[29.227522,37.060361],[29.226764,37.061528],[29.226746,37.06154],[29.224168,37.063282],[29.224132,37.063306],[29.222853,37.064888],[29.222853,37.064888],[29.222808,37.064944],[29.221951,37.066706],[29.22195,37.066709],[29.22209,37.068206],[29.22331,37.069001],[29.223327,37.069012],[29.225196,37.069098],[29.225224,37.069099],[29.225972,37.068806],[29.225974,37.068805],[29.227608,37.068692],[29.227625,37.068691],[29.229674,37.069203],[29.23116,37.069886],[29.232242,37.070641],[29.23298,37.071494],[29.23331,37.072793],[29.237372,37.074291],[29.240096,37.075805],[29.241549,37.076737],[29.242978,37.07702],[29.243975,37.076927],[29.24504,37.076236],[29.246832,37.074377],[29.249264,37.074429],[29.251123,37.075093],[29.252669,37.076489],[29.255738,37.078329],[29.257803,37.078722],[29.262039,37.079211],[29.26386,37.08031],[29.274753,37.080913],[29.278817,37.084456],[29.282278,37.087488],[29.282279,37.08749],[29.282293,37.087487],[29.286867,37.086702],[29.292004,37.085075]]]}},{"type":"Feature","properties":{"id":"TR-Y-20-009-M-0014","level":"yerlesim","type":"mahalle","parent_id":"TR-D-20-009","province_id":"TR-P-20","district_id":"TR-D-20-009","name":"Gürsu","source_raw_name":"GÜRSU","source":"Kamuya açık veri ve kent rehberi servisleri","source_label":"Kamuya açık veri ve kent rehberi servisleri","source_name":"Denizli Adres Bilgi Sistemi - Mahalle Sınırları"},"geometry":{"type":"Polygon","coordinates":[[[29.29686,36.939267],[29.296935,36.941204],[29.297201,36.942472],[29.298986,36.94436],[29.299761,36.946197],[29.299789,36.948253],[29.299028,36.950043],[29.298773,36.95236],[29.300339,36.95435],[29.300525,36.9576],[29.301021,36.961665],[29.299663,36.964479],[29.301254,36.965387],[29.299954,36.967645],[29.300464,36.970171],[29.298775,36.971711],[29.298206,36.973987],[29.295581,36.977227],[29.297798,36.978197],[29.300086,36.98006],[29.301187,36.981406],[29.303711,36.98359],[29.305619,36.983665],[29.306266,36.982457],[29.314233,36.980526],[29.31598,36.979919],[29.316575,36.978157],[29.316938,36.97644],[29.317357,36.974863],[29.318412,36.973429],[29.319407,36.972227],[29.320048,36.971812],[29.32103,36.972004],[29.321385,36.971216],[29.321795,36.970708],[29.322322,36.97006],[29.322784,36.970156],[29.323944,36.969977],[29.324452,36.969379],[29.323683,36.968834],[29.323654,36.968294],[29.324135,36.967244],[29.324888,36.965763],[29.326746,36.965044],[29.328734,36.964704],[29.329949,36.964333],[29.331536,36.963721],[29.332452,36.962862],[29.334105,36.962439],[29.334943,36.96113],[29.333996,36.960274],[29.333582,36.959079],[29.334018,36.957677],[29.335947,36.955389],[29.336653,36.95352],[29.337287,36.948616],[29.338762,36.946112],[29.34162,36.942723],[29.348328,36.935495],[29.3502,36.92875],[29.345907,36.919497],[29.342541,36.918986],[29.339495,36.916878],[29.337378,36.913544],[29.336941,36.910958],[29.332637,36.912533],[29.331222,36.916708],[29.331192,36.920153],[29.327225,36.918285],[29.326028,36.914956],[29.326971,36.912255],[29.323768,36.910637],[29.321172,36.909638],[29.316109,36.91047],[29.312723,36.912173],[29.310414,36.913389],[29.305516,36.912868],[29.301392,36.911491],[29.299664,36.916711],[29.299914,36.919841],[29.301102,36.921785],[29.3009,36.923647],[29.301633,36.924694],[29.300226,36.926324],[29.299661,36.927215],[29.300212,36.927889],[29.300944,36.929011],[29.302243,36.929018],[29.303149,36.929987],[29.30335,36.931583],[29.303426,36.93233],[29.302826,36.933119],[29.299724,36.93466],[29.298634,36.93588],[29.297575,36.936132],[29.29724,36.938226],[29.29686,36.939267]]]}},{"type":"Feature","properties":{"id":"TR-Y-20-009-M-0015","level":"yerlesim","type":"mahalle","parent_id":"TR-D-20-009","province_id":"TR-P-20","district_id":"TR-D-20-009","name":"Güzelyurt","source_raw_name":"GÜZELYURT","source":"Kamuya açık veri ve kent rehberi servisleri","source_label":"Kamuya açık veri ve kent rehberi servisleri","source_name":"Denizli Adres Bilgi Sistemi - Mahalle Sınırları"},"geometry":{"type":"Polygon","coordinates":[[[29.368235,37.193875],[29.370959,37.196117],[29.371077,37.196933],[29.373139,37.198438],[29.373309,37.202918],[29.381213,37.220759],[29.389969,37.223542],[29.390367,37.222092],[29.391383,37.217909],[29.391911,37.215104],[29.393009,37.211707],[29.394308,37.205597],[29.395249,37.203223],[29.400461,37.19492],[29.402327,37.192122],[29.404924,37.190945],[29.411643,37.1876],[29.416488,37.18542],[29.416125,37.18392],[29.414186,37.181712],[29.41158,37.179768],[29.408758,37.178688],[29.40469,37.177336],[29.403735,37.177098],[29.401939,37.177988],[29.39994,37.178211],[29.395779,37.178056],[29.392581,37.177341],[29.388638,37.176021],[29.384702,37.17387],[29.377661,37.16987],[29.374526,37.16875],[29.373156,37.168709],[29.370978,37.167874],[29.368283,37.167483],[29.361705,37.165425],[29.362789,37.168893],[29.363397,37.173009],[29.364402,37.175757],[29.365632,37.177237],[29.368317,37.178828],[29.370588,37.178738],[29.37169,37.180217],[29.37219,37.1819],[29.372007,37.183338],[29.370714,37.184291],[29.368564,37.185205],[29.36633,37.186015],[29.365768,37.186664],[29.362826,37.187218],[29.368235,37.193875]]]}},{"type":"Feature","properties":{"id":"TR-Y-20-009-M-0016","level":"yerlesim","type":"mahalle","parent_id":"TR-D-20-009","province_id":"TR-P-20","district_id":"TR-D-20-009","name":"İmamlar","source_raw_name":"İMAMLAR","source":"Kamuya açık veri ve kent rehberi servisleri","source_label":"Kamuya açık veri ve kent rehberi servisleri","source_name":"Denizli Adres Bilgi Sistemi - Mahalle Sınırları"},"geometry":{"type":"Polygon","coordinates":[[[29.400244,37.136912],[29.411876,37.124301],[29.415864,37.121711],[29.419609,37.119876],[29.422636,37.119324],[29.427596,37.119235],[29.438188,37.117584],[29.439799,37.116835],[29.43969,37.112371],[29.440238,37.108554],[29.441499,37.103983],[29.438356,37.101169],[29.433575,37.096419],[29.432784,37.094826],[29.432606,37.093388],[29.433484,37.089534],[29.433533,37.087109],[29.434238,37.083701],[29.434263,37.080362],[29.433375,37.077854],[29.429127,37.076672],[29.425146,37.076035],[29.418484,37.076511],[29.410335,37.075962],[29.404908,37.074991],[29.40228,37.075086],[29.40511,37.078113],[29.407219,37.080628],[29.407659,37.082336],[29.407607,37.084389],[29.40626,37.086313],[29.401283,37.09015],[29.394641,37.096009],[29.390992,37.100258],[29.38774,37.104002],[29.378795,37.103843],[29.378802,37.103918],[29.379267,37.108906],[29.379271,37.108909],[29.385743,37.114],[29.384361,37.12014],[29.382305,37.123381],[29.380779,37.125356],[29.383348,37.124888],[29.385953,37.124838],[29.387152,37.125261],[29.389613,37.128194],[29.392288,37.134497],[29.393354,37.136524],[29.393949,37.137297],[29.395308,37.137689],[29.397072,37.137666],[29.400244,37.136912]]]}},{"type":"Feature","properties":{"id":"TR-Y-20-009-M-0017","level":"yerlesim","type":"mahalle","parent_id":"TR-D-20-009","province_id":"TR-P-20","district_id":"TR-D-20-009","name":"Kalınkoz","source_raw_name":"KALINKOZ","source":"Kamuya açık veri ve kent rehberi servisleri","source_label":"Kamuya açık veri ve kent rehberi servisleri","source_name":"Denizli Adres Bilgi Sistemi - Mahalle Sınırları"},"geometry":{"type":"Polygon","coordinates":[[[29.32327,37.164327],[29.324599,37.163781],[29.331547,37.163572],[29.331773,37.155995],[29.33726,37.147927],[29.351249,37.140998],[29.352373,37.139701],[29.353804,37.137481],[29.361122,37.12765],[29.363186,37.126599],[29.363763,37.1241],[29.36444,37.122272],[29.363608,37.119376],[29.361505,37.115179],[29.357178,37.10998],[29.352291,37.109231],[29.348659,37.108531],[29.343866,37.107267],[29.340094,37.106228],[29.338155,37.102847],[29.335697,37.100659],[29.332626,37.098848],[29.328296,37.097355],[29.323467,37.094746],[29.320366,37.092472],[29.31838,37.090721],[29.31625,37.089893],[29.312559,37.089192],[29.307381,37.087776],[29.306563,37.087621],[29.30457,37.087243],[29.302876,37.087043],[29.298575,37.086229],[29.296003,37.085534],[29.293566,37.084895],[29.292004,37.085075],[29.286867,37.086702],[29.282293,37.087487],[29.282279,37.08749],[29.278002,37.087817],[29.277685,37.087821],[29.273523,37.087871],[29.276439,37.091667],[29.279503,37.097664],[29.280455,37.101095],[29.280666,37.103895],[29.281969,37.10605],[29.283988,37.107829],[29.285334,37.10906],[29.28574,37.110212],[29.284932,37.1111],[29.282816,37.111825],[29.280438,37.112121],[29.2768,37.112293],[29.280563,37.114692],[29.28379,37.117794],[29.285487,37.120136],[29.288362,37.123973],[29.289544,37.125311],[29.292096,37.129981],[29.293511,37.134105],[29.296856,37.14042],[29.295685,37.142111],[29.292293,37.145614],[29.28903,37.149655],[29.284126,37.156672],[29.288418,37.157532],[29.295038,37.157545],[29.297359,37.157236],[29.295699,37.158759],[29.292454,37.160757],[29.290256,37.162276],[29.294973,37.160933],[29.299784,37.160289],[29.304493,37.159833],[29.307954,37.1598],[29.310302,37.160244],[29.311468,37.161407],[29.311762,37.16235],[29.31168,37.163937],[29.311024,37.165896],[29.309926,37.168391],[29.308526,37.170776],[29.307293,37.173405],[29.309822,37.172397],[29.32327,37.164327]]]}},{"type":"Feature","properties":{"id":"TR-Y-20-009-M-0018","level":"yerlesim","type":"mahalle","parent_id":"TR-D-20-009","province_id":"TR-P-20","district_id":"TR-D-20-009","name":"Karabayır","source_raw_name":"KARABAYIR","source":"Kamuya açık veri ve kent rehberi servisleri","source_label":"Kamuya açık veri ve kent rehberi servisleri","source_name":"Denizli Adres Bilgi Sistemi - Mahalle Sınırları"},"geometry":{"type":"Polygon","coordinates":[[[29.154153,36.979911],[29.15527,36.977293],[29.157848,36.977426],[29.161326,36.97458],[29.166139,36.97003],[29.165362,36.967712],[29.164176,36.965424],[29.164998,36.962714],[29.163224,36.960333],[29.160117,36.958087],[29.158516,36.9564],[29.158351,36.955012],[29.159708,36.952682],[29.162325,36.95019],[29.162327,36.950188],[29.170112,36.945881],[29.173119,36.943939],[29.17312,36.943938],[29.17549,36.941095],[29.177943,36.937127],[29.177943,36.937126],[29.187941,36.932248],[29.191808,36.929627],[29.191951,36.928266],[29.189837,36.925436],[29.195969,36.920207],[29.200249,36.917075],[29.20271,36.919812],[29.203534,36.920373],[29.205932,36.915837],[29.207068,36.912958],[29.210072,36.903206],[29.210071,36.903206],[29.209514,36.901261],[29.208697,36.898407],[29.208075,36.895213],[29.207825,36.893932],[29.207291,36.891984],[29.206706,36.889847],[29.204783,36.886631],[29.202987,36.88487],[29.202398,36.884242],[29.202286,36.882554],[29.201213,36.881673],[29.200113,36.880574],[29.198949,36.87941],[29.198882,36.879343],[29.196856,36.876992],[29.194682,36.875574],[29.191909,36.875482],[29.187015,36.874787],[29.181781,36.874595],[29.179035,36.874975],[29.176172,36.875059],[29.174789,36.875116],[29.169665,36.875327],[29.168963,36.875618],[29.16496,36.87728],[29.160772,36.879549],[29.156328,36.881399],[29.15045,36.883551],[29.14783,36.8851],[29.143201,36.887011],[29.142872,36.888451],[29.142871,36.888451],[29.1441,36.890694],[29.144384,36.893371],[29.143876,36.895887],[29.14159,36.897147],[29.138748,36.8974],[29.135445,36.898197],[29.129598,36.902989],[29.124565,36.906053],[29.116662,36.91165],[29.113192,36.917006],[29.110778,36.919451],[29.106651,36.923718],[29.101772,36.931883],[29.100001,36.935555],[29.099546,36.937459],[29.099289,36.940926],[29.099634,36.944911],[29.10087,36.947536],[29.10146,36.951245],[29.103059,36.953799],[29.104942,36.955339],[29.103645,36.957872],[29.102335,36.961494],[29.102021,36.965124],[29.103256,36.969197],[29.10359,36.970293],[29.110506,36.967222],[29.119863,36.964459],[29.140282,36.971698],[29.141787,36.973012],[29.143852,36.974813],[29.145231,36.976006],[29.149384,36.978205],[29.154152,36.97991],[29.154153,36.979911]]]}},{"type":"Feature","properties":{"id":"TR-Y-20-009-M-0019","level":"yerlesim","type":"mahalle","parent_id":"TR-D-20-009","province_id":"TR-P-20","district_id":"TR-D-20-009","name":"Kınıkyeri","source_raw_name":"KINIKYERİ","source":"Kamuya açık veri ve kent rehberi servisleri","source_label":"Kamuya açık veri ve kent rehberi servisleri","source_name":"Denizli Adres Bilgi Sistemi - Mahalle Sınırları"},"geometry":{"type":"Polygon","coordinates":[[[29.445352,37.174879],[29.445838,37.171504],[29.441335,37.168529],[29.436711,37.164817],[29.431334,37.160042],[29.428341,37.158198],[29.426222,37.157386],[29.409644,37.166237],[29.40611,37.169489],[29.404987,37.170607],[29.404649,37.171629],[29.404301,37.17384],[29.404569,37.176583],[29.403735,37.177098],[29.40469,37.177336],[29.408758,37.178688],[29.41158,37.179768],[29.414186,37.181712],[29.416125,37.18392],[29.416488,37.18542],[29.419702,37.184304],[29.423661,37.183491],[29.427742,37.183145],[29.431529,37.183196],[29.43519,37.183414],[29.439885,37.184402],[29.442939,37.180302],[29.445352,37.174879]]]}},{"type":"Feature","properties":{"id":"TR-Y-20-009-M-0020","level":"yerlesim","type":"mahalle","parent_id":"TR-D-20-009","province_id":"TR-P-20","district_id":"TR-D-20-009","name":"Kirazlıyayla","source_raw_name":"KİRAZLIYAYLA","source":"Kamuya açık veri ve kent rehberi servisleri","source_label":"Kamuya açık veri ve kent rehberi servisleri","source_name":"Denizli Adres Bilgi Sistemi - Mahalle Sınırları"},"geometry":{"type":"Polygon","coordinates":[[[29.238542,36.993093],[29.238212,36.989575],[29.23774,36.988059],[29.234242,36.984764],[29.23323,36.982511],[29.233252,36.982022],[29.234766,36.981154],[29.235271,36.978963],[29.235077,36.978517],[29.234759,36.978337],[29.235371,36.976893],[29.235371,36.976892],[29.234938,36.976614],[29.231371,36.97371],[29.230047,36.972236],[29.224838,36.969761],[29.220793,36.966511],[29.218448,36.963761],[29.217454,36.959848],[29.217456,36.953695],[29.197838,36.956294],[29.19163,36.944802],[29.206599,36.945059],[29.206186,36.944813],[29.201661,36.942125],[29.201393,36.941966],[29.200686,36.939813],[29.201035,36.935518],[29.20339,36.931285],[29.204509,36.928949],[29.205507,36.926563],[29.205099,36.924851],[29.203532,36.920375],[29.202708,36.919815],[29.200247,36.917077],[29.195967,36.92021],[29.189837,36.925436],[29.191951,36.928266],[29.191808,36.929627],[29.187941,36.932248],[29.177943,36.937127],[29.177941,36.937128],[29.175487,36.941097],[29.173119,36.943939],[29.173118,36.94394],[29.17011,36.945883],[29.162325,36.95019],[29.162325,36.95019],[29.159706,36.952684],[29.158349,36.955014],[29.158514,36.956402],[29.160115,36.958089],[29.163222,36.960335],[29.164996,36.962716],[29.164174,36.965426],[29.165362,36.967712],[29.166139,36.97003],[29.161326,36.97458],[29.157848,36.977426],[29.15527,36.977293],[29.154152,36.97991],[29.15415,36.979913],[29.153212,36.983401],[29.153184,36.985914],[29.153713,36.986929],[29.155999,36.988621],[29.158444,36.989287],[29.158446,36.989287],[29.159814,36.989268],[29.161392,36.98977],[29.168407,36.993342],[29.172546,36.996662],[29.174443,36.998864],[29.177745,37.003633],[29.179703,37.008147],[29.179706,37.008147],[29.181941,37.008285],[29.184274,37.009118],[29.190531,37.009488],[29.198556,37.011257],[29.200997,37.011519],[29.202933,37.011287],[29.202936,37.011286],[29.2075,37.0094],[29.210966,37.008105],[29.214594,37.006943],[29.217006,37.005746],[29.217008,37.005744],[29.219196,37.003731],[29.221034,37.000764],[29.221035,37.000763],[29.226562,37.000246],[29.229434,36.999052],[29.233015,36.997549],[29.233017,36.997547],[29.234397,36.996216],[29.234398,36.996215],[29.2344,36.996214],[29.237562,36.993722],[29.238542,36.993093],[29.238542,36.993093]]]}},{"type":"Feature","properties":{"id":"TR-Y-20-009-M-0021","level":"yerlesim","type":"mahalle","parent_id":"TR-D-20-009","province_id":"TR-P-20","district_id":"TR-D-20-009","name":"Kızılyaka","source_raw_name":"KIZILYAKA","source":"Kamuya açık veri ve kent rehberi servisleri","source_label":"Kamuya açık veri ve kent rehberi servisleri","source_name":"Denizli Adres Bilgi Sistemi - Mahalle Sınırları"},"geometry":{"type":"Polygon","coordinates":[[[29.371306,37.041429],[29.367504,37.0382],[29.366432,37.037763],[29.359288,37.034851],[29.358604,37.035727],[29.356965,37.03717],[29.354344,37.038582],[29.352858,37.0401],[29.351101,37.040952],[29.350538,37.040635],[29.350304,37.040611],[29.349714,37.040551],[29.349402,37.040656],[29.349145,37.040839],[29.349014,37.041455],[29.348815,37.04182],[29.348667,37.042229],[29.348456,37.042509],[29.34818,37.042837],[29.348093,37.043151],[29.348044,37.043415],[29.347988,37.043742],[29.347645,37.04404],[29.347228,37.044293],[29.346777,37.044557],[29.346267,37.044839],[29.345889,37.04505],[29.345534,37.04533],[29.345339,37.047006],[29.345306,37.047018],[29.343214,37.047749],[29.342042,37.048382],[29.342189,37.049195],[29.342703,37.050035],[29.34404,37.051642],[29.346538,37.053993],[29.34913,37.05605],[29.353376,37.058608],[29.356183,37.06074],[29.35807,37.062842],[29.360039,37.066003],[29.361346,37.067634],[29.361612,37.067845],[29.365573,37.070983],[29.369033,37.074411],[29.370647,37.075562],[29.373877,37.075664],[29.375012,37.075307],[29.377103,37.074448],[29.379285,37.07337],[29.382104,37.072079],[29.383974,37.070419],[29.385076,37.068538],[29.385547,37.06629],[29.385656,37.064041],[29.384413,37.061732],[29.381903,37.058778],[29.377293,37.05335],[29.372918,37.042798],[29.371306,37.041429]]]}},{"type":"Feature","properties":{"id":"TR-Y-20-009-M-0022","level":"yerlesim","type":"mahalle","parent_id":"TR-D-20-009","province_id":"TR-P-20","district_id":"TR-D-20-009","name":"Kocaova","source_raw_name":"KOCAOVA","source":"Kamuya açık veri ve kent rehberi servisleri","source_label":"Kamuya açık veri ve kent rehberi servisleri","source_name":"Denizli Adres Bilgi Sistemi - Mahalle Sınırları"},"geometry":{"type":"Polygon","coordinates":[[[29.255738,37.078329],[29.252669,37.076489],[29.251123,37.075093],[29.249264,37.074429],[29.246832,37.074377],[29.24504,37.076236],[29.243975,37.076927],[29.242978,37.07702],[29.241549,37.076737],[29.240096,37.075805],[29.237547,37.075464],[29.235897,37.075528],[29.233772,37.076362],[29.232359,37.07755],[29.230911,37.079187],[29.230259,37.0821],[29.230948,37.084773],[29.233186,37.088179],[29.236208,37.091067],[29.239447,37.09408],[29.242229,37.096043],[29.248793,37.099651],[29.249364,37.101725],[29.251264,37.103884],[29.260485,37.10665],[29.268625,37.109152],[29.270078,37.110541],[29.2768,37.112293],[29.280438,37.112121],[29.282816,37.111825],[29.284932,37.1111],[29.28574,37.110212],[29.285334,37.10906],[29.283988,37.107829],[29.281969,37.10605],[29.280666,37.103895],[29.280455,37.101095],[29.279503,37.097664],[29.276439,37.091667],[29.273523,37.087871],[29.277685,37.087821],[29.282278,37.087488],[29.282293,37.087487],[29.278817,37.084456],[29.274753,37.080913],[29.274675,37.080844],[29.266414,37.080436],[29.26386,37.08031],[29.262039,37.079211],[29.257803,37.078722],[29.255738,37.078329]]]}},{"type":"Feature","properties":{"id":"TR-Y-20-009-M-0023","level":"yerlesim","type":"mahalle","parent_id":"TR-D-20-009","province_id":"TR-P-20","district_id":"TR-D-20-009","name":"Kolak","source_raw_name":"KOLAK","source":"Kamuya açık veri ve kent rehberi servisleri","source_label":"Kamuya açık veri ve kent rehberi servisleri","source_name":"Denizli Adres Bilgi Sistemi - Mahalle Sınırları"},"geometry":{"type":"Polygon","coordinates":[[[29.240659,37.123378],[29.242016,37.122677],[29.243496,37.121143],[29.247238,37.116908],[29.24992,37.11464],[29.251596,37.109096],[29.251264,37.103884],[29.249364,37.101725],[29.248793,37.099651],[29.242229,37.096043],[29.239447,37.09408],[29.236208,37.091067],[29.233186,37.088179],[29.230948,37.084773],[29.230259,37.0821],[29.230911,37.079187],[29.232359,37.07755],[29.233772,37.076362],[29.235897,37.075528],[29.237547,37.075464],[29.240096,37.075805],[29.237372,37.074291],[29.23331,37.072793],[29.23298,37.071494],[29.232242,37.070641],[29.23116,37.069886],[29.229674,37.069203],[29.227625,37.068691],[29.226252,37.073246],[29.220769,37.075212],[29.211062,37.071214],[29.203753,37.069823],[29.20362,37.069798],[29.195803,37.070061],[29.194113,37.070118],[29.19407,37.070119],[29.189761,37.070619],[29.184547,37.071223],[29.177561,37.072033],[29.177551,37.072036],[29.171917,37.074128],[29.169273,37.075135],[29.169052,37.075217],[29.170384,37.083616],[29.170266,37.086739],[29.169712,37.089127],[29.17016,37.090946],[29.178588,37.093124],[29.185116,37.094507],[29.187272,37.09469],[29.185868,37.095795],[29.184479,37.10203],[29.185367,37.103598],[29.185694,37.105607],[29.187608,37.108855],[29.19008,37.112106],[29.194082,37.115479],[29.196723,37.115998],[29.201651,37.117426],[29.203708,37.119094],[29.208194,37.120526],[29.214586,37.121895],[29.218743,37.122971],[29.22118,37.123369],[29.225405,37.12354],[29.230368,37.123312],[29.234106,37.123367],[29.237032,37.123787],[29.238766,37.123798],[29.240659,37.123378]]]}},{"type":"Feature","properties":{"id":"TR-Y-20-009-M-0024","level":"yerlesim","type":"mahalle","parent_id":"TR-D-20-009","province_id":"TR-P-20","district_id":"TR-D-20-009","name":"Sarıkavak","source_raw_name":"SARIKAVAK","source":"Kamuya açık veri ve kent rehberi servisleri","source_label":"Kamuya açık veri ve kent rehberi servisleri","source_name":"Denizli Adres Bilgi Sistemi - Mahalle Sınırları"},"geometry":{"type":"Polygon","coordinates":[[[29.222461,37.053502],[29.22252,37.053495],[29.224571,37.053533],[29.224604,37.053534],[29.227756,37.052682],[29.227743,37.052612],[29.227574,37.051713],[29.227626,37.049882],[29.228118,37.048519],[29.229012,37.047786],[29.229833,37.047518],[29.231971,37.048516],[29.233701,37.049484],[29.235017,37.050887],[29.236381,37.0511],[29.236385,37.051101],[29.23904,37.052383],[29.239781,37.052713],[29.241716,37.052734],[29.244025,37.050398],[29.244997,37.048655],[29.245564,37.046418],[29.242291,37.046397],[29.240863,37.045923],[29.238287,37.044348],[29.236257,37.042804],[29.231137,37.039901],[29.228184,37.038542],[29.227375,37.037635],[29.224494,37.035948],[29.223919,37.035507],[29.222071,37.038022],[29.218353,37.038447],[29.214557,37.039284],[29.21333,37.039555],[29.212413,37.039819],[29.212242,37.039719],[29.211807,37.039776],[29.211272,37.039923],[29.210664,37.039955],[29.210372,37.039846],[29.210099,37.039675],[29.209836,37.039509],[29.209578,37.039264],[29.208945,37.039049],[29.208607,37.03864],[29.208723,37.037784],[29.208553,37.037377],[29.207807,37.037093],[29.207807,37.037093],[29.206789,37.036153],[29.205759,37.033512],[29.203314,37.02876],[29.202161,37.026997],[29.20178,37.024504],[29.202,37.022872],[29.20284,37.020469],[29.203672,37.01876],[29.203843,37.017088],[29.203856,37.015822],[29.203167,37.013491],[29.202936,37.011286],[29.202936,37.011285],[29.200999,37.011517],[29.198558,37.011255],[29.190534,37.009486],[29.184276,37.009116],[29.181944,37.008283],[29.179705,37.008145],[29.179706,37.008147],[29.179948,37.009208],[29.17953,37.010226],[29.180323,37.012273],[29.180707,37.014439],[29.180106,37.018231],[29.17849,37.021731],[29.176268,37.024818],[29.175841,37.026652],[29.176414,37.030126],[29.176499,37.036454],[29.177648,37.039423],[29.177688,37.039524],[29.178717,37.0404],[29.179361,37.040947],[29.1794,37.041024],[29.180299,37.042787],[29.180349,37.042887],[29.180853,37.045533],[29.18088,37.045678],[29.182098,37.047124],[29.185897,37.048753],[29.185907,37.048757],[29.186788,37.049135],[29.18834,37.050854],[29.195027,37.058802],[29.19507,37.058806],[29.199532,37.05922],[29.199614,37.059228],[29.201835,37.059008],[29.201838,37.059008],[29.20198,37.058953],[29.204826,37.057852],[29.204975,37.057812],[29.206835,37.057308],[29.212103,37.05588],[29.219536,37.053865],[29.21958,37.053853],[29.222461,37.053502]]]}},{"type":"Feature","properties":{"id":"TR-Y-20-009-M-0025","level":"yerlesim","type":"mahalle","parent_id":"TR-D-20-009","province_id":"TR-P-20","district_id":"TR-D-20-009","name":"Sofular","source_raw_name":"SOFULAR","source":"Kamuya açık veri ve kent rehberi servisleri","source_label":"Kamuya açık veri ve kent rehberi servisleri","source_name":"Denizli Adres Bilgi Sistemi - Mahalle Sınırları"},"geometry":{"type":"Polygon","coordinates":[[[29.345313,37.024967],[29.351069,37.018244],[29.35098,37.017967],[29.349138,37.012273],[29.352178,37.006366],[29.35342,37.003952],[29.35543,37.000586],[29.362874,36.999036],[29.365605,36.998256],[29.365665,36.997616],[29.366421,36.989519],[29.371433,36.982393],[29.372863,36.981523],[29.371328,36.980899],[29.368489,36.980035],[29.36581,36.979564],[29.364425,36.979818],[29.361093,36.979604],[29.35728,36.978539],[29.355658,36.977943],[29.353879,36.976824],[29.351604,36.976616],[29.349902,36.975954],[29.346484,36.974843],[29.34347,36.975198],[29.341092,36.975649],[29.338891,36.97573],[29.337103,36.974837],[29.334266,36.974867],[29.331543,36.974945],[29.328657,36.973906],[29.327562,36.973296],[29.325549,36.971798],[29.323935,36.970952],[29.323944,36.969977],[29.322784,36.970156],[29.322322,36.97006],[29.321795,36.970708],[29.321385,36.971216],[29.32103,36.972004],[29.320048,36.971812],[29.319407,36.972227],[29.318412,36.973429],[29.317357,36.974863],[29.316938,36.97644],[29.316575,36.978157],[29.31598,36.979919],[29.314233,36.980526],[29.306266,36.982457],[29.305619,36.983665],[29.303711,36.98359],[29.301187,36.981406],[29.300086,36.98006],[29.297798,36.978197],[29.295581,36.977227],[29.294147,36.977601],[29.294614,36.978688],[29.294521,36.980091],[29.294664,36.981814],[29.293062,36.983207],[29.290584,36.984659],[29.290572,36.985935],[29.288963,36.987966],[29.289346,36.989499],[29.288305,36.990322],[29.285586,36.991964],[29.281016,36.992423],[29.282298,36.995139],[29.284125,36.997772],[29.287051,36.999362],[29.293152,36.999311],[29.296749,36.999071],[29.300347,36.998743],[29.304274,36.998155],[29.308138,36.998897],[29.308423,36.99954],[29.309611,37.00083],[29.311818,37.002097],[29.313621,37.0038],[29.317513,37.007877],[29.318876,37.009985],[29.319724,37.01279],[29.32084,37.014079],[29.324233,37.017045],[29.325301,37.019618],[29.327197,37.019104],[29.329887,37.019381],[29.331012,37.019621],[29.333003,37.020741],[29.335243,37.022533],[29.337887,37.023802],[29.341334,37.024871],[29.344382,37.025822],[29.345313,37.024967]]]}},{"type":"Feature","properties":{"id":"TR-Y-20-009-M-0026","level":"yerlesim","type":"mahalle","parent_id":"TR-D-20-009","province_id":"TR-P-20","district_id":"TR-D-20-009","name":"Taşçılar","source_raw_name":"TAŞÇILAR","source":"Kamuya açık veri ve kent rehberi servisleri","source_label":"Kamuya açık veri ve kent rehberi servisleri","source_name":"Denizli Adres Bilgi Sistemi - Mahalle Sınırları"},"geometry":{"type":"Polygon","coordinates":[[[29.267947,36.952315],[29.26627,36.950059],[29.268172,36.94959],[29.272567,36.949697],[29.27515,36.951317],[29.274276,36.948585],[29.276183,36.947112],[29.280463,36.945947],[29.284002,36.944702],[29.286881,36.944496],[29.288826,36.944954],[29.291808,36.943557],[29.297201,36.942472],[29.296935,36.941204],[29.29686,36.939267],[29.29724,36.938226],[29.297575,36.936132],[29.298634,36.93588],[29.298659,36.935874],[29.299724,36.93466],[29.302389,36.933302],[29.302826,36.933119],[29.303426,36.93233],[29.303439,36.932312],[29.30335,36.931583],[29.303155,36.929993],[29.303149,36.929987],[29.302243,36.929018],[29.300944,36.929011],[29.300212,36.927889],[29.299661,36.927215],[29.300226,36.926324],[29.301633,36.924694],[29.3009,36.923647],[29.301102,36.921785],[29.299914,36.919841],[29.299664,36.916711],[29.301392,36.911491],[29.296172,36.91269],[29.291554,36.915],[29.286338,36.915706],[29.283729,36.916183],[29.280526,36.914564],[29.280243,36.912101],[29.27613,36.909616],[29.270942,36.907369],[29.259885,36.91013],[29.250575,36.910873],[29.235559,36.911018],[29.225372,36.908781],[29.218798,36.905603],[29.210072,36.903206],[29.207068,36.912958],[29.205932,36.915837],[29.203534,36.920373],[29.205101,36.924849],[29.205509,36.926561],[29.204512,36.928947],[29.203392,36.931283],[29.201037,36.935516],[29.200688,36.93981],[29.201396,36.941964],[29.201661,36.942125],[29.205869,36.94468],[29.206186,36.944813],[29.206732,36.945043],[29.216558,36.943502],[29.241411,36.941931],[29.243606,36.942008],[29.246144,36.943362],[29.247711,36.944436],[29.248798,36.944682],[29.249269,36.944788],[29.250921,36.945665],[29.252036,36.946891],[29.252573,36.947108],[29.252637,36.94733],[29.252391,36.947648],[29.252374,36.947729],[29.252251,36.948323],[29.253197,36.949236],[29.255731,36.949711],[29.255972,36.949589],[29.256246,36.94945],[29.256906,36.949402],[29.259701,36.950154],[29.260947,36.950529],[29.261479,36.950444],[29.261522,36.950438],[29.261712,36.950184],[29.263263,36.951083],[29.264754,36.951814],[29.266347,36.952465],[29.268636,36.953361],[29.267947,36.952315]]]}},{"type":"Feature","properties":{"id":"TR-Y-20-009-M-0027","level":"yerlesim","type":"mahalle","parent_id":"TR-D-20-009","province_id":"TR-P-20","district_id":"TR-D-20-009","name":"Yaylapınar","source_raw_name":"YAYLAPINAR","source":"Kamuya açık veri ve kent rehberi servisleri","source_label":"Kamuya açık veri ve kent rehberi servisleri","source_name":"Denizli Adres Bilgi Sistemi - Mahalle Sınırları"},"geometry":{"type":"Polygon","coordinates":[[[29.25247,37.143861],[29.257723,37.148826],[29.262569,37.151495],[29.266852,37.153127],[29.273143,37.154658],[29.278296,37.155263],[29.284126,37.156672],[29.28903,37.149655],[29.292293,37.145614],[29.295685,37.142111],[29.296856,37.14042],[29.293511,37.134105],[29.292096,37.129981],[29.289544,37.125311],[29.288362,37.123973],[29.285487,37.120136],[29.28379,37.117794],[29.280563,37.114692],[29.2768,37.112293],[29.270078,37.110541],[29.268625,37.109152],[29.260485,37.10665],[29.251264,37.103884],[29.251596,37.109096],[29.24992,37.11464],[29.247238,37.116908],[29.243496,37.121143],[29.242016,37.122677],[29.240659,37.123378],[29.238766,37.123798],[29.237032,37.123787],[29.234106,37.123367],[29.230368,37.123312],[29.225405,37.12354],[29.22118,37.123369],[29.218743,37.122971],[29.214586,37.121895],[29.208194,37.120526],[29.203708,37.119094],[29.208954,37.12387],[29.212358,37.127144],[29.215935,37.129788],[29.217122,37.131189],[29.217195,37.131899],[29.220049,37.132957],[29.22464,37.133247],[29.226803,37.133174],[29.229818,37.134362],[29.234183,37.135646],[29.239864,37.13512],[29.25022,37.142846],[29.25247,37.143861]]]}},{"type":"Feature","properties":{"id":"TR-Y-20-009-M-0028","level":"yerlesim","type":"mahalle","parent_id":"TR-D-20-009","province_id":"TR-P-20","district_id":"TR-D-20-009","name":"Yeni","source_raw_name":"YENİ","source":"Kamuya açık veri ve kent rehberi servisleri","source_label":"Kamuya açık veri ve kent rehberi servisleri","source_name":"Denizli Adres Bilgi Sistemi - Mahalle Sınırları"},"geometry":{"type":"Polygon","coordinates":[[[29.367013,37.075599],[29.370647,37.075562],[29.369033,37.074411],[29.365573,37.070983],[29.361612,37.067845],[29.361346,37.067634],[29.360039,37.066003],[29.35807,37.062842],[29.356183,37.06074],[29.354589,37.063082],[29.354521,37.063661],[29.35395,37.064666],[29.351778,37.066199],[29.349858,37.067418],[29.349051,37.067836],[29.347862,37.068094],[29.346965,37.068793],[29.346892,37.068839],[29.345497,37.067697],[29.344595,37.070165],[29.344275,37.071174],[29.344304,37.071585],[29.344459,37.071983],[29.344621,37.072198],[29.343895,37.073533],[29.343629,37.075084],[29.343304,37.074595],[29.343193,37.074508],[29.343064,37.074808],[29.342986,37.075216],[29.342783,37.075447],[29.342397,37.075379],[29.342051,37.075374],[29.341385,37.075043],[29.341343,37.07515],[29.340809,37.075359],[29.34017,37.076207],[29.33706,37.077688],[29.331608,37.080632],[29.33196,37.083933],[29.320366,37.092472],[29.323467,37.094746],[29.328296,37.097355],[29.332626,37.098848],[29.335697,37.100659],[29.338155,37.102847],[29.340094,37.106228],[29.343866,37.107267],[29.348659,37.108531],[29.352291,37.109231],[29.357178,37.10998],[29.352986,37.105696],[29.352477,37.104171],[29.353264,37.100941],[29.355317,37.094066],[29.355955,37.092496],[29.356967,37.090004],[29.358693,37.087996],[29.362666,37.084289],[29.36367,37.083136],[29.363696,37.083124],[29.364428,37.082785],[29.364446,37.082776],[29.364938,37.082293],[29.365104,37.08213],[29.365118,37.082116],[29.365401,37.081682],[29.365263,37.081333],[29.365261,37.08133],[29.364932,37.081014],[29.364934,37.081008],[29.365802,37.078447],[29.367013,37.075599]]]}},{"type":"Feature","properties":{"id":"TR-Y-20-009-M-0029","level":"yerlesim","type":"mahalle","parent_id":"TR-D-20-009","province_id":"TR-P-20","district_id":"TR-D-20-009","name":"Yeşilyayla","source_raw_name":"YEŞİLYAYLA","source":"Kamuya açık veri ve kent rehberi servisleri","source_label":"Kamuya açık veri ve kent rehberi servisleri","source_name":"Denizli Adres Bilgi Sistemi - Mahalle Sınırları"},"geometry":{"type":"Polygon","coordinates":[[[29.351249,37.140998],[29.33726,37.147927],[29.331773,37.155995],[29.331547,37.163572],[29.335324,37.164298],[29.341364,37.165073],[29.346326,37.165752],[29.361705,37.165425],[29.360823,37.158257],[29.361427,37.152536],[29.361046,37.15202],[29.359769,37.151087],[29.357903,37.149055],[29.356085,37.146303],[29.351249,37.140998]]]}},{"type":"Feature","properties":{"id":"TR-Y-20-009-M-0030","level":"yerlesim","type":"mahalle","parent_id":"TR-D-20-009","province_id":"TR-P-20","district_id":"TR-D-20-009","name":"Yumurtaş","source_raw_name":"YUMRUTAŞ","source":"Kamuya açık veri ve kent rehberi servisleri","source_label":"Kamuya açık veri ve kent rehberi servisleri","source_name":"Denizli Adres Bilgi Sistemi - Mahalle Sınırları"},"geometry":{"type":"Polygon","coordinates":[[[29.326643,37.064899],[29.327762,37.064848],[29.329288,37.065925],[29.331703,37.064232],[29.33343,37.063021],[29.336637,37.059876],[29.338076,37.058555],[29.338393,37.058039],[29.33999,37.05657],[29.34077,37.05661],[29.34404,37.051642],[29.342703,37.050035],[29.342189,37.049195],[29.341011,37.050051],[29.3393,37.050641],[29.338761,37.050774],[29.337048,37.051196],[29.334562,37.050536],[29.33435,37.05048],[29.328563,37.048089],[29.328256,37.047962],[29.328049,37.047877],[29.326932,37.047293],[29.326692,37.047167],[29.322872,37.045171],[29.31253,37.039766],[29.311404,37.039177],[29.31049,37.039038],[29.307954,37.039739],[29.304818,37.040605],[29.301488,37.040886],[29.297898,37.042198],[29.294104,37.043856],[29.295828,37.045654],[29.300548,37.048083],[29.302158,37.048645],[29.302601,37.049064],[29.303828,37.049573],[29.303868,37.049587],[29.304393,37.049768],[29.305443,37.050098],[29.305443,37.050098],[29.30546,37.050103],[29.306093,37.05052],[29.306097,37.050523],[29.306307,37.050768],[29.306832,37.051383],[29.306837,37.051383],[29.307286,37.051415],[29.308137,37.050891],[29.308794,37.051767],[29.310559,37.054378],[29.311739,37.057353],[29.312399,37.058487],[29.312886,37.059327],[29.314561,37.061917],[29.316287,37.064585],[29.316847,37.065451],[29.317606,37.066624],[29.31804,37.067479],[29.318997,37.069366],[29.319355,37.071202],[29.320117,37.071569],[29.323934,37.07192],[29.324948,37.070877],[29.325332,37.069201],[29.325504,37.068592],[29.326283,37.067977],[29.326395,37.067405],[29.32583,37.066744],[29.325564,37.065875],[29.325914,37.065257],[29.326643,37.064899]]]}},{"type":"Feature","properties":{"id":"TR-Y-20-009-M-0031","level":"yerlesim","type":"mahalle","parent_id":"TR-D-20-009","province_id":"TR-P-20","district_id":"TR-D-20-009","name":"Yunuspınarı","source_raw_name":"YUNUSPINARI","source":"Kamuya açık veri ve kent rehberi servisleri","source_label":"Kamuya açık veri ve kent rehberi servisleri","source_name":"Denizli Adres Bilgi Sistemi - Mahalle Sınırları"},"geometry":{"type":"Polygon","coordinates":[[[29.345497,37.067697],[29.346892,37.068839],[29.346965,37.068793],[29.347862,37.068094],[29.349051,37.067836],[29.349858,37.067418],[29.351778,37.066199],[29.35395,37.064666],[29.354521,37.063661],[29.354589,37.063082],[29.356183,37.06074],[29.353376,37.058608],[29.34913,37.05605],[29.346538,37.053993],[29.34404,37.051642],[29.34077,37.05661],[29.33999,37.05657],[29.338393,37.058039],[29.338076,37.058555],[29.336637,37.059876],[29.33343,37.063021],[29.331703,37.064232],[29.329288,37.065925],[29.327762,37.064848],[29.326643,37.064899],[29.325914,37.065257],[29.325564,37.065875],[29.32583,37.066744],[29.326395,37.067405],[29.326283,37.067977],[29.325504,37.068592],[29.325332,37.069201],[29.324948,37.070877],[29.323934,37.07192],[29.320117,37.071569],[29.319355,37.071202],[29.318261,37.072563],[29.313004,37.078635],[29.311823,37.080396],[29.3075,37.084405],[29.306587,37.085042],[29.305698,37.085662],[29.30457,37.087243],[29.306563,37.087621],[29.307381,37.087776],[29.312559,37.089192],[29.31625,37.089893],[29.31838,37.090721],[29.320366,37.092472],[29.33196,37.083933],[29.331608,37.080632],[29.33706,37.077688],[29.34017,37.076207],[29.340809,37.075359],[29.341343,37.07515],[29.341385,37.075043],[29.342051,37.075374],[29.342397,37.075379],[29.342783,37.075447],[29.342986,37.075216],[29.343064,37.074808],[29.343193,37.074508],[29.343304,37.074595],[29.343629,37.075084],[29.343895,37.073533],[29.344621,37.072198],[29.344459,37.071983],[29.344304,37.071585],[29.344275,37.071174],[29.344595,37.070165],[29.345497,37.067697]]]}}]}