{"type":"FeatureCollection","name":"turkiye_map.dist.mahalle_geometrileri_by_district.TR-D-35-013","features":[{"type":"Feature","properties":{"id":"TR-Y-35-013-M-0002","level":"yerlesim","type":"mahalle","parent_id":"TR-D-35-013","province_id":"TR-P-35","district_id":"TR-D-35-013","name":"Aktepe","source_raw_name":"AKTEPE","source":"Kullanıcı tarafından sağlanan KML","source_label":"Kullanıcı tarafından sağlanan KML","source_name":"Izmir Mahalle KML - kullanici tarafindan saglandi"},"geometry":{"type":"Polygon","coordinates":[[[27.133625,38.351161],[27.133604,38.350729],[27.13354,38.350176],[27.133511,38.350011],[27.13338,38.349455],[27.133339,38.349308],[27.133198,38.348964],[27.132573,38.347366],[27.132538,38.347202],[27.132471,38.346896],[27.132462,38.346857],[27.132444,38.346776],[27.132433,38.346482],[27.132428,38.346347],[27.132435,38.346237],[27.132432,38.346101],[27.132101,38.346106],[27.131658,38.346153],[27.130853,38.346238],[27.13028,38.346338],[27.130065,38.346375],[27.129389,38.346528],[27.128572,38.346763],[27.127302,38.347237],[27.125967,38.347948],[27.125967,38.347949],[27.124399,38.348916],[27.123018,38.349771],[27.121979,38.350387],[27.120809,38.351049],[27.120746,38.351085],[27.119595,38.351625],[27.118733,38.351953],[27.118427,38.35207],[27.11763,38.352357],[27.116494,38.352645],[27.116274,38.352696],[27.116378,38.353104],[27.116493,38.353222],[27.116453,38.353495],[27.116351,38.353581],[27.116324,38.353768],[27.116426,38.353859],[27.116413,38.354036],[27.11631,38.354019],[27.11671,38.354605],[27.117108,38.354737],[27.117686,38.354897],[27.118108,38.355138],[27.118483,38.355453],[27.119313,38.35542],[27.119734,38.355505],[27.120483,38.355944],[27.121075,38.355943],[27.121762,38.356087],[27.122579,38.35638],[27.123824,38.356863],[27.124409,38.356985],[27.124641,38.357005],[27.124806,38.357019],[27.124834,38.35702],[27.125044,38.357023],[27.125211,38.357026],[27.12538,38.357028],[27.125515,38.357031],[27.125701,38.357061],[27.125973,38.357104],[27.126399,38.357451],[27.126485,38.35755],[27.126881,38.357231],[27.127148,38.356992],[27.127495,38.356682],[27.127571,38.356613],[27.127732,38.356485],[27.128035,38.356243],[27.128178,38.356129],[27.128277,38.356032],[27.128397,38.355916],[27.128596,38.35569],[27.12863,38.355653],[27.128666,38.355624],[27.128808,38.355508],[27.128972,38.35533],[27.129191,38.355156],[27.129365,38.355034],[27.129697,38.354847],[27.129894,38.354694],[27.129962,38.354644],[27.129987,38.354626],[27.129987,38.354625],[27.13019,38.354456],[27.13024,38.354412],[27.130437,38.354214],[27.130514,38.354151],[27.130676,38.354062],[27.130764,38.354032],[27.131038,38.353936],[27.131278,38.353798],[27.131489,38.353641],[27.131707,38.353221],[27.132034,38.352667],[27.132425,38.351977],[27.132656,38.351579],[27.132925,38.351346],[27.133149,38.351228],[27.133625,38.351161]]]}},{"type":"Feature","properties":{"id":"TR-Y-35-013-M-0003","level":"yerlesim","type":"mahalle","parent_id":"TR-D-35-013","province_id":"TR-P-35","district_id":"TR-D-35-013","name":"Atatürk","source_raw_name":"ATATÜRK","source":"Kullanıcı tarafından sağlanan KML","source_label":"Kullanıcı tarafından sağlanan KML","source_name":"Izmir Mahalle KML - kullanici tarafindan saglandi"},"geometry":{"type":"Polygon","coordinates":[[[27.163645,38.285653],[27.164131,38.285776],[27.169793,38.286882],[27.168659,38.290849],[27.168389,38.291421],[27.168634,38.291329],[27.169019,38.291228],[27.169326,38.291198],[27.169645,38.291159],[27.169773,38.291164],[27.169846,38.291203],[27.16984,38.291375],[27.169897,38.292016],[27.169899,38.292043],[27.17005,38.292682],[27.170066,38.292748],[27.170135,38.29294],[27.170185,38.293168],[27.170218,38.293392],[27.170202,38.293655],[27.170254,38.293789],[27.170287,38.293857],[27.170393,38.293862],[27.170421,38.294018],[27.170475,38.294314],[27.170474,38.29447],[27.170474,38.294746],[27.170468,38.29506],[27.170467,38.295109],[27.170462,38.2953],[27.170421,38.295476],[27.170297,38.29601],[27.170293,38.296027],[27.170106,38.29649],[27.169754,38.296923],[27.169636,38.297124],[27.169597,38.297293],[27.169526,38.297495],[27.169397,38.297967],[27.170345,38.29809],[27.17115,38.298294],[27.171546,38.298393],[27.172062,38.298482],[27.172883,38.298348],[27.173281,38.298266],[27.173307,38.29826],[27.173816,38.298166],[27.174279,38.298053],[27.174651,38.297961],[27.175362,38.297854],[27.175417,38.297848],[27.17593,38.297787],[27.176026,38.297776],[27.17628,38.297752],[27.176529,38.297615],[27.176505,38.296982],[27.178845,38.295661],[27.17877,38.293129],[27.186979,38.284309],[27.18754,38.283665],[27.187168,38.283648],[27.186074,38.283559],[27.185033,38.283493],[27.183824,38.283392],[27.182838,38.283308],[27.181505,38.281955],[27.179185,38.281008],[27.178483,38.281298],[27.178283,38.28138],[27.17827,38.281133],[27.177739,38.280405],[27.177253,38.280138],[27.177156,38.280014],[27.177024,38.27926],[27.17688,38.278884],[27.177022,38.278314],[27.177154,38.278007],[27.177026,38.277096],[27.176831,38.276476],[27.176066,38.276516],[27.175826,38.276751],[27.176033,38.277271],[27.175502,38.27791],[27.175636,38.278187],[27.175189,38.278645],[27.175637,38.278911],[27.1761,38.279998],[27.176746,38.280974],[27.1774,38.281416],[27.177138,38.28156],[27.177446,38.281688],[27.176912,38.281982],[27.176704,38.282211],[27.176078,38.282255],[27.174945,38.282543],[27.174631,38.282831],[27.174195,38.282756],[27.173469,38.282509],[27.173528,38.282061],[27.173063,38.279611],[27.171277,38.278818],[27.171798,38.27764],[27.171097,38.277926],[27.170712,38.278083],[27.170326,38.278239],[27.167541,38.279886],[27.16515,38.281373],[27.165621,38.282169],[27.16568,38.282676],[27.164877,38.284704],[27.163888,38.285527],[27.163645,38.285653]]]}},{"type":"Feature","properties":{"id":"TR-Y-35-013-M-0004","level":"yerlesim","type":"mahalle","parent_id":"TR-D-35-013","province_id":"TR-P-35","district_id":"TR-D-35-013","name":"Atıfbey","source_raw_name":"ATIFBEY","source":"Kullanıcı tarafından sağlanan KML","source_label":"Kullanıcı tarafından sağlanan KML","source_name":"Izmir Mahalle KML - kullanici tarafindan saglandi"},"geometry":{"type":"Polygon","coordinates":[[[27.139919,38.317027],[27.139924,38.317016],[27.140177,38.31648],[27.140449,38.315979],[27.13913,38.315776],[27.139321,38.31508],[27.138894,38.315331],[27.138075,38.315524],[27.137737,38.315618],[27.137375,38.315701],[27.136783,38.315785],[27.136373,38.315812],[27.136221,38.315822],[27.135657,38.315802],[27.135423,38.315771],[27.135098,38.315727],[27.134347,38.315527],[27.134012,38.315415],[27.132874,38.315031],[27.132061,38.314749],[27.132017,38.314856],[27.131831,38.315511],[27.131718,38.315772],[27.131639,38.315956],[27.131382,38.316262],[27.131291,38.316371],[27.130908,38.316872],[27.130867,38.316925],[27.130506,38.31731],[27.130138,38.31766],[27.130054,38.31774],[27.129928,38.317863],[27.129759,38.318028],[27.129392,38.318386],[27.129108,38.318652],[27.128424,38.319294],[27.128225,38.31946],[27.12808,38.31958],[27.12787,38.319781],[27.127607,38.320033],[27.127481,38.320151],[27.127114,38.320496],[27.126993,38.32059],[27.126592,38.3209],[27.12659,38.320934],[27.126648,38.321037],[27.126778,38.321146],[27.126851,38.321206],[27.126881,38.321229],[27.126972,38.321295],[27.127003,38.321317],[27.127245,38.321439],[27.127792,38.321705],[27.127958,38.321785],[27.128285,38.32194],[27.128388,38.321989],[27.128555,38.322068],[27.128739,38.322151],[27.128941,38.322243],[27.129094,38.322313],[27.129219,38.322374],[27.129286,38.322407],[27.129922,38.322717],[27.130282,38.322898],[27.130747,38.323132],[27.130964,38.323235],[27.1328,38.324108],[27.132857,38.324135],[27.133504,38.324442],[27.134108,38.324669],[27.134925,38.324908],[27.135034,38.32494],[27.135528,38.325084],[27.135613,38.325109],[27.136642,38.325343],[27.136668,38.325194],[27.136703,38.324963],[27.136743,38.324771],[27.136827,38.324368],[27.136848,38.324265],[27.136932,38.323863],[27.136969,38.32366],[27.136994,38.323523],[27.137075,38.323075],[27.137162,38.322597],[27.137231,38.322382],[27.137332,38.322065],[27.137476,38.321612],[27.137612,38.32126],[27.137649,38.321163],[27.13776,38.320875],[27.137861,38.320687],[27.138161,38.32013],[27.138198,38.320062],[27.1384,38.319686],[27.138421,38.319651],[27.138526,38.319477],[27.138555,38.319428],[27.138744,38.319114],[27.138791,38.319034],[27.138882,38.318882],[27.138952,38.318766],[27.138984,38.318724],[27.139068,38.318614],[27.139457,38.318102],[27.139607,38.317921],[27.139664,38.317852],[27.139845,38.317679],[27.140393,38.317016],[27.139919,38.317027]]]}},{"type":"Feature","properties":{"id":"TR-Y-35-013-M-0005","level":"yerlesim","type":"mahalle","parent_id":"TR-D-35-013","province_id":"TR-P-35","district_id":"TR-D-35-013","name":"Beyazevler","source_raw_name":"BEYAZEVLER","source":"Kullanıcı tarafından sağlanan KML","source_label":"Kullanıcı tarafından sağlanan KML","source_name":"Izmir Mahalle KML - kullanici tarafindan saglandi"},"geometry":{"type":"Polygon","coordinates":[[[27.135053,38.346176],[27.135054,38.346176],[27.136726,38.346243],[27.136726,38.346242],[27.13722,38.346262],[27.137795,38.346284],[27.13913,38.346335],[27.139902,38.346379],[27.141133,38.346489],[27.141878,38.34661],[27.142274,38.346674],[27.142277,38.346675],[27.142484,38.346697],[27.143773,38.346837],[27.144669,38.34663],[27.144829,38.346619],[27.146296,38.346222],[27.146536,38.346158],[27.146539,38.346158],[27.149189,38.345816],[27.14942,38.345792],[27.149984,38.345755],[27.150458,38.345724],[27.151521,38.345667],[27.152765,38.345582],[27.153277,38.346256],[27.153416,38.346569],[27.153614,38.346798],[27.153727,38.347019],[27.153866,38.347183],[27.154145,38.347384],[27.154177,38.347628],[27.154273,38.347863],[27.154459,38.348036],[27.154706,38.348211],[27.154914,38.348209],[27.155114,38.348072],[27.155317,38.348014],[27.155552,38.347966],[27.156349,38.347607],[27.156737,38.347576],[27.157345,38.347504],[27.157811,38.347473],[27.158379,38.347391],[27.159052,38.347258],[27.15975,38.347185],[27.160125,38.347205],[27.16125,38.347255],[27.162246,38.347284],[27.162841,38.347222],[27.163475,38.34719],[27.163682,38.347129],[27.164082,38.346914],[27.164418,38.346649],[27.164599,38.346669],[27.165076,38.346754],[27.164941,38.346577],[27.164578,38.346283],[27.164017,38.345703],[27.153962,38.340133],[27.152409,38.339446],[27.149715,38.339131],[27.146641,38.338056],[27.145652,38.337117],[27.14409,38.336437],[27.141546,38.335755],[27.14206,38.334593],[27.139642,38.334633],[27.13963,38.335287],[27.139509,38.335918],[27.137191,38.335722],[27.137222,38.335649],[27.137323,38.335318],[27.137308,38.335292],[27.137224,38.335167],[27.13714,38.335075],[27.137056,38.335018],[27.136993,38.335],[27.136733,38.334926],[27.136461,38.334853],[27.136158,38.334771],[27.135663,38.334663],[27.135618,38.334888],[27.135463,38.335559],[27.134124,38.335372],[27.133927,38.336378],[27.133888,38.336615],[27.133867,38.336741],[27.133746,38.337468],[27.133693,38.337724],[27.133551,38.338428],[27.13337,38.339513],[27.133329,38.340451],[27.133368,38.342365],[27.13337,38.34242],[27.133369,38.342521],[27.133366,38.34284],[27.133305,38.343241],[27.133245,38.343409],[27.133161,38.343645],[27.133147,38.343684],[27.132861,38.344377],[27.132645,38.344959],[27.1325,38.345533],[27.132454,38.345716],[27.132432,38.346101],[27.133105,38.346089],[27.133163,38.346089],[27.134872,38.346168],[27.135053,38.346176]]]}},{"type":"Feature","properties":{"id":"TR-Y-35-013-M-0006","level":"yerlesim","type":"mahalle","parent_id":"TR-D-35-013","province_id":"TR-P-35","district_id":"TR-D-35-013","name":"Binbaşı Reşat Bey","source_raw_name":"BİNBAŞI REŞATBEY","source":"Kullanıcı tarafından sağlanan KML","source_label":"Kullanıcı tarafından sağlanan KML","source_name":"Izmir Mahalle KML - kullanici tarafindan saglandi"},"geometry":{"type":"Polygon","coordinates":[[[27.135053,38.346176],[27.134872,38.346168],[27.133163,38.346089],[27.133105,38.346089],[27.132432,38.346101],[27.132435,38.346237],[27.132428,38.346347],[27.132433,38.346482],[27.132444,38.346776],[27.132462,38.346857],[27.132471,38.346896],[27.132538,38.347202],[27.132573,38.347366],[27.133198,38.348964],[27.133339,38.349308],[27.13338,38.349455],[27.133511,38.350011],[27.13354,38.350176],[27.133604,38.350729],[27.133625,38.351161],[27.133631,38.351436],[27.133656,38.352459],[27.133688,38.3532],[27.133699,38.353298],[27.133726,38.353542],[27.133728,38.353551],[27.133732,38.353572],[27.133739,38.35361],[27.133826,38.354056],[27.133941,38.354553],[27.134151,38.355187],[27.134226,38.355357],[27.134365,38.355697],[27.134515,38.35599],[27.134542,38.356043],[27.134633,38.356222],[27.134991,38.356827],[27.135049,38.356926],[27.135259,38.357287],[27.135661,38.357956],[27.136222,38.358923],[27.13655,38.359484],[27.136813,38.360106],[27.137072,38.36083],[27.137224,38.361441],[27.137263,38.361607],[27.137302,38.361773],[27.137308,38.361829],[27.137766,38.362363],[27.138199,38.36155],[27.13829,38.361458],[27.13851,38.361362],[27.138634,38.361402],[27.138855,38.361573],[27.139245,38.361468],[27.139379,38.361426],[27.139395,38.361185],[27.139415,38.360897],[27.139453,38.360697],[27.13946,38.360652],[27.139467,38.360603],[27.139503,38.360493],[27.139523,38.360428],[27.1395,38.360337],[27.139334,38.360197],[27.139039,38.360068],[27.138834,38.360013],[27.138553,38.359868],[27.138486,38.359808],[27.138469,38.359757],[27.138475,38.359502],[27.1385,38.359327],[27.138496,38.359243],[27.138452,38.359179],[27.138321,38.359096],[27.138199,38.359051],[27.13812,38.358982],[27.138117,38.358873],[27.138258,38.358609],[27.138362,38.358381],[27.138415,38.358201],[27.13845,38.357952],[27.138492,38.357598],[27.138439,38.357432],[27.138355,38.357211],[27.13829,38.357092],[27.138165,38.356854],[27.13807,38.356666],[27.137917,38.356474],[27.13773,38.356253],[27.137661,38.356175],[27.137613,38.35612],[27.137524,38.356001],[27.137496,38.355945],[27.137501,38.355884],[27.137841,38.355634],[27.137945,38.355535],[27.137992,38.355449],[27.137888,38.355114],[27.137939,38.355016],[27.138203,38.354953],[27.138447,38.354884],[27.138499,38.354849],[27.138583,38.354755],[27.138598,38.354647],[27.138567,38.35456],[27.138503,38.354485],[27.138409,38.354428],[27.138311,38.35436],[27.138208,38.354245],[27.138146,38.354135],[27.138139,38.354051],[27.138166,38.35373],[27.138178,38.35364],[27.138171,38.353511],[27.138166,38.353438],[27.138112,38.353372],[27.138001,38.353325],[27.13793,38.353295],[27.137835,38.353273],[27.137571,38.353229],[27.137381,38.353194],[27.137168,38.353147],[27.13703,38.353064],[27.136994,38.352968],[27.137036,38.352857],[27.137222,38.352658],[27.137422,38.35254],[27.137491,38.352496],[27.137678,38.352377],[27.137896,38.352211],[27.137976,38.35205],[27.137994,38.351906],[27.138019,38.351702],[27.138027,38.35153],[27.138009,38.351422],[27.137972,38.351305],[27.137776,38.351174],[27.137567,38.35113],[27.137445,38.351106],[27.137384,38.351046],[27.137351,38.350988],[27.137341,38.350906],[27.137389,38.350749],[27.137467,38.350577],[27.137495,38.350493],[27.137512,38.350403],[27.137484,38.350316],[27.137388,38.350194],[27.137238,38.350064],[27.137126,38.349902],[27.137047,38.34963],[27.136995,38.349474],[27.136872,38.349245],[27.136853,38.349052],[27.136981,38.3488],[27.136983,38.348573],[27.137178,38.348396],[27.13733,38.348173],[27.137277,38.347952],[27.137034,38.347647],[27.136969,38.347191],[27.136874,38.347117],[27.136716,38.346952],[27.136726,38.346243],[27.135054,38.346176],[27.135053,38.346176]]]}},{"type":"Feature","properties":{"id":"TR-Y-35-013-M-0007","level":"yerlesim","type":"mahalle","parent_id":"TR-D-35-013","province_id":"TR-P-35","district_id":"TR-D-35-013","name":"Emrez","source_raw_name":"EMREZ","source":"Kullanıcı tarafından sağlanan KML","source_label":"Kullanıcı tarafından sağlanan KML","source_name":"Izmir Mahalle KML - kullanici tarafindan saglandi"},"geometry":{"type":"Polygon","coordinates":[[[27.13048,38.362462],[27.130499,38.362419],[27.130544,38.362314],[27.130568,38.362257],[27.130608,38.362165],[27.130551,38.362102],[27.130437,38.36199],[27.130964,38.361711],[27.131383,38.361642],[27.131519,38.361627],[27.131495,38.361572],[27.131478,38.361479],[27.131491,38.361391],[27.131536,38.361291],[27.131607,38.361258],[27.131663,38.36127],[27.131753,38.36137],[27.131815,38.361457],[27.132199,38.361496],[27.13331,38.361608],[27.133632,38.361632],[27.13389,38.361695],[27.134111,38.362006],[27.134209,38.362097],[27.1343,38.362183],[27.13445,38.362185],[27.134699,38.362187],[27.13501,38.362181],[27.135324,38.362174],[27.135698,38.362167],[27.135949,38.362162],[27.13618,38.362157],[27.13627,38.36206],[27.136304,38.362023],[27.136334,38.361991],[27.136589,38.361789],[27.136696,38.361837],[27.13677,38.361898],[27.13685,38.361886],[27.137308,38.361829],[27.137302,38.361773],[27.137263,38.361607],[27.137224,38.361441],[27.137072,38.36083],[27.136813,38.360106],[27.13655,38.359484],[27.136222,38.358923],[27.135661,38.357956],[27.135259,38.357287],[27.135049,38.356926],[27.134991,38.356827],[27.134633,38.356222],[27.134542,38.356043],[27.134515,38.35599],[27.134365,38.355697],[27.134226,38.355357],[27.134151,38.355187],[27.133941,38.354553],[27.133826,38.354056],[27.133739,38.35361],[27.133732,38.353572],[27.133728,38.353551],[27.133726,38.353542],[27.133699,38.353298],[27.133688,38.3532],[27.133656,38.352459],[27.133631,38.351436],[27.133625,38.351161],[27.133149,38.351228],[27.132925,38.351346],[27.132656,38.351579],[27.132425,38.351977],[27.132034,38.352667],[27.131707,38.353221],[27.131489,38.353641],[27.131278,38.353798],[27.131038,38.353936],[27.130764,38.354032],[27.130676,38.354062],[27.130514,38.354151],[27.130437,38.354214],[27.13024,38.354412],[27.13019,38.354456],[27.129987,38.354625],[27.129987,38.354626],[27.129962,38.354644],[27.129894,38.354694],[27.129697,38.354847],[27.129365,38.355034],[27.129191,38.355156],[27.128972,38.35533],[27.128808,38.355508],[27.128666,38.355624],[27.12863,38.355653],[27.128596,38.35569],[27.128397,38.355916],[27.128277,38.356032],[27.128178,38.356129],[27.128035,38.356243],[27.127732,38.356485],[27.127571,38.356613],[27.127495,38.356682],[27.127148,38.356992],[27.126881,38.357231],[27.126485,38.35755],[27.126615,38.3577],[27.126835,38.357905],[27.12689,38.358017],[27.127131,38.358278],[27.127465,38.358557],[27.127632,38.358622],[27.127793,38.358758],[27.127802,38.358805],[27.127897,38.359302],[27.128026,38.359439],[27.128155,38.35959],[27.128316,38.359739],[27.128483,38.359906],[27.128611,38.359993],[27.128788,38.360125],[27.128971,38.360298],[27.129104,38.360455],[27.129079,38.360594],[27.128988,38.360771],[27.128866,38.360895],[27.128694,38.361051],[27.12852,38.36123],[27.128462,38.361422],[27.128446,38.361601],[27.128481,38.361743],[27.128561,38.361928],[27.128645,38.362065],[27.128684,38.362211],[27.128678,38.362327],[27.128736,38.362452],[27.12882,38.362521],[27.128938,38.36259],[27.129073,38.362618],[27.129282,38.362605],[27.129512,38.362575],[27.129784,38.362527],[27.130034,38.362446],[27.130325,38.362433],[27.13048,38.362462]]]}},{"type":"Feature","properties":{"id":"TR-Y-35-013-M-0008","level":"yerlesim","type":"mahalle","parent_id":"TR-D-35-013","province_id":"TR-P-35","district_id":"TR-D-35-013","name":"Fatih","source_raw_name":"FATİH","source":"Kullanıcı tarafından sağlanan KML","source_label":"Kullanıcı tarafından sağlanan KML","source_name":"Izmir Mahalle KML - kullanici tarafindan saglandi"},"geometry":{"type":"Polygon","coordinates":[[[27.17923,38.319622],[27.18153,38.321256],[27.181888,38.320499],[27.182331,38.319654],[27.182829,38.319389],[27.183001,38.319289],[27.18311,38.318988],[27.183,38.318852],[27.183082,38.318666],[27.183263,38.318587],[27.183264,38.318352],[27.183078,38.318112],[27.183208,38.31782],[27.183211,38.317394],[27.183164,38.317237],[27.183102,38.317082],[27.183007,38.316934],[27.18273,38.316684],[27.182657,38.316603],[27.182589,38.316434],[27.182504,38.316289],[27.182401,38.316073],[27.183502,38.316242],[27.184092,38.316313],[27.184474,38.316297],[27.184829,38.316307],[27.185224,38.31628],[27.185634,38.316199],[27.186036,38.3161],[27.186336,38.316005],[27.186611,38.315852],[27.187127,38.315566],[27.187618,38.315278],[27.188118,38.314989],[27.188631,38.314676],[27.188846,38.314568],[27.189016,38.314504],[27.189017,38.314504],[27.189019,38.314505],[27.189143,38.31382],[27.189691,38.313579],[27.189994,38.313075],[27.189014,38.310991],[27.189042,38.310032],[27.187211,38.307996],[27.186935,38.307181],[27.186659,38.30651],[27.186112,38.306251],[27.184544,38.306087],[27.182181,38.304786],[27.181494,38.304718],[27.178378,38.304931],[27.178057,38.304469],[27.177701,38.304323],[27.177755,38.303861],[27.177798,38.303483],[27.177804,38.303436],[27.177874,38.303024],[27.177942,38.302624],[27.17737,38.302502],[27.176741,38.302439],[27.176013,38.302358],[27.175556,38.30229],[27.17509,38.302233],[27.17426,38.302122],[27.173946,38.302093],[27.173634,38.302046],[27.173618,38.302044],[27.173118,38.30198],[27.173007,38.301966],[27.172539,38.301909],[27.17236,38.301877],[27.171958,38.30185],[27.17174,38.301826],[27.171386,38.301791],[27.171093,38.301734],[27.170491,38.30166],[27.170139,38.301607],[27.170028,38.301598],[27.169627,38.301563],[27.169139,38.301531],[27.169117,38.301529],[27.169069,38.301523],[27.168594,38.301467],[27.168413,38.301439],[27.168024,38.301408],[27.167831,38.301392],[27.1674,38.301358],[27.167093,38.301327],[27.166628,38.301279],[27.166124,38.301228],[27.165689,38.301161],[27.166053,38.300804],[27.166319,38.300532],[27.166555,38.300281],[27.166602,38.300208],[27.166105,38.300204],[27.165673,38.300295],[27.16526,38.300484],[27.164851,38.300465],[27.164589,38.30041],[27.16438,38.300445],[27.164266,38.300707],[27.164203,38.300826],[27.163881,38.30143],[27.163722,38.301667],[27.163419,38.302122],[27.163269,38.302372],[27.163186,38.302519],[27.162981,38.302977],[27.162794,38.303271],[27.162415,38.303445],[27.161908,38.303581],[27.161411,38.303683],[27.160861,38.30378],[27.16051,38.303797],[27.159882,38.303785],[27.159453,38.30376],[27.158844,38.304691],[27.158533,38.305064],[27.158391,38.305242],[27.157773,38.306012],[27.157073,38.306862],[27.156837,38.307197],[27.156546,38.307625],[27.156241,38.308119],[27.156331,38.308648],[27.15649,38.30908],[27.156548,38.309284],[27.15657,38.309284],[27.156994,38.309305],[27.157549,38.309385],[27.158013,38.309527],[27.158483,38.309811],[27.159418,38.310497],[27.160528,38.311366],[27.160798,38.311632],[27.161378,38.312224],[27.161573,38.312403],[27.162543,38.312919],[27.163983,38.313706],[27.164432,38.314196],[27.165949,38.314841],[27.166845,38.315219],[27.167439,38.31567],[27.168121,38.316286],[27.168335,38.31648],[27.169173,38.317054],[27.16949,38.317285],[27.169854,38.31755],[27.17044,38.318484],[27.170465,38.318544],[27.170606,38.318874],[27.170457,38.319679],[27.170899,38.319336],[27.171442,38.318706],[27.171736,38.318404],[27.171998,38.318149],[27.17246,38.317819],[27.172856,38.317598],[27.174892,38.31744],[27.177307,38.318682],[27.17923,38.319622]]]}},{"type":"Feature","properties":{"id":"TR-Y-35-013-M-0009","level":"yerlesim","type":"mahalle","parent_id":"TR-D-35-013","province_id":"TR-P-35","district_id":"TR-D-35-013","name":"Gazi","source_raw_name":"GAZİ","source":"Kullanıcı tarafından sağlanan KML","source_label":"Kullanıcı tarafından sağlanan KML","source_name":"Izmir Mahalle KML - kullanici tarafindan saglandi"},"geometry":{"type":"Polygon","coordinates":[[[27.134124,38.335372],[27.134153,38.335222],[27.134323,38.334329],[27.134411,38.333864],[27.134615,38.332955],[27.134694,38.332694],[27.134858,38.332151],[27.135086,38.331564],[27.135332,38.33093],[27.135432,38.330684],[27.135637,38.330177],[27.135694,38.330041],[27.135806,38.329777],[27.136014,38.328958],[27.136138,38.32832],[27.13616,38.328207],[27.136187,38.328071],[27.1362,38.327978],[27.13621,38.327911],[27.136249,38.327642],[27.136313,38.327291],[27.13635,38.327086],[27.13649,38.326308],[27.136539,38.326041],[27.136552,38.325971],[27.136578,38.325791],[27.136642,38.325343],[27.135613,38.325109],[27.135528,38.325084],[27.135034,38.32494],[27.134925,38.324908],[27.134108,38.324669],[27.133504,38.324442],[27.132857,38.324135],[27.1328,38.324108],[27.130964,38.323235],[27.130747,38.323132],[27.130282,38.322898],[27.129922,38.322717],[27.129286,38.322407],[27.129219,38.322374],[27.129094,38.322313],[27.128941,38.322243],[27.128739,38.322151],[27.128555,38.322068],[27.128388,38.321989],[27.128285,38.32194],[27.127958,38.321785],[27.127792,38.321705],[27.127245,38.321439],[27.127003,38.321317],[27.126972,38.321295],[27.126881,38.321229],[27.126851,38.321206],[27.126778,38.321146],[27.126648,38.321037],[27.12659,38.320934],[27.126592,38.3209],[27.126351,38.320805],[27.126275,38.320837],[27.126164,38.320903],[27.125965,38.32106],[27.125873,38.321094],[27.125448,38.321055],[27.125321,38.32104],[27.125316,38.321091],[27.125306,38.321291],[27.1253,38.321382],[27.125281,38.321657],[27.125275,38.321756],[27.125307,38.321993],[27.125326,38.322024],[27.125351,38.322065],[27.125371,38.322097],[27.12541,38.32219],[27.125535,38.322531],[27.125795,38.322817],[27.125816,38.322957],[27.125866,38.323144],[27.125884,38.323214],[27.12597,38.323446],[27.125983,38.323461],[27.126137,38.323646],[27.126374,38.323935],[27.126429,38.324001],[27.126641,38.32424],[27.126753,38.324365],[27.127044,38.3247],[27.12756,38.325274],[27.127594,38.325406],[27.127642,38.325591],[27.127692,38.325741],[27.127796,38.326051],[27.12801,38.326498],[27.128084,38.326666],[27.128151,38.326818],[27.128199,38.326924],[27.128306,38.327134],[27.12848,38.327475],[27.128486,38.327486],[27.128547,38.327604],[27.12874,38.327977],[27.129004,38.328392],[27.129238,38.328743],[27.129281,38.328808],[27.129534,38.329148],[27.130281,38.32991],[27.130399,38.330024],[27.130471,38.330096],[27.130896,38.330519],[27.131192,38.330813],[27.131555,38.33134],[27.131666,38.331544],[27.131714,38.331631],[27.13173,38.33166],[27.13204,38.332343],[27.132172,38.332666],[27.132286,38.332944],[27.132657,38.333861],[27.133014,38.334794],[27.133188,38.335181],[27.133388,38.335678],[27.13362,38.336179],[27.133888,38.336615],[27.133927,38.336378],[27.134124,38.335372]]]}},{"type":"Feature","properties":{"id":"TR-Y-35-013-M-0010","level":"yerlesim","type":"mahalle","parent_id":"TR-D-35-013","province_id":"TR-P-35","district_id":"TR-D-35-013","name":"Gazikent","source_raw_name":"GAZİKENT","source":"Kullanıcı tarafından sağlanan KML","source_label":"Kullanıcı tarafından sağlanan KML","source_name":"Izmir Mahalle KML - kullanici tarafindan saglandi"},"geometry":{"type":"Polygon","coordinates":[[[27.13913,38.315776],[27.140449,38.315979],[27.140177,38.31648],[27.139924,38.317016],[27.139919,38.317027],[27.140393,38.317016],[27.141034,38.31624],[27.141404,38.315663],[27.141507,38.315502],[27.1417,38.31504],[27.141832,38.314601],[27.141974,38.314136],[27.142078,38.313603],[27.14212,38.313261],[27.142152,38.312994],[27.142233,38.312333],[27.142287,38.311774],[27.142398,38.310766],[27.142497,38.309944],[27.142499,38.309861],[27.142499,38.309861],[27.142191,38.309855],[27.141466,38.309843],[27.140626,38.309849],[27.140477,38.309525],[27.140429,38.309434],[27.140408,38.309396],[27.140258,38.309189],[27.140187,38.30909],[27.140073,38.308932],[27.139988,38.308858],[27.139849,38.308736],[27.139634,38.308548],[27.139508,38.308437],[27.139423,38.308558],[27.13893,38.30911],[27.138634,38.309449],[27.138569,38.309525],[27.137999,38.310114],[27.137898,38.310219],[27.137556,38.310573],[27.137433,38.310689],[27.137066,38.311038],[27.137012,38.311075],[27.136803,38.311217],[27.136608,38.31135],[27.136163,38.311588],[27.135904,38.311727],[27.135653,38.311861],[27.135258,38.312076],[27.134881,38.312295],[27.13453,38.3125],[27.134422,38.312563],[27.133839,38.312991],[27.133602,38.313161],[27.133505,38.313232],[27.133343,38.313362],[27.132896,38.313721],[27.132526,38.314019],[27.132368,38.314209],[27.132206,38.314403],[27.132061,38.314749],[27.132874,38.315031],[27.134012,38.315415],[27.134347,38.315527],[27.135098,38.315727],[27.135423,38.315771],[27.135657,38.315802],[27.136221,38.315822],[27.136373,38.315812],[27.136783,38.315785],[27.137339,38.315706],[27.137375,38.315701],[27.137737,38.315618],[27.138075,38.315524],[27.138894,38.315331],[27.139321,38.31508],[27.13913,38.315776]]]}},{"type":"Feature","properties":{"id":"TR-Y-35-013-M-0011","level":"yerlesim","type":"mahalle","parent_id":"TR-D-35-013","province_id":"TR-P-35","district_id":"TR-D-35-013","name":"Hürriyet","source_raw_name":"HÜRRİYET","source":"Kullanıcı tarafından sağlanan KML","source_label":"Kullanıcı tarafından sağlanan KML","source_name":"Izmir Mahalle KML - kullanici tarafindan saglandi"},"geometry":{"type":"Polygon","coordinates":[[[27.17877,38.293129],[27.178845,38.295661],[27.176505,38.296982],[27.176529,38.297615],[27.17628,38.297752],[27.176026,38.297776],[27.17593,38.297787],[27.175417,38.297848],[27.175362,38.297854],[27.174651,38.297961],[27.174637,38.298001],[27.173799,38.299414],[27.173711,38.299375],[27.173328,38.300455],[27.173082,38.300402],[27.173019,38.301954],[27.173007,38.301966],[27.173118,38.30198],[27.173618,38.302044],[27.173634,38.302046],[27.173946,38.302093],[27.17426,38.302122],[27.17509,38.302233],[27.175556,38.30229],[27.176013,38.302358],[27.176741,38.302439],[27.17737,38.302502],[27.177942,38.302624],[27.177874,38.303024],[27.177804,38.303436],[27.177798,38.303483],[27.177755,38.303861],[27.177701,38.304323],[27.178057,38.304469],[27.178378,38.304931],[27.181494,38.304718],[27.182181,38.304786],[27.184544,38.306087],[27.186112,38.306251],[27.186659,38.30651],[27.186935,38.307181],[27.187211,38.307996],[27.189042,38.310032],[27.189014,38.310991],[27.189994,38.313075],[27.189691,38.313579],[27.189143,38.31382],[27.189019,38.314505],[27.189522,38.314438],[27.189525,38.314436],[27.190031,38.314379],[27.190439,38.314332],[27.194201,38.313466],[27.195063,38.313945],[27.19599,38.315497],[27.195885,38.31598],[27.195917,38.31615],[27.196119,38.316463],[27.196262,38.316814],[27.196058,38.317071],[27.195943,38.317376],[27.198036,38.317935],[27.199592,38.317555],[27.202132,38.317799],[27.201539,38.314457],[27.203454,38.314389],[27.202987,38.312753],[27.204617,38.312133],[27.206159,38.312035],[27.20722,38.312605],[27.20834,38.312794],[27.209945,38.313339],[27.210998,38.311335],[27.211478,38.310109],[27.211749,38.308976],[27.211996,38.305189],[27.212528,38.305233],[27.212875,38.305262],[27.21331,38.305275],[27.213775,38.30524],[27.21432,38.305167],[27.214772,38.305029],[27.215078,38.304936],[27.215757,38.304739],[27.216195,38.304662],[27.21672,38.304589],[27.217239,38.304521],[27.21795,38.304365],[27.21856,38.304281],[27.218962,38.30421],[27.219529,38.304101],[27.220245,38.303993],[27.220791,38.303854],[27.221188,38.303804],[27.221528,38.303792],[27.221925,38.303849],[27.222433,38.304028],[27.223019,38.304284],[27.223373,38.30446],[27.223538,38.304547],[27.223541,38.304548],[27.223542,38.304548],[27.224108,38.304676],[27.224575,38.304768],[27.224708,38.304774],[27.224711,38.304774],[27.224707,38.304773],[27.224314,38.303644],[27.224021,38.302392],[27.223987,38.301743],[27.224044,38.300992],[27.224041,38.299937],[27.224107,38.299604],[27.223486,38.299305],[27.223078,38.298966],[27.222786,38.298622],[27.222353,38.298258],[27.221956,38.29804],[27.221757,38.297949],[27.221411,38.29765],[27.221055,38.297259],[27.220989,38.29702],[27.220851,38.296761],[27.220719,38.296476],[27.220618,38.296183],[27.220478,38.295716],[27.220347,38.295217],[27.220311,38.29487],[27.220175,38.294281],[27.219936,38.293573],[27.21992,38.293524],[27.219806,38.293214],[27.219683,38.293009],[27.219636,38.292764],[27.219556,38.292296],[27.219539,38.29185],[27.21957,38.291569],[27.21956,38.291326],[27.219534,38.291041],[27.219485,38.290917],[27.219454,38.29084],[27.219171,38.290346],[27.218935,38.28998],[27.218881,38.289806],[27.218808,38.289408],[27.218753,38.288766],[27.218711,38.288291],[27.218597,38.288055],[27.218413,38.287841],[27.218354,38.287789],[27.218113,38.287572],[27.217691,38.28713],[27.217449,38.286862],[27.217212,38.28653],[27.215957,38.285172],[27.215666,38.284945],[27.215156,38.28442],[27.214832,38.284177],[27.214429,38.28399],[27.213613,38.283865],[27.212512,38.283812],[27.212268,38.283747],[27.212052,38.283689],[27.211549,38.283478],[27.211232,38.283303],[27.210936,38.283141],[27.210916,38.283128],[27.210887,38.283127],[27.210792,38.283116],[27.209965,38.283063],[27.209179,38.283028],[27.20859,38.283],[27.208181,38.283017],[27.207384,38.283092],[27.206665,38.283125],[27.206059,38.28317],[27.205009,38.283244],[27.20447,38.283325],[27.203597,38.283409],[27.201931,38.28353],[27.200442,38.283638],[27.199538,38.283584],[27.197833,38.283666],[27.196723,38.283693],[27.194718,38.283775],[27.193917,38.283804],[27.192653,38.283773],[27.191591,38.283743],[27.190188,38.283724],[27.18906,38.28371],[27.188105,38.283692],[27.18754,38.283665],[27.186979,38.284309],[27.17877,38.293129]]]}},{"type":"Feature","properties":{"id":"TR-Y-35-013-M-0012","level":"yerlesim","type":"mahalle","parent_id":"TR-D-35-013","province_id":"TR-P-35","district_id":"TR-D-35-013","name":"Irmak","source_raw_name":"IRMAK","source":"Kullanıcı tarafından sağlanan KML","source_label":"Kullanıcı tarafından sağlanan KML","source_name":"Izmir Mahalle KML - kullanici tarafindan saglandi"},"geometry":{"type":"Polygon","coordinates":[[[27.116274,38.330509],[27.116363,38.33049],[27.116456,38.33052],[27.116974,38.330364],[27.117349,38.33035],[27.117867,38.330357],[27.117923,38.33027],[27.118022,38.33017],[27.118065,38.330046],[27.118109,38.329844],[27.118181,38.329592],[27.11827,38.329444],[27.118432,38.329321],[27.118585,38.329401],[27.118713,38.329498],[27.118934,38.329538],[27.119348,38.329564],[27.119951,38.329671],[27.12043,38.329754],[27.120648,38.329803],[27.120985,38.330076],[27.121269,38.330354],[27.121472,38.33051],[27.121838,38.330599],[27.122041,38.330567],[27.122298,38.330522],[27.122302,38.330523],[27.122304,38.330522],[27.122851,38.330547],[27.123403,38.3306],[27.123551,38.330611],[27.123999,38.330845],[27.124387,38.331092],[27.124535,38.331249],[27.124653,38.33142],[27.124811,38.331572],[27.125155,38.331824],[27.125572,38.331995],[27.125785,38.3321],[27.126025,38.332298],[27.126534,38.332463],[27.126887,38.332579],[27.127017,38.33261],[27.127096,38.332669],[27.127184,38.332731],[27.127233,38.332767],[27.12726,38.33283],[27.127261,38.33283],[27.127322,38.332824],[27.127414,38.332767],[27.127497,38.332792],[27.12762,38.332763],[27.127772,38.332664],[27.128147,38.332499],[27.128351,38.332404],[27.128411,38.332339],[27.128539,38.33228],[27.128842,38.332319],[27.128847,38.332319],[27.128848,38.332319],[27.12925,38.332307],[27.129397,38.33226],[27.129465,38.332155],[27.129783,38.332139],[27.130243,38.332148],[27.130244,38.332148],[27.130249,38.332148],[27.130603,38.332035],[27.130893,38.331947],[27.131154,38.331892],[27.131348,38.331783],[27.131637,38.331728],[27.131637,38.331727],[27.131666,38.331544],[27.131555,38.33134],[27.131192,38.330813],[27.130896,38.330519],[27.130471,38.330096],[27.130399,38.330024],[27.130281,38.32991],[27.129534,38.329148],[27.129281,38.328808],[27.129238,38.328743],[27.129004,38.328392],[27.12874,38.327977],[27.128547,38.327604],[27.128486,38.327486],[27.12848,38.327475],[27.128306,38.327134],[27.128199,38.326924],[27.128151,38.326818],[27.128084,38.326666],[27.12801,38.326498],[27.127796,38.326051],[27.127692,38.325741],[27.127642,38.325591],[27.127594,38.325406],[27.12756,38.325274],[27.127044,38.3247],[27.126753,38.324365],[27.126641,38.32424],[27.126429,38.324001],[27.126374,38.323935],[27.126137,38.323646],[27.125983,38.323461],[27.12597,38.323446],[27.125884,38.323214],[27.125866,38.323144],[27.125816,38.322957],[27.125795,38.322817],[27.125535,38.322531],[27.12541,38.32219],[27.125371,38.322097],[27.125351,38.322065],[27.125326,38.322024],[27.125307,38.321993],[27.125275,38.321756],[27.125281,38.321657],[27.1253,38.321382],[27.125306,38.321291],[27.125316,38.321091],[27.125321,38.32104],[27.125298,38.321037],[27.125169,38.321022],[27.124782,38.321003],[27.124583,38.320981],[27.124312,38.32095],[27.123557,38.320896],[27.123359,38.320867],[27.12316,38.320811],[27.123052,38.320831],[27.122996,38.320782],[27.122883,38.320717],[27.122736,38.320711],[27.122623,38.320735],[27.122497,38.32079],[27.122397,38.32081],[27.122285,38.320786],[27.12215,38.320708],[27.12205,38.320541],[27.121998,38.320387],[27.121971,38.32009],[27.121906,38.319943],[27.12217,38.319748],[27.122174,38.319655],[27.12187,38.319512],[27.12167,38.319123],[27.121687,38.319041],[27.121865,38.318894],[27.121865,38.318836],[27.121804,38.318761],[27.120901,38.318256],[27.120793,38.318147],[27.120784,38.318051],[27.120883,38.317846],[27.120883,38.317685],[27.120921,38.31746],[27.120952,38.317251],[27.120869,38.317108],[27.120643,38.317012],[27.120435,38.317006],[27.120136,38.317085],[27.120023,38.317016],[27.119768,38.316621],[27.119655,38.316275],[27.119573,38.316218],[27.119497,38.316176],[27.119317,38.31611],[27.119002,38.316193],[27.118849,38.316218],[27.118683,38.316228],[27.118466,38.316024],[27.11825,38.315979],[27.11772,38.31585],[27.114681,38.315269],[27.114035,38.314767],[27.113549,38.314714],[27.113368,38.315581],[27.111789,38.316163],[27.1098,38.31632],[27.10945,38.316231],[27.109002,38.316184],[27.107643,38.315898],[27.107209,38.315234],[27.106469,38.315232],[27.106332,38.315268],[27.106051,38.31522],[27.105831,38.31525],[27.10558,38.315245],[27.105368,38.315155],[27.105018,38.31506],[27.104699,38.314982],[27.104395,38.314977],[27.104243,38.314947],[27.104114,38.314821],[27.103977,38.314672],[27.104031,38.314989],[27.104495,38.315258],[27.1041,38.315258],[27.103454,38.315103],[27.102973,38.314813],[27.101501,38.315545],[27.100947,38.315725],[27.100294,38.315719],[27.099724,38.315576],[27.098617,38.315138],[27.097918,38.315249],[27.097523,38.315745],[27.096496,38.314608],[27.094609,38.313765],[27.092044,38.311602],[27.087718,38.308961],[27.087646,38.309091],[27.087547,38.309258],[27.087442,38.309438],[27.087359,38.309609],[27.087264,38.30976],[27.087156,38.309906],[27.086961,38.310152],[27.086795,38.310302],[27.086597,38.310426],[27.086221,38.310644],[27.08601,38.310749],[27.085764,38.310854],[27.085381,38.311024],[27.085117,38.311111],[27.084833,38.311204],[27.084601,38.311305],[27.084497,38.311382],[27.084361,38.311499],[27.084189,38.311649],[27.084019,38.311786],[27.083845,38.311891],[27.083703,38.311941],[27.08348,38.311994],[27.083199,38.312058],[27.082895,38.312101],[27.082636,38.312165],[27.082216,38.312243],[27.081648,38.312375],[27.081045,38.312489],[27.080538,38.31259],[27.08002,38.312711],[27.079689,38.312793],[27.079407,38.312893],[27.079126,38.312989],[27.078816,38.313101],[27.078547,38.313229],[27.078263,38.313345],[27.077965,38.31348],[27.077701,38.313594],[27.077432,38.313676],[27.077185,38.313752],[27.076887,38.313843],[27.07671,38.313894],[27.076538,38.313953],[27.076284,38.314072],[27.076107,38.314172],[27.075921,38.314288],[27.075837,38.314414],[27.075744,38.314592],[27.075669,38.314825],[27.075611,38.31524],[27.075564,38.315919],[27.07557,38.31645],[27.075654,38.317291],[27.075678,38.317497],[27.075721,38.317568],[27.075941,38.317898],[27.076109,38.318083],[27.076271,38.318223],[27.076636,38.318439],[27.077071,38.318636],[27.077411,38.31878],[27.077723,38.318912],[27.077909,38.318984],[27.078172,38.319058],[27.078379,38.319088],[27.078799,38.319193],[27.079144,38.319255],[27.079564,38.319308],[27.079929,38.319317],[27.080227,38.319333],[27.080434,38.319371],[27.08052,38.319422],[27.080657,38.319559],[27.080836,38.319723],[27.0809,38.319808],[27.081004,38.319858],[27.081155,38.319915],[27.081254,38.319997],[27.081295,38.320105],[27.081309,38.320226],[27.081311,38.32041],[27.081349,38.320566],[27.081424,38.320657],[27.081547,38.320801],[27.08174,38.321045],[27.081961,38.321347],[27.082132,38.321614],[27.082279,38.321883],[27.082375,38.322123],[27.082462,38.322328],[27.082604,38.322582],[27.082752,38.322779],[27.082995,38.323032],[27.083305,38.323365],[27.083581,38.323632],[27.083951,38.323927],[27.084101,38.324014],[27.084319,38.324117],[27.084476,38.324189],[27.084538,38.324275],[27.084637,38.324408],[27.084808,38.324494],[27.084938,38.324513],[27.085051,38.32449],[27.085179,38.324452],[27.085354,38.324417],[27.085437,38.324447],[27.085521,38.324514],[27.085574,38.324674],[27.085587,38.32478],[27.085623,38.324885],[27.085697,38.324939],[27.085799,38.324967],[27.08601,38.325008],[27.086163,38.325034],[27.086374,38.3251],[27.086535,38.325189],[27.086641,38.325285],[27.086736,38.325382],[27.086864,38.32558],[27.086989,38.325752],[27.087098,38.325973],[27.08712,38.326069],[27.087195,38.326104],[27.087303,38.326071],[27.087463,38.326024],[27.087644,38.326019],[27.087826,38.326014],[27.08806,38.326055],[27.088306,38.326128],[27.088485,38.326214],[27.088636,38.32638],[27.088696,38.326497],[27.088736,38.326714],[27.088764,38.326923],[27.088809,38.327067],[27.088885,38.32722],[27.088994,38.327359],[27.089182,38.327585],[27.089369,38.327863],[27.089471,38.328074],[27.089573,38.328237],[27.089661,38.328396],[27.089784,38.328483],[27.089946,38.328549],[27.090148,38.328615],[27.09026,38.328662],[27.090358,38.328754],[27.090404,38.328804],[27.090421,38.328928],[27.090484,38.329039],[27.090702,38.32923],[27.090856,38.329387],[27.09095,38.329516],[27.090969,38.3296],[27.090984,38.329758],[27.091017,38.329893],[27.09108,38.329965],[27.091191,38.330089],[27.091362,38.330161],[27.091644,38.330244],[27.091769,38.330291],[27.091953,38.330425],[27.092143,38.330543],[27.092274,38.330693],[27.092324,38.330801],[27.092343,38.330927],[27.092354,38.33108],[27.092559,38.331258],[27.092757,38.331406],[27.09294,38.331588],[27.093086,38.331706],[27.105696,38.329191],[27.110168,38.328038],[27.111358,38.329552],[27.112118,38.329973],[27.113438,38.330403],[27.113766,38.330519],[27.11396,38.330612],[27.114174,38.330706],[27.114495,38.331052],[27.115032,38.330778],[27.115203,38.330732],[27.115227,38.330721],[27.115462,38.330637],[27.115705,38.33059],[27.116274,38.330509]]]}},{"type":"Feature","properties":{"id":"TR-Y-35-013-M-0013","level":"yerlesim","type":"mahalle","parent_id":"TR-D-35-013","province_id":"TR-P-35","district_id":"TR-D-35-013","name":"Menderes","source_raw_name":"MENDERES","source":"Kullanıcı tarafından sağlanan KML","source_label":"Kullanıcı tarafından sağlanan KML","source_name":"Izmir Mahalle KML - kullanici tarafindan saglandi"},"geometry":{"type":"Polygon","coordinates":[[[27.173018,38.301963],[27.173082,38.300402],[27.173328,38.300455],[27.173711,38.299375],[27.173799,38.299414],[27.174637,38.298001],[27.174651,38.297961],[27.174279,38.298053],[27.173816,38.298166],[27.173307,38.29826],[27.173281,38.298266],[27.172883,38.298348],[27.172062,38.298482],[27.171546,38.298393],[27.17115,38.298294],[27.170345,38.29809],[27.169397,38.297967],[27.169526,38.297495],[27.169597,38.297293],[27.169636,38.297124],[27.169754,38.296923],[27.170106,38.29649],[27.170293,38.296027],[27.170297,38.29601],[27.170421,38.295476],[27.170462,38.2953],[27.170467,38.295109],[27.170468,38.29506],[27.170474,38.294746],[27.170474,38.29447],[27.170475,38.294314],[27.170421,38.294018],[27.170393,38.293862],[27.170287,38.293857],[27.170254,38.293789],[27.170202,38.293655],[27.170218,38.293392],[27.170185,38.293168],[27.170135,38.29294],[27.170066,38.292748],[27.17005,38.292682],[27.169899,38.292043],[27.169897,38.292016],[27.16984,38.291375],[27.169846,38.291203],[27.169773,38.291164],[27.169645,38.291159],[27.169326,38.291198],[27.169019,38.291228],[27.168634,38.291329],[27.168389,38.291421],[27.168051,38.291516],[27.167719,38.291583],[27.167537,38.291563],[27.167385,38.291494],[27.167161,38.291319],[27.166556,38.29108],[27.166248,38.291008],[27.165618,38.29103],[27.16399,38.290186],[27.164088,38.29099],[27.164116,38.29115],[27.164366,38.291803],[27.164491,38.291856],[27.164521,38.291863],[27.16554,38.29319],[27.166232,38.293042],[27.166347,38.293328],[27.166494,38.293325],[27.166561,38.293429],[27.166542,38.293469],[27.166392,38.29357],[27.165887,38.293809],[27.165768,38.294396],[27.16577,38.294644],[27.16537,38.294694],[27.165323,38.294782],[27.165068,38.294825],[27.164016,38.29487],[27.162856,38.295011],[27.162857,38.295493],[27.162647,38.295534],[27.162714,38.295728],[27.162813,38.296015],[27.162782,38.296032],[27.162861,38.296154],[27.162908,38.296225],[27.163239,38.296732],[27.163368,38.29693],[27.164237,38.298259],[27.164501,38.298663],[27.164545,38.29873],[27.164608,38.29938],[27.16461,38.299399],[27.164638,38.299676],[27.164639,38.299686],[27.164632,38.299781],[27.164616,38.300013],[27.1646,38.300256],[27.164589,38.30041],[27.164851,38.300465],[27.16526,38.300484],[27.165673,38.300295],[27.166105,38.300204],[27.166602,38.300208],[27.166555,38.300281],[27.166319,38.300532],[27.166053,38.300804],[27.165689,38.301161],[27.166124,38.301228],[27.166628,38.301279],[27.167093,38.301327],[27.1674,38.301358],[27.167831,38.301392],[27.168024,38.301408],[27.168413,38.301439],[27.168594,38.301467],[27.169069,38.301523],[27.169117,38.301529],[27.169139,38.301531],[27.169627,38.301563],[27.170028,38.301598],[27.170139,38.301607],[27.170491,38.30166],[27.171093,38.301734],[27.171386,38.301791],[27.17174,38.301826],[27.171958,38.30185],[27.17236,38.301877],[27.172539,38.301909],[27.173018,38.301963]]]}},{"type":"Feature","properties":{"id":"TR-Y-35-013-M-0014","level":"yerlesim","type":"mahalle","parent_id":"TR-D-35-013","province_id":"TR-P-35","district_id":"TR-D-35-013","name":"Sevgi","source_raw_name":"SEVGİ","source":"Kullanıcı tarafından sağlanan KML","source_label":"Kullanıcı tarafından sağlanan KML","source_name":"Izmir Mahalle KML - kullanici tarafindan saglandi"},"geometry":{"type":"Polygon","coordinates":[[[27.10334,38.300729],[27.104596,38.301918],[27.104224,38.302212],[27.104156,38.303588],[27.104553,38.304726],[27.105428,38.306097],[27.107952,38.306615],[27.109408,38.30669],[27.110611,38.306536],[27.116726,38.307371],[27.120157,38.308024],[27.122706,38.308797],[27.123162,38.308244],[27.124924,38.311674],[27.126159,38.313912],[27.126926,38.314183],[27.127659,38.314427],[27.128114,38.313991],[27.129739,38.314064],[27.130005,38.314104],[27.130323,38.314191],[27.130482,38.314233],[27.131111,38.31443],[27.131396,38.314528],[27.132061,38.314749],[27.132206,38.314403],[27.132368,38.314209],[27.132526,38.314019],[27.132896,38.313721],[27.133343,38.313362],[27.133505,38.313232],[27.133602,38.313161],[27.133839,38.312991],[27.134422,38.312563],[27.13453,38.3125],[27.134881,38.312295],[27.135258,38.312076],[27.135653,38.311861],[27.135904,38.311727],[27.136163,38.311588],[27.136608,38.31135],[27.136803,38.311217],[27.137012,38.311075],[27.137066,38.311038],[27.137433,38.310689],[27.137556,38.310573],[27.137898,38.310219],[27.137999,38.310114],[27.138569,38.309525],[27.138634,38.309449],[27.13893,38.30911],[27.139423,38.308558],[27.139508,38.308437],[27.139634,38.308548],[27.139849,38.308736],[27.139988,38.308858],[27.140073,38.308932],[27.140187,38.30909],[27.140258,38.309189],[27.140408,38.309396],[27.140429,38.309434],[27.140477,38.309525],[27.140626,38.309849],[27.141466,38.309843],[27.142191,38.309855],[27.142499,38.309861],[27.142511,38.309099],[27.142511,38.309099],[27.142473,38.308776],[27.142473,38.308776],[27.14246,38.30867],[27.14246,38.30867],[27.142431,38.308431],[27.142431,38.308431],[27.142277,38.307682],[27.142174,38.307377],[27.141969,38.306772],[27.141805,38.306447],[27.141745,38.306326],[27.141552,38.305943],[27.141541,38.305925],[27.141076,38.305179],[27.140426,38.304223],[27.140108,38.303417],[27.140055,38.303143],[27.140055,38.303142],[27.139938,38.302545],[27.139938,38.302545],[27.139952,38.301773],[27.139952,38.301773],[27.140108,38.300708],[27.140108,38.300707],[27.140238,38.299928],[27.140238,38.299928],[27.140258,38.299795],[27.140258,38.299795],[27.140326,38.299318],[27.140326,38.299317],[27.140376,38.298966],[27.140376,38.298966],[27.1404,38.298805],[27.1404,38.298804],[27.140427,38.298635],[27.140427,38.298635],[27.140488,38.298256],[27.140488,38.298255],[27.140696,38.296963],[27.140696,38.296963],[27.140855,38.29605],[27.140855,38.29605],[27.140889,38.295855],[27.140975,38.295505],[27.141182,38.294659],[27.141544,38.293643],[27.141989,38.292442],[27.142622,38.29071],[27.142667,38.290618],[27.142664,38.290619],[27.142651,38.29062],[27.14229,38.290667],[27.142044,38.290697],[27.140739,38.290859],[27.140001,38.291006],[27.139837,38.291149],[27.139714,38.291218],[27.139467,38.291228],[27.139282,38.291266],[27.139188,38.291285],[27.139057,38.291297],[27.138938,38.291299],[27.138845,38.291393],[27.138793,38.291445],[27.138746,38.291539],[27.138691,38.291855],[27.138037,38.292716],[27.137169,38.293117],[27.136881,38.293359],[27.136695,38.293425],[27.136582,38.293506],[27.136461,38.293992],[27.135946,38.294348],[27.13553,38.294613],[27.135372,38.294719],[27.134803,38.294895],[27.134053,38.295119],[27.1337,38.295278],[27.133296,38.295264],[27.133131,38.295377],[27.132718,38.295537],[27.132137,38.295829],[27.131501,38.296095],[27.131434,38.296191],[27.131316,38.296569],[27.131096,38.296799],[27.130979,38.296919],[27.130796,38.297217],[27.130577,38.29761],[27.130414,38.297832],[27.130162,38.298021],[27.129991,38.298326],[27.12995,38.298339],[27.129815,38.298408],[27.129598,38.298407],[27.129121,38.298906],[27.128463,38.299405],[27.128411,38.299444],[27.128016,38.299725],[27.12773,38.299928],[27.127402,38.30016],[27.127072,38.300405],[27.126859,38.300515],[27.126581,38.300576],[27.126475,38.300595],[27.126368,38.300614],[27.12626,38.300604],[27.126002,38.30062],[27.125979,38.300621],[27.125565,38.300638],[27.1252,38.300878],[27.124568,38.301519],[27.123648,38.302274],[27.123099,38.302496],[27.122475,38.30248],[27.122054,38.302212],[27.121636,38.301736],[27.121161,38.300978],[27.120468,38.300353],[27.119671,38.299929],[27.117838,38.299217],[27.117257,38.299085],[27.116188,38.298842],[27.115773,38.298794],[27.11522,38.29873],[27.113339,38.29869],[27.111211,38.298783],[27.109636,38.298853],[27.108414,38.29897],[27.106846,38.29946],[27.106526,38.299749],[27.106219,38.300027],[27.104824,38.300484],[27.103371,38.300721],[27.10334,38.300729]]]}},{"type":"Feature","properties":{"id":"TR-Y-35-013-M-0015","level":"yerlesim","type":"mahalle","parent_id":"TR-D-35-013","province_id":"TR-P-35","district_id":"TR-D-35-013","name":"Yeşil","source_raw_name":"YEŞİL","source":"Kullanıcı tarafından sağlanan KML","source_label":"Kullanıcı tarafından sağlanan KML","source_name":"Izmir Mahalle KML - kullanici tarafindan saglandi"},"geometry":{"type":"Polygon","coordinates":[[[27.087718,38.308961],[27.092044,38.311602],[27.094609,38.313765],[27.096496,38.314608],[27.097523,38.315745],[27.097918,38.315249],[27.098617,38.315138],[27.099724,38.315576],[27.100294,38.315719],[27.100947,38.315725],[27.101501,38.315545],[27.102973,38.314813],[27.103454,38.315103],[27.1041,38.315258],[27.104495,38.315258],[27.104031,38.314989],[27.103977,38.314672],[27.104114,38.314821],[27.104243,38.314947],[27.104395,38.314977],[27.104699,38.314982],[27.105018,38.31506],[27.105368,38.315155],[27.10558,38.315245],[27.105831,38.31525],[27.106051,38.31522],[27.106332,38.315268],[27.106469,38.315232],[27.107209,38.315234],[27.107643,38.315898],[27.109002,38.316184],[27.10945,38.316231],[27.1098,38.31632],[27.111789,38.316163],[27.113368,38.315581],[27.113549,38.314714],[27.114035,38.314767],[27.114681,38.315269],[27.11772,38.31585],[27.11825,38.315979],[27.118466,38.316024],[27.118683,38.316228],[27.118849,38.316218],[27.119002,38.316193],[27.119317,38.31611],[27.119497,38.316176],[27.119573,38.316218],[27.119655,38.316275],[27.119768,38.316621],[27.120023,38.317016],[27.120136,38.317085],[27.120435,38.317006],[27.120643,38.317012],[27.120869,38.317108],[27.120952,38.317251],[27.120921,38.31746],[27.120883,38.317685],[27.120883,38.317846],[27.120784,38.318051],[27.120793,38.318147],[27.120901,38.318256],[27.121804,38.318761],[27.121865,38.318836],[27.121865,38.318894],[27.121687,38.319041],[27.12167,38.319123],[27.12187,38.319512],[27.122174,38.319655],[27.12217,38.319748],[27.121906,38.319943],[27.121971,38.32009],[27.121998,38.320387],[27.12205,38.320541],[27.12215,38.320708],[27.122285,38.320786],[27.122397,38.32081],[27.122497,38.32079],[27.122623,38.320735],[27.122736,38.320711],[27.122883,38.320717],[27.122996,38.320782],[27.123052,38.320831],[27.12316,38.320811],[27.123359,38.320867],[27.123557,38.320896],[27.124312,38.32095],[27.124583,38.320981],[27.124782,38.321003],[27.125169,38.321022],[27.125298,38.321037],[27.125321,38.32104],[27.125448,38.321055],[27.125873,38.321094],[27.125965,38.32106],[27.126164,38.320903],[27.126275,38.320837],[27.126351,38.320805],[27.126592,38.3209],[27.126993,38.32059],[27.127114,38.320496],[27.127481,38.320151],[27.127607,38.320033],[27.12787,38.319781],[27.12808,38.31958],[27.128225,38.31946],[27.128424,38.319294],[27.129108,38.318652],[27.129392,38.318386],[27.129759,38.318028],[27.129928,38.317863],[27.130054,38.31774],[27.130138,38.31766],[27.130506,38.31731],[27.130867,38.316925],[27.130908,38.316872],[27.131291,38.316371],[27.131382,38.316262],[27.131639,38.315956],[27.131718,38.315772],[27.131831,38.315511],[27.132017,38.314856],[27.132061,38.314749],[27.131396,38.314528],[27.131111,38.31443],[27.130482,38.314233],[27.130323,38.314191],[27.130005,38.314104],[27.129739,38.314064],[27.128114,38.313991],[27.127659,38.314427],[27.126926,38.314183],[27.126159,38.313912],[27.124924,38.311674],[27.123162,38.308244],[27.122706,38.308797],[27.120157,38.308024],[27.116726,38.307371],[27.110611,38.306536],[27.109408,38.30669],[27.107952,38.306615],[27.105428,38.306097],[27.104553,38.304726],[27.104156,38.303588],[27.104224,38.302212],[27.104596,38.301918],[27.10334,38.300729],[27.09965,38.30162],[27.095827,38.301959],[27.095529,38.302098],[27.095326,38.302214],[27.094931,38.302421],[27.094608,38.302622],[27.094309,38.30279],[27.094036,38.302929],[27.09383,38.303047],[27.093606,38.303189],[27.093408,38.3033],[27.093365,38.30335],[27.093364,38.303351],[27.092975,38.303579],[27.092833,38.303674],[27.092702,38.303802],[27.092574,38.303969],[27.092522,38.304083],[27.092483,38.304234],[27.092468,38.30437],[27.092453,38.304508],[27.09245,38.304663],[27.092472,38.304923],[27.092472,38.305152],[27.092489,38.305319],[27.092459,38.30549],[27.092406,38.305686],[27.092342,38.305849],[27.092159,38.306102],[27.091911,38.306376],[27.091751,38.306577],[27.091632,38.306709],[27.091446,38.306923],[27.091332,38.307058],[27.091193,38.307196],[27.091006,38.307373],[27.090881,38.307484],[27.090722,38.307573],[27.090529,38.307708],[27.090321,38.307831],[27.09003,38.307985],[27.089746,38.308108],[27.089534,38.30817],[27.08922,38.308265],[27.088906,38.308324],[27.088605,38.308393],[27.088323,38.30848],[27.088184,38.308544],[27.088035,38.308639],[27.087881,38.308739],[27.087792,38.308852],[27.087718,38.308961]]]}},{"type":"Feature","properties":{"id":"TR-Y-35-013-M-0016","level":"yerlesim","type":"mahalle","parent_id":"TR-D-35-013","province_id":"TR-P-35","district_id":"TR-D-35-013","name":"Zafer","source_raw_name":"ZAFER","source":"Kullanıcı tarafından sağlanan KML","source_label":"Kullanıcı tarafından sağlanan KML","source_name":"Izmir Mahalle KML - kullanici tarafindan saglandi"},"geometry":{"type":"Polygon","coordinates":[[[27.115598,38.349044],[27.115271,38.348913],[27.115021,38.34877],[27.11483,38.348717],[27.114695,38.348686],[27.114557,38.348741],[27.114279,38.348922],[27.1142,38.348974],[27.114123,38.348992],[27.114065,38.349006],[27.113942,38.34903],[27.113806,38.349056],[27.113652,38.349086],[27.113352,38.349156],[27.113313,38.349168],[27.113163,38.349207],[27.113126,38.349141],[27.113014,38.348948],[27.112794,38.348786],[27.112729,38.348745],[27.112527,38.348618],[27.112495,38.34859],[27.112491,38.348507],[27.112453,38.348509],[27.112418,38.348438],[27.112288,38.348183],[27.112331,38.34794],[27.112354,38.347848],[27.112518,38.347887],[27.112511,38.347642],[27.112283,38.347588],[27.112208,38.347453],[27.11208,38.34721],[27.112117,38.347026],[27.112091,38.346891],[27.112069,38.346722],[27.111987,38.346603],[27.112001,38.346449],[27.111981,38.346305],[27.111866,38.346218],[27.111679,38.346079],[27.111551,38.345983],[27.111597,38.345822],[27.111619,38.345745],[27.112254,38.34584],[27.112533,38.345822],[27.112812,38.345656],[27.113354,38.345438],[27.113586,38.345167],[27.113771,38.344984],[27.113933,38.345141],[27.114044,38.345244],[27.114189,38.345321],[27.11428,38.345399],[27.114393,38.345528],[27.114493,38.345639],[27.11454,38.345709],[27.114778,38.345923],[27.115071,38.345929],[27.115033,38.34569],[27.115063,38.345374],[27.114775,38.343585],[27.114735,38.343171],[27.114588,38.342384],[27.11436,38.341365],[27.11426,38.340726],[27.113975,38.338896],[27.11386,38.338158],[27.113687,38.337043],[27.113832,38.336954],[27.114027,38.336565],[27.114244,38.336146],[27.11433,38.335876],[27.114348,38.335526],[27.114301,38.335011],[27.114369,38.334819],[27.1147,38.334515],[27.115081,38.334172],[27.115285,38.333914],[27.115484,38.333678],[27.115634,38.333485],[27.115665,38.333249],[27.115737,38.332887],[27.115814,38.332444],[27.115945,38.332122],[27.11618,38.331711],[27.116257,38.331521],[27.116355,38.33128],[27.116456,38.33052],[27.116363,38.33049],[27.116274,38.330509],[27.115705,38.33059],[27.115462,38.330637],[27.115227,38.330721],[27.115203,38.330732],[27.115032,38.330778],[27.114495,38.331052],[27.114174,38.330706],[27.11396,38.330612],[27.113766,38.330519],[27.113438,38.330403],[27.112118,38.329973],[27.111358,38.329552],[27.110168,38.328038],[27.105696,38.329191],[27.093086,38.331706],[27.093157,38.331825],[27.093173,38.331953],[27.093199,38.33216],[27.093222,38.332345],[27.093254,38.332526],[27.09327,38.332656],[27.093279,38.332807],[27.093312,38.332952],[27.093368,38.333105],[27.093464,38.333289],[27.093543,38.333422],[27.093565,38.333541],[27.093589,38.33366],[27.093582,38.333802],[27.093556,38.33396],[27.09351,38.334123],[27.093486,38.334201],[27.09346,38.334342],[27.093482,38.334448],[27.093536,38.334542],[27.093578,38.33467],[27.093596,38.334805],[27.093585,38.33494],[27.093538,38.335008],[27.093429,38.335083],[27.093321,38.335145],[27.093311,38.335226],[27.093357,38.335317],[27.09345,38.335476],[27.093491,38.335611],[27.093447,38.3357],[27.093366,38.335839],[27.093295,38.335945],[27.093252,38.336082],[27.093272,38.336144],[27.093314,38.336206],[27.093362,38.336305],[27.093372,38.336476],[27.093328,38.336698],[27.093267,38.336889],[27.093154,38.337044],[27.09299,38.337173],[27.092938,38.337343],[27.092919,38.337482],[27.092975,38.337594],[27.093144,38.337636],[27.093365,38.337703],[27.093511,38.337775],[27.093596,38.337859],[27.093696,38.338004],[27.093732,38.338113],[27.097984,38.341898],[27.098598,38.343334],[27.10001,38.345869],[27.100692,38.346488],[27.103027,38.3468],[27.103791,38.347744],[27.103915,38.347898],[27.104191,38.348037],[27.104446,38.34817],[27.104883,38.348828],[27.104714,38.349672],[27.104842,38.34992],[27.105321,38.350196],[27.105599,38.350529],[27.105945,38.35091],[27.10613,38.35156],[27.106239,38.351877],[27.106544,38.352246],[27.106842,38.352278],[27.107313,38.352308],[27.107915,38.352093],[27.108248,38.352376],[27.108454,38.352547],[27.108481,38.352872],[27.108567,38.353043],[27.108648,38.35334],[27.10893,38.353582],[27.109061,38.353723],[27.109262,38.353818],[27.109623,38.353901],[27.109847,38.353999],[27.110322,38.354141],[27.110613,38.354137],[27.110987,38.354108],[27.111123,38.354078],[27.11123,38.354142],[27.111518,38.354348],[27.11171,38.354795],[27.111825,38.354857],[27.112,38.354903],[27.112437,38.354931],[27.11256,38.354927],[27.112863,38.354992],[27.11304,38.355123],[27.11326,38.355239],[27.113435,38.355313],[27.113862,38.355271],[27.114273,38.355212],[27.11456,38.355047],[27.114777,38.354918],[27.115219,38.354608],[27.115297,38.354449],[27.115329,38.354338],[27.11546,38.35418],[27.115675,38.353994],[27.115915,38.35388],[27.116164,38.353909],[27.11631,38.354019],[27.116413,38.354036],[27.116426,38.353859],[27.116324,38.353768],[27.116351,38.353581],[27.116453,38.353495],[27.116493,38.353222],[27.116378,38.353104],[27.116274,38.352696],[27.116494,38.352645],[27.11763,38.352357],[27.118427,38.35207],[27.118733,38.351953],[27.119595,38.351625],[27.120746,38.351085],[27.120809,38.351049],[27.121979,38.350387],[27.123018,38.349771],[27.124399,38.348916],[27.125967,38.347949],[27.125967,38.347948],[27.127302,38.347237],[27.128572,38.346763],[27.129389,38.346528],[27.130065,38.346375],[27.13028,38.346338],[27.130853,38.346238],[27.131658,38.346153],[27.132101,38.346106],[27.132432,38.346101],[27.132454,38.345716],[27.1325,38.345533],[27.132645,38.344959],[27.132861,38.344377],[27.133147,38.343684],[27.133161,38.343645],[27.133245,38.343409],[27.133305,38.343241],[27.133366,38.34284],[27.133369,38.342521],[27.13337,38.34242],[27.133368,38.342365],[27.133329,38.340451],[27.13337,38.339513],[27.133551,38.338428],[27.133693,38.337724],[27.133746,38.337468],[27.133867,38.336741],[27.133888,38.336615],[27.13362,38.336179],[27.133388,38.335678],[27.133363,38.335615],[27.133293,38.335632],[27.133092,38.33577],[27.132848,38.336079],[27.13267,38.336445],[27.132597,38.336543],[27.132645,38.33665],[27.132748,38.336622],[27.133383,38.336651],[27.13341,38.336688],[27.133417,38.336757],[27.133532,38.336778],[27.133646,38.336883],[27.13362,38.337146],[27.133595,38.337319],[27.132661,38.337277],[27.132662,38.337702],[27.132605,38.338341],[27.132557,38.338869],[27.132698,38.33898],[27.132938,38.339305],[27.132931,38.339338],[27.132471,38.339273],[27.132375,38.339743],[27.133138,38.339908],[27.133105,38.340486],[27.133023,38.340963],[27.13296,38.341744],[27.13292,38.341967],[27.132855,38.342334],[27.132523,38.342915],[27.132221,38.343368],[27.131779,38.343702],[27.131371,38.34406],[27.130849,38.344444],[27.130562,38.344635],[27.13026,38.344742],[27.129988,38.344874],[27.12964,38.34516],[27.129111,38.345459],[27.128613,38.345712],[27.12746,38.346281],[27.126933,38.346259],[27.126464,38.346236],[27.12604,38.346201],[27.125586,38.346177],[27.125072,38.346166],[27.124708,38.346178],[27.124315,38.346167],[27.123986,38.34613],[27.122941,38.345924],[27.121961,38.345878],[27.120951,38.344968],[27.120378,38.344539],[27.119903,38.344686],[27.11928,38.344984],[27.118503,38.345369],[27.117852,38.345688],[27.116873,38.34617],[27.116279,38.346563],[27.116297,38.346565],[27.11628,38.346608],[27.116266,38.346638],[27.116174,38.347017],[27.11605,38.347656],[27.115894,38.348501],[27.115851,38.348739],[27.115831,38.348848],[27.11597,38.348899],[27.115876,38.349385],[27.115598,38.349044]]]}},{"type":"Feature","properties":{"id":"TR-Y-35-013-M-SRC-TRD35013DOKUZEYLUL","level":"yerlesim","type":"mahalle","parent_id":"TR-D-35-013","province_id":"TR-P-35","district_id":"TR-D-35-013","name":"Dokuz Eylül","source_raw_name":"DOKUZ EYLÜL","source":"Kullanıcı tarafından sağlanan KML","source_label":"Kullanıcı tarafından sağlanan KML","source_name":"Izmir Mahalle KML - kullanici tarafindan saglandi","source_only":true,"source_only_keep_separate":true,"source_match_status":"unmatched"},"geometry":{"type":"Polygon","coordinates":[[[27.142622,38.29071],[27.141989,38.292442],[27.141544,38.293643],[27.141182,38.294659],[27.140975,38.295505],[27.140889,38.295855],[27.140855,38.29605],[27.140855,38.29605],[27.140696,38.296963],[27.140696,38.296963],[27.140488,38.298255],[27.140488,38.298256],[27.140427,38.298635],[27.140427,38.298635],[27.1404,38.298804],[27.1404,38.298805],[27.140376,38.298966],[27.140376,38.298966],[27.140326,38.299317],[27.140326,38.299318],[27.140258,38.299795],[27.140258,38.299795],[27.140238,38.299928],[27.140238,38.299928],[27.140108,38.300707],[27.140108,38.300708],[27.139952,38.301773],[27.139952,38.301773],[27.139938,38.302545],[27.139938,38.302545],[27.140055,38.303142],[27.140055,38.303143],[27.140108,38.303417],[27.140426,38.304223],[27.141076,38.305179],[27.14154,38.305925],[27.141552,38.305943],[27.141745,38.306326],[27.141805,38.306447],[27.141969,38.306772],[27.142174,38.307377],[27.142277,38.307682],[27.142431,38.308431],[27.142431,38.308431],[27.14246,38.30867],[27.14246,38.30867],[27.142473,38.308776],[27.142473,38.308776],[27.142511,38.309099],[27.142511,38.309099],[27.142499,38.309861],[27.142499,38.309861],[27.142497,38.309944],[27.142398,38.310766],[27.142287,38.311774],[27.142233,38.312333],[27.142152,38.312994],[27.14212,38.313261],[27.142078,38.313603],[27.141974,38.314136],[27.141832,38.314601],[27.1417,38.31504],[27.141507,38.315502],[27.141404,38.315663],[27.141034,38.31624],[27.140393,38.317016],[27.139845,38.317679],[27.139664,38.317852],[27.139607,38.317921],[27.139457,38.318102],[27.139068,38.318614],[27.138984,38.318724],[27.138952,38.318766],[27.138882,38.318882],[27.138791,38.319034],[27.138744,38.319114],[27.138555,38.319428],[27.138526,38.319477],[27.138421,38.319651],[27.1384,38.319686],[27.138198,38.320062],[27.138161,38.32013],[27.137861,38.320687],[27.13776,38.320875],[27.137649,38.321163],[27.137612,38.32126],[27.137476,38.321612],[27.137332,38.322065],[27.137231,38.322382],[27.137162,38.322597],[27.137075,38.323075],[27.136994,38.323523],[27.136969,38.32366],[27.136932,38.323863],[27.136848,38.324265],[27.136827,38.324368],[27.136743,38.324771],[27.136703,38.324963],[27.136668,38.325194],[27.136642,38.325343],[27.136578,38.325791],[27.136552,38.325971],[27.136539,38.326041],[27.13649,38.326308],[27.13635,38.327086],[27.136313,38.327291],[27.136249,38.327642],[27.13621,38.327911],[27.1362,38.327978],[27.136187,38.328071],[27.13616,38.328207],[27.136138,38.32832],[27.136014,38.328958],[27.135806,38.329777],[27.135694,38.330041],[27.135637,38.330177],[27.135432,38.330684],[27.135332,38.33093],[27.135086,38.331564],[27.134858,38.332151],[27.134694,38.332694],[27.134615,38.332955],[27.134411,38.333864],[27.134323,38.334329],[27.134153,38.335222],[27.134124,38.335372],[27.135463,38.335559],[27.135618,38.334888],[27.135663,38.334663],[27.136158,38.334771],[27.136461,38.334853],[27.136733,38.334926],[27.136993,38.335],[27.137056,38.335018],[27.13714,38.335075],[27.137224,38.335167],[27.137308,38.335292],[27.137323,38.335318],[27.137222,38.335649],[27.137191,38.335722],[27.139509,38.335918],[27.13963,38.335287],[27.139642,38.334633],[27.14206,38.334593],[27.141546,38.335755],[27.14409,38.336437],[27.145652,38.337117],[27.146641,38.338056],[27.149715,38.339131],[27.152409,38.339446],[27.153962,38.340133],[27.164017,38.345703],[27.164578,38.346283],[27.164941,38.346577],[27.165076,38.346754],[27.165168,38.34677],[27.166035,38.34681],[27.16694,38.346748],[27.167573,38.346635],[27.168271,38.346501],[27.16884,38.346378],[27.169538,38.346173],[27.170636,38.345962],[27.171723,38.345753],[27.172421,38.345782],[27.173133,38.345832],[27.174581,38.34581],[27.17526,38.34558],[27.175925,38.345474],[27.176834,38.345097],[27.177222,38.344991],[27.177532,38.344711],[27.178597,38.344465],[27.179118,38.344184],[27.179306,38.343983],[27.179849,38.343641],[27.180569,38.34309],[27.180605,38.341851],[27.180639,38.341076],[27.180783,38.340489],[27.181118,38.339174],[27.181316,38.339005],[27.181247,38.33862],[27.18117,38.338303],[27.181049,38.338126],[27.181012,38.337969],[27.180956,38.337851],[27.181043,38.337505],[27.181054,38.337376],[27.181162,38.337146],[27.18124,38.33709],[27.181521,38.336973],[27.181836,38.336912],[27.182105,38.336907],[27.182327,38.33693],[27.18247,38.336888],[27.182682,38.336605],[27.182786,38.336269],[27.18285,38.335934],[27.1828,38.335686],[27.182706,38.335519],[27.182608,38.335374],[27.182464,38.335185],[27.182362,38.335024],[27.181869,38.334313],[27.181595,38.333941],[27.181353,38.333667],[27.180915,38.333224],[27.180844,38.332963],[27.180656,38.332709],[27.180176,38.331999],[27.180074,38.331854],[27.179901,38.331681],[27.179713,38.331497],[27.179488,38.331327],[27.179062,38.331055],[27.179025,38.33079],[27.179027,38.330788],[27.179061,38.330626],[27.179123,38.330475],[27.179234,38.330342],[27.179329,38.330219],[27.179472,38.330073],[27.179626,38.329961],[27.179747,38.329813],[27.179823,38.329647],[27.17988,38.329418],[27.179886,38.32914],[27.179908,38.328674],[27.179915,38.328449],[27.179934,38.328278],[27.179931,38.328277],[27.179931,38.328276],[27.179988,38.328109],[27.180043,38.327864],[27.180066,38.327619],[27.180088,38.3274],[27.180101,38.327234],[27.180193,38.326972],[27.180262,38.326808],[27.180347,38.326557],[27.18043,38.326355],[27.180508,38.326111],[27.180583,38.325819],[27.180767,38.325713],[27.180738,38.325162],[27.180746,38.324883],[27.180973,38.324704],[27.181817,38.32461],[27.181733,38.323959],[27.181485,38.322723],[27.181403,38.322444],[27.181356,38.32198],[27.181482,38.321357],[27.181518,38.321282],[27.18153,38.321256],[27.17923,38.319622],[27.177307,38.318682],[27.174892,38.31744],[27.172856,38.317598],[27.17246,38.317819],[27.171998,38.318149],[27.171736,38.318404],[27.171442,38.318706],[27.170899,38.319336],[27.170457,38.319679],[27.170606,38.318874],[27.170465,38.318544],[27.17044,38.318484],[27.169854,38.31755],[27.16949,38.317285],[27.169173,38.317054],[27.168335,38.31648],[27.168121,38.316286],[27.167439,38.31567],[27.166845,38.315219],[27.165949,38.314841],[27.164432,38.314196],[27.163983,38.313706],[27.162543,38.312919],[27.161573,38.312403],[27.161378,38.312224],[27.160798,38.311632],[27.160528,38.311366],[27.159418,38.310497],[27.158483,38.309811],[27.158013,38.309527],[27.157549,38.309385],[27.156994,38.309305],[27.15657,38.309284],[27.156548,38.309284],[27.15649,38.30908],[27.156331,38.308648],[27.156241,38.308119],[27.156546,38.307625],[27.156837,38.307197],[27.157073,38.306862],[27.157773,38.306012],[27.158391,38.305242],[27.158533,38.305064],[27.158844,38.304691],[27.159453,38.30376],[27.159882,38.303785],[27.16051,38.303797],[27.160861,38.30378],[27.161411,38.303683],[27.161908,38.303581],[27.162415,38.303445],[27.162794,38.303271],[27.162981,38.302977],[27.163186,38.302519],[27.163269,38.302372],[27.163419,38.302122],[27.163722,38.301667],[27.163881,38.30143],[27.164203,38.300826],[27.164266,38.300707],[27.16438,38.300445],[27.164589,38.30041],[27.1646,38.300256],[27.164616,38.300013],[27.164632,38.299781],[27.164639,38.299686],[27.164638,38.299676],[27.16461,38.299399],[27.164608,38.29938],[27.164545,38.29873],[27.164501,38.298663],[27.164237,38.298259],[27.163368,38.29693],[27.163239,38.296732],[27.162908,38.296225],[27.162861,38.296154],[27.162782,38.296032],[27.162813,38.296015],[27.162714,38.295728],[27.162647,38.295534],[27.162857,38.295493],[27.162856,38.295011],[27.164016,38.29487],[27.165068,38.294825],[27.165323,38.294782],[27.16537,38.294694],[27.16577,38.294644],[27.165768,38.294396],[27.165887,38.293809],[27.166392,38.29357],[27.166542,38.293469],[27.166561,38.293429],[27.166494,38.293325],[27.166347,38.293328],[27.166232,38.293042],[27.16554,38.29319],[27.164521,38.291863],[27.164491,38.291856],[27.164366,38.291803],[27.164116,38.29115],[27.164088,38.29099],[27.16399,38.290186],[27.165618,38.29103],[27.166248,38.291008],[27.166556,38.29108],[27.167161,38.291319],[27.167385,38.291494],[27.167537,38.291563],[27.167719,38.291583],[27.168051,38.291516],[27.168389,38.291421],[27.168659,38.290849],[27.169793,38.286882],[27.164131,38.285776],[27.163645,38.285653],[27.162784,38.2861],[27.162686,38.286049],[27.162304,38.285852],[27.16188,38.285716],[27.161482,38.285707],[27.16119,38.28581],[27.16076,38.285883],[27.160545,38.285882],[27.155129,38.285557],[27.154937,38.285024],[27.154502,38.284524],[27.154313,38.284625],[27.15405,38.284893],[27.15342,38.2852],[27.152582,38.285456],[27.151948,38.285937],[27.151658,38.286262],[27.151506,38.286387],[27.151283,38.286904],[27.151241,38.287095],[27.150969,38.287363],[27.150223,38.287916],[27.150107,38.288293],[27.149559,38.289116],[27.148989,38.289374],[27.148951,38.289443],[27.148769,38.289654],[27.148568,38.290062],[27.147874,38.290066],[27.147417,38.290229],[27.147204,38.290388],[27.146969,38.290414],[27.146514,38.29024],[27.146409,38.29021],[27.146235,38.290159],[27.145932,38.290254],[27.145452,38.290516],[27.144763,38.290306],[27.144774,38.290367],[27.14385,38.290373],[27.143493,38.290317],[27.14307,38.290528],[27.142801,38.290601],[27.142667,38.290618],[27.142622,38.29071]]]}},{"type":"Feature","properties":{"id":"TR-Y-35-013-M-SRC-TRD35013ZAFERSB","level":"yerlesim","type":"mahalle","parent_id":"TR-D-35-013","province_id":"TR-P-35","district_id":"TR-D-35-013","name":"Zafer SB","source_raw_name":"ZAFER SB","source":"Kullanıcı tarafından sağlanan KML","source_label":"Kullanıcı tarafından sağlanan KML","source_name":"Izmir Mahalle KML - kullanici tarafindan saglandi","source_only":true,"source_only_keep_separate":true,"source_match_status":"unmatched"},"geometry":{"type":"Polygon","coordinates":[[[27.113687,38.337043],[27.11386,38.338158],[27.113975,38.338896],[27.11426,38.340726],[27.11436,38.341365],[27.114588,38.342384],[27.114735,38.343171],[27.114775,38.343585],[27.115063,38.345374],[27.115033,38.34569],[27.115071,38.345929],[27.114778,38.345923],[27.11454,38.345709],[27.114493,38.345639],[27.114393,38.345528],[27.11428,38.345399],[27.114189,38.345321],[27.114044,38.345244],[27.113933,38.345141],[27.113771,38.344984],[27.113586,38.345167],[27.113354,38.345438],[27.112812,38.345656],[27.112533,38.345822],[27.112254,38.34584],[27.111619,38.345745],[27.111597,38.345822],[27.111551,38.345983],[27.111679,38.346079],[27.111866,38.346218],[27.111981,38.346305],[27.112001,38.346449],[27.111987,38.346603],[27.112069,38.346722],[27.112091,38.346891],[27.112117,38.347026],[27.11208,38.34721],[27.112208,38.347453],[27.112283,38.347588],[27.112511,38.347642],[27.112518,38.347887],[27.112354,38.347848],[27.112331,38.34794],[27.112288,38.348183],[27.112418,38.348438],[27.112453,38.348509],[27.112491,38.348507],[27.112495,38.34859],[27.112527,38.348618],[27.112729,38.348745],[27.112794,38.348786],[27.113014,38.348948],[27.113126,38.349141],[27.113163,38.349207],[27.113313,38.349168],[27.113352,38.349156],[27.113652,38.349086],[27.113806,38.349056],[27.113942,38.34903],[27.114065,38.349006],[27.114123,38.348992],[27.1142,38.348974],[27.114279,38.348922],[27.114557,38.348741],[27.114695,38.348686],[27.11483,38.348717],[27.115021,38.34877],[27.115271,38.348913],[27.115598,38.349044],[27.115876,38.349385],[27.11597,38.348899],[27.115831,38.348848],[27.115851,38.348739],[27.115894,38.348501],[27.11605,38.347656],[27.116174,38.347017],[27.116266,38.346638],[27.11628,38.346608],[27.116297,38.346565],[27.116279,38.346563],[27.116873,38.34617],[27.117852,38.345688],[27.118503,38.345369],[27.11928,38.344984],[27.119903,38.344686],[27.120378,38.344539],[27.120951,38.344968],[27.121961,38.345878],[27.122941,38.345924],[27.123986,38.34613],[27.124315,38.346167],[27.124708,38.346178],[27.125072,38.346166],[27.125586,38.346177],[27.12604,38.346201],[27.126464,38.346236],[27.126933,38.346259],[27.12746,38.346281],[27.128613,38.345712],[27.129111,38.345459],[27.12964,38.34516],[27.129988,38.344874],[27.13026,38.344742],[27.130562,38.344635],[27.130849,38.344444],[27.131371,38.34406],[27.131779,38.343702],[27.132221,38.343368],[27.132523,38.342915],[27.132855,38.342334],[27.13292,38.341967],[27.13296,38.341744],[27.133023,38.340963],[27.133105,38.340486],[27.133138,38.339908],[27.132375,38.339743],[27.132471,38.339273],[27.132931,38.339338],[27.132938,38.339305],[27.132698,38.33898],[27.132557,38.338869],[27.132605,38.338341],[27.132662,38.337702],[27.132661,38.337277],[27.133595,38.337319],[27.13362,38.337146],[27.133646,38.336883],[27.133532,38.336778],[27.133417,38.336757],[27.13341,38.336688],[27.133383,38.336651],[27.132748,38.336622],[27.132645,38.33665],[27.132597,38.336543],[27.13267,38.336445],[27.132848,38.336079],[27.133092,38.33577],[27.133293,38.335632],[27.133363,38.335615],[27.133188,38.335181],[27.133014,38.334794],[27.132657,38.333861],[27.132286,38.332944],[27.132172,38.332666],[27.13204,38.332343],[27.13173,38.33166],[27.131714,38.331631],[27.131666,38.331544],[27.131637,38.331727],[27.131637,38.331728],[27.131348,38.331783],[27.131154,38.331892],[27.130893,38.331947],[27.130603,38.332035],[27.130249,38.332148],[27.130244,38.332148],[27.130243,38.332148],[27.129783,38.332139],[27.129465,38.332155],[27.129397,38.33226],[27.12925,38.332307],[27.128848,38.332319],[27.128847,38.332319],[27.128842,38.332319],[27.128539,38.33228],[27.128411,38.332339],[27.128351,38.332404],[27.128147,38.332499],[27.127772,38.332664],[27.12762,38.332763],[27.127497,38.332792],[27.127414,38.332767],[27.127322,38.332824],[27.127261,38.33283],[27.12726,38.33283],[27.127233,38.332767],[27.127184,38.332731],[27.127096,38.332669],[27.127017,38.33261],[27.126887,38.332579],[27.126534,38.332463],[27.126025,38.332298],[27.125785,38.3321],[27.125572,38.331995],[27.125155,38.331824],[27.124811,38.331572],[27.124653,38.33142],[27.124535,38.331249],[27.124387,38.331092],[27.123999,38.330845],[27.123551,38.330611],[27.123403,38.3306],[27.122851,38.330547],[27.122304,38.330522],[27.122302,38.330523],[27.122298,38.330522],[27.122041,38.330567],[27.121838,38.330599],[27.121472,38.33051],[27.121269,38.330354],[27.120985,38.330076],[27.120648,38.329803],[27.12043,38.329754],[27.119951,38.329671],[27.119348,38.329564],[27.118934,38.329538],[27.118713,38.329498],[27.118585,38.329401],[27.118432,38.329321],[27.11827,38.329444],[27.118181,38.329592],[27.118109,38.329844],[27.118065,38.330046],[27.118022,38.33017],[27.117923,38.33027],[27.117867,38.330357],[27.117349,38.33035],[27.116974,38.330364],[27.116456,38.33052],[27.116355,38.33128],[27.116257,38.331521],[27.11618,38.331711],[27.115945,38.332122],[27.115814,38.332444],[27.115737,38.332887],[27.115665,38.333249],[27.115634,38.333485],[27.115484,38.333678],[27.115285,38.333914],[27.115081,38.334172],[27.1147,38.334515],[27.114369,38.334819],[27.114301,38.335011],[27.114348,38.335526],[27.11433,38.335876],[27.114244,38.336146],[27.114027,38.336565],[27.113832,38.336954],[27.113687,38.337043]]]}}]}