{"type":"FeatureCollection","name":"turkiye_map.dist.mahalle_geometrileri_by_district.TR-D-20-004","features":[{"type":"Feature","properties":{"id":"TR-Y-20-004-M-0001","level":"yerlesim","type":"mahalle","parent_id":"TR-D-20-004","province_id":"TR-P-20","district_id":"TR-D-20-004","name":"Bahçeli","source_raw_name":"BAHÇELİ","source":"Kamuya açık veri ve kent rehberi servisleri","source_label":"Kamuya açık veri ve kent rehberi servisleri","source_name":"Denizli Adres Bilgi Sistemi - Mahalle Sınırları"},"geometry":{"type":"Polygon","coordinates":[[[29.426263,38.254671],[29.430704,38.255015],[29.447391,38.251757],[29.451863,38.249115],[29.45394,38.248479],[29.457064,38.247969],[29.461494,38.247424],[29.46636,38.246679],[29.466362,38.246377],[29.467214,38.242501],[29.467111,38.239256],[29.465935,38.233342],[29.464814,38.230333],[29.463812,38.228526],[29.46215,38.226676],[29.461124,38.221144],[29.459611,38.21635],[29.456106,38.209845],[29.454247,38.207173],[29.452442,38.205455],[29.450213,38.207496],[29.44692,38.210555],[29.442433,38.214687],[29.439071,38.217776],[29.435496,38.221096],[29.435017,38.221481],[29.434615,38.221717],[29.434084,38.221947],[29.432887,38.222412],[29.432243,38.222707],[29.430236,38.223347],[29.427351,38.22428],[29.426563,38.224551],[29.42588,38.225018],[29.425552,38.225404],[29.425132,38.22601],[29.424838,38.226878],[29.424544,38.227794],[29.423922,38.228036],[29.423165,38.228312],[29.422536,38.228571],[29.421875,38.228961],[29.421351,38.229322],[29.420844,38.22954],[29.419057,38.230073],[29.418686,38.230179],[29.418799,38.230404],[29.418762,38.23075],[29.41895,38.230831],[29.41907,38.231022],[29.419121,38.231204],[29.419003,38.231365],[29.418813,38.231533],[29.418855,38.231832],[29.418976,38.232297],[29.419307,38.233008],[29.419265,38.233589],[29.419179,38.233898],[29.419385,38.234128],[29.418668,38.235182],[29.418564,38.235375],[29.419145,38.236185],[29.419744,38.237232],[29.420316,38.238179],[29.420326,38.239043],[29.420632,38.239316],[29.420693,38.240747],[29.420271,38.241445],[29.420102,38.242117],[29.419455,38.242571],[29.419448,38.243379],[29.419585,38.244402],[29.419261,38.245252],[29.419154,38.246217],[29.419635,38.247349],[29.419627,38.248364],[29.419173,38.24947],[29.419273,38.250658],[29.419559,38.25229],[29.418984,38.252759],[29.420038,38.255953],[29.426263,38.254671]]]}},{"type":"Feature","properties":{"id":"TR-Y-20-004-M-0002","level":"yerlesim","type":"mahalle","parent_id":"TR-D-20-004","province_id":"TR-P-20","district_id":"TR-D-20-004","name":"Bükrüce","source_raw_name":"BÜKRÜCE","source":"Kamuya açık veri ve kent rehberi servisleri","source_label":"Kamuya açık veri ve kent rehberi servisleri","source_name":"Denizli Adres Bilgi Sistemi - Mahalle Sınırları"},"geometry":{"type":"Polygon","coordinates":[[[29.499704,38.223563],[29.504529,38.215448],[29.507673,38.211672],[29.510909,38.207467],[29.511251,38.205521],[29.510523,38.203636],[29.507993,38.200706],[29.504477,38.197771],[29.501948,38.19484],[29.499518,38.19274],[29.497129,38.191479],[29.49253,38.189099],[29.489651,38.188419],[29.48796,38.188294],[29.482288,38.188701],[29.475475,38.188592],[29.473879,38.189291],[29.469049,38.190133],[29.464647,38.186698],[29.458322,38.181213],[29.458091,38.178817],[29.456906,38.177674],[29.444663,38.172513],[29.436428,38.17004],[29.432901,38.169631],[29.428669,38.170356],[29.426118,38.172307],[29.425655,38.174306],[29.427259,38.179064],[29.428181,38.181113],[29.429107,38.18276],[29.431581,38.184455],[29.436326,38.187702],[29.439125,38.190038],[29.440154,38.191525],[29.440326,38.192207],[29.442164,38.194038],[29.443675,38.195648],[29.446488,38.199526],[29.451223,38.204295],[29.452442,38.205455],[29.454247,38.207173],[29.456106,38.209845],[29.459611,38.21635],[29.461124,38.221144],[29.46215,38.226676],[29.463812,38.228526],[29.464814,38.230333],[29.465935,38.233342],[29.467111,38.239256],[29.467214,38.242501],[29.466362,38.246377],[29.46636,38.246679],[29.474213,38.246876],[29.479145,38.247584],[29.482035,38.247637],[29.483061,38.247299],[29.485866,38.24491],[29.488162,38.242136],[29.49101,38.237286],[29.491464,38.234464],[29.493316,38.232958],[29.4953,38.230828],[29.497837,38.226421],[29.498636,38.225516],[29.499704,38.223563]]]}},{"type":"Feature","properties":{"id":"TR-Y-20-004-M-0003","level":"yerlesim","type":"mahalle","parent_id":"TR-D-20-004","province_id":"TR-P-20","district_id":"TR-D-20-004","name":"Çamköy","source_raw_name":"ÇAMKÖY","source":"Kamuya açık veri ve kent rehberi servisleri","source_label":"Kamuya açık veri ve kent rehberi servisleri","source_name":"Denizli Adres Bilgi Sistemi - Mahalle Sınırları"},"geometry":{"type":"Polygon","coordinates":[[[29.418474,38.292629],[29.419211,38.289525],[29.420132,38.283548],[29.421053,38.277572],[29.417705,38.27374],[29.416221,38.275138],[29.41304,38.277615],[29.407168,38.278942],[29.403104,38.279428],[29.389836,38.278573],[29.38299,38.278825],[29.362149,38.281992],[29.361402,38.286062],[29.360994,38.288939],[29.360971,38.292105],[29.361585,38.295554],[29.361517,38.297336],[29.361256,38.298861],[29.357887,38.300889],[29.356021,38.301766],[29.354202,38.304136],[29.373607,38.307446],[29.380316,38.30709],[29.388394,38.305822],[29.397992,38.300934],[29.406443,38.29784],[29.418474,38.292629]]]}},{"type":"Feature","properties":{"id":"TR-Y-20-004-M-0004","level":"yerlesim","type":"mahalle","parent_id":"TR-D-20-004","province_id":"TR-P-20","district_id":"TR-D-20-004","name":"Çoğaşlı","source_raw_name":"ÇOĞAŞLI","source":"Kamuya açık veri ve kent rehberi servisleri","source_label":"Kamuya açık veri ve kent rehberi servisleri","source_name":"Denizli Adres Bilgi Sistemi - Mahalle Sınırları"},"geometry":{"type":"Polygon","coordinates":[[[29.39546,38.24291],[29.397109,38.239766],[29.390032,38.226746],[29.388662,38.224238],[29.381827,38.221204],[29.375213,38.217236],[29.370269,38.212505],[29.366775,38.209633],[29.361574,38.204886],[29.36043,38.20503],[29.359505,38.205576],[29.359027,38.205848],[29.358576,38.206597],[29.358086,38.206927],[29.356563,38.207842],[29.355249,38.208541],[29.354345,38.209569],[29.352283,38.209123],[29.350904,38.209332],[29.350007,38.209653],[29.348978,38.209213],[29.34808,38.209534],[29.347934,38.210457],[29.347309,38.210996],[29.3462,38.211914],[29.345093,38.212451],[29.34419,38.213369],[29.344322,38.213968],[29.344518,38.215218],[29.34403,38.215813],[29.343193,38.217058],[29.342081,38.218193],[29.341461,38.218244],[29.341043,38.21873],[29.340479,38.220194],[29.339854,38.220842],[29.339021,38.221544],[29.338123,38.221865],[29.337567,38.222405],[29.33763,38.223057],[29.337351,38.22349],[29.336386,38.223539],[29.335287,38.223207],[29.334116,38.223255],[29.333421,38.223957],[29.332723,38.224985],[29.331682,38.225903],[29.330433,38.226928],[29.329251,38.228171],[29.328632,38.228113],[29.32753,38.228106],[29.326702,38.228319],[29.326422,38.228806],[29.325865,38.229455],[29.324901,38.229449],[29.323386,38.229386],[29.322619,38.23036],[29.322058,38.231443],[29.321228,38.231927],[29.319849,38.232028],[29.318881,38.232511],[29.318178,38.234028],[29.318466,38.235142],[29.319404,38.236067],[29.319792,38.236385],[29.320041,38.237247],[29.320025,38.237957],[29.320451,38.239176],[29.320603,38.24048],[29.32092,38.240936],[29.322051,38.241093],[29.322682,38.240941],[29.323647,38.240865],[29.324362,38.240372],[29.324737,38.239839],[29.32816,38.241963],[29.330886,38.245196],[29.334444,38.251229],[29.335694,38.25346],[29.335564,38.254657],[29.333526,38.255523],[29.334036,38.255704],[29.339713,38.258367],[29.342756,38.25946],[29.344232,38.260098],[29.345139,38.26049],[29.351356,38.259767],[29.35747,38.256705],[29.360081,38.254203],[29.36725,38.251772],[29.378196,38.250897],[29.383289,38.248344],[29.39546,38.24291]]]}},{"type":"Feature","properties":{"id":"TR-Y-20-004-M-0005","level":"yerlesim","type":"mahalle","parent_id":"TR-D-20-004","province_id":"TR-P-20","district_id":"TR-D-20-004","name":"Deşdemir","source_raw_name":"DEŞDEMİR","source":"Kamuya açık veri ve kent rehberi servisleri","source_label":"Kamuya açık veri ve kent rehberi servisleri","source_name":"Denizli Adres Bilgi Sistemi - Mahalle Sınırları"},"geometry":{"type":"Polygon","coordinates":[[[29.38299,38.278825],[29.389836,38.278573],[29.403104,38.279428],[29.407168,38.278942],[29.41304,38.277615],[29.416221,38.275138],[29.417705,38.27374],[29.41716,38.26263],[29.414342,38.257383],[29.405958,38.255655],[29.401004,38.251609],[29.396574,38.250145],[29.39546,38.24291],[29.383289,38.248344],[29.378196,38.250897],[29.36725,38.251772],[29.360081,38.254203],[29.35747,38.256705],[29.351356,38.259767],[29.345139,38.26049],[29.347831,38.261635],[29.349561,38.262628],[29.349902,38.262972],[29.350215,38.26322],[29.350994,38.26383],[29.35182,38.264824],[29.35182,38.264824],[29.352159,38.264993],[29.352164,38.264994],[29.353026,38.26516],[29.353795,38.268115],[29.354103,38.269889],[29.353942,38.271665],[29.356089,38.273113],[29.358532,38.274943],[29.359738,38.277293],[29.360033,38.278672],[29.360573,38.279848],[29.362149,38.281992],[29.38299,38.278825]]]}},{"type":"Feature","properties":{"id":"TR-Y-20-004-M-0006","level":"yerlesim","type":"mahalle","parent_id":"TR-D-20-004","province_id":"TR-P-20","district_id":"TR-D-20-004","name":"Ekizbaba","source_raw_name":"EKİZBABA","source":"Kamuya açık veri ve kent rehberi servisleri","source_label":"Kamuya açık veri ve kent rehberi servisleri","source_name":"Denizli Adres Bilgi Sistemi - Mahalle Sınırları"},"geometry":{"type":"Polygon","coordinates":[[[29.568213,38.269357],[29.568831,38.267071],[29.569412,38.267074],[29.569594,38.267074],[29.57258,38.267085],[29.575481,38.267286],[29.575943,38.264225],[29.575984,38.263951],[29.578792,38.259289],[29.585211,38.257501],[29.585104,38.255022],[29.58573,38.251305],[29.586718,38.247686],[29.587381,38.246792],[29.589363,38.246837],[29.589719,38.244743],[29.577404,38.244128],[29.571058,38.244237],[29.563401,38.242992],[29.552849,38.242044],[29.548332,38.241779],[29.546369,38.244593],[29.54515,38.248944],[29.544993,38.251353],[29.54597,38.253139],[29.547367,38.255594],[29.549332,38.257606],[29.55017,38.259168],[29.55087,38.260173],[29.550145,38.263177],[29.549281,38.265846],[29.547414,38.270961],[29.546492,38.27217],[29.545906,38.273814],[29.544929,38.275461],[29.546678,38.276123],[29.549936,38.277369],[29.551023,38.277689],[29.553491,38.278259],[29.554164,38.278256],[29.554622,38.278214],[29.554741,38.277221],[29.55669,38.274844],[29.56153,38.274577],[29.563105,38.274106],[29.566746,38.272022],[29.568213,38.269357]]]}},{"type":"Feature","properties":{"id":"TR-Y-20-004-M-0007","level":"yerlesim","type":"mahalle","parent_id":"TR-D-20-004","province_id":"TR-P-20","district_id":"TR-D-20-004","name":"Gömce","source_raw_name":"GÖMCE","source":"Kamuya açık veri ve kent rehberi servisleri","source_label":"Kamuya açık veri ve kent rehberi servisleri","source_name":"Denizli Adres Bilgi Sistemi - Mahalle Sınırları"},"geometry":{"type":"Polygon","coordinates":[[[29.594189,38.245024],[29.593047,38.236776],[29.592962,38.23616],[29.595398,38.234255],[29.59832,38.236782],[29.600612,38.237797],[29.604192,38.236802],[29.609821,38.234505],[29.609192,38.232792],[29.609726,38.232438],[29.606,38.230287],[29.600869,38.225566],[29.594915,38.22402],[29.591045,38.224388],[29.588632,38.223744],[29.585477,38.217501],[29.585285,38.217121],[29.577142,38.204252],[29.575064,38.203492],[29.575013,38.203473],[29.565567,38.200015],[29.55433,38.193489],[29.547098,38.190792],[29.541127,38.190014],[29.539456,38.188448],[29.533935,38.181885],[29.531942,38.180428],[29.529887,38.179893],[29.525829,38.179614],[29.522381,38.1796],[29.518429,38.18011],[29.512822,38.180947],[29.50944,38.181685],[29.506372,38.182989],[29.502341,38.185857],[29.500537,38.18817],[29.49949,38.190267],[29.498534,38.191152],[29.497129,38.191479],[29.499518,38.19274],[29.501948,38.19484],[29.504477,38.197771],[29.507993,38.200706],[29.510523,38.203636],[29.511251,38.205521],[29.510909,38.207467],[29.507673,38.211672],[29.504529,38.215448],[29.499704,38.223563],[29.501663,38.225949],[29.507606,38.231001],[29.511741,38.233317],[29.518936,38.23588],[29.521991,38.237178],[29.525189,38.239178],[29.53171,38.240527],[29.540364,38.241452],[29.548332,38.241779],[29.552849,38.242044],[29.563401,38.242992],[29.571058,38.244237],[29.577404,38.244128],[29.589719,38.244743],[29.589363,38.246837],[29.591322,38.248835],[29.59191,38.249428],[29.59191,38.249432],[29.594398,38.246959],[29.594189,38.245024]]]}},{"type":"Feature","properties":{"id":"TR-Y-20-004-M-0008","level":"yerlesim","type":"mahalle","parent_id":"TR-D-20-004","province_id":"TR-P-20","district_id":"TR-D-20-004","name":"Köselli","source_raw_name":"KÖSELLİ","source":"Kamuya açık veri ve kent rehberi servisleri","source_label":"Kamuya açık veri ve kent rehberi servisleri","source_name":"Denizli Adres Bilgi Sistemi - Mahalle Sınırları"},"geometry":{"type":"Polygon","coordinates":[[[29.407595,38.323316],[29.416463,38.321856],[29.421869,38.318679],[29.427671,38.303105],[29.42993,38.301663],[29.431583,38.294982],[29.418474,38.292629],[29.406443,38.29784],[29.397992,38.300934],[29.388394,38.305822],[29.380316,38.30709],[29.373607,38.307446],[29.354202,38.304136],[29.35283,38.305657],[29.34965,38.306188],[29.344729,38.307873],[29.343345,38.309021],[29.343556,38.312178],[29.344753,38.313567],[29.344806,38.314426],[29.344973,38.316],[29.346006,38.315529],[29.347767,38.314824],[29.349825,38.314787],[29.351273,38.315177],[29.353135,38.31676],[29.355905,38.318253],[29.357587,38.319693],[29.358424,38.320794],[29.359322,38.321943],[29.35967,38.32228],[29.360603,38.322462],[29.362368,38.320765],[29.364037,38.320138],[29.367956,38.321828],[29.369153,38.323384],[29.370461,38.323748],[29.372186,38.322526],[29.375099,38.323892],[29.377315,38.324222],[29.378824,38.324587],[29.380229,38.325508],[29.381075,38.326744],[29.381573,38.327502],[29.383483,38.328267],[29.384391,38.328192],[29.386514,38.327687],[29.38834,38.326425],[29.3891,38.326032],[29.39027,38.325404],[29.391124,38.325319],[29.391126,38.325313],[29.398876,38.324389],[29.407595,38.323316]]]}},{"type":"Feature","properties":{"id":"TR-Y-20-004-M-0009","level":"yerlesim","type":"mahalle","parent_id":"TR-D-20-004","province_id":"TR-P-20","district_id":"TR-D-20-004","name":"Kutlubey","source_raw_name":"KUTLUBEY","source":"Kamuya açık veri ve kent rehberi servisleri","source_label":"Kamuya açık veri ve kent rehberi servisleri","source_name":"Denizli Adres Bilgi Sistemi - Mahalle Sınırları"},"geometry":{"type":"Polygon","coordinates":[[[29.343556,38.312178],[29.343345,38.309021],[29.344729,38.307873],[29.34965,38.306188],[29.35283,38.305657],[29.354202,38.304136],[29.356021,38.301766],[29.357887,38.300889],[29.361256,38.298861],[29.361517,38.297336],[29.361585,38.295554],[29.360971,38.292105],[29.360994,38.288939],[29.361402,38.286062],[29.362149,38.281992],[29.360573,38.279848],[29.360033,38.278672],[29.359738,38.277293],[29.358532,38.274943],[29.356089,38.273113],[29.353942,38.271665],[29.354103,38.269889],[29.353795,38.268115],[29.353026,38.26516],[29.352164,38.264994],[29.352159,38.264993],[29.35182,38.264824],[29.35182,38.264824],[29.350994,38.26383],[29.350215,38.26322],[29.349902,38.262972],[29.349561,38.262628],[29.347831,38.261635],[29.345139,38.26049],[29.344232,38.260098],[29.342756,38.25946],[29.339713,38.258367],[29.334036,38.255704],[29.333526,38.255523],[29.329599,38.257562],[29.326972,38.259605],[29.324353,38.261912],[29.322095,38.265009],[29.319359,38.268911],[29.315444,38.272837],[29.314704,38.276036],[29.314267,38.278168],[29.312795,38.279524],[29.309364,38.277503],[29.308754,38.277047],[29.308447,38.276787],[29.308304,38.276638],[29.308008,38.276385],[29.307813,38.276197],[29.307411,38.276065],[29.306371,38.274876],[29.306082,38.274872],[29.306005,38.274901],[29.304969,38.274777],[29.304212,38.274578],[29.304054,38.274553],[29.303881,38.274518],[29.303558,38.27444],[29.30345,38.274437],[29.303285,38.274372],[29.302971,38.274173],[29.302649,38.273976],[29.302517,38.273888],[29.302376,38.273838],[29.302132,38.27376],[29.301995,38.273764],[29.301646,38.273774],[29.301293,38.273826],[29.300926,38.273979],[29.300612,38.274075],[29.300497,38.274094],[29.300274,38.274053],[29.299776,38.274046],[29.299333,38.273993],[29.299214,38.273771],[29.29903,38.273611],[29.298991,38.273621],[29.298592,38.273607],[29.298475,38.273665],[29.29824,38.273741],[29.298003,38.273802],[29.297703,38.273812],[29.297548,38.273846],[29.297364,38.273845],[29.297285,38.273833],[29.297262,38.273791],[29.295457,38.27294],[29.295342,38.272905],[29.295213,38.272885],[29.295092,38.272846],[29.294949,38.27281],[29.294803,38.272769],[29.294645,38.272702],[29.294563,38.272753],[29.294478,38.272709],[29.294232,38.272651],[29.29395,38.272723],[29.293805,38.27275],[29.293742,38.272754],[29.293699,38.272764],[29.293573,38.272762],[29.293463,38.272769],[29.293343,38.272807],[29.293059,38.272723],[29.292753,38.272666],[29.292542,38.272614],[29.292182,38.272488],[29.291913,38.272385],[29.291899,38.272305],[29.291832,38.272257],[29.291682,38.272222],[29.291605,38.272231],[29.29154,38.272272],[29.291369,38.272215],[29.291248,38.27215],[29.291051,38.272045],[29.290666,38.271899],[29.290239,38.271657],[29.289761,38.271415],[29.289548,38.271219],[29.289324,38.271087],[29.28911,38.270916],[29.288788,38.270653],[29.288632,38.270774],[29.288631,38.270913],[29.288514,38.271017],[29.288405,38.270947],[29.288411,38.270877],[29.288401,38.270703],[29.288366,38.270599],[29.287811,38.270515],[29.287683,38.270482],[29.28728,38.270383],[29.28673,38.270294],[29.286345,38.270219],[29.286172,38.270156],[29.28607,38.270134],[29.285987,38.270153],[29.285908,38.270132],[29.285862,38.269999],[29.28576,38.269712],[29.285722,38.269496],[29.285702,38.269322],[29.285665,38.269205],[29.28561,38.269076],[29.285577,38.269014],[29.285467,38.268906],[29.28527,38.268763],[29.285154,38.268749],[29.285081,38.268731],[29.284978,38.26868],[29.284806,38.268608],[29.284733,38.268555],[29.284736,38.268448],[29.28471,38.268404],[29.2846,38.268295],[29.284533,38.268241],[29.284439,38.268235],[29.284377,38.268199],[29.284347,38.26812],[29.284291,38.268077],[29.284222,38.268051],[29.284147,38.268048],[29.284131,38.26807],[29.284063,38.268043],[29.283685,38.267867],[29.28346,38.267776],[29.283343,38.267725],[29.283228,38.267689],[29.283093,38.267652],[29.282907,38.267601],[29.282782,38.267565],[29.282634,38.267508],[29.282507,38.267484],[29.282445,38.267517],[29.282365,38.267629],[29.282083,38.267585],[29.281974,38.267553],[29.281788,38.267501],[29.281789,38.267351],[29.280932,38.266963],[29.279672,38.266264],[29.278611,38.266047],[29.277356,38.265946],[29.27649,38.26597],[29.276227,38.266074],[29.275916,38.266207],[29.274596,38.265642],[29.271086,38.264094],[29.268786,38.263078],[29.265982,38.264119],[29.265979,38.264658],[29.266347,38.264471],[29.267094,38.265191],[29.267908,38.264891],[29.270407,38.2648],[29.271271,38.26619],[29.270243,38.267727],[29.270362,38.269324],[29.271017,38.271298],[29.272487,38.272851],[29.273291,38.273441],[29.27267,38.274821],[29.273462,38.276636],[29.273992,38.277651],[29.27452,38.278932],[29.276514,38.282084],[29.276839,38.283364],[29.278307,38.285183],[29.279712,38.286522],[29.27902,38.288168],[29.280632,38.289083],[29.282517,38.28968],[29.284065,38.290275],[29.286545,38.292206],[29.289374,38.292915],[29.289974,38.293771],[29.291326,38.293619],[29.294148,38.295127],[29.295423,38.295986],[29.298176,38.297706],[29.302003,38.300071],[29.302818,38.29965],[29.303057,38.299418],[29.305497,38.299873],[29.306163,38.299569],[29.308389,38.300916],[29.310501,38.301501],[29.312685,38.300799],[29.314625,38.300381],[29.314489,38.302001],[29.315331,38.302435],[29.319322,38.302697],[29.32029,38.302702],[29.321684,38.302329],[29.323255,38.302624],[29.325244,38.303351],[29.327902,38.303842],[29.327894,38.304653],[29.32921,38.306329],[29.334375,38.31041],[29.336728,38.311186],[29.338124,38.310622],[29.340288,38.312208],[29.341619,38.312263],[29.343556,38.312178]]]}},{"type":"Feature","properties":{"id":"TR-Y-20-004-M-0010","level":"yerlesim","type":"mahalle","parent_id":"TR-D-20-004","province_id":"TR-P-20","district_id":"TR-D-20-004","name":"Poyrazlı","source_raw_name":"POYRAZLI","source":"Kamuya açık veri ve kent rehberi servisleri","source_label":"Kamuya açık veri ve kent rehberi servisleri","source_name":"Denizli Adres Bilgi Sistemi - Mahalle Sınırları"},"geometry":{"type":"Polygon","coordinates":[[[29.507606,38.231001],[29.501663,38.225949],[29.499704,38.223563],[29.498636,38.225516],[29.497837,38.226421],[29.4953,38.230828],[29.493316,38.232958],[29.491464,38.234464],[29.49101,38.237286],[29.488162,38.242136],[29.485866,38.24491],[29.483061,38.247299],[29.482035,38.247637],[29.479145,38.247584],[29.474213,38.246876],[29.46636,38.246679],[29.474769,38.259217],[29.475497,38.267367],[29.475991,38.272806],[29.484276,38.271765],[29.485661,38.272639],[29.487705,38.273261],[29.490587,38.274147],[29.493477,38.275269],[29.495756,38.276049],[29.498651,38.276744],[29.500522,38.276923],[29.502543,38.276193],[29.50365,38.272224],[29.506274,38.26741],[29.508458,38.2639],[29.511071,38.260732],[29.516065,38.256722],[29.519322,38.254011],[29.523585,38.251531],[29.52631,38.249315],[29.529144,38.246481],[29.531489,38.242945],[29.527649,38.240864],[29.525189,38.239178],[29.521991,38.237178],[29.518936,38.23588],[29.511741,38.233317],[29.507606,38.231001]]]}},{"type":"Feature","properties":{"id":"TR-Y-20-004-M-0011","level":"yerlesim","type":"mahalle","parent_id":"TR-D-20-004","province_id":"TR-P-20","district_id":"TR-D-20-004","name":"Sırıklı","source_raw_name":"SIRIKLI","source":"Kamuya açık veri ve kent rehberi servisleri","source_label":"Kamuya açık veri ve kent rehberi servisleri","source_name":"Denizli Adres Bilgi Sistemi - Mahalle Sınırları"},"geometry":{"type":"Polygon","coordinates":[[[29.55423,38.281509],[29.554622,38.278214],[29.554164,38.278256],[29.553491,38.278259],[29.551023,38.277689],[29.549936,38.277369],[29.546678,38.276123],[29.544929,38.275461],[29.545906,38.273814],[29.546492,38.27217],[29.547414,38.270961],[29.549281,38.265846],[29.550145,38.263177],[29.55087,38.260173],[29.55017,38.259168],[29.549332,38.257606],[29.547367,38.255594],[29.54597,38.253139],[29.544993,38.251353],[29.54515,38.248944],[29.546369,38.244593],[29.548332,38.241779],[29.540364,38.241452],[29.53171,38.240527],[29.525189,38.239178],[29.527649,38.240864],[29.531489,38.242945],[29.529144,38.246481],[29.52631,38.249315],[29.523585,38.251531],[29.519322,38.254011],[29.516065,38.256722],[29.511071,38.260732],[29.508458,38.2639],[29.506274,38.26741],[29.50365,38.272224],[29.502543,38.276193],[29.508883,38.275709],[29.511399,38.276287],[29.513768,38.277432],[29.517065,38.27966],[29.521008,38.282344],[29.524016,38.28491],[29.526384,38.286282],[29.529182,38.287883],[29.531987,38.288462],[29.53858,38.288885],[29.545,38.28748],[29.549743,38.283399],[29.55423,38.281509]]]}},{"type":"Feature","properties":{"id":"TR-Y-20-004-M-0012","level":"yerlesim","type":"mahalle","parent_id":"TR-D-20-004","province_id":"TR-P-20","district_id":"TR-D-20-004","name":"Üçkuyu","source_raw_name":"ÜÇKUYU","source":"Kamuya açık veri ve kent rehberi servisleri","source_label":"Kamuya açık veri ve kent rehberi servisleri","source_name":"Denizli Adres Bilgi Sistemi - Mahalle Sınırları"},"geometry":{"type":"Polygon","coordinates":[[[29.435927,38.289381],[29.438,38.287364],[29.44159,38.2888],[29.443631,38.290938],[29.459108,38.284828],[29.470249,38.273527],[29.475991,38.272806],[29.475497,38.267367],[29.474769,38.259217],[29.46636,38.246679],[29.461494,38.247424],[29.457064,38.247969],[29.45394,38.248479],[29.451863,38.249115],[29.447391,38.251757],[29.430704,38.255015],[29.426263,38.254671],[29.420038,38.255953],[29.414342,38.257383],[29.41716,38.26263],[29.417705,38.27374],[29.421053,38.277572],[29.420132,38.283548],[29.419211,38.289525],[29.418474,38.292629],[29.431583,38.294982],[29.432571,38.290986],[29.435927,38.289381]]]}},{"type":"Feature","properties":{"id":"TR-Y-20-004-M-0013","level":"yerlesim","type":"mahalle","parent_id":"TR-D-20-004","province_id":"TR-P-20","district_id":"TR-D-20-004","name":"Yahyalar","source_raw_name":"YAHYALAR","source":"Kamuya açık veri ve kent rehberi servisleri","source_label":"Kamuya açık veri ve kent rehberi servisleri","source_name":"Denizli Adres Bilgi Sistemi - Mahalle Sınırları"},"geometry":{"type":"Polygon","coordinates":[[[29.420038,38.255953],[29.418984,38.252759],[29.419559,38.25229],[29.419273,38.250658],[29.419173,38.24947],[29.419627,38.248364],[29.419635,38.247349],[29.419154,38.246217],[29.419261,38.245252],[29.419585,38.244402],[29.419448,38.243379],[29.419455,38.242571],[29.420102,38.242117],[29.420271,38.241445],[29.420693,38.240747],[29.420632,38.239316],[29.420326,38.239043],[29.420316,38.238179],[29.419744,38.237232],[29.419145,38.236185],[29.418564,38.235375],[29.418668,38.235182],[29.419385,38.234128],[29.419179,38.233898],[29.419265,38.233589],[29.419307,38.233008],[29.418976,38.232297],[29.418855,38.231832],[29.418813,38.231533],[29.419003,38.231365],[29.419121,38.231204],[29.41907,38.231022],[29.41895,38.230831],[29.418762,38.23075],[29.418799,38.230404],[29.418686,38.230179],[29.418285,38.230213],[29.417681,38.23018],[29.417371,38.230178],[29.417182,38.230267],[29.416595,38.230824],[29.415841,38.230713],[29.414507,38.230337],[29.413586,38.230195],[29.412325,38.230129],[29.411163,38.230058],[29.410067,38.230112],[29.409199,38.229971],[29.408437,38.229895],[29.407552,38.22998],[29.406486,38.229976],[29.404941,38.229296],[29.404316,38.229236],[29.403765,38.229061],[29.403143,38.228579],[29.402826,38.228492],[29.401475,38.228556],[29.400916,38.228196],[29.399258,38.228087],[29.397587,38.227321],[29.392369,38.227022],[29.390322,38.22679],[29.390032,38.226746],[29.397109,38.239766],[29.39546,38.24291],[29.396574,38.250145],[29.401004,38.251609],[29.405958,38.255655],[29.414342,38.257383],[29.420038,38.255953]]]}},{"type":"Feature","properties":{"id":"TR-Y-20-004-M-0014","level":"yerlesim","type":"mahalle","parent_id":"TR-D-20-004","province_id":"TR-P-20","district_id":"TR-D-20-004","name":"Yeni","source_raw_name":"YENİ","source":"Kamuya açık veri ve kent rehberi servisleri","source_label":"Kamuya açık veri ve kent rehberi servisleri","source_name":"Denizli Adres Bilgi Sistemi - Mahalle Sınırları"},"geometry":{"type":"Polygon","coordinates":[[[29.418686,38.230179],[29.419057,38.230073],[29.420844,38.22954],[29.421351,38.229322],[29.421875,38.228961],[29.422536,38.228571],[29.423165,38.228312],[29.423922,38.228036],[29.424544,38.227794],[29.424838,38.226878],[29.425132,38.22601],[29.425552,38.225404],[29.42588,38.225018],[29.426563,38.224551],[29.427351,38.22428],[29.430236,38.223347],[29.432243,38.222707],[29.432887,38.222412],[29.434084,38.221947],[29.434615,38.221717],[29.435017,38.221481],[29.435496,38.221096],[29.439071,38.217776],[29.442433,38.214687],[29.44692,38.210555],[29.450213,38.207496],[29.452442,38.205455],[29.451223,38.204295],[29.446488,38.199526],[29.443675,38.195648],[29.442164,38.194038],[29.440326,38.192207],[29.440154,38.191525],[29.439125,38.190038],[29.436326,38.187702],[29.431581,38.184455],[29.429107,38.18276],[29.428181,38.181113],[29.427555,38.181305],[29.426453,38.181716],[29.42584,38.181384],[29.423795,38.181322],[29.420543,38.181132],[29.418847,38.181436],[29.418557,38.18199],[29.419058,38.182652],[29.421513,38.183515],[29.424368,38.184015],[29.425137,38.184122],[29.424739,38.184311],[29.418943,38.186018],[29.417776,38.18629],[29.416524,38.186059],[29.416301,38.186422],[29.416577,38.187708],[29.416532,38.187881],[29.414665,38.187559],[29.415736,38.188398],[29.415732,38.188901],[29.415334,38.189194],[29.414146,38.189188],[29.411691,38.188221],[29.411383,38.188254],[29.411178,38.189139],[29.411062,38.189954],[29.410751,38.190299],[29.409604,38.19078],[29.407756,38.190857],[29.405519,38.190134],[29.403812,38.191809],[29.401821,38.193309],[29.39816,38.194488],[29.397054,38.19535],[29.396262,38.195415],[29.394527,38.195146],[29.391066,38.193479],[29.388101,38.190375],[29.387182,38.189762],[29.386872,38.190125],[29.386981,38.192781],[29.38767,38.19452],[29.388098,38.19605],[29.387919,38.196327],[29.386541,38.195504],[29.385422,38.195151],[29.383768,38.195715],[29.381841,38.197354],[29.380209,38.197866],[29.378071,38.198444],[29.376483,38.198974],[29.375692,38.198883],[29.374504,38.198911],[29.373336,38.198789],[29.372801,38.198185],[29.371891,38.197053],[29.370973,38.196798],[29.369829,38.197042],[29.36808,38.197409],[29.367439,38.198231],[29.367719,38.198784],[29.368218,38.199888],[29.367926,38.200563],[29.367351,38.200985],[29.36649,38.201557],[29.365977,38.20213],[29.364989,38.202575],[29.363815,38.202569],[29.362414,38.203162],[29.361993,38.204187],[29.361574,38.204886],[29.366775,38.209633],[29.370269,38.212505],[29.375213,38.217236],[29.381827,38.221204],[29.388662,38.224238],[29.390032,38.226746],[29.390322,38.22679],[29.392369,38.227022],[29.397587,38.227321],[29.399258,38.228087],[29.400916,38.228196],[29.401475,38.228556],[29.402826,38.228492],[29.403143,38.228579],[29.403765,38.229061],[29.404316,38.229236],[29.404941,38.229296],[29.406486,38.229976],[29.407552,38.22998],[29.408437,38.229895],[29.409199,38.229971],[29.410067,38.230112],[29.411163,38.230058],[29.412325,38.230129],[29.413586,38.230195],[29.414507,38.230337],[29.415841,38.230713],[29.416595,38.230824],[29.417182,38.230267],[29.417371,38.230178],[29.417681,38.23018],[29.418285,38.230213],[29.418686,38.230179]]]}},{"type":"Feature","properties":{"id":"TR-Y-20-004-M-0015","level":"yerlesim","type":"mahalle","parent_id":"TR-D-20-004","province_id":"TR-P-20","district_id":"TR-D-20-004","name":"Yeşiloba","source_raw_name":"YEŞİLOBA","source":"Kamuya açık veri ve kent rehberi servisleri","source_label":"Kamuya açık veri ve kent rehberi servisleri","source_name":"Denizli Adres Bilgi Sistemi - Mahalle Sınırları"},"geometry":{"type":"Polygon","coordinates":[[[29.314704,38.276036],[29.315444,38.272837],[29.319359,38.268911],[29.322095,38.265009],[29.324353,38.261912],[29.326972,38.259605],[29.329599,38.257562],[29.333526,38.255523],[29.335564,38.254657],[29.335694,38.25346],[29.334444,38.251229],[29.330886,38.245196],[29.32816,38.241963],[29.324737,38.239839],[29.324362,38.240372],[29.323647,38.240865],[29.322682,38.240941],[29.322051,38.241093],[29.32092,38.240936],[29.320603,38.24048],[29.320451,38.239176],[29.320025,38.237957],[29.320041,38.237247],[29.319792,38.236385],[29.319404,38.236067],[29.318466,38.235142],[29.318178,38.234028],[29.317312,38.236171],[29.315843,38.236547],[29.31352,38.236871],[29.310714,38.236662],[29.307424,38.236065],[29.305176,38.234944],[29.302189,38.234493],[29.297554,38.234032],[29.293652,38.233575],[29.28944,38.23355],[29.285597,38.233334],[29.282919,38.232451],[29.281354,38.230275],[29.279497,38.226652],[29.276966,38.223363],[29.275623,38.223403],[29.274155,38.223779],[29.273234,38.224254],[29.271882,38.225209],[29.270655,38.225876],[29.269123,38.226444],[29.267347,38.227059],[29.26594,38.227387],[29.264842,38.227332],[29.26308,38.226551],[29.261384,38.225192],[29.26005,38.224317],[29.258714,38.223682],[29.256094,38.223232],[29.253839,38.222977],[29.251578,38.223204],[29.24965,38.2236],[29.248195,38.223148],[29.245817,38.223044],[29.243802,38.2225],[29.241024,38.219443],[29.240028,38.219011],[29.237891,38.218199],[29.233451,38.21702],[29.231151,38.216366],[29.230497,38.216969],[29.230796,38.219334],[29.230809,38.221921],[29.231324,38.222946],[29.230668,38.223804],[29.22958,38.223254],[29.229471,38.222135],[29.229075,38.221271],[29.228301,38.220048],[29.225936,38.220076],[29.225867,38.220245],[29.225143,38.220442],[29.221358,38.220364],[29.220144,38.219638],[29.219495,38.218731],[29.219072,38.216953],[29.218728,38.216243],[29.217719,38.216086],[29.216797,38.216482],[29.213069,38.219613],[29.211905,38.221194],[29.211713,38.221327],[29.21215,38.223437],[29.210118,38.225092],[29.211838,38.226294],[29.212929,38.225518],[29.215635,38.225053],[29.216629,38.22508],[29.217899,38.22547],[29.218655,38.226219],[29.218024,38.228085],[29.213428,38.231251],[29.213145,38.236194],[29.214123,38.237668],[29.214155,38.239498],[29.212815,38.240816],[29.213484,38.24257],[29.214681,38.242698],[29.218042,38.24065],[29.219599,38.240459],[29.221471,38.241778],[29.221244,38.238607],[29.221508,38.237981],[29.223938,38.23798],[29.226765,38.237519],[29.229239,38.237553],[29.229829,38.237129],[29.23036,38.236225],[29.231264,38.236881],[29.233336,38.240062],[29.23495,38.241425],[29.236965,38.241729],[29.240157,38.241613],[29.241976,38.242001],[29.243994,38.242117],[29.245028,38.242911],[29.245622,38.244181],[29.246897,38.244772],[29.248024,38.244916],[29.249704,38.246159],[29.248904,38.246973],[29.248807,38.247578],[29.249026,38.248293],[29.249787,38.249011],[29.249869,38.249868],[29.250582,38.250871],[29.251024,38.251872],[29.251926,38.252164],[29.253226,38.253277],[29.25349,38.254028],[29.254479,38.254605],[29.255458,38.256145],[29.257071,38.257653],[29.259093,38.258986],[29.260165,38.260348],[29.262049,38.261857],[29.263491,38.262473],[29.264343,38.263227],[29.265982,38.264119],[29.268786,38.263078],[29.271086,38.264094],[29.274596,38.265642],[29.275916,38.266207],[29.276227,38.266074],[29.27649,38.26597],[29.277356,38.265946],[29.278611,38.266047],[29.279672,38.266264],[29.280932,38.266963],[29.281789,38.267351],[29.281788,38.267501],[29.281974,38.267553],[29.282083,38.267585],[29.282365,38.267629],[29.282445,38.267517],[29.282507,38.267484],[29.282634,38.267508],[29.282782,38.267565],[29.282907,38.267601],[29.283093,38.267652],[29.283228,38.267689],[29.283343,38.267725],[29.28346,38.267776],[29.283685,38.267867],[29.284063,38.268043],[29.284131,38.26807],[29.284147,38.268048],[29.284222,38.268051],[29.284291,38.268077],[29.284347,38.26812],[29.284377,38.268199],[29.284439,38.268235],[29.284533,38.268241],[29.2846,38.268295],[29.28471,38.268404],[29.284736,38.268448],[29.284733,38.268555],[29.284806,38.268608],[29.284978,38.26868],[29.285081,38.268731],[29.285154,38.268749],[29.28527,38.268763],[29.285467,38.268906],[29.285577,38.269014],[29.28561,38.269076],[29.285665,38.269205],[29.285702,38.269322],[29.285722,38.269496],[29.28576,38.269712],[29.285862,38.269999],[29.285908,38.270132],[29.285987,38.270153],[29.28607,38.270134],[29.286172,38.270156],[29.286345,38.270219],[29.28673,38.270294],[29.28728,38.270383],[29.287683,38.270482],[29.287811,38.270515],[29.288366,38.270599],[29.288401,38.270703],[29.288411,38.270877],[29.288405,38.270947],[29.288514,38.271017],[29.288631,38.270913],[29.288632,38.270774],[29.288788,38.270653],[29.28911,38.270916],[29.289324,38.271087],[29.289548,38.271219],[29.289761,38.271415],[29.290239,38.271657],[29.290666,38.271899],[29.291051,38.272045],[29.291248,38.27215],[29.291369,38.272215],[29.29154,38.272272],[29.291605,38.272231],[29.291682,38.272222],[29.291832,38.272257],[29.291899,38.272305],[29.291913,38.272385],[29.292182,38.272488],[29.292542,38.272614],[29.292753,38.272666],[29.293059,38.272723],[29.293343,38.272807],[29.293463,38.272769],[29.293573,38.272762],[29.293699,38.272764],[29.293742,38.272754],[29.293805,38.27275],[29.29395,38.272723],[29.294232,38.272651],[29.294478,38.272709],[29.294563,38.272753],[29.294645,38.272702],[29.294803,38.272769],[29.294949,38.27281],[29.295092,38.272846],[29.295213,38.272885],[29.295342,38.272905],[29.295457,38.27294],[29.297262,38.273791],[29.297285,38.273833],[29.297364,38.273845],[29.297548,38.273846],[29.297703,38.273812],[29.298003,38.273802],[29.29824,38.273741],[29.298475,38.273665],[29.298592,38.273607],[29.298991,38.273621],[29.29903,38.273611],[29.299214,38.273771],[29.299333,38.273993],[29.299776,38.274046],[29.300274,38.274053],[29.300497,38.274094],[29.300612,38.274075],[29.300926,38.273979],[29.301293,38.273826],[29.301646,38.273774],[29.301995,38.273764],[29.302132,38.27376],[29.302376,38.273838],[29.302517,38.273888],[29.302649,38.273976],[29.302971,38.274173],[29.303285,38.274372],[29.30345,38.274437],[29.303558,38.27444],[29.303881,38.274518],[29.304054,38.274553],[29.304212,38.274578],[29.304969,38.274777],[29.306005,38.274901],[29.306082,38.274872],[29.306371,38.274876],[29.307411,38.276065],[29.307813,38.276197],[29.308008,38.276385],[29.308304,38.276638],[29.308447,38.276787],[29.308754,38.277047],[29.309364,38.277503],[29.312795,38.279524],[29.314267,38.278168],[29.314704,38.276036]]]}}]}