{"type":"FeatureCollection","name":"turkiye_map.dist.mahalle_geometrileri_by_district.TR-D-06-010","features":[{"type":"Feature","properties":{"id":"TR-Y-06-010-M-0001","level":"yerlesim","type":"mahalle","parent_id":"TR-D-06-010","province_id":"TR-P-06","district_id":"TR-D-06-010","name":"30 Ağustos","source_raw_name":"30 AĞUSTOS","source":"Kamuya açık veri ve kent rehberi servisleri","source_label":"Kamuya açık veri ve kent rehberi servisleri","source_name":"Ankara Büyükşehir Belediyesi Seffaf Ankara Açık Veri Platformu - MAKS Mahalle"},"geometry":{"type":"MultiPolygon","coordinates":[[[[32.658729,39.939768],[32.658394,39.93938],[32.657597,39.93871],[32.657397,39.938561],[32.65722,39.938372],[32.657119,39.938196],[32.656963,39.93767],[32.656349,39.937641],[32.655931,39.937639],[32.65581,39.938244],[32.655651,39.939633],[32.654601,39.939348],[32.653451,39.938998],[32.652922,39.938702],[32.652582,39.938571],[32.652292,39.938545],[32.650998,39.938556],[32.650933,39.938568],[32.650712,39.938644],[32.650115,39.939016],[32.650033,39.939054],[32.649866,39.939075],[32.649743,39.938439],[32.649386,39.937596],[32.649273,39.937365],[32.648714,39.936578],[32.648298,39.935848],[32.648372,39.936386],[32.648378,39.936555],[32.648272,39.937049],[32.64825,39.937513],[32.648115,39.938104],[32.648065,39.938981],[32.647953,39.93935],[32.647895,39.939588],[32.647894,39.939657],[32.647922,39.939752],[32.647995,39.939876],[32.648575,39.94057],[32.648601,39.941192],[32.648172,39.941194],[32.648213,39.942198],[32.648206,39.942284],[32.648154,39.942344],[32.648187,39.943663],[32.648816,39.943687],[32.649461,39.94381],[32.649721,39.943846],[32.650208,39.943885],[32.650771,39.944024],[32.650885,39.944075],[32.650944,39.944129],[32.65116,39.944407],[32.651429,39.944704],[32.65158,39.944805],[32.651915,39.94509],[32.652136,39.945253],[32.652299,39.945352],[32.652472,39.945435],[32.65377,39.945852],[32.654604,39.946086],[32.655497,39.946294],[32.659696,39.946894],[32.660546,39.947037],[32.660774,39.947058],[32.661479,39.947072],[32.661164,39.946148],[32.660726,39.944976],[32.660193,39.943705],[32.659687,39.942344],[32.658857,39.939919],[32.658729,39.939768]]]]}},{"type":"Feature","properties":{"id":"TR-Y-06-010-M-0002","level":"yerlesim","type":"mahalle","parent_id":"TR-D-06-010","province_id":"TR-P-06","district_id":"TR-D-06-010","name":"Ahi Mesut","source_raw_name":"AHİ MESUT","source":"Kamuya açık veri ve kent rehberi servisleri","source_label":"Kamuya açık veri ve kent rehberi servisleri","source_name":"Ankara Büyükşehir Belediyesi Seffaf Ankara Açık Veri Platformu - MAKS Mahalle"},"geometry":{"type":"MultiPolygon","coordinates":[[[[32.630932,39.925141],[32.630453,39.924925],[32.626795,39.923783],[32.625892,39.923699],[32.625339,39.923487],[32.62507,39.923825],[32.624778,39.924276],[32.624321,39.925092],[32.624173,39.925431],[32.623989,39.925943],[32.62382,39.926517],[32.623705,39.92708],[32.623632,39.927795],[32.623629,39.92839],[32.623704,39.929244],[32.623841,39.929919],[32.624101,39.930803],[32.624498,39.931978],[32.624834,39.93306],[32.625238,39.93476],[32.625385,39.935598],[32.625498,39.936578],[32.625527,39.937165],[32.625542,39.938084],[32.625528,39.938869],[32.625466,39.939622],[32.627861,39.939735],[32.629377,39.939734],[32.631499,39.939657],[32.631958,39.939658],[32.632658,39.939685],[32.633806,39.939861],[32.638234,39.941044],[32.639075,39.939098],[32.639788,39.937585],[32.639988,39.937384],[32.640246,39.93725],[32.64068,39.937131],[32.641104,39.936988],[32.643655,39.9361],[32.644399,39.935814],[32.645939,39.935266],[32.646868,39.934945],[32.647203,39.934859],[32.646694,39.934183],[32.646343,39.933832],[32.646191,39.933641],[32.646134,39.933464],[32.645977,39.931601],[32.646003,39.931296],[32.646273,39.931014],[32.64713,39.930566],[32.648956,39.929713],[32.649837,39.929332],[32.648604,39.927416],[32.64678,39.924454],[32.646173,39.924675],[32.643679,39.925664],[32.640925,39.926803],[32.639192,39.927393],[32.635262,39.928797],[32.635172,39.928648],[32.635011,39.928583],[32.634525,39.928173],[32.6342,39.927438],[32.633137,39.927002],[32.630932,39.925141]]]]}},{"type":"Feature","properties":{"id":"TR-Y-06-010-M-0003","level":"yerlesim","type":"mahalle","parent_id":"TR-D-06-010","province_id":"TR-P-06","district_id":"TR-D-06-010","name":"Alsancak","source_raw_name":"ALSANCAK","source":"Kamuya açık veri ve kent rehberi servisleri","source_label":"Kamuya açık veri ve kent rehberi servisleri","source_name":"Ankara Büyükşehir Belediyesi Seffaf Ankara Açık Veri Platformu - MAKS Mahalle"},"geometry":{"type":"MultiPolygon","coordinates":[[[[32.655764,39.938639],[32.65581,39.938244],[32.655931,39.937639],[32.656349,39.937641],[32.656963,39.93767],[32.65671,39.936749],[32.656535,39.935284],[32.656424,39.934946],[32.655542,39.93293],[32.655147,39.932094],[32.654983,39.93171],[32.654884,39.931348],[32.654651,39.929831],[32.654541,39.928962],[32.654405,39.926468],[32.654413,39.926069],[32.654385,39.924649],[32.654327,39.922865],[32.654267,39.922392],[32.654208,39.922093],[32.652469,39.922613],[32.649716,39.923477],[32.647531,39.924182],[32.64678,39.924454],[32.648604,39.927416],[32.649837,39.929332],[32.648956,39.929713],[32.64713,39.930566],[32.646273,39.931014],[32.646003,39.931296],[32.645977,39.931601],[32.646134,39.933464],[32.646191,39.933641],[32.646343,39.933832],[32.646694,39.934183],[32.647203,39.934859],[32.648151,39.935674],[32.648298,39.935848],[32.648714,39.936578],[32.649273,39.937365],[32.649386,39.937596],[32.649743,39.938439],[32.649866,39.939075],[32.650033,39.939054],[32.650115,39.939016],[32.650712,39.938644],[32.650933,39.938568],[32.650998,39.938556],[32.652292,39.938545],[32.652582,39.938571],[32.652922,39.938702],[32.653451,39.938998],[32.654601,39.939348],[32.655651,39.939633],[32.655764,39.938639]]]]}},{"type":"Feature","properties":{"id":"TR-Y-06-010-M-0004","level":"yerlesim","type":"mahalle","parent_id":"TR-D-06-010","province_id":"TR-P-06","district_id":"TR-D-06-010","name":"Altay","source_raw_name":"ALTAY","source":"Kamuya açık veri ve kent rehberi servisleri","source_label":"Kamuya açık veri ve kent rehberi servisleri","source_name":"Ankara Büyükşehir Belediyesi Seffaf Ankara Açık Veri Platformu - MAKS Mahalle"},"geometry":{"type":"MultiPolygon","coordinates":[[[[32.648584,39.966341],[32.648181,39.96572],[32.646732,39.96395],[32.646646,39.963874],[32.645371,39.964006],[32.644534,39.964121],[32.643658,39.964262],[32.635369,39.965767],[32.633176,39.966228],[32.630467,39.966714],[32.629881,39.966839],[32.632326,39.970221],[32.633002,39.971232],[32.63336,39.971798],[32.633664,39.972335],[32.634012,39.973017],[32.634562,39.974245],[32.634988,39.975422],[32.635442,39.97716],[32.635562,39.977789],[32.638994,39.977444],[32.639611,39.97732],[32.640024,39.977258],[32.640618,39.9774],[32.641144,39.977446],[32.641516,39.977457],[32.643554,39.977461],[32.648936,39.977514],[32.648897,39.976274],[32.648894,39.975452],[32.648909,39.975294],[32.649078,39.974343],[32.649274,39.973738],[32.649372,39.973494],[32.650475,39.971385],[32.650797,39.970959],[32.651248,39.970551],[32.651819,39.97023],[32.652368,39.969947],[32.650136,39.966641],[32.650025,39.966585],[32.649642,39.966444],[32.649363,39.966388],[32.648584,39.966341]]]]}},{"type":"Feature","properties":{"id":"TR-Y-06-010-M-0005","level":"yerlesim","type":"mahalle","parent_id":"TR-D-06-010","province_id":"TR-P-06","district_id":"TR-D-06-010","name":"Aşağıyurtçu","source_raw_name":"AŞAĞIYURTÇU","source":"Kamuya açık veri ve kent rehberi servisleri","source_label":"Kamuya açık veri ve kent rehberi servisleri","source_name":"Ankara Büyükşehir Belediyesi Seffaf Ankara Açık Veri Platformu - MAKS Mahalle"},"geometry":{"type":"MultiPolygon","coordinates":[[[[32.517542,39.832429],[32.518843,39.830916],[32.521758,39.832078],[32.521883,39.830617],[32.521819,39.829542],[32.522282,39.827626],[32.522503,39.827101],[32.523049,39.826185],[32.52331,39.825861],[32.52357,39.82588],[32.524717,39.826287],[32.528389,39.827893],[32.529097,39.828223],[32.530779,39.828964],[32.53131,39.829279],[32.532377,39.829752],[32.533071,39.829982],[32.53977,39.831362],[32.540035,39.831375],[32.540262,39.831352],[32.541125,39.831099],[32.540244,39.830293],[32.539392,39.82957],[32.539046,39.8291],[32.539243,39.828864],[32.539339,39.828657],[32.53958,39.827887],[32.540374,39.825726],[32.539252,39.825527],[32.538779,39.825237],[32.5385,39.824904],[32.537846,39.824184],[32.537346,39.823528],[32.536731,39.822928],[32.536691,39.822849],[32.537466,39.821642],[32.538578,39.818376],[32.539492,39.815286],[32.539457,39.81501],[32.539062,39.813077],[32.538622,39.810426],[32.53877,39.809692],[32.540611,39.808167],[32.543071,39.805971],[32.544003,39.805234],[32.545227,39.804173],[32.538431,39.799471],[32.535833,39.797705],[32.532415,39.795324],[32.526493,39.791317],[32.525671,39.790809],[32.483597,39.766897],[32.483553,39.766997],[32.481618,39.769009],[32.480847,39.776962],[32.484671,39.788638],[32.48889,39.795103],[32.491674,39.803345],[32.494345,39.802946],[32.503736,39.80765],[32.499972,39.81175],[32.49862,39.818503],[32.498436,39.822184],[32.499791,39.82467],[32.502517,39.828768],[32.493768,39.83312],[32.490499,39.834079],[32.499822,39.838616],[32.514033,39.843044],[32.519337,39.844674],[32.519577,39.841842],[32.520586,39.838581],[32.519352,39.83777],[32.520475,39.836674],[32.520365,39.83528],[32.517542,39.832429]]]]}},{"type":"Feature","properties":{"id":"TR-Y-06-010-M-0006","level":"yerlesim","type":"mahalle","parent_id":"TR-D-06-010","province_id":"TR-P-06","district_id":"TR-D-06-010","name":"Atakent","source_raw_name":"ATAKENT","source":"Kamuya açık veri ve kent rehberi servisleri","source_label":"Kamuya açık veri ve kent rehberi servisleri","source_name":"Ankara Büyükşehir Belediyesi Seffaf Ankara Açık Veri Platformu - MAKS Mahalle"},"geometry":{"type":"MultiPolygon","coordinates":[[[[32.610652,39.947657],[32.608657,39.947956],[32.605208,39.94855],[32.605066,39.949067],[32.604907,39.949443],[32.604495,39.950537],[32.604317,39.951306],[32.604266,39.951924],[32.604593,39.95504],[32.604635,39.957192],[32.604732,39.957673],[32.60485,39.958135],[32.604663,39.958605],[32.604188,39.959563],[32.603691,39.96046],[32.603592,39.96069],[32.60366,39.960695],[32.605449,39.960417],[32.606848,39.96017],[32.608109,39.959886],[32.609263,39.959578],[32.61054,39.959169],[32.614281,39.957784],[32.615182,39.957496],[32.615521,39.957413],[32.614885,39.956195],[32.613788,39.954368],[32.613104,39.953139],[32.612527,39.951929],[32.611387,39.949426],[32.610652,39.947657]]]]}},{"type":"Feature","properties":{"id":"TR-Y-06-010-M-0007","level":"yerlesim","type":"mahalle","parent_id":"TR-D-06-010","province_id":"TR-P-06","district_id":"TR-D-06-010","name":"Atayurt","source_raw_name":"ATAYURT","source":"Kamuya açık veri ve kent rehberi servisleri","source_label":"Kamuya açık veri ve kent rehberi servisleri","source_name":"Ankara Büyükşehir Belediyesi Seffaf Ankara Açık Veri Platformu - MAKS Mahalle"},"geometry":{"type":"MultiPolygon","coordinates":[[[[32.518843,39.830916],[32.517542,39.832429],[32.520365,39.83528],[32.520475,39.836674],[32.519352,39.83777],[32.520586,39.838581],[32.519577,39.841842],[32.519337,39.844674],[32.522591,39.84571],[32.53117,39.84266],[32.533761,39.847192],[32.53399,39.847685],[32.534404,39.84867],[32.534566,39.84893],[32.534739,39.849156],[32.540997,39.846135],[32.542191,39.84606],[32.543182,39.845384],[32.545449,39.846498],[32.54545,39.84651],[32.545562,39.846565],[32.553077,39.848676],[32.558019,39.850604],[32.558116,39.85063],[32.558461,39.849274],[32.558574,39.849022],[32.558785,39.848866],[32.559242,39.848594],[32.55995,39.848211],[32.560367,39.847925],[32.559747,39.847234],[32.559217,39.846737],[32.560284,39.846013],[32.560477,39.845014],[32.561652,39.843444],[32.562125,39.842876],[32.56165,39.842641],[32.5615,39.842523],[32.561403,39.842373],[32.561404,39.842223],[32.56218,39.840592],[32.55897,39.840301],[32.558525,39.840201],[32.558398,39.84025],[32.558234,39.840249],[32.557021,39.839924],[32.55654,39.839837],[32.553054,39.838909],[32.549668,39.838035],[32.548525,39.839927],[32.546496,39.839068],[32.547257,39.837187],[32.547274,39.836954],[32.547217,39.836859],[32.547414,39.836255],[32.543371,39.834566],[32.543292,39.835172],[32.540065,39.834757],[32.540307,39.833667],[32.541069,39.832696],[32.54174,39.831923],[32.54176,39.831801],[32.541744,39.831698],[32.541702,39.831609],[32.541125,39.831099],[32.540262,39.831352],[32.540035,39.831375],[32.53977,39.831362],[32.533071,39.829982],[32.532377,39.829752],[32.53131,39.829279],[32.530779,39.828964],[32.529097,39.828223],[32.528389,39.827893],[32.524717,39.826287],[32.52357,39.82588],[32.52331,39.825861],[32.523049,39.826185],[32.522503,39.827101],[32.522282,39.827626],[32.521819,39.829542],[32.521883,39.830617],[32.521758,39.832078],[32.518843,39.830916]]]]}},{"type":"Feature","properties":{"id":"TR-Y-06-010-M-0008","level":"yerlesim","type":"mahalle","parent_id":"TR-D-06-010","province_id":"TR-P-06","district_id":"TR-D-06-010","name":"Ayyıldız","source_raw_name":"AYYILDIZ","source":"Kamuya açık veri ve kent rehberi servisleri","source_label":"Kamuya açık veri ve kent rehberi servisleri","source_name":"Ankara Büyükşehir Belediyesi Seffaf Ankara Açık Veri Platformu - MAKS Mahalle"},"geometry":{"type":"MultiPolygon","coordinates":[[[[32.624877,39.939616],[32.625125,39.939609],[32.625466,39.939622],[32.625528,39.938869],[32.625542,39.938084],[32.625527,39.937165],[32.625498,39.936578],[32.625385,39.935598],[32.625238,39.93476],[32.624834,39.93306],[32.624498,39.931978],[32.624101,39.930803],[32.623841,39.929919],[32.623704,39.929244],[32.623629,39.92839],[32.623632,39.927795],[32.623705,39.92708],[32.62382,39.926517],[32.623989,39.925943],[32.624173,39.925431],[32.624321,39.925092],[32.624778,39.924276],[32.62507,39.923825],[32.625481,39.923331],[32.625604,39.923128],[32.626276,39.922444],[32.626929,39.921891],[32.629032,39.920331],[32.629755,39.919747],[32.62957,39.919574],[32.627349,39.916443],[32.619096,39.915754],[32.616484,39.917173],[32.614419,39.917247],[32.613118,39.917246],[32.613044,39.924091],[32.613006,39.924263],[32.612934,39.924352],[32.606309,39.928682],[32.607358,39.929581],[32.608152,39.930394],[32.608767,39.932014],[32.608938,39.933488],[32.609142,39.937045],[32.607918,39.939721],[32.610093,39.940781],[32.613152,39.942226],[32.613306,39.942323],[32.613748,39.942679],[32.614887,39.943633],[32.61574,39.944376],[32.616026,39.944553],[32.616087,39.944605],[32.616519,39.94426],[32.617002,39.943924],[32.617221,39.943747],[32.61771,39.943399],[32.620987,39.940971],[32.621671,39.940507],[32.62209,39.940276],[32.622813,39.939969],[32.623147,39.939866],[32.624077,39.939671],[32.624703,39.939618],[32.624877,39.939616]]]]}},{"type":"Feature","properties":{"id":"TR-Y-06-010-M-0009","level":"yerlesim","type":"mahalle","parent_id":"TR-D-06-010","province_id":"TR-P-06","district_id":"TR-D-06-010","name":"Bağlıca","source_raw_name":"BAĞLICA","source":"Kamuya açık veri ve kent rehberi servisleri","source_label":"Kamuya açık veri ve kent rehberi servisleri","source_name":"Ankara Büyükşehir Belediyesi Seffaf Ankara Açık Veri Platformu - MAKS Mahalle"},"geometry":{"type":"MultiPolygon","coordinates":[[[[32.658445,39.896104],[32.659671,39.895969],[32.659885,39.896001],[32.659676,39.895794],[32.660023,39.894832],[32.6596,39.894753],[32.660767,39.892894],[32.660725,39.892802],[32.660211,39.892628],[32.659195,39.892221],[32.658738,39.89202],[32.658676,39.892042],[32.658357,39.892271],[32.656592,39.891293],[32.656275,39.891256],[32.655422,39.891512],[32.654021,39.891992],[32.653586,39.8909],[32.653432,39.890642],[32.651727,39.888641],[32.647721,39.887309],[32.647281,39.886749],[32.647607,39.886097],[32.647406,39.885817],[32.646822,39.885738],[32.64604,39.88555],[32.645596,39.885671],[32.644834,39.885437],[32.644715,39.884986],[32.644367,39.884923],[32.644083,39.885139],[32.643516,39.885376],[32.642144,39.885043],[32.641528,39.884823],[32.640418,39.88423],[32.639256,39.88374],[32.637596,39.883485],[32.636971,39.883297],[32.634705,39.882707],[32.634441,39.882692],[32.634139,39.882716],[32.633334,39.882914],[32.632955,39.882324],[32.631844,39.882522],[32.63062,39.881633],[32.630164,39.880172],[32.630491,39.879427],[32.628802,39.878457],[32.628273,39.878684],[32.627277,39.879022],[32.626542,39.879226],[32.618597,39.881179],[32.616627,39.881723],[32.615306,39.882295],[32.614394,39.882829],[32.613673,39.883353],[32.612923,39.884079],[32.612347,39.884845],[32.611911,39.885574],[32.61353,39.886266],[32.61872,39.888619],[32.628263,39.892981],[32.630738,39.894137],[32.633594,39.895447],[32.63516,39.896143],[32.637599,39.897184],[32.639734,39.897697],[32.641257,39.897824],[32.642166,39.897868],[32.643624,39.897873],[32.646393,39.897917],[32.647348,39.897899],[32.648981,39.897782],[32.653169,39.897062],[32.654601,39.896765],[32.658445,39.896104]]]]}},{"type":"Feature","properties":{"id":"TR-Y-06-010-M-0010","level":"yerlesim","type":"mahalle","parent_id":"TR-D-06-010","province_id":"TR-P-06","district_id":"TR-D-06-010","name":"Bahçekapı","source_raw_name":"BAHÇEKAPI","source":"Kamuya açık veri ve kent rehberi servisleri","source_label":"Kamuya açık veri ve kent rehberi servisleri","source_name":"Ankara Büyükşehir Belediyesi Seffaf Ankara Açık Veri Platformu - MAKS Mahalle"},"geometry":{"type":"MultiPolygon","coordinates":[[[[32.716875,39.945327],[32.739175,39.945159],[32.739742,39.945143],[32.740181,39.945149],[32.744392,39.945106],[32.762137,39.944981],[32.76221,39.944655],[32.762329,39.944388],[32.762544,39.944056],[32.762765,39.943404],[32.763417,39.941688],[32.763548,39.939856],[32.763606,39.939328],[32.763556,39.938921],[32.763297,39.938287],[32.761876,39.93415],[32.761436,39.932792],[32.761315,39.932544],[32.761152,39.932282],[32.761016,39.932125],[32.760742,39.931881],[32.760425,39.931696],[32.760194,39.931593],[32.759843,39.931488],[32.759574,39.931453],[32.759601,39.931138],[32.75959,39.93092],[32.760435,39.930859],[32.761811,39.930802],[32.762768,39.930808],[32.76344,39.930829],[32.76453,39.930909],[32.765271,39.930996],[32.767803,39.93143],[32.772822,39.932328],[32.773644,39.932497],[32.774377,39.932686],[32.774755,39.9328],[32.775621,39.933107],[32.775861,39.932878],[32.781331,39.934207],[32.783669,39.934803],[32.784389,39.935045],[32.785164,39.935426],[32.787029,39.936542],[32.789313,39.938002],[32.790445,39.938423],[32.792541,39.939143],[32.794877,39.939813],[32.795864,39.940054],[32.796204,39.939107],[32.796905,39.9374],[32.797135,39.936764],[32.797285,39.936483],[32.796875,39.936286],[32.796537,39.936059],[32.794591,39.934307],[32.794161,39.933891],[32.79384,39.933486],[32.793648,39.933193],[32.793502,39.93285],[32.7934,39.932463],[32.793359,39.932184],[32.793352,39.931939],[32.793395,39.93157],[32.793517,39.931127],[32.793643,39.930857],[32.793852,39.930513],[32.794102,39.930194],[32.794428,39.929838],[32.796332,39.927903],[32.796908,39.927218],[32.797218,39.9268],[32.797483,39.9264],[32.797686,39.92608],[32.797979,39.925531],[32.79824,39.924974],[32.798994,39.923175],[32.799303,39.92259],[32.795483,39.921721],[32.794996,39.92153],[32.794728,39.921394],[32.793837,39.920878],[32.790793,39.91895],[32.790073,39.918513],[32.789712,39.918319],[32.789064,39.917917],[32.782927,39.918666],[32.782607,39.918687],[32.781903,39.918671],[32.781514,39.918618],[32.781047,39.918518],[32.780776,39.918437],[32.779001,39.917761],[32.778504,39.917536],[32.776623,39.916799],[32.776166,39.916666],[32.775683,39.916563],[32.775288,39.916528],[32.77526,39.916514],[32.774314,39.916526],[32.77358,39.916619],[32.771397,39.916857],[32.770762,39.9169],[32.769813,39.916917],[32.768583,39.916841],[32.765434,39.916462],[32.763093,39.916214],[32.756779,39.915378],[32.754948,39.915148],[32.753615,39.914947],[32.75196,39.914492],[32.748402,39.913363],[32.747724,39.913161],[32.747159,39.913015],[32.745876,39.912779],[32.745173,39.912673],[32.744422,39.912581],[32.743134,39.912489],[32.742037,39.912461],[32.739032,39.91235],[32.737383,39.91225],[32.736653,39.912164],[32.734302,39.911533],[32.732778,39.910896],[32.732481,39.911138],[32.732385,39.911267],[32.732059,39.912026],[32.73187,39.912371],[32.731648,39.912864],[32.731517,39.913098],[32.731219,39.913505],[32.730779,39.91386],[32.730805,39.91394],[32.730838,39.914246],[32.730387,39.914374],[32.729798,39.914612],[32.729208,39.914906],[32.729076,39.914988],[32.728983,39.915071],[32.728565,39.915693],[32.728497,39.915687],[32.728366,39.915646],[32.728295,39.915645],[32.728234,39.915674],[32.727851,39.916214],[32.727578,39.916475],[32.727494,39.91653],[32.727387,39.916556],[32.727149,39.916535],[32.727073,39.916546],[32.726826,39.916701],[32.726521,39.916849],[32.72624,39.916938],[32.725911,39.916994],[32.725721,39.917042],[32.725613,39.917083],[32.7255,39.917174],[32.725416,39.917438],[32.725285,39.91773],[32.725226,39.917803],[32.724877,39.918077],[32.724785,39.918175],[32.724572,39.918465],[32.72449,39.918604],[32.72437,39.918876],[32.724361,39.91895],[32.724431,39.919221],[32.724466,39.919665],[32.724494,39.9198],[32.724562,39.919996],[32.724716,39.92017],[32.724833,39.920396],[32.724878,39.920642],[32.724875,39.92085],[32.724847,39.920984],[32.724778,39.921166],[32.724439,39.921821],[32.724165,39.922463],[32.724123,39.922851],[32.724121,39.92294],[32.724142,39.923021],[32.724092,39.923168],[32.723999,39.923414],[32.723814,39.923797],[32.723678,39.924046],[32.723537,39.924241],[32.723403,39.924382],[32.723228,39.924506],[32.722961,39.924519],[32.722667,39.924616],[32.722583,39.925011],[32.721524,39.925171],[32.720751,39.925322],[32.715344,39.926515],[32.714433,39.926731],[32.713825,39.926896],[32.71307,39.927126],[32.712179,39.927441],[32.711575,39.927681],[32.71086,39.927991],[32.710083,39.928377],[32.709091,39.928936],[32.708308,39.929444],[32.707757,39.929839],[32.697998,39.937539],[32.696818,39.938464],[32.696348,39.938811],[32.695685,39.93924],[32.695218,39.939509],[32.694639,39.939801],[32.694,39.940087],[32.68756,39.942429],[32.682498,39.944597],[32.673507,39.947226],[32.668719,39.948301],[32.668903,39.949145],[32.669081,39.950297],[32.669373,39.951956],[32.669671,39.953886],[32.669725,39.954586],[32.669922,39.955923],[32.670935,39.96237],[32.671133,39.962703],[32.671232,39.96284],[32.67151,39.963114],[32.675743,39.963271],[32.678824,39.963437],[32.68658,39.959699],[32.687218,39.95938],[32.688894,39.958457],[32.693105,39.955824],[32.704632,39.948533],[32.705476,39.948013],[32.706559,39.947434],[32.707478,39.947012],[32.708024,39.946791],[32.709056,39.946406],[32.710238,39.946057],[32.710938,39.945892],[32.712842,39.945557],[32.713466,39.945468],[32.713942,39.945419],[32.714973,39.945353],[32.715422,39.945339],[32.716875,39.945327]]]]}},{"type":"Feature","properties":{"id":"TR-Y-06-010-M-0011","level":"yerlesim","type":"mahalle","parent_id":"TR-D-06-010","province_id":"TR-P-06","district_id":"TR-D-06-010","name":"Balıkuyumcu","source_raw_name":"BALIKUYUMCU","source":"Kamuya açık veri ve kent rehberi servisleri","source_label":"Kamuya açık veri ve kent rehberi servisleri","source_name":"Ankara Büyükşehir Belediyesi Seffaf Ankara Açık Veri Platformu - MAKS Mahalle"},"geometry":{"type":"MultiPolygon","coordinates":[[[[32.540116,39.789389],[32.540243,39.788923],[32.540724,39.78899],[32.541354,39.78767],[32.541674,39.787713],[32.541861,39.787771],[32.542012,39.787839],[32.542076,39.787885],[32.542174,39.788013],[32.542486,39.788222],[32.542882,39.788537],[32.543177,39.788851],[32.543527,39.789155],[32.543754,39.789308],[32.544313,39.789635],[32.544441,39.789679],[32.544561,39.789677],[32.54465,39.789642],[32.544833,39.789448],[32.544943,39.789384],[32.545034,39.789357],[32.545134,39.789369],[32.545537,39.789506],[32.545709,39.78954],[32.546067,39.789517],[32.546177,39.789459],[32.546447,39.789253],[32.547007,39.788864],[32.547281,39.788692],[32.547396,39.788659],[32.547502,39.78864],[32.548106,39.788669],[32.548313,39.788702],[32.548726,39.788847],[32.548837,39.78885],[32.548989,39.788841],[32.549121,39.788798],[32.549329,39.788682],[32.549559,39.788586],[32.549691,39.788547],[32.550014,39.788519],[32.550322,39.788517],[32.550625,39.788558],[32.550866,39.788525],[32.550973,39.788434],[32.551477,39.788353],[32.55165,39.788055],[32.551961,39.788083],[32.552138,39.787883],[32.552684,39.788057],[32.553074,39.787923],[32.553519,39.787889],[32.554277,39.788289],[32.554387,39.788102],[32.555231,39.788238],[32.555375,39.787438],[32.556821,39.787193],[32.557537,39.787301],[32.56012,39.78454],[32.560387,39.784652],[32.560897,39.78482],[32.561336,39.784983],[32.561974,39.785245],[32.562181,39.785377],[32.562474,39.785495],[32.564383,39.786144],[32.565617,39.786757],[32.565954,39.786947],[32.566679,39.787392],[32.573866,39.777039],[32.576112,39.772648],[32.578662,39.768917],[32.578325,39.768931],[32.580434,39.763519],[32.580784,39.761582],[32.580767,39.759514],[32.580807,39.757331],[32.580517,39.757088],[32.580372,39.756458],[32.580568,39.756202],[32.577961,39.75395],[32.574509,39.750155],[32.574359,39.749673],[32.57271,39.749303],[32.572196,39.749307],[32.571923,39.74925],[32.571699,39.749113],[32.571636,39.748902],[32.57163,39.748524],[32.571527,39.748374],[32.571294,39.748324],[32.571103,39.748323],[32.570973,39.748799],[32.567599,39.748375],[32.566169,39.749741],[32.567578,39.751804],[32.562935,39.755353],[32.561529,39.752879],[32.557039,39.751797],[32.55647,39.749633],[32.552033,39.750066],[32.551207,39.751504],[32.537886,39.754021],[32.536867,39.75615],[32.53632,39.756392],[32.53566,39.756574],[32.534304,39.758259],[32.532006,39.760976],[32.530728,39.76016],[32.527211,39.762397],[32.522193,39.762467],[32.520242,39.757595],[32.516264,39.75911],[32.507993,39.757093],[32.499045,39.751831],[32.49899,39.751825],[32.498972,39.751865],[32.4954,39.751494],[32.488785,39.757146],[32.484464,39.764671],[32.483597,39.766897],[32.525671,39.790809],[32.526493,39.791317],[32.532415,39.795324],[32.535833,39.797705],[32.539482,39.800198],[32.540586,39.799246],[32.540629,39.799142],[32.540639,39.798974],[32.540603,39.798685],[32.540507,39.79827],[32.540288,39.797749],[32.540077,39.797324],[32.539921,39.797112],[32.539762,39.796981],[32.539737,39.796915],[32.539957,39.796272],[32.539572,39.795386],[32.539358,39.794956],[32.539265,39.794608],[32.539274,39.793283],[32.539567,39.792369],[32.539662,39.792012],[32.539842,39.790926],[32.539898,39.790416],[32.540116,39.789389]]]]}},{"type":"Feature","properties":{"id":"TR-Y-06-010-M-0012","level":"yerlesim","type":"mahalle","parent_id":"TR-D-06-010","province_id":"TR-P-06","district_id":"TR-D-06-010","name":"Devlet","source_raw_name":"DEVLET","source":"Kamuya açık veri ve kent rehberi servisleri","source_label":"Kamuya açık veri ve kent rehberi servisleri","source_name":"Ankara Büyükşehir Belediyesi Seffaf Ankara Açık Veri Platformu - MAKS Mahalle"},"geometry":{"type":"MultiPolygon","coordinates":[[[[32.619587,39.97692],[32.618297,39.976576],[32.616928,39.976264],[32.616228,39.976133],[32.613928,39.976143],[32.612296,39.976238],[32.611047,39.976384],[32.608984,39.976568],[32.608132,39.97667],[32.608395,39.971186],[32.608341,39.970485],[32.607214,39.970812],[32.605859,39.971234],[32.602601,39.972389],[32.601768,39.972641],[32.601846,39.972937],[32.601946,39.973469],[32.602074,39.974332],[32.602498,39.975769],[32.602912,39.977748],[32.601833,39.982678],[32.608737,39.982435],[32.60975,39.981626],[32.623935,39.981242],[32.62367,39.980418],[32.623299,39.979463],[32.622889,39.978839],[32.622612,39.978474],[32.621404,39.977669],[32.620408,39.977201],[32.619587,39.97692]]]]}},{"type":"Feature","properties":{"id":"TR-Y-06-010-M-0013","level":"yerlesim","type":"mahalle","parent_id":"TR-D-06-010","province_id":"TR-P-06","district_id":"TR-D-06-010","name":"Elvan","source_raw_name":"ELVAN","source":"Kamuya açık veri ve kent rehberi servisleri","source_label":"Kamuya açık veri ve kent rehberi servisleri","source_name":"Ankara Büyükşehir Belediyesi Seffaf Ankara Açık Veri Platformu - MAKS Mahalle"},"geometry":{"type":"MultiPolygon","coordinates":[[[[32.631508,39.939801],[32.631499,39.939657],[32.629377,39.939734],[32.627861,39.939735],[32.625466,39.939622],[32.625446,39.939898],[32.625225,39.9414],[32.624943,39.942591],[32.624564,39.943864],[32.623844,39.946021],[32.623585,39.946938],[32.623305,39.948271],[32.623174,39.949495],[32.62315,39.950589],[32.623194,39.951509],[32.623376,39.952842],[32.623439,39.95319],[32.623845,39.95479],[32.624046,39.955489],[32.624424,39.95662],[32.624506,39.956317],[32.625872,39.956122],[32.626926,39.955932],[32.632894,39.954626],[32.632881,39.954585],[32.633561,39.954435],[32.633539,39.953969],[32.633527,39.952725],[32.633445,39.95245],[32.633395,39.952171],[32.6332,39.951384],[32.632942,39.950168],[32.632707,39.94887],[32.632784,39.948312],[32.632806,39.947794],[32.632768,39.946929],[32.632698,39.946296],[32.632473,39.945745],[32.632484,39.945624],[32.632143,39.944959],[32.631604,39.943999],[32.630465,39.943601],[32.631228,39.942402],[32.631514,39.94186],[32.631508,39.939801]]]]}},{"type":"Feature","properties":{"id":"TR-Y-06-010-M-0014","level":"yerlesim","type":"mahalle","parent_id":"TR-D-06-010","province_id":"TR-P-06","district_id":"TR-D-06-010","name":"Erler","source_raw_name":"ERLER","source":"Kamuya açık veri ve kent rehberi servisleri","source_label":"Kamuya açık veri ve kent rehberi servisleri","source_name":"Ankara Büyükşehir Belediyesi Seffaf Ankara Açık Veri Platformu - MAKS Mahalle"},"geometry":{"type":"MultiPolygon","coordinates":[[[[32.676512,39.944835],[32.678622,39.944097],[32.678889,39.944608],[32.680424,39.944681],[32.681798,39.944526],[32.682498,39.944597],[32.68756,39.942429],[32.694,39.940087],[32.694639,39.939801],[32.695218,39.939509],[32.695685,39.93924],[32.696348,39.938811],[32.696818,39.938464],[32.697998,39.937539],[32.707757,39.929839],[32.708308,39.929444],[32.709091,39.928936],[32.710083,39.928377],[32.71086,39.927991],[32.711575,39.927681],[32.712179,39.927441],[32.71307,39.927126],[32.713825,39.926896],[32.714433,39.926731],[32.715344,39.926515],[32.720751,39.925322],[32.721524,39.925171],[32.722583,39.925011],[32.722667,39.924616],[32.722961,39.924519],[32.723228,39.924506],[32.723403,39.924382],[32.723537,39.924241],[32.723678,39.924046],[32.723999,39.923414],[32.724142,39.923021],[32.724121,39.92294],[32.724123,39.922851],[32.724165,39.922463],[32.724439,39.921821],[32.724753,39.921218],[32.724847,39.920984],[32.724881,39.920758],[32.724856,39.920472],[32.724777,39.920269],[32.724674,39.920113],[32.724562,39.919996],[32.72454,39.919953],[32.724478,39.919736],[32.724431,39.919221],[32.724361,39.91895],[32.724381,39.918845],[32.724572,39.918465],[32.724785,39.918175],[32.724877,39.918077],[32.725066,39.917938],[32.725257,39.91777],[32.725342,39.91763],[32.7255,39.917174],[32.725583,39.917102],[32.725721,39.917042],[32.725911,39.916994],[32.72624,39.916938],[32.726521,39.916849],[32.726826,39.916701],[32.727073,39.916546],[32.727149,39.916535],[32.727387,39.916556],[32.727494,39.91653],[32.727578,39.916475],[32.727851,39.916214],[32.728234,39.915674],[32.728295,39.915645],[32.728366,39.915646],[32.728497,39.915687],[32.728565,39.915693],[32.728983,39.915071],[32.729076,39.914988],[32.729208,39.914906],[32.729798,39.914612],[32.730387,39.914374],[32.730838,39.914246],[32.730805,39.91394],[32.730779,39.91386],[32.731219,39.913505],[32.731517,39.913098],[32.731648,39.912864],[32.73187,39.912371],[32.732059,39.912026],[32.732385,39.911267],[32.732481,39.911138],[32.732778,39.910896],[32.732994,39.910573],[32.733275,39.910209],[32.734244,39.908699],[32.734478,39.908233],[32.734513,39.9081],[32.734533,39.907805],[32.734531,39.907736],[32.734481,39.907553],[32.734421,39.907402],[32.733928,39.906588],[32.699275,39.905196],[32.698792,39.905174],[32.697943,39.905092],[32.697329,39.905002],[32.696689,39.904874],[32.696277,39.904771],[32.695234,39.90445],[32.694515,39.904169],[32.693445,39.903642],[32.691328,39.902272],[32.687441,39.899945],[32.679241,39.894958],[32.678841,39.895346],[32.67561,39.898137],[32.675457,39.898217],[32.675155,39.89833],[32.674899,39.898374],[32.674675,39.898389],[32.674502,39.898378],[32.674134,39.898312],[32.67174,39.89743],[32.671241,39.897259],[32.670581,39.89712],[32.667877,39.896758],[32.66619,39.896549],[32.665461,39.896442],[32.66483,39.896326],[32.664212,39.896251],[32.663524,39.896188],[32.662804,39.896213],[32.662264,39.896199],[32.661424,39.896102],[32.659885,39.896001],[32.659617,39.896229],[32.659556,39.896652],[32.656906,39.898075],[32.65465,39.898307],[32.65607,39.90477],[32.656088,39.906606],[32.655739,39.908976],[32.653476,39.909885],[32.653387,39.909874],[32.652098,39.910439],[32.652626,39.911064],[32.653081,39.911736],[32.653433,39.912344],[32.653694,39.912879],[32.653846,39.913301],[32.653898,39.913545],[32.653883,39.913925],[32.65392,39.914174],[32.654075,39.914508],[32.654688,39.915591],[32.65499,39.916202],[32.655666,39.91737],[32.655902,39.917818],[32.656023,39.918074],[32.656101,39.918288],[32.65614,39.918728],[32.656126,39.918999],[32.656014,39.919901],[32.655909,39.92027],[32.655184,39.921446],[32.655045,39.921655],[32.65495,39.921762],[32.654333,39.922087],[32.654208,39.922093],[32.654267,39.922392],[32.654327,39.922865],[32.654385,39.924649],[32.654413,39.926069],[32.654405,39.926468],[32.654541,39.928962],[32.654651,39.929831],[32.654884,39.931348],[32.654983,39.93171],[32.6556,39.933071],[32.659576,39.931239],[32.661277,39.935375],[32.664455,39.934921],[32.66494,39.934974],[32.665108,39.934717],[32.669519,39.935193],[32.671102,39.936356],[32.671168,39.939947],[32.672079,39.941854],[32.671944,39.942898],[32.672521,39.943374],[32.67399,39.942377],[32.676249,39.943861],[32.676291,39.944913],[32.676512,39.944835]]]]}},{"type":"Feature","properties":{"id":"TR-Y-06-010-M-0015","level":"yerlesim","type":"mahalle","parent_id":"TR-D-06-010","province_id":"TR-P-06","district_id":"TR-D-06-010","name":"Eryaman","source_raw_name":"ERYAMAN","source":"Kamuya açık veri ve kent rehberi servisleri","source_label":"Kamuya açık veri ve kent rehberi servisleri","source_name":"Ankara Büyükşehir Belediyesi Seffaf Ankara Açık Veri Platformu - MAKS Mahalle"},"geometry":{"type":"MultiPolygon","coordinates":[[[[32.626345,39.981169],[32.628899,39.981093],[32.628914,39.981165],[32.634254,39.980932],[32.635905,39.980877],[32.635666,39.978422],[32.635442,39.97716],[32.634988,39.975422],[32.634562,39.974245],[32.634012,39.973017],[32.633664,39.972335],[32.63336,39.971798],[32.632326,39.970221],[32.629881,39.966839],[32.628776,39.967083],[32.62708,39.967544],[32.624931,39.968214],[32.62429,39.968375],[32.62395,39.968438],[32.62349,39.968516],[32.622629,39.9686],[32.616261,39.969014],[32.615737,39.969064],[32.613819,39.969357],[32.612043,39.969659],[32.610419,39.969987],[32.608341,39.970493],[32.608395,39.971186],[32.608132,39.97667],[32.608984,39.976568],[32.611047,39.976384],[32.612296,39.976238],[32.613928,39.976143],[32.616228,39.976133],[32.616928,39.976264],[32.618297,39.976576],[32.619587,39.97692],[32.620408,39.977201],[32.621404,39.977669],[32.622612,39.978474],[32.622889,39.978839],[32.623299,39.979463],[32.62367,39.980418],[32.623935,39.981242],[32.626345,39.981169]]]]}},{"type":"Feature","properties":{"id":"TR-Y-06-010-M-0016","level":"yerlesim","type":"mahalle","parent_id":"TR-D-06-010","province_id":"TR-P-06","district_id":"TR-D-06-010","name":"Etiler","source_raw_name":"ETİLER","source":"Kamuya açık veri ve kent rehberi servisleri","source_label":"Kamuya açık veri ve kent rehberi servisleri","source_name":"Ankara Büyükşehir Belediyesi Seffaf Ankara Açık Veri Platformu - MAKS Mahalle"},"geometry":{"type":"MultiPolygon","coordinates":[[[[32.658655,39.96271],[32.659761,39.962712],[32.67151,39.963114],[32.671232,39.96284],[32.670935,39.96237],[32.669922,39.955923],[32.669725,39.954586],[32.669671,39.953886],[32.669373,39.951956],[32.669081,39.950297],[32.668903,39.949145],[32.668719,39.948301],[32.665548,39.948845],[32.663289,39.94921],[32.662399,39.949366],[32.662279,39.949413],[32.658974,39.949916],[32.656332,39.95035],[32.655363,39.950524],[32.651371,39.951326],[32.649598,39.951658],[32.647723,39.952038],[32.645831,39.952442],[32.63858,39.9539],[32.634993,39.954594],[32.633017,39.955017],[32.632894,39.954626],[32.626926,39.955932],[32.625872,39.956122],[32.624506,39.956317],[32.624424,39.95662],[32.624645,39.957408],[32.625319,39.959495],[32.625624,39.960258],[32.625959,39.961008],[32.626395,39.961816],[32.626964,39.96275],[32.627599,39.963681],[32.628437,39.964853],[32.629634,39.966475],[32.629881,39.966839],[32.630467,39.966714],[32.633176,39.966228],[32.634095,39.966027],[32.636119,39.965628],[32.641422,39.964661],[32.643658,39.964262],[32.644534,39.964121],[32.645371,39.964006],[32.656912,39.962797],[32.658655,39.96271]]]]}},{"type":"Feature","properties":{"id":"TR-Y-06-010-M-0017","level":"yerlesim","type":"mahalle","parent_id":"TR-D-06-010","province_id":"TR-P-06","district_id":"TR-D-06-010","name":"Fatih Sultan","source_raw_name":"FATİH SULTAN","source":"Kamuya açık veri ve kent rehberi servisleri","source_label":"Kamuya açık veri ve kent rehberi servisleri","source_name":"Ankara Büyükşehir Belediyesi Seffaf Ankara Açık Veri Platformu - MAKS Mahalle"},"geometry":{"type":"MultiPolygon","coordinates":[[[[32.676645,39.897246],[32.678841,39.895346],[32.679241,39.894958],[32.675768,39.892962],[32.674944,39.892429],[32.674333,39.891989],[32.67382,39.891673],[32.668435,39.888222],[32.66577,39.886371],[32.665564,39.886247],[32.6651,39.885904],[32.651872,39.876714],[32.650874,39.875993],[32.649322,39.874942],[32.648261,39.874193],[32.646375,39.872897],[32.644082,39.871279],[32.64367,39.871007],[32.64299,39.870513],[32.642521,39.870206],[32.640105,39.868509],[32.639061,39.867796],[32.638719,39.867735],[32.637838,39.867329],[32.637191,39.867077],[32.636964,39.867011],[32.636711,39.866957],[32.636444,39.866921],[32.636173,39.866909],[32.635899,39.866919],[32.63564,39.866948],[32.635312,39.86702],[32.634918,39.867156],[32.634703,39.86726],[32.634383,39.867463],[32.634194,39.867626],[32.633993,39.867844],[32.633884,39.867998],[32.633732,39.868297],[32.633668,39.868489],[32.63364,39.868641],[32.633622,39.868815],[32.633639,39.869147],[32.632597,39.870204],[32.63277,39.870575],[32.632905,39.870926],[32.633027,39.871393],[32.63314,39.872051],[32.633174,39.872464],[32.633168,39.873069],[32.633038,39.873816],[32.632907,39.874292],[32.63271,39.8748],[32.632314,39.87554],[32.63184,39.876246],[32.631312,39.876791],[32.630296,39.877631],[32.629503,39.878115],[32.628802,39.878457],[32.630491,39.879427],[32.630164,39.880172],[32.63062,39.881633],[32.631844,39.882522],[32.632955,39.882324],[32.633334,39.882914],[32.634139,39.882716],[32.634441,39.882692],[32.634705,39.882707],[32.636971,39.883297],[32.637596,39.883485],[32.639256,39.88374],[32.640418,39.88423],[32.641528,39.884823],[32.642144,39.885043],[32.643516,39.885376],[32.644083,39.885139],[32.644367,39.884923],[32.644715,39.884986],[32.644834,39.885437],[32.645596,39.885671],[32.64604,39.88555],[32.646822,39.885738],[32.647406,39.885817],[32.647607,39.886097],[32.647281,39.886749],[32.647721,39.887309],[32.651727,39.888641],[32.653432,39.890642],[32.653586,39.8909],[32.654021,39.891992],[32.655422,39.891512],[32.656275,39.891256],[32.656592,39.891293],[32.658357,39.892271],[32.658676,39.892042],[32.658738,39.89202],[32.659195,39.892221],[32.660211,39.892628],[32.660725,39.892802],[32.660767,39.892894],[32.6596,39.894753],[32.660023,39.894832],[32.659676,39.895794],[32.659885,39.896001],[32.661424,39.896102],[32.662264,39.896199],[32.662804,39.896213],[32.663524,39.896188],[32.664212,39.896251],[32.66483,39.896326],[32.665461,39.896442],[32.66619,39.896549],[32.667877,39.896758],[32.670581,39.89712],[32.671241,39.897259],[32.67174,39.89743],[32.674134,39.898312],[32.674502,39.898378],[32.674675,39.898389],[32.674899,39.898374],[32.675155,39.89833],[32.675457,39.898217],[32.67561,39.898137],[32.676645,39.897246]]]]}},{"type":"Feature","properties":{"id":"TR-Y-06-010-M-0018","level":"yerlesim","type":"mahalle","parent_id":"TR-D-06-010","province_id":"TR-P-06","district_id":"TR-D-06-010","name":"Fevziye","source_raw_name":"FEVZİYE","source":"Kamuya açık veri ve kent rehberi servisleri","source_label":"Kamuya açık veri ve kent rehberi servisleri","source_name":"Ankara Büyükşehir Belediyesi Seffaf Ankara Açık Veri Platformu - MAKS Mahalle"},"geometry":{"type":"MultiPolygon","coordinates":[[[[32.595873,39.761735],[32.596344,39.761625],[32.596902,39.761576],[32.598416,39.76164],[32.599145,39.761801],[32.599601,39.761737],[32.599772,39.761594],[32.600531,39.761195],[32.600956,39.761088],[32.602102,39.760398],[32.604802,39.759165],[32.606799,39.758576],[32.607045,39.758463],[32.607114,39.758451],[32.607332,39.758742],[32.6074,39.758899],[32.608585,39.75815],[32.608861,39.75811],[32.6094,39.758341],[32.609632,39.758513],[32.611558,39.75824],[32.611862,39.758751],[32.612725,39.758545],[32.612343,39.757421],[32.613584,39.757908],[32.615718,39.758058],[32.618304,39.757694],[32.619217,39.757502],[32.621666,39.757155],[32.621614,39.755303],[32.621188,39.749405],[32.620586,39.747751],[32.622289,39.743629],[32.621386,39.741149],[32.622764,39.740682],[32.623689,39.739152],[32.621418,39.73537],[32.617616,39.732291],[32.615933,39.732402],[32.613196,39.730507],[32.606016,39.730601],[32.604025,39.73142],[32.598985,39.731284],[32.59686,39.728918],[32.580702,39.723435],[32.576992,39.723308],[32.574499,39.724396],[32.575197,39.726456],[32.572699,39.72823],[32.573389,39.731662],[32.575872,39.73222],[32.572999,39.737284],[32.571222,39.737278],[32.572276,39.739202],[32.573518,39.739481],[32.571103,39.748323],[32.571294,39.748324],[32.571527,39.748374],[32.57163,39.748524],[32.571636,39.748902],[32.571699,39.749113],[32.571923,39.74925],[32.572196,39.749307],[32.57271,39.749303],[32.574359,39.749673],[32.574509,39.750155],[32.577961,39.75395],[32.580568,39.756202],[32.580372,39.756458],[32.580517,39.757088],[32.580807,39.757331],[32.580767,39.759514],[32.581091,39.759596],[32.581055,39.760092],[32.581702,39.760035],[32.581867,39.760149],[32.583289,39.760357],[32.583343,39.760631],[32.588041,39.761973],[32.588128,39.761907],[32.588202,39.761907],[32.588272,39.761679],[32.592235,39.762474],[32.59362,39.762045],[32.59546,39.761914],[32.595635,39.761864],[32.595873,39.761735]]]]}},{"type":"Feature","properties":{"id":"TR-Y-06-010-M-0019","level":"yerlesim","type":"mahalle","parent_id":"TR-D-06-010","province_id":"TR-P-06","district_id":"TR-D-06-010","name":"Göksu","source_raw_name":"GÖKSU","source":"Kamuya açık veri ve kent rehberi servisleri","source_label":"Kamuya açık veri ve kent rehberi servisleri","source_name":"Ankara Büyükşehir Belediyesi Seffaf Ankara Açık Veri Platformu - MAKS Mahalle"},"geometry":{"type":"MultiPolygon","coordinates":[[[[32.642063,40.004283],[32.642072,40.003644],[32.645142,40.003582],[32.645445,40.003757],[32.646036,40.003773],[32.646293,40.003682],[32.646383,40.003557],[32.653517,40.003411],[32.653758,40.003517],[32.654117,40.003556],[32.654334,40.003263],[32.656351,40.002414],[32.656321,40.001483],[32.656269,40.000623],[32.656107,39.998982],[32.655751,39.99599],[32.655486,39.993529],[32.655446,39.99282],[32.655443,39.992253],[32.655492,39.991161],[32.655278,39.991175],[32.652532,39.990132],[32.650701,39.989406],[32.650015,39.989112],[32.648628,39.988407],[32.648102,39.988074],[32.647962,39.987911],[32.647869,39.987747],[32.647829,39.987584],[32.647819,39.987398],[32.647834,39.986579],[32.648039,39.983427],[32.648088,39.982845],[32.648147,39.982455],[32.648248,39.982129],[32.648929,39.980725],[32.649024,39.980315],[32.64905,39.979984],[32.649047,39.97972],[32.64898,39.978629],[32.648972,39.978085],[32.648936,39.977514],[32.643554,39.977461],[32.641516,39.977457],[32.641144,39.977446],[32.640618,39.9774],[32.640024,39.977258],[32.639611,39.97732],[32.638994,39.977444],[32.635562,39.977789],[32.635666,39.978422],[32.635786,39.979549],[32.635954,39.981496],[32.63611,39.982941],[32.637008,39.992208],[32.637137,39.99396],[32.637159,39.995058],[32.637138,39.995647],[32.63708,39.9964],[32.637007,39.996998],[32.636846,39.99794],[32.636721,39.998511],[32.63643,39.999571],[32.636254,40.000103],[32.635707,40.001459],[32.635039,40.002749],[32.634419,40.003797],[32.637538,40.003737],[32.637721,40.003951],[32.639107,40.003705],[32.641127,40.003664],[32.641189,40.004482],[32.642063,40.004283]]]]}},{"type":"Feature","properties":{"id":"TR-Y-06-010-M-0020","level":"yerlesim","type":"mahalle","parent_id":"TR-D-06-010","province_id":"TR-P-06","district_id":"TR-D-06-010","name":"Güzelkent","source_raw_name":"GÜZELKENT","source":"Kamuya açık veri ve kent rehberi servisleri","source_label":"Kamuya açık veri ve kent rehberi servisleri","source_name":"Ankara Büyükşehir Belediyesi Seffaf Ankara Açık Veri Platformu - MAKS Mahalle"},"geometry":{"type":"MultiPolygon","coordinates":[[[[32.622056,39.994664],[32.622243,39.993142],[32.622276,39.992939],[32.622339,39.992764],[32.622335,39.992683],[32.621745,39.992553],[32.620953,39.992417],[32.620273,39.992264],[32.617648,39.991384],[32.616039,39.99066],[32.613709,39.989445],[32.613534,39.989315],[32.613365,39.989145],[32.611613,39.987079],[32.610894,39.986167],[32.610704,39.985831],[32.610608,39.985613],[32.610272,39.984968],[32.609856,39.984233],[32.609053,39.982849],[32.608778,39.982439],[32.608536,39.982431],[32.607392,39.982485],[32.605323,39.982555],[32.602703,39.982628],[32.601833,39.982678],[32.601822,39.98316],[32.601839,39.983418],[32.60232,39.985678],[32.602458,39.986298],[32.602514,39.986474],[32.602144,39.986695],[32.601744,39.98686],[32.601463,39.98695],[32.600674,39.987162],[32.598661,39.987816],[32.598395,39.988005],[32.597935,39.988479],[32.597558,39.988918],[32.598662,39.989511],[32.59945,39.989886],[32.60016,39.990275],[32.60032,39.990385],[32.600601,39.990641],[32.600724,39.990815],[32.600825,39.990966],[32.60104,39.991355],[32.601109,39.991617],[32.60115,39.992068],[32.601262,39.995157],[32.601385,39.99533],[32.601589,39.995494],[32.60207,39.995818],[32.602471,39.996141],[32.602457,39.996318],[32.602957,39.99686],[32.603142,39.996844],[32.603633,39.996757],[32.60411,39.996521],[32.60634,39.99524],[32.607203,39.994774],[32.607575,39.994611],[32.607876,39.994542],[32.610593,39.994528],[32.615151,39.99454],[32.615385,39.994671],[32.616706,39.995771],[32.617764,39.996621],[32.618645,39.997117],[32.620023,39.99781],[32.620561,39.998048],[32.620852,39.998144],[32.621991,39.998329],[32.622335,39.998313],[32.622271,39.998182],[32.622199,39.99767],[32.621966,39.995549],[32.621996,39.995082],[32.622056,39.994664]]]]}},{"type":"Feature","properties":{"id":"TR-Y-06-010-M-0021","level":"yerlesim","type":"mahalle","parent_id":"TR-D-06-010","province_id":"TR-P-06","district_id":"TR-D-06-010","name":"İstasyon","source_raw_name":"İSTASYON","source":"Kamuya açık veri ve kent rehberi servisleri","source_label":"Kamuya açık veri ve kent rehberi servisleri","source_name":"Ankara Büyükşehir Belediyesi Seffaf Ankara Açık Veri Platformu - MAKS Mahalle"},"geometry":{"type":"MultiPolygon","coordinates":[[[[32.673507,39.947226],[32.682498,39.944597],[32.681798,39.944526],[32.680424,39.944681],[32.678889,39.944608],[32.678622,39.944097],[32.676291,39.944913],[32.676249,39.943861],[32.67399,39.942377],[32.672521,39.943374],[32.671944,39.942898],[32.672079,39.941854],[32.671168,39.939947],[32.671102,39.936356],[32.669519,39.935193],[32.665108,39.934717],[32.66494,39.934974],[32.664455,39.934921],[32.661277,39.935375],[32.659576,39.931239],[32.6556,39.933071],[32.656424,39.934946],[32.656535,39.935284],[32.65671,39.936749],[32.65699,39.937793],[32.657119,39.938196],[32.65722,39.938372],[32.657397,39.938561],[32.657597,39.93871],[32.658394,39.93938],[32.658857,39.939919],[32.659687,39.942344],[32.660193,39.943705],[32.660633,39.944739],[32.661164,39.946148],[32.662074,39.948845],[32.66216,39.948941],[32.662279,39.949413],[32.662399,39.949366],[32.663289,39.94921],[32.665548,39.948845],[32.668719,39.948301],[32.673507,39.947226]]]]}},{"type":"Feature","properties":{"id":"TR-Y-06-010-M-0022","level":"yerlesim","type":"mahalle","parent_id":"TR-D-06-010","province_id":"TR-P-06","district_id":"TR-D-06-010","name":"Kazım Karabekir","source_raw_name":"KAZIM KARABEKİR","source":"Kamuya açık veri ve kent rehberi servisleri","source_label":"Kamuya açık veri ve kent rehberi servisleri","source_name":"Ankara Büyükşehir Belediyesi Seffaf Ankara Açık Veri Platformu - MAKS Mahalle"},"geometry":{"type":"MultiPolygon","coordinates":[[[[32.648285,39.94367],[32.648187,39.943663],[32.648244,39.944811],[32.648398,39.946152],[32.648791,39.948899],[32.648762,39.949002],[32.648251,39.949032],[32.648295,39.949202],[32.648717,39.94916],[32.648852,39.949332],[32.649208,39.951737],[32.651371,39.951326],[32.655363,39.950524],[32.656332,39.95035],[32.658974,39.949916],[32.662279,39.949413],[32.66216,39.948941],[32.662074,39.948845],[32.661479,39.947072],[32.660774,39.947058],[32.660546,39.947037],[32.659696,39.946894],[32.655497,39.946294],[32.654604,39.946086],[32.65377,39.945852],[32.652472,39.945435],[32.652299,39.945352],[32.652136,39.945253],[32.651915,39.94509],[32.65158,39.944805],[32.651429,39.944704],[32.65116,39.944407],[32.650944,39.944129],[32.650885,39.944075],[32.650771,39.944024],[32.650208,39.943885],[32.649721,39.943846],[32.649461,39.94381],[32.648816,39.943687],[32.648285,39.94367]]]]}},{"type":"Feature","properties":{"id":"TR-Y-06-010-M-0023","level":"yerlesim","type":"mahalle","parent_id":"TR-D-06-010","province_id":"TR-P-06","district_id":"TR-D-06-010","name":"Oğuzlar","source_raw_name":"OĞUZLAR","source":"Kamuya açık veri ve kent rehberi servisleri","source_label":"Kamuya açık veri ve kent rehberi servisleri","source_name":"Ankara Büyükşehir Belediyesi Seffaf Ankara Açık Veri Platformu - MAKS Mahalle"},"geometry":{"type":"MultiPolygon","coordinates":[[[[32.607918,39.939721],[32.609142,39.937045],[32.608938,39.933488],[32.608767,39.932014],[32.608152,39.930394],[32.607358,39.929581],[32.606309,39.928682],[32.612934,39.924352],[32.613006,39.924263],[32.613044,39.924091],[32.613118,39.917246],[32.614419,39.917247],[32.616496,39.917166],[32.612569,39.915143],[32.608125,39.912503],[32.601947,39.908622],[32.601428,39.908648],[32.597447,39.911929],[32.594617,39.913844],[32.594596,39.914547],[32.595269,39.914735],[32.594995,39.915091],[32.595445,39.91536],[32.595888,39.915747],[32.596262,39.916468],[32.596289,39.917112],[32.596162,39.91766],[32.596024,39.91795],[32.595675,39.918425],[32.595288,39.918827],[32.594467,39.918824],[32.594372,39.921961],[32.594728,39.922676],[32.594603,39.923059],[32.594942,39.924045],[32.594681,39.924139],[32.594915,39.924859],[32.595639,39.925363],[32.595802,39.92565],[32.595834,39.925879],[32.597948,39.924473],[32.598293,39.924688],[32.597773,39.925806],[32.597467,39.925864],[32.597241,39.92653],[32.597191,39.927113],[32.596853,39.927342],[32.59664,39.928409],[32.596119,39.928472],[32.596078,39.928861],[32.595703,39.928824],[32.59518,39.929111],[32.595103,39.929235],[32.595207,39.929872],[32.59542,39.930079],[32.595764,39.930092],[32.596103,39.929858],[32.596225,39.930023],[32.596892,39.929867],[32.597251,39.930636],[32.596596,39.930718],[32.596368,39.930803],[32.596209,39.930894],[32.59598,39.931091],[32.595765,39.931329],[32.595563,39.931613],[32.595747,39.931777],[32.595699,39.932062],[32.595709,39.932946],[32.596939,39.934885],[32.596945,39.935079],[32.59816,39.937249],[32.59914,39.937855],[32.599351,39.938101],[32.59949,39.938148],[32.601506,39.939831],[32.602423,39.939682],[32.602185,39.939836],[32.601098,39.940749],[32.600285,39.94149],[32.599432,39.942358],[32.598898,39.943127],[32.598784,39.943327],[32.598705,39.943394],[32.598469,39.943741],[32.597786,39.94476],[32.596917,39.946106],[32.598253,39.946644],[32.598353,39.946714],[32.599085,39.947064],[32.599396,39.949271],[32.602566,39.948981],[32.603577,39.948866],[32.605208,39.94855],[32.607473,39.948152],[32.609339,39.947846],[32.609751,39.947795],[32.610953,39.947607],[32.611718,39.947424],[32.612479,39.94706],[32.615725,39.944866],[32.61595,39.944688],[32.616087,39.944605],[32.616026,39.944553],[32.61574,39.944376],[32.614887,39.943633],[32.613748,39.942679],[32.613306,39.942323],[32.613152,39.942226],[32.610093,39.940781],[32.607918,39.939721]]]]}},{"type":"Feature","properties":{"id":"TR-Y-06-010-M-0024","level":"yerlesim","type":"mahalle","parent_id":"TR-D-06-010","province_id":"TR-P-06","district_id":"TR-D-06-010","name":"Orhun","source_raw_name":"ORHUN","source":"Kamuya açık veri ve kent rehberi servisleri","source_label":"Kamuya açık veri ve kent rehberi servisleri","source_name":"Ankara Büyükşehir Belediyesi Seffaf Ankara Açık Veri Platformu - MAKS Mahalle"},"geometry":{"type":"MultiPolygon","coordinates":[[[[32.645333,39.835792],[32.645674,39.834272],[32.645852,39.832832],[32.646002,39.830934],[32.646145,39.827753],[32.64617,39.825268],[32.646095,39.822981],[32.645923,39.820322],[32.645659,39.817642],[32.645157,39.813951],[32.644277,39.810102],[32.643874,39.807536],[32.644093,39.805453],[32.644682,39.80392],[32.645745,39.802032],[32.646251,39.801367],[32.647052,39.800537],[32.647872,39.799774],[32.648206,39.799518],[32.64917,39.798839],[32.649565,39.798607],[32.649703,39.79855],[32.650214,39.798245],[32.65453,39.796075],[32.655989,39.795178],[32.657322,39.794286],[32.658565,39.793288],[32.659173,39.792776],[32.660995,39.791026],[32.662948,39.78836],[32.663627,39.787188],[32.664443,39.785532],[32.664474,39.785403],[32.664485,39.785221],[32.664259,39.784567],[32.660289,39.78373],[32.658605,39.784079],[32.65495,39.781355],[32.64945,39.780749],[32.648379,39.780746],[32.648385,39.779684],[32.645488,39.778142],[32.644577,39.777078],[32.641219,39.776124],[32.642139,39.775537],[32.640159,39.774116],[32.638024,39.773165],[32.63743,39.769979],[32.633619,39.76808],[32.631014,39.769251],[32.630626,39.768202],[32.628503,39.768008],[32.62758,39.769013],[32.625384,39.769206],[32.624896,39.76864],[32.621448,39.768979],[32.62159,39.769616],[32.624041,39.771238],[32.623876,39.771739],[32.625628,39.772663],[32.627365,39.773056],[32.629324,39.774035],[32.630017,39.776029],[32.628568,39.776797],[32.62662,39.778421],[32.6266,39.779736],[32.623645,39.782481],[32.622672,39.78183],[32.620686,39.785109],[32.619404,39.787929],[32.617837,39.789228],[32.617904,39.789428],[32.617168,39.789828],[32.612464,39.790921],[32.609877,39.791911],[32.610011,39.792464],[32.608094,39.792772],[32.607015,39.793435],[32.606562,39.792671],[32.603121,39.795872],[32.606139,39.797531],[32.606726,39.798129],[32.607189,39.799171],[32.607602,39.801044],[32.606085,39.801185],[32.605612,39.801132],[32.600984,39.800011],[32.600931,39.799429],[32.600966,39.798905],[32.601639,39.798615],[32.601466,39.79846],[32.600243,39.797827],[32.598669,39.797098],[32.593853,39.802264],[32.592314,39.802745],[32.592129,39.803507],[32.591982,39.803889],[32.591819,39.804234],[32.591159,39.805452],[32.589332,39.808421],[32.589057,39.808932],[32.588813,39.809622],[32.588649,39.810306],[32.588457,39.812866],[32.588367,39.813174],[32.588085,39.813842],[32.587823,39.814529],[32.587749,39.814887],[32.587771,39.815282],[32.587911,39.815899],[32.588111,39.81638],[32.588163,39.81655],[32.588379,39.817653],[32.588683,39.818127],[32.588721,39.818321],[32.588819,39.819265],[32.588778,39.819425],[32.588286,39.820133],[32.588236,39.820379],[32.588287,39.821088],[32.588269,39.824383],[32.588322,39.824791],[32.588431,39.825242],[32.588557,39.825649],[32.588747,39.825964],[32.589119,39.826663],[32.589213,39.826972],[32.589275,39.827348],[32.589216,39.827786],[32.588633,39.831018],[32.588515,39.83271],[32.588055,39.834649],[32.587211,39.837826],[32.592673,39.843281],[32.599355,39.850005],[32.600567,39.851096],[32.602013,39.852197],[32.603362,39.853078],[32.60523,39.854071],[32.606445,39.854614],[32.60756,39.855062],[32.610862,39.856298],[32.628768,39.862919],[32.627385,39.860493],[32.626547,39.858889],[32.626099,39.857617],[32.625983,39.857137],[32.625887,39.8565],[32.625822,39.855882],[32.625825,39.855173],[32.625935,39.854128],[32.626047,39.853614],[32.626193,39.853077],[32.626515,39.85224],[32.626724,39.851816],[32.627039,39.851274],[32.627431,39.85066],[32.627829,39.850121],[32.62829,39.8496],[32.628693,39.849179],[32.629138,39.848778],[32.63035,39.847855],[32.63127,39.84728],[32.632146,39.846774],[32.638161,39.84384],[32.638955,39.843378],[32.640166,39.842594],[32.641015,39.841929],[32.642779,39.840236],[32.643464,39.839365],[32.644185,39.8383],[32.644587,39.837618],[32.645322,39.835855],[32.645333,39.835792]]]]}},{"type":"Feature","properties":{"id":"TR-Y-06-010-M-0025","level":"yerlesim","type":"mahalle","parent_id":"TR-D-06-010","province_id":"TR-P-06","district_id":"TR-D-06-010","name":"Piyade","source_raw_name":"PİYADE","source":"Kamuya açık veri ve kent rehberi servisleri","source_label":"Kamuya açık veri ve kent rehberi servisleri","source_name":"Ankara Büyükşehir Belediyesi Seffaf Ankara Açık Veri Platformu - MAKS Mahalle"},"geometry":{"type":"MultiPolygon","coordinates":[[[[32.641164,39.942805],[32.641223,39.942542],[32.641504,39.942551],[32.641623,39.942086],[32.641381,39.941926],[32.6414,39.941865],[32.641059,39.941782],[32.640387,39.941587],[32.638561,39.941138],[32.635401,39.940279],[32.633806,39.939861],[32.632658,39.939685],[32.631958,39.939658],[32.631499,39.939657],[32.631514,39.94186],[32.631228,39.942402],[32.630465,39.943601],[32.631604,39.943999],[32.632143,39.944959],[32.632484,39.945624],[32.632473,39.945745],[32.632698,39.946296],[32.632768,39.946929],[32.632806,39.947794],[32.632784,39.948312],[32.632707,39.94887],[32.632942,39.950168],[32.6332,39.951384],[32.633395,39.952171],[32.633445,39.95245],[32.633527,39.952725],[32.633539,39.953969],[32.633561,39.954435],[32.632881,39.954585],[32.633017,39.955017],[32.634993,39.954594],[32.63858,39.9539],[32.643118,39.952988],[32.643139,39.952928],[32.643042,39.952515],[32.642511,39.949312],[32.64242,39.948996],[32.642365,39.948726],[32.641812,39.948117],[32.641077,39.946711],[32.641106,39.946371],[32.641384,39.945022],[32.641283,39.944591],[32.64104,39.944115],[32.641006,39.943632],[32.641078,39.943129],[32.641164,39.942805]]]]}},{"type":"Feature","properties":{"id":"TR-Y-06-010-M-0026","level":"yerlesim","type":"mahalle","parent_id":"TR-D-06-010","province_id":"TR-P-06","district_id":"TR-D-06-010","name":"Şehit Osman Avcı","source_raw_name":"ŞEHİT OSMAN AVCI","source":"Kamuya açık veri ve kent rehberi servisleri","source_label":"Kamuya açık veri ve kent rehberi servisleri","source_name":"Ankara Büyükşehir Belediyesi Seffaf Ankara Açık Veri Platformu - MAKS Mahalle"},"geometry":{"type":"MultiPolygon","coordinates":[[[[32.655492,39.991161],[32.655646,39.990034],[32.65598,39.988611],[32.659901,39.975562],[32.660221,39.974705],[32.660487,39.974167],[32.660933,39.973437],[32.661482,39.972731],[32.661846,39.97232],[32.662506,39.971697],[32.663004,39.971277],[32.663842,39.970715],[32.664454,39.970357],[32.665656,39.969765],[32.666432,39.969421],[32.667335,39.968947],[32.665662,39.96856],[32.662375,39.96872],[32.661942,39.96869],[32.660308,39.968434],[32.65981,39.968383],[32.659245,39.968383],[32.658985,39.968411],[32.656369,39.968947],[32.653667,39.969522],[32.652501,39.969875],[32.651819,39.97023],[32.651248,39.970551],[32.650797,39.970959],[32.650475,39.971385],[32.650115,39.972059],[32.649372,39.973494],[32.649274,39.973738],[32.649078,39.974343],[32.648909,39.975294],[32.648894,39.975452],[32.648897,39.976274],[32.648926,39.977357],[32.649047,39.97972],[32.64905,39.979984],[32.649024,39.980315],[32.648929,39.980725],[32.648248,39.982129],[32.648147,39.982455],[32.648088,39.982845],[32.648039,39.983427],[32.647834,39.986579],[32.647819,39.987398],[32.647829,39.987584],[32.647869,39.987747],[32.647962,39.987911],[32.648102,39.988074],[32.648628,39.988407],[32.650015,39.989112],[32.650701,39.989406],[32.652532,39.990132],[32.655278,39.991175],[32.655492,39.991161]]]]}},{"type":"Feature","properties":{"id":"TR-Y-06-010-M-0027","level":"yerlesim","type":"mahalle","parent_id":"TR-D-06-010","province_id":"TR-P-06","district_id":"TR-D-06-010","name":"Şehitali","source_raw_name":"ŞEHİTALİ","source":"Kamuya açık veri ve kent rehberi servisleri","source_label":"Kamuya açık veri ve kent rehberi servisleri","source_name":"Ankara Büyükşehir Belediyesi Seffaf Ankara Açık Veri Platformu - MAKS Mahalle"},"geometry":{"type":"MultiPolygon","coordinates":[[[[32.593853,39.802264],[32.598669,39.797098],[32.600243,39.797827],[32.601466,39.79846],[32.601639,39.798615],[32.600966,39.798905],[32.600931,39.799429],[32.600984,39.800011],[32.605612,39.801132],[32.606085,39.801185],[32.607602,39.801044],[32.607189,39.799171],[32.606726,39.798129],[32.606139,39.797531],[32.603121,39.795872],[32.606562,39.792671],[32.607015,39.793435],[32.608094,39.792772],[32.610011,39.792464],[32.609877,39.791911],[32.612464,39.790921],[32.617168,39.789828],[32.617904,39.789428],[32.617837,39.789228],[32.619404,39.787929],[32.620686,39.785109],[32.622672,39.78183],[32.623645,39.782481],[32.6266,39.779736],[32.62662,39.778421],[32.628568,39.776797],[32.630017,39.776029],[32.629324,39.774035],[32.627365,39.773056],[32.625628,39.772663],[32.623876,39.771739],[32.624041,39.771238],[32.62159,39.769616],[32.621448,39.768979],[32.624896,39.76864],[32.625384,39.769206],[32.62758,39.769013],[32.628503,39.768008],[32.630626,39.768202],[32.629357,39.764764],[32.621742,39.759904],[32.621666,39.757155],[32.619217,39.757502],[32.618304,39.757694],[32.615718,39.758058],[32.613584,39.757908],[32.612343,39.757421],[32.612725,39.758545],[32.611862,39.758751],[32.611558,39.75824],[32.609632,39.758513],[32.6094,39.758341],[32.608861,39.75811],[32.608585,39.75815],[32.6074,39.758899],[32.607332,39.758742],[32.607114,39.758451],[32.607045,39.758463],[32.606799,39.758576],[32.604802,39.759165],[32.602102,39.760398],[32.600956,39.761088],[32.600531,39.761195],[32.599772,39.761594],[32.599601,39.761737],[32.599145,39.761801],[32.598416,39.76164],[32.596902,39.761576],[32.596344,39.761625],[32.595873,39.761735],[32.595635,39.761864],[32.59546,39.761914],[32.59362,39.762045],[32.592235,39.762474],[32.588272,39.761679],[32.588202,39.761907],[32.588128,39.761907],[32.588041,39.761973],[32.583343,39.760631],[32.583289,39.760357],[32.581867,39.760149],[32.581702,39.760035],[32.581055,39.760092],[32.581091,39.759596],[32.580767,39.759514],[32.580784,39.761582],[32.580434,39.763519],[32.578325,39.768931],[32.578662,39.768917],[32.576112,39.772648],[32.573866,39.777039],[32.566679,39.787392],[32.566637,39.787373],[32.56674,39.787434],[32.567262,39.787674],[32.568339,39.788092],[32.569116,39.788412],[32.569924,39.788803],[32.570111,39.788913],[32.570994,39.789511],[32.571321,39.789762],[32.571737,39.790021],[32.572491,39.790357],[32.57315,39.7906],[32.573765,39.790805],[32.573952,39.790885],[32.573974,39.79088],[32.577701,39.792673],[32.58013,39.794458],[32.584812,39.799336],[32.592314,39.802745],[32.593853,39.802264]]]]}},{"type":"Feature","properties":{"id":"TR-Y-06-010-M-0028","level":"yerlesim","type":"mahalle","parent_id":"TR-D-06-010","province_id":"TR-P-06","district_id":"TR-D-06-010","name":"Şeker","source_raw_name":"ŞEKER","source":"Kamuya açık veri ve kent rehberi servisleri","source_label":"Kamuya açık veri ve kent rehberi servisleri","source_name":"Ankara Büyükşehir Belediyesi Seffaf Ankara Açık Veri Platformu - MAKS Mahalle"},"geometry":{"type":"MultiPolygon","coordinates":[[[[32.659245,39.968383],[32.65981,39.968383],[32.660308,39.968434],[32.661942,39.96869],[32.662375,39.96872],[32.665662,39.96856],[32.667335,39.968947],[32.667575,39.968857],[32.673338,39.966066],[32.675875,39.964863],[32.678824,39.963437],[32.676364,39.963299],[32.672474,39.963147],[32.659761,39.962712],[32.658655,39.96271],[32.656912,39.962797],[32.646646,39.963874],[32.646732,39.96395],[32.648181,39.96572],[32.648584,39.966341],[32.649363,39.966388],[32.649642,39.966444],[32.650025,39.966585],[32.650136,39.966641],[32.652368,39.969947],[32.652501,39.969875],[32.653667,39.969522],[32.657837,39.968642],[32.658985,39.968411],[32.659245,39.968383]]]]}},{"type":"Feature","properties":{"id":"TR-Y-06-010-M-0029","level":"yerlesim","type":"mahalle","parent_id":"TR-D-06-010","province_id":"TR-P-06","district_id":"TR-D-06-010","name":"Şeyh Şamil","source_raw_name":"ŞEYH ŞAMİL","source":"Kamuya açık veri ve kent rehberi servisleri","source_label":"Kamuya açık veri ve kent rehberi servisleri","source_name":"Ankara Büyükşehir Belediyesi Seffaf Ankara Açık Veri Platformu - MAKS Mahalle"},"geometry":{"type":"MultiPolygon","coordinates":[[[[32.621502,40.004065],[32.621757,40.003571],[32.623416,40.004503],[32.624286,40.00344],[32.625277,40.003988],[32.626002,40.004361],[32.626524,40.003962],[32.626993,40.003529],[32.627898,40.002819],[32.63026,40.004329],[32.630828,40.003861],[32.634425,40.003787],[32.635039,40.002749],[32.635707,40.001459],[32.63612,40.000455],[32.63643,39.999571],[32.636721,39.998511],[32.636846,39.99794],[32.637007,39.996998],[32.63708,39.9964],[32.637138,39.995647],[32.637159,39.995058],[32.637137,39.99396],[32.636958,39.991708],[32.630739,39.992067],[32.629091,39.992176],[32.627629,39.99231],[32.626542,39.992378],[32.623277,39.992622],[32.622682,39.992683],[32.622335,39.992683],[32.622339,39.992764],[32.622276,39.992939],[32.622178,39.993649],[32.621996,39.995082],[32.621966,39.995549],[32.622199,39.99767],[32.622271,39.998182],[32.622335,39.998313],[32.622359,39.998499],[32.622357,39.998738],[32.621267,40.000772],[32.620948,40.001294],[32.620593,40.001616],[32.618674,40.003046],[32.617569,40.003916],[32.617381,40.004095],[32.6169,40.004492],[32.61668,40.004798],[32.616594,40.005026],[32.617914,40.004869],[32.621355,40.004373],[32.621502,40.004065]]]]}},{"type":"Feature","properties":{"id":"TR-Y-06-010-M-0030","level":"yerlesim","type":"mahalle","parent_id":"TR-D-06-010","province_id":"TR-P-06","district_id":"TR-D-06-010","name":"Süvari","source_raw_name":"SÜVARİ","source":"Kamuya açık veri ve kent rehberi servisleri","source_label":"Kamuya açık veri ve kent rehberi servisleri","source_name":"Ankara Büyükşehir Belediyesi Seffaf Ankara Açık Veri Platformu - MAKS Mahalle"},"geometry":{"type":"MultiPolygon","coordinates":[[[[32.648601,39.941192],[32.648575,39.94057],[32.647995,39.939876],[32.647922,39.939752],[32.647894,39.939657],[32.647895,39.939588],[32.647953,39.93935],[32.648065,39.938981],[32.648115,39.938104],[32.64825,39.937513],[32.648272,39.937049],[32.648378,39.936555],[32.648372,39.936386],[32.648298,39.935848],[32.648151,39.935674],[32.647203,39.934859],[32.646868,39.934945],[32.645939,39.935266],[32.644399,39.935814],[32.643655,39.9361],[32.641104,39.936988],[32.64068,39.937131],[32.640246,39.93725],[32.639988,39.937384],[32.639788,39.937585],[32.639075,39.939098],[32.638234,39.941044],[32.638561,39.941138],[32.640387,39.941587],[32.641059,39.941782],[32.6414,39.941865],[32.641381,39.941926],[32.641623,39.942086],[32.641504,39.942551],[32.641223,39.942542],[32.641078,39.943129],[32.641006,39.943632],[32.64104,39.944115],[32.641283,39.944591],[32.641384,39.945022],[32.641106,39.946371],[32.641077,39.946711],[32.641812,39.948117],[32.642365,39.948726],[32.64242,39.948996],[32.642511,39.949312],[32.643042,39.952515],[32.643139,39.952928],[32.643118,39.952988],[32.645831,39.952442],[32.649208,39.951737],[32.648852,39.949332],[32.648717,39.94916],[32.648295,39.949202],[32.648251,39.949032],[32.648762,39.949002],[32.648791,39.948899],[32.648398,39.946152],[32.648244,39.944811],[32.648187,39.943663],[32.648154,39.942344],[32.648206,39.942284],[32.648213,39.942198],[32.648172,39.941194],[32.648601,39.941192]]]]}},{"type":"Feature","properties":{"id":"TR-Y-06-010-M-0031","level":"yerlesim","type":"mahalle","parent_id":"TR-D-06-010","province_id":"TR-P-06","district_id":"TR-D-06-010","name":"Topçu","source_raw_name":"TOPÇU","source":"Kamuya açık veri ve kent rehberi servisleri","source_label":"Kamuya açık veri ve kent rehberi servisleri","source_name":"Ankara Büyükşehir Belediyesi Seffaf Ankara Açık Veri Platformu - MAKS Mahalle"},"geometry":{"type":"MultiPolygon","coordinates":[[[[32.615507,39.957385],[32.615521,39.957413],[32.616106,39.957272],[32.616468,39.957201],[32.617204,39.957097],[32.617821,39.957037],[32.620076,39.956919],[32.621811,39.956813],[32.623474,39.956706],[32.624424,39.95662],[32.624046,39.955489],[32.623845,39.95479],[32.623439,39.95319],[32.623376,39.952842],[32.623194,39.951509],[32.62315,39.950589],[32.623174,39.949495],[32.623305,39.948271],[32.623585,39.946938],[32.623844,39.946021],[32.624564,39.943864],[32.624943,39.942591],[32.625225,39.9414],[32.625446,39.939898],[32.625466,39.939622],[32.625125,39.939609],[32.624703,39.939618],[32.624077,39.939671],[32.623147,39.939866],[32.622813,39.939969],[32.62209,39.940276],[32.621671,39.940507],[32.620987,39.940971],[32.61771,39.943399],[32.617221,39.943747],[32.617002,39.943924],[32.616519,39.94426],[32.616087,39.944605],[32.61595,39.944688],[32.615725,39.944866],[32.612479,39.94706],[32.611718,39.947424],[32.610953,39.947607],[32.610652,39.947656],[32.611387,39.949426],[32.612527,39.951929],[32.613104,39.953139],[32.613788,39.954368],[32.614885,39.956195],[32.615507,39.957385]]]]}},{"type":"Feature","properties":{"id":"TR-Y-06-010-M-0032","level":"yerlesim","type":"mahalle","parent_id":"TR-D-06-010","province_id":"TR-P-06","district_id":"TR-D-06-010","name":"Tunahan","source_raw_name":"TUNAHAN","source":"Kamuya açık veri ve kent rehberi servisleri","source_label":"Kamuya açık veri ve kent rehberi servisleri","source_name":"Ankara Büyükşehir Belediyesi Seffaf Ankara Açık Veri Platformu - MAKS Mahalle"},"geometry":{"type":"MultiPolygon","coordinates":[[[[32.636034,39.982247],[32.635905,39.980877],[32.634254,39.980932],[32.628914,39.981165],[32.628899,39.981093],[32.610007,39.981658],[32.60975,39.981626],[32.608778,39.982439],[32.609053,39.982849],[32.609856,39.984233],[32.610272,39.984968],[32.610608,39.985613],[32.610704,39.985831],[32.610894,39.986167],[32.61138,39.9868],[32.613365,39.989145],[32.613534,39.989315],[32.613709,39.989445],[32.616039,39.99066],[32.617648,39.991384],[32.620273,39.992264],[32.620953,39.992417],[32.621745,39.992553],[32.622335,39.992683],[32.622682,39.992683],[32.623277,39.992622],[32.626542,39.992378],[32.627629,39.99231],[32.629091,39.992176],[32.630739,39.992067],[32.636958,39.991708],[32.636034,39.982247]]]]}},{"type":"Feature","properties":{"id":"TR-Y-06-010-M-0033","level":"yerlesim","type":"mahalle","parent_id":"TR-D-06-010","province_id":"TR-P-06","district_id":"TR-D-06-010","name":"Turkuaz","source_raw_name":"TURKUAZ","source":"Kamuya açık veri ve kent rehberi servisleri","source_label":"Kamuya açık veri ve kent rehberi servisleri","source_name":"Ankara Büyükşehir Belediyesi Seffaf Ankara Açık Veri Platformu - MAKS Mahalle"},"geometry":{"type":"MultiPolygon","coordinates":[[[[32.587211,39.837826],[32.588055,39.834649],[32.588515,39.83271],[32.588633,39.831018],[32.589216,39.827786],[32.589275,39.827348],[32.589213,39.826972],[32.589119,39.826663],[32.588747,39.825964],[32.588557,39.825649],[32.588431,39.825242],[32.588322,39.824791],[32.588269,39.824383],[32.588287,39.821088],[32.588236,39.820379],[32.588286,39.820133],[32.588778,39.819425],[32.588819,39.819265],[32.588721,39.818321],[32.588683,39.818127],[32.588379,39.817653],[32.588163,39.81655],[32.588111,39.81638],[32.587911,39.815899],[32.587771,39.815282],[32.587749,39.814887],[32.587823,39.814529],[32.588085,39.813842],[32.588367,39.813174],[32.588457,39.812866],[32.588649,39.810306],[32.588813,39.809622],[32.589057,39.808932],[32.589332,39.808421],[32.591159,39.805452],[32.591819,39.804234],[32.591982,39.803889],[32.592129,39.803507],[32.592314,39.802745],[32.584812,39.799336],[32.58013,39.794458],[32.577701,39.792673],[32.573974,39.79088],[32.573952,39.790885],[32.573765,39.790805],[32.57315,39.7906],[32.572491,39.790357],[32.571737,39.790021],[32.571321,39.789762],[32.570994,39.789511],[32.570111,39.788913],[32.569924,39.788803],[32.56906,39.788388],[32.567262,39.787674],[32.56674,39.787434],[32.565954,39.786947],[32.565617,39.786757],[32.564383,39.786144],[32.562474,39.785495],[32.562181,39.785377],[32.561974,39.785245],[32.561336,39.784983],[32.560897,39.78482],[32.560387,39.784652],[32.56012,39.78454],[32.557537,39.787301],[32.556821,39.787193],[32.555375,39.787438],[32.555231,39.788238],[32.554387,39.788102],[32.554277,39.788289],[32.553519,39.787889],[32.553074,39.787923],[32.552684,39.788057],[32.552138,39.787883],[32.551961,39.788083],[32.55165,39.788055],[32.551477,39.788353],[32.550973,39.788434],[32.550866,39.788525],[32.550625,39.788558],[32.550322,39.788517],[32.550014,39.788519],[32.549691,39.788547],[32.549559,39.788586],[32.549329,39.788682],[32.549121,39.788798],[32.548989,39.788841],[32.548837,39.78885],[32.548726,39.788847],[32.548313,39.788702],[32.548106,39.788669],[32.547502,39.78864],[32.547396,39.788659],[32.547281,39.788692],[32.547007,39.788864],[32.546447,39.789253],[32.546177,39.789459],[32.546067,39.789517],[32.545709,39.78954],[32.545537,39.789506],[32.545134,39.789369],[32.545034,39.789357],[32.544943,39.789384],[32.544833,39.789448],[32.54465,39.789642],[32.544561,39.789677],[32.544441,39.789679],[32.544313,39.789635],[32.543754,39.789308],[32.543527,39.789155],[32.543177,39.788851],[32.542882,39.788537],[32.542486,39.788222],[32.542174,39.788013],[32.542076,39.787885],[32.542012,39.787839],[32.541861,39.787771],[32.541674,39.787713],[32.541354,39.78767],[32.540724,39.78899],[32.540243,39.788923],[32.540116,39.789389],[32.539898,39.790416],[32.539842,39.790926],[32.539662,39.792012],[32.539567,39.792369],[32.539274,39.793283],[32.539265,39.794608],[32.539358,39.794956],[32.539572,39.795386],[32.539957,39.796272],[32.539737,39.796915],[32.539762,39.796981],[32.539921,39.797112],[32.540077,39.797324],[32.540288,39.797749],[32.540507,39.79827],[32.540603,39.798685],[32.540639,39.798974],[32.540629,39.799142],[32.540586,39.799246],[32.539482,39.800198],[32.546243,39.804865],[32.553802,39.810128],[32.557457,39.812624],[32.565564,39.818228],[32.56981,39.821128],[32.571302,39.822192],[32.572549,39.823199],[32.573847,39.824401],[32.58375,39.834362],[32.586097,39.836681],[32.587211,39.837826]]]]}},{"type":"Feature","properties":{"id":"TR-Y-06-010-M-0034","level":"yerlesim","type":"mahalle","parent_id":"TR-D-06-010","province_id":"TR-P-06","district_id":"TR-D-06-010","name":"Yapracık","source_raw_name":"YAPRACIK","source":"Kamuya açık veri ve kent rehberi servisleri","source_label":"Kamuya açık veri ve kent rehberi servisleri","source_name":"Ankara Büyükşehir Belediyesi Seffaf Ankara Açık Veri Platformu - MAKS Mahalle"},"geometry":{"type":"MultiPolygon","coordinates":[[[[32.631787,39.916024],[32.631823,39.915534],[32.631748,39.914466],[32.631533,39.913631],[32.630955,39.912455],[32.630181,39.911356],[32.628642,39.909268],[32.627048,39.90698],[32.626483,39.90614],[32.625165,39.903867],[32.623178,39.900096],[32.622564,39.899159],[32.62166,39.898132],[32.620718,39.897319],[32.619658,39.896593],[32.617854,39.895605],[32.61662,39.894886],[32.615464,39.894094],[32.614473,39.893285],[32.613731,39.892604],[32.612646,39.891361],[32.612229,39.890778],[32.611776,39.889845],[32.611455,39.888726],[32.611389,39.887737],[32.611503,39.886784],[32.611911,39.885574],[32.612347,39.884845],[32.612923,39.884079],[32.613673,39.883353],[32.614394,39.882829],[32.615306,39.882295],[32.616627,39.881723],[32.618597,39.881179],[32.626542,39.879226],[32.627277,39.879022],[32.628273,39.878684],[32.628746,39.878488],[32.629503,39.878115],[32.630296,39.877631],[32.631312,39.876791],[32.63184,39.876246],[32.632314,39.87554],[32.63271,39.8748],[32.632907,39.874292],[32.633038,39.873816],[32.633168,39.873069],[32.633174,39.872464],[32.63314,39.872051],[32.633027,39.871393],[32.632905,39.870926],[32.63277,39.870575],[32.632597,39.870204],[32.633639,39.869147],[32.633622,39.868815],[32.63364,39.868641],[32.633668,39.868489],[32.633732,39.868297],[32.633884,39.867998],[32.633993,39.867844],[32.634194,39.867626],[32.634383,39.867463],[32.634703,39.86726],[32.634918,39.867156],[32.635312,39.86702],[32.63564,39.866948],[32.635899,39.866919],[32.636173,39.866909],[32.636444,39.866921],[32.636711,39.866957],[32.636964,39.867011],[32.637191,39.867077],[32.637838,39.867329],[32.638719,39.867735],[32.639061,39.867796],[32.63757,39.866777],[32.637212,39.866547],[32.636313,39.866026],[32.638541,39.864727],[32.636848,39.862718],[32.63656,39.862113],[32.636383,39.861534],[32.636345,39.86105],[32.636425,39.860197],[32.635638,39.860289],[32.635401,39.859491],[32.635425,39.858788],[32.635509,39.857876],[32.635426,39.857787],[32.634213,39.857374],[32.63434,39.856843],[32.63374,39.856709],[32.631474,39.856279],[32.631524,39.85615],[32.630871,39.855844],[32.627846,39.853236],[32.627371,39.852787],[32.626515,39.85224],[32.626193,39.853077],[32.626047,39.853614],[32.625935,39.854128],[32.625825,39.855173],[32.625822,39.855882],[32.625887,39.8565],[32.625983,39.857137],[32.626099,39.857617],[32.626547,39.858889],[32.627385,39.860493],[32.628768,39.862919],[32.610862,39.856298],[32.60756,39.855062],[32.606445,39.854614],[32.60523,39.854071],[32.603362,39.853078],[32.602013,39.852197],[32.600567,39.851096],[32.599355,39.850005],[32.592673,39.843281],[32.587211,39.837826],[32.586097,39.836681],[32.58375,39.834362],[32.579125,39.82971],[32.578869,39.829852],[32.575331,39.829139],[32.572855,39.833177],[32.572632,39.83532],[32.569519,39.840816],[32.569074,39.840689],[32.566949,39.841754],[32.566797,39.842318],[32.564429,39.843575],[32.561652,39.843444],[32.560477,39.845014],[32.560284,39.846013],[32.559217,39.846737],[32.559747,39.847234],[32.560367,39.847925],[32.55995,39.848211],[32.559242,39.848594],[32.558785,39.848866],[32.558574,39.849022],[32.558461,39.849274],[32.558116,39.85063],[32.563256,39.85277],[32.564578,39.853637],[32.565523,39.854528],[32.565711,39.854676],[32.566622,39.855233],[32.567656,39.856055],[32.568142,39.859013],[32.567267,39.862418],[32.5668,39.864631],[32.565988,39.866304],[32.564821,39.86739],[32.564689,39.867655],[32.56447,39.869334],[32.564796,39.869452],[32.566762,39.868409],[32.568756,39.868993],[32.572605,39.871017],[32.579712,39.873132],[32.584307,39.875086],[32.586014,39.878601],[32.587418,39.881381],[32.588994,39.886047],[32.589703,39.889306],[32.59267,39.892569],[32.596741,39.899919],[32.597122,39.9011],[32.594705,39.90411],[32.59477,39.908592],[32.593313,39.911622],[32.594617,39.913844],[32.597447,39.911929],[32.601428,39.908648],[32.601947,39.908622],[32.608125,39.912503],[32.612569,39.915143],[32.616496,39.917166],[32.619096,39.915754],[32.627349,39.916443],[32.62957,39.919574],[32.629755,39.919747],[32.630477,39.91902],[32.631066,39.91815],[32.631345,39.917617],[32.631681,39.916668],[32.631787,39.916024]]]]}},{"type":"Feature","properties":{"id":"TR-Y-06-010-M-0035","level":"yerlesim","type":"mahalle","parent_id":"TR-D-06-010","province_id":"TR-P-06","district_id":"TR-D-06-010","name":"Yavuz Selim","source_raw_name":"YAVUZ SELİM","source":"Kamuya açık veri ve kent rehberi servisleri","source_label":"Kamuya açık veri ve kent rehberi servisleri","source_name":"Ankara Büyükşehir Belediyesi Seffaf Ankara Açık Veri Platformu - MAKS Mahalle"},"geometry":{"type":"MultiPolygon","coordinates":[[[[32.62235,39.998428],[32.622335,39.998313],[32.621991,39.998329],[32.620852,39.998144],[32.620561,39.998048],[32.620023,39.99781],[32.618645,39.997117],[32.617764,39.996621],[32.616706,39.995771],[32.615385,39.994671],[32.615151,39.99454],[32.610593,39.994528],[32.607876,39.994542],[32.607575,39.994611],[32.607203,39.994774],[32.60634,39.99524],[32.604031,39.996562],[32.606656,39.999411],[32.606956,39.999802],[32.607075,40.000052],[32.607147,40.000272],[32.607145,40.000402],[32.607091,40.000924],[32.607041,40.001228],[32.60684,40.001993],[32.608489,40.002413],[32.608258,40.003418],[32.610968,40.003976],[32.610838,40.004401],[32.612026,40.004753],[32.611505,40.005672],[32.614527,40.005271],[32.616594,40.005026],[32.61668,40.004798],[32.6169,40.004492],[32.617381,40.004095],[32.617569,40.003916],[32.618674,40.003046],[32.620593,40.001616],[32.620948,40.001294],[32.621267,40.000772],[32.622357,39.998738],[32.62235,39.998428]]]]}},{"type":"Feature","properties":{"id":"TR-Y-06-010-M-0036","level":"yerlesim","type":"mahalle","parent_id":"TR-D-06-010","province_id":"TR-P-06","district_id":"TR-D-06-010","name":"Yeni Bağlıca","source_raw_name":"YENİ BAĞLICA","source":"Kamuya açık veri ve kent rehberi servisleri","source_label":"Kamuya açık veri ve kent rehberi servisleri","source_name":"Ankara Büyükşehir Belediyesi Seffaf Ankara Açık Veri Platformu - MAKS Mahalle"},"geometry":{"type":"MultiPolygon","coordinates":[[[[32.652098,39.910439],[32.653387,39.909874],[32.653476,39.909885],[32.655739,39.908976],[32.656088,39.906606],[32.65607,39.90477],[32.65465,39.898307],[32.656906,39.898075],[32.659556,39.896652],[32.659617,39.896229],[32.659885,39.896001],[32.659671,39.895969],[32.658445,39.896104],[32.654601,39.896765],[32.653169,39.897062],[32.648981,39.897782],[32.647348,39.897899],[32.646393,39.897917],[32.643624,39.897873],[32.642166,39.897868],[32.641257,39.897824],[32.639734,39.897697],[32.637599,39.897184],[32.63516,39.896143],[32.633594,39.895447],[32.630738,39.894137],[32.628263,39.892981],[32.61872,39.888619],[32.61353,39.886266],[32.611911,39.885574],[32.611503,39.886784],[32.611389,39.887737],[32.611455,39.888726],[32.611776,39.889845],[32.612229,39.890778],[32.612646,39.891361],[32.613731,39.892604],[32.614473,39.893285],[32.615464,39.894094],[32.61662,39.894886],[32.617854,39.895605],[32.619658,39.896593],[32.620718,39.897319],[32.62166,39.898132],[32.622564,39.899159],[32.623178,39.900096],[32.625165,39.903867],[32.626483,39.90614],[32.627048,39.90698],[32.628642,39.909268],[32.630181,39.911356],[32.630955,39.912455],[32.631533,39.913631],[32.631748,39.914466],[32.631823,39.915534],[32.631787,39.916024],[32.631681,39.916668],[32.631345,39.917617],[32.631066,39.91815],[32.630477,39.91902],[32.629755,39.919747],[32.629032,39.920331],[32.626929,39.921891],[32.626276,39.922444],[32.625604,39.923128],[32.625481,39.923331],[32.625339,39.923487],[32.625892,39.923699],[32.626795,39.923783],[32.630453,39.924925],[32.630932,39.925141],[32.633137,39.927002],[32.6342,39.927438],[32.634525,39.928173],[32.635011,39.928583],[32.635172,39.928648],[32.635262,39.928797],[32.639192,39.927393],[32.640925,39.926803],[32.643679,39.925664],[32.646173,39.924675],[32.647531,39.924182],[32.649716,39.923477],[32.652469,39.922613],[32.654208,39.922093],[32.654333,39.922087],[32.654551,39.921982],[32.65495,39.921762],[32.655045,39.921655],[32.655909,39.92027],[32.656014,39.919901],[32.656126,39.918999],[32.65614,39.918728],[32.656101,39.918288],[32.656023,39.918074],[32.655902,39.917818],[32.655666,39.91737],[32.65499,39.916202],[32.654688,39.915591],[32.654075,39.914508],[32.65392,39.914174],[32.653883,39.913925],[32.653898,39.913545],[32.653846,39.913301],[32.653694,39.912879],[32.653433,39.912344],[32.653081,39.911736],[32.652626,39.911064],[32.652098,39.910439]]]]}},{"type":"Feature","properties":{"id":"TR-Y-06-010-M-0037","level":"yerlesim","type":"mahalle","parent_id":"TR-D-06-010","province_id":"TR-P-06","district_id":"TR-D-06-010","name":"Yeşilova","source_raw_name":"YEŞİLOVA","source":"Kamuya açık veri ve kent rehberi servisleri","source_label":"Kamuya açık veri ve kent rehberi servisleri","source_name":"Ankara Büyükşehir Belediyesi Seffaf Ankara Açık Veri Platformu - MAKS Mahalle"},"geometry":{"type":"MultiPolygon","coordinates":[[[[32.625959,39.961008],[32.625624,39.960258],[32.625319,39.959495],[32.624645,39.957408],[32.624424,39.95662],[32.623474,39.956706],[32.621811,39.956813],[32.620076,39.956919],[32.617821,39.957037],[32.617204,39.957097],[32.616468,39.957201],[32.616106,39.957272],[32.615182,39.957496],[32.614281,39.957784],[32.61054,39.959169],[32.609263,39.959578],[32.60855,39.959773],[32.607212,39.960094],[32.606425,39.960251],[32.604736,39.96053],[32.60366,39.960695],[32.603592,39.96069],[32.603498,39.960907],[32.603458,39.961414],[32.603482,39.961584],[32.603204,39.963865],[32.60303,39.965697],[32.602996,39.965942],[32.602923,39.966167],[32.601295,39.9688],[32.600538,39.969971],[32.600512,39.970034],[32.601007,39.971362],[32.600467,39.971493],[32.600715,39.972944],[32.601503,39.972722],[32.602601,39.972389],[32.605859,39.971234],[32.607214,39.970812],[32.608545,39.970439],[32.610419,39.969987],[32.612502,39.969575],[32.614977,39.969173],[32.615737,39.969064],[32.616261,39.969014],[32.622629,39.9686],[32.62349,39.968516],[32.62429,39.968375],[32.624931,39.968214],[32.62708,39.967544],[32.628776,39.967083],[32.629881,39.966839],[32.629634,39.966475],[32.628437,39.964853],[32.627599,39.963681],[32.626964,39.96275],[32.626395,39.961816],[32.625959,39.961008]]]]}},{"type":"Feature","properties":{"id":"TR-Y-06-010-M-0038","level":"yerlesim","type":"mahalle","parent_id":"TR-D-06-010","province_id":"TR-P-06","district_id":"TR-D-06-010","name":"Yukarıyurtçu","source_raw_name":"YUKARIYURTÇU","source":"Kamuya açık veri ve kent rehberi servisleri","source_label":"Kamuya açık veri ve kent rehberi servisleri","source_name":"Ankara Büyükşehir Belediyesi Seffaf Ankara Açık Veri Platformu - MAKS Mahalle"},"geometry":{"type":"MultiPolygon","coordinates":[[[[32.566949,39.841754],[32.569074,39.840689],[32.569519,39.840816],[32.572632,39.83532],[32.572855,39.833177],[32.575331,39.829139],[32.578869,39.829852],[32.579125,39.82971],[32.573847,39.824401],[32.572549,39.823199],[32.571302,39.822192],[32.56981,39.821128],[32.565564,39.818228],[32.557457,39.812624],[32.553802,39.810128],[32.546243,39.804865],[32.545227,39.804173],[32.544003,39.805234],[32.543071,39.805971],[32.540611,39.808167],[32.53877,39.809692],[32.538622,39.810426],[32.539062,39.813077],[32.539457,39.81501],[32.539492,39.815286],[32.538578,39.818376],[32.537466,39.821642],[32.536691,39.822849],[32.536731,39.822928],[32.537346,39.823528],[32.537846,39.824184],[32.5385,39.824904],[32.538779,39.825237],[32.539252,39.825527],[32.540374,39.825726],[32.53958,39.827887],[32.539339,39.828657],[32.539243,39.828864],[32.539046,39.8291],[32.539392,39.82957],[32.540244,39.830293],[32.541702,39.831609],[32.541744,39.831698],[32.54176,39.831801],[32.54174,39.831923],[32.541069,39.832696],[32.540307,39.833667],[32.540065,39.834757],[32.543292,39.835172],[32.543371,39.834566],[32.547414,39.836255],[32.547217,39.836859],[32.547274,39.836954],[32.547257,39.837187],[32.546496,39.839068],[32.548525,39.839927],[32.549668,39.838035],[32.553054,39.838909],[32.55654,39.839837],[32.557021,39.839924],[32.558234,39.840249],[32.558398,39.84025],[32.558525,39.840201],[32.55897,39.840301],[32.56218,39.840592],[32.561404,39.842223],[32.561403,39.842373],[32.5615,39.842523],[32.56165,39.842641],[32.562125,39.842876],[32.561652,39.843444],[32.564429,39.843575],[32.566797,39.842318],[32.566949,39.841754]]]]}}]}