{"type":"FeatureCollection","name":"turkiye_map.dist.mahalle_geometrileri_by_district.TR-D-41-005","features":[{"type":"Feature","properties":{"id":"TR-Y-41-005-M-0001","level":"yerlesim","type":"mahalle","parent_id":"TR-D-41-005","province_id":"TR-P-41","district_id":"TR-D-41-005","name":"Çerkeşli","source_raw_name":"Çerkeşli","source":"Kullanıcı tarafından sağlanan KML","source_label":"Kullanıcı tarafından sağlanan KML","source_name":"Kocaeli Mahalle KML - kullanıcı tarafından sağlandı"},"geometry":{"type":"Polygon","coordinates":[[[29.564806,40.798551],[29.563933,40.798748],[29.562902,40.798686],[29.562734,40.799552],[29.56299,40.799792],[29.562139,40.800961],[29.561314,40.80084],[29.560884,40.800932],[29.560103,40.802871],[29.55923,40.803665],[29.556394,40.802805],[29.555184,40.802769],[29.553291,40.802067],[29.552559,40.801429],[29.551817,40.801246],[29.551435,40.80313],[29.551428,40.803757],[29.551693,40.804412],[29.551706,40.805394],[29.552309,40.806288],[29.552431,40.806986],[29.552863,40.807938],[29.553653,40.809116],[29.55369,40.810438],[29.554206,40.812173],[29.551499,40.813529],[29.553786,40.816282],[29.555174,40.816152],[29.556937,40.815499],[29.557582,40.816164],[29.55894,40.817027],[29.561323,40.818346],[29.562053,40.819529],[29.562481,40.821031],[29.563096,40.821961],[29.564514,40.823519],[29.564826,40.824057],[29.565991,40.825536],[29.56651,40.826499],[29.566665,40.82724],[29.56764,40.828313],[29.568404,40.828621],[29.569376,40.829549],[29.574244,40.835533],[29.575568,40.836433],[29.577291,40.837802],[29.578978,40.838914],[29.581853,40.839616],[29.583911,40.840309],[29.585311,40.840647],[29.587122,40.840882],[29.588904,40.840424],[29.588887,40.840245],[29.590291,40.839953],[29.590715,40.839905],[29.59149,40.840147],[29.592149,40.840203],[29.59327,40.839392],[29.594957,40.83898],[29.595048,40.838765],[29.595679,40.838639],[29.596029,40.839162],[29.5966,40.838975],[29.597995,40.839244],[29.599407,40.838854],[29.600195,40.838155],[29.600261,40.837597],[29.600099,40.837343],[29.598995,40.837344],[29.599054,40.836569],[29.59933,40.836093],[29.600024,40.836151],[29.599933,40.835495],[29.601718,40.835317],[29.602406,40.835372],[29.602929,40.835276],[29.603002,40.834769],[29.603474,40.834181],[29.603477,40.833906],[29.603825,40.833458],[29.603848,40.833278],[29.603612,40.83324],[29.603524,40.83308],[29.602711,40.83265],[29.603654,40.832524],[29.604984,40.833842],[29.608515,40.835871],[29.611051,40.836481],[29.612947,40.837253],[29.61558,40.838509],[29.616153,40.837196],[29.620247,40.837618],[29.621907,40.837319],[29.622855,40.837695],[29.623747,40.837778],[29.626752,40.837335],[29.627269,40.836781],[29.629266,40.835697],[29.630636,40.832997],[29.625061,40.83004],[29.623045,40.826531],[29.62233,40.825731],[29.621899,40.825456],[29.621382,40.824759],[29.61954,40.823026],[29.618728,40.822499],[29.615758,40.82152],[29.614301,40.820922],[29.613046,40.819465],[29.612957,40.819012],[29.613225,40.817875],[29.612858,40.817507],[29.611925,40.815961],[29.611717,40.815285],[29.611374,40.814758],[29.611164,40.812096],[29.610607,40.811611],[29.610075,40.811408],[29.608872,40.810207],[29.608198,40.80788],[29.607758,40.805262],[29.607863,40.803607],[29.608202,40.802497],[29.605939,40.802432],[29.60476,40.80053],[29.602986,40.798394],[29.601655,40.796287],[29.600636,40.795796],[29.599977,40.795614],[29.599064,40.795627],[29.598564,40.794793],[29.598242,40.794608],[29.597805,40.794957],[29.597432,40.794717],[29.598177,40.794209],[29.597752,40.793803],[29.59732,40.793152],[29.596205,40.793051],[29.595807,40.793914],[29.594611,40.793992],[29.59359,40.793852],[29.593593,40.7936],[29.592736,40.793668],[29.591624,40.793561],[29.590035,40.79481],[29.588121,40.795319],[29.586311,40.796096],[29.58522,40.796296],[29.584601,40.796543],[29.583589,40.79679],[29.582153,40.796981],[29.581999,40.797505],[29.581695,40.797636],[29.580999,40.797728],[29.57835,40.797765],[29.574167,40.798032],[29.574076,40.798026],[29.573961,40.797717],[29.573714,40.797464],[29.573355,40.79579],[29.573373,40.795381],[29.573006,40.794592],[29.572428,40.793761],[29.570513,40.793254],[29.568679,40.792252],[29.567935,40.792138],[29.567127,40.791818],[29.566927,40.792164],[29.56694,40.792757],[29.566627,40.793224],[29.565782,40.793472],[29.564942,40.794223],[29.565194,40.795525],[29.564818,40.79555],[29.565006,40.795756],[29.564917,40.796504],[29.564446,40.797365],[29.564986,40.797738],[29.565888,40.798164],[29.565503,40.798272],[29.564832,40.798171],[29.564806,40.798551]]]}},{"type":"Feature","properties":{"id":"TR-Y-41-005-M-0002","level":"yerlesim","type":"mahalle","parent_id":"TR-D-41-005","province_id":"TR-P-41","district_id":"TR-D-41-005","name":"Cumhuriyet","source_raw_name":"Cumhuriyet","source":"Kullanıcı tarafından sağlanan KML","source_label":"Kullanıcı tarafından sağlanan KML","source_name":"Kocaeli Mahalle KML - kullanıcı tarafından sağlandı"},"geometry":{"type":"Polygon","coordinates":[[[29.515907,40.792364],[29.51537,40.793826],[29.514392,40.795188],[29.515128,40.796152],[29.51632,40.797372],[29.516612,40.797909],[29.516982,40.799371],[29.517204,40.799842],[29.519096,40.798814],[29.520204,40.799453],[29.521105,40.799838],[29.521417,40.799805],[29.522447,40.799978],[29.524878,40.798644],[29.524934,40.797681],[29.52534,40.797104],[29.526318,40.796062],[29.526644,40.795306],[29.526569,40.793304],[29.52674,40.792486],[29.527182,40.791727],[29.527936,40.791033],[29.530084,40.789665],[29.530656,40.789511],[29.531286,40.789144],[29.531578,40.789076],[29.534737,40.787009],[29.535949,40.786579],[29.536536,40.786532],[29.540459,40.785505],[29.541041,40.785389],[29.541351,40.785455],[29.54166,40.785384],[29.541798,40.784475],[29.541251,40.782553],[29.540901,40.779948],[29.54125,40.779699],[29.541704,40.779553],[29.54121,40.778861],[29.541038,40.778219],[29.540694,40.778298],[29.532731,40.778024],[29.530462,40.77832],[29.530584,40.777854],[29.531219,40.776643],[29.531704,40.775971],[29.531506,40.775931],[29.531119,40.776028],[29.52953,40.776746],[29.528166,40.777793],[29.527387,40.778771],[29.527003,40.779473],[29.525797,40.782587],[29.525429,40.783223],[29.524753,40.784061],[29.524052,40.784697],[29.520021,40.787504],[29.518735,40.788644],[29.517368,40.790151],[29.515907,40.792364]]]}},{"type":"Feature","properties":{"id":"TR-Y-41-005-M-0003","level":"yerlesim","type":"mahalle","parent_id":"TR-D-41-005","province_id":"TR-P-41","district_id":"TR-D-41-005","name":"Demirciler","source_raw_name":"Demirciler","source":"Kullanıcı tarafından sağlanan KML","source_label":"Kullanıcı tarafından sağlanan KML","source_name":"Kocaeli Mahalle KML - kullanıcı tarafından sağlandı"},"geometry":{"type":"Polygon","coordinates":[[[29.545175,40.870299],[29.546151,40.869811],[29.546666,40.869686],[29.547506,40.86883],[29.547874,40.868768],[29.548337,40.868815],[29.548867,40.868431],[29.548841,40.868133],[29.550252,40.866557],[29.552961,40.866815],[29.552994,40.866226],[29.553446,40.865288],[29.554027,40.864978],[29.554606,40.864203],[29.555512,40.864029],[29.557675,40.862329],[29.558665,40.861935],[29.555922,40.855328],[29.555649,40.854934],[29.555265,40.853515],[29.555338,40.8534],[29.555835,40.85307],[29.556846,40.853015],[29.555896,40.854511],[29.556823,40.855195],[29.558712,40.856259],[29.559317,40.856881],[29.559045,40.857448],[29.560219,40.857363],[29.559923,40.857054],[29.561311,40.856131],[29.561965,40.856392],[29.561762,40.856506],[29.562643,40.856854],[29.563244,40.855755],[29.563099,40.855534],[29.564049,40.854218],[29.565152,40.854741],[29.566082,40.853198],[29.567637,40.849655],[29.567316,40.849478],[29.567974,40.848605],[29.569634,40.846865],[29.570572,40.846172],[29.570686,40.844865],[29.571177,40.844289],[29.571505,40.844107],[29.572369,40.841851],[29.573499,40.839845],[29.57379,40.839455],[29.575944,40.838176],[29.575627,40.837802],[29.575454,40.837288],[29.574467,40.836426],[29.574377,40.836249],[29.574941,40.836007],[29.574244,40.835533],[29.569376,40.829549],[29.568404,40.828621],[29.56764,40.828313],[29.566665,40.82724],[29.56651,40.826499],[29.565991,40.825536],[29.564826,40.824057],[29.564514,40.823519],[29.563096,40.821961],[29.562481,40.821031],[29.562053,40.819529],[29.561323,40.818346],[29.55894,40.817027],[29.557582,40.816164],[29.556937,40.815499],[29.555174,40.816152],[29.553786,40.816282],[29.551499,40.813529],[29.554206,40.812173],[29.55369,40.810438],[29.553653,40.809116],[29.552811,40.809457],[29.551903,40.809628],[29.546221,40.813346],[29.545145,40.813821],[29.544534,40.814217],[29.544284,40.814168],[29.543438,40.815206],[29.54279,40.815489],[29.543524,40.816289],[29.54335,40.816362],[29.544211,40.818324],[29.544354,40.818445],[29.543566,40.818811],[29.542979,40.818815],[29.541965,40.819272],[29.541588,40.819356],[29.54075,40.819853],[29.538916,40.82013],[29.538105,40.820047],[29.537476,40.819534],[29.531428,40.819359],[29.526967,40.820822],[29.52524,40.822443],[29.525109,40.822809],[29.524732,40.823282],[29.524188,40.82377],[29.523191,40.824249],[29.522834,40.82467],[29.522628,40.825131],[29.52264,40.825421],[29.522097,40.825685],[29.522062,40.826685],[29.520877,40.826892],[29.521115,40.827075],[29.522664,40.827465],[29.522269,40.827712],[29.523129,40.827939],[29.522951,40.82844],[29.523564,40.82839],[29.52345,40.828767],[29.522963,40.828921],[29.522547,40.828907],[29.522444,40.829225],[29.522124,40.829152],[29.521689,40.829218],[29.52149,40.830073],[29.520462,40.832793],[29.520143,40.835424],[29.518384,40.836708],[29.518377,40.839273],[29.516488,40.841703],[29.516467,40.842273],[29.516818,40.842814],[29.516645,40.843352],[29.517092,40.84392],[29.517118,40.844428],[29.516959,40.844824],[29.516473,40.845235],[29.51493,40.845409],[29.514677,40.845604],[29.514832,40.845847],[29.515556,40.846206],[29.515792,40.846564],[29.51561,40.847411],[29.514715,40.848229],[29.514788,40.848415],[29.515763,40.848878],[29.516351,40.849335],[29.51689,40.85056],[29.517509,40.851186],[29.518042,40.851474],[29.518104,40.851388],[29.518412,40.8516],[29.518892,40.852219],[29.519294,40.852354],[29.520089,40.852902],[29.520109,40.853127],[29.520629,40.853532],[29.521529,40.853992],[29.521839,40.854316],[29.521839,40.855166],[29.521329,40.855901],[29.521232,40.856694],[29.521726,40.85803],[29.521829,40.859163],[29.521537,40.859776],[29.520544,40.861062],[29.520319,40.861505],[29.520103,40.862652],[29.51991,40.863094],[29.519487,40.863418],[29.520304,40.864248],[29.520809,40.86526],[29.520818,40.86597],[29.522358,40.867495],[29.522743,40.868937],[29.523412,40.870207],[29.524176,40.870899],[29.525312,40.87161],[29.527232,40.872146],[29.527747,40.872465],[29.528187,40.872596],[29.529478,40.872843],[29.530585,40.873409],[29.530865,40.87375],[29.531405,40.873894],[29.532101,40.874303],[29.53277,40.874511],[29.533289,40.875018],[29.533817,40.875918],[29.534978,40.874626],[29.53736,40.873407],[29.539043,40.872669],[29.539606,40.872143],[29.543783,40.871714],[29.544715,40.871096],[29.544908,40.870346],[29.545175,40.870299]]]}},{"type":"Feature","properties":{"id":"TR-Y-41-005-M-0004","level":"yerlesim","type":"mahalle","parent_id":"TR-D-41-005","province_id":"TR-P-41","district_id":"TR-D-41-005","name":"Dil İskelesi","source_raw_name":"Diliskelesi","source":"Kullanıcı tarafından sağlanan KML","source_label":"Kullanıcı tarafından sağlanan KML","source_name":"Kocaeli Mahalle KML - kullanıcı tarafından sağlandı"},"geometry":{"type":"Polygon","coordinates":[[[29.515128,40.796152],[29.514392,40.795188],[29.51537,40.793826],[29.515907,40.792364],[29.517368,40.790151],[29.518735,40.788644],[29.520021,40.787504],[29.524052,40.784697],[29.524753,40.784061],[29.525429,40.783223],[29.525797,40.782587],[29.527003,40.779473],[29.527387,40.778771],[29.528166,40.777793],[29.52882,40.777223],[29.53011,40.776438],[29.529885,40.775283],[29.529335,40.774764],[29.527819,40.773779],[29.527078,40.773391],[29.524883,40.772498],[29.524494,40.772167],[29.524575,40.772089],[29.524087,40.771324],[29.523934,40.770259],[29.524077,40.769429],[29.523174,40.768766],[29.523003,40.76634],[29.526745,40.766336],[29.526799,40.766504],[29.528168,40.766632],[29.528168,40.765689],[29.528344,40.765693],[29.528315,40.766517],[29.529596,40.766529],[29.529617,40.766158],[29.53135,40.766166],[29.531333,40.766339],[29.532484,40.766385],[29.53318,40.763673],[29.528203,40.763618],[29.528137,40.766288],[29.526762,40.766245],[29.526692,40.76424],[29.5265,40.764235],[29.526601,40.766238],[29.523397,40.76623],[29.523273,40.764101],[29.522801,40.764113],[29.523018,40.768844],[29.522717,40.768856],[29.521676,40.768537],[29.52043,40.768024],[29.519762,40.767542],[29.519475,40.767091],[29.518383,40.766584],[29.517583,40.766569],[29.51679,40.766709],[29.516675,40.766687],[29.516637,40.76656],[29.515707,40.766871],[29.515268,40.767242],[29.51505,40.767783],[29.514454,40.768442],[29.514338,40.768398],[29.510865,40.771466],[29.510857,40.771913],[29.51126,40.77223],[29.511052,40.772458],[29.509918,40.773278],[29.507149,40.775966],[29.505106,40.77742],[29.504769,40.777892],[29.504792,40.778298],[29.50429,40.77882],[29.504081,40.778796],[29.503969,40.778898],[29.504091,40.779035],[29.503972,40.779129],[29.504409,40.779781],[29.505192,40.779616],[29.506161,40.779692],[29.509502,40.780699],[29.512398,40.781717],[29.512494,40.781663],[29.512872,40.781896],[29.513087,40.78189],[29.513872,40.783106],[29.515244,40.783756],[29.515448,40.784349],[29.514751,40.786307],[29.514095,40.786856],[29.514315,40.787506],[29.513167,40.791125],[29.513109,40.793618],[29.513156,40.794937],[29.51337,40.795291],[29.513414,40.795819],[29.514658,40.796447],[29.515128,40.796152]]]}},{"type":"Feature","properties":{"id":"TR-Y-41-005-M-0005","level":"yerlesim","type":"mahalle","parent_id":"TR-D-41-005","province_id":"TR-P-41","district_id":"TR-D-41-005","name":"Fatih","source_raw_name":"Fatih","source":"Kullanıcı tarafından sağlanan KML","source_label":"Kullanıcı tarafından sağlanan KML","source_name":"Kocaeli Mahalle KML - kullanıcı tarafından sağlandı"},"geometry":{"type":"Polygon","coordinates":[[[29.530462,40.77832],[29.532731,40.778024],[29.540694,40.778298],[29.541038,40.778219],[29.540938,40.777287],[29.541675,40.775259],[29.542503,40.773944],[29.542589,40.772629],[29.542727,40.772549],[29.542909,40.771948],[29.542854,40.771817],[29.543405,40.770279],[29.543671,40.769168],[29.543541,40.769077],[29.54345,40.7686],[29.543288,40.768538],[29.543175,40.768599],[29.542944,40.769313],[29.542562,40.769581],[29.54232,40.769542],[29.542286,40.769233],[29.540596,40.767684],[29.540517,40.767754],[29.542138,40.769222],[29.542191,40.769531],[29.541956,40.769481],[29.541577,40.76955],[29.539458,40.769264],[29.539385,40.76932],[29.53885,40.769259],[29.538746,40.768102],[29.536356,40.768303],[29.536172,40.768186],[29.537854,40.76682],[29.537647,40.766658],[29.537705,40.766472],[29.538721,40.766376],[29.539344,40.766064],[29.539328,40.765342],[29.539096,40.764898],[29.53426,40.766749],[29.533606,40.766527],[29.534227,40.763685],[29.53318,40.763673],[29.532484,40.766385],[29.531333,40.766339],[29.53135,40.766166],[29.529617,40.766158],[29.529596,40.766529],[29.528315,40.766517],[29.528344,40.765693],[29.528168,40.765689],[29.528168,40.766632],[29.526799,40.766504],[29.526745,40.766336],[29.523003,40.76634],[29.523174,40.768766],[29.524077,40.769429],[29.523934,40.770259],[29.524087,40.771324],[29.524575,40.772089],[29.524494,40.772167],[29.524883,40.772498],[29.527078,40.773391],[29.527819,40.773779],[29.529335,40.774764],[29.529885,40.775283],[29.53011,40.776438],[29.531119,40.776028],[29.531506,40.775931],[29.531704,40.775971],[29.531219,40.776643],[29.530584,40.777854],[29.530462,40.77832]]]}},{"type":"Feature","properties":{"id":"TR-Y-41-005-M-0006","level":"yerlesim","type":"mahalle","parent_id":"TR-D-41-005","province_id":"TR-P-41","district_id":"TR-D-41-005","name":"Kayapınar","source_raw_name":"Kayapınar","source":"Kullanıcı tarafından sağlanan KML","source_label":"Kullanıcı tarafından sağlanan KML","source_name":"Kocaeli Mahalle KML - kullanıcı tarafından sağlandı"},"geometry":{"type":"Polygon","coordinates":[[[29.561224,40.786985],[29.560269,40.785654],[29.559599,40.785254],[29.561122,40.785111],[29.561165,40.78486],[29.563553,40.780106],[29.563371,40.779707],[29.560541,40.778729],[29.56037,40.778216],[29.559336,40.777594],[29.560227,40.77674],[29.559625,40.776416],[29.559376,40.776089],[29.559538,40.775362],[29.55989,40.775274],[29.559233,40.773197],[29.557194,40.773765],[29.556625,40.77401],[29.555371,40.774775],[29.554724,40.775012],[29.553753,40.775044],[29.552321,40.774801],[29.551546,40.774755],[29.550737,40.774816],[29.550079,40.774984],[29.548899,40.77566],[29.546807,40.777779],[29.545745,40.778494],[29.544398,40.779002],[29.542259,40.779381],[29.541704,40.779553],[29.542789,40.780418],[29.542915,40.780828],[29.542927,40.781702],[29.54348,40.782016],[29.543992,40.782121],[29.544191,40.782251],[29.544119,40.782328],[29.544249,40.782536],[29.544357,40.783346],[29.545609,40.784447],[29.545745,40.784454],[29.546042,40.784762],[29.5462,40.784784],[29.546449,40.785258],[29.548225,40.785596],[29.549509,40.785634],[29.551106,40.785485],[29.553562,40.785755],[29.555225,40.785712],[29.558928,40.785153],[29.559303,40.785165],[29.559543,40.785282],[29.559247,40.786141],[29.55988,40.786679],[29.560478,40.78741],[29.561224,40.786985]]]}},{"type":"Feature","properties":{"id":"TR-Y-41-005-M-0007","level":"yerlesim","type":"mahalle","parent_id":"TR-D-41-005","province_id":"TR-P-41","district_id":"TR-D-41-005","name":"Köseler","source_raw_name":"Köseler","source":"Kullanıcı tarafından sağlanan KML","source_label":"Kullanıcı tarafından sağlanan KML","source_name":"Kocaeli Mahalle KML - kullanıcı tarafından sağlandı"},"geometry":{"type":"Polygon","coordinates":[[[29.589626,40.905195],[29.589853,40.904439],[29.590045,40.901554],[29.593618,40.8976],[29.59448,40.896497],[29.596446,40.896323],[29.598825,40.895863],[29.600934,40.893701],[29.602597,40.892429],[29.602855,40.890648],[29.602684,40.890234],[29.602649,40.889558],[29.602098,40.8878],[29.602233,40.88789],[29.602312,40.887447],[29.602646,40.887364],[29.602422,40.886785],[29.602136,40.886728],[29.602076,40.886207],[29.60131,40.883897],[29.600831,40.880776],[29.600859,40.878251],[29.601186,40.876805],[29.601441,40.873995],[29.601553,40.870247],[29.601101,40.86871],[29.600946,40.867089],[29.600697,40.866597],[29.601607,40.866576],[29.601412,40.865976],[29.601874,40.865636],[29.601624,40.865604],[29.601514,40.861916],[29.602177,40.860175],[29.602091,40.859329],[29.602424,40.859009],[29.602371,40.853389],[29.602008,40.851001],[29.601913,40.848431],[29.602845,40.844126],[29.601672,40.841756],[29.600873,40.840936],[29.601484,40.839778],[29.602809,40.838433],[29.602892,40.836363],[29.603166,40.83465],[29.603002,40.834769],[29.602929,40.835276],[29.60276,40.835344],[29.601718,40.835317],[29.599933,40.835495],[29.600024,40.836151],[29.59933,40.836093],[29.599054,40.836569],[29.598995,40.837344],[29.600099,40.837343],[29.600261,40.837597],[29.600195,40.838155],[29.599407,40.838854],[29.597995,40.839244],[29.5966,40.838975],[29.596029,40.839162],[29.595679,40.838639],[29.595048,40.838765],[29.594957,40.83898],[29.59327,40.839392],[29.592149,40.840203],[29.59149,40.840147],[29.590715,40.839905],[29.590291,40.839953],[29.588887,40.840245],[29.588904,40.840424],[29.587122,40.840882],[29.585311,40.840647],[29.583911,40.840309],[29.581853,40.839616],[29.579404,40.839071],[29.578978,40.838914],[29.577291,40.837802],[29.574941,40.836007],[29.574377,40.836249],[29.574467,40.836426],[29.575454,40.837288],[29.575627,40.837802],[29.575944,40.838176],[29.57379,40.839455],[29.573499,40.839845],[29.572369,40.841851],[29.571505,40.844107],[29.571177,40.844289],[29.570686,40.844865],[29.570572,40.846172],[29.569634,40.846865],[29.567974,40.848605],[29.567316,40.849478],[29.567637,40.849655],[29.566082,40.853198],[29.565152,40.854741],[29.564049,40.854218],[29.563099,40.855534],[29.563244,40.855755],[29.562643,40.856854],[29.561762,40.856506],[29.561965,40.856392],[29.561311,40.856131],[29.559923,40.857054],[29.560219,40.857363],[29.559045,40.857448],[29.559317,40.856881],[29.558712,40.856259],[29.556823,40.855195],[29.555896,40.854511],[29.556846,40.853015],[29.555835,40.85307],[29.555265,40.853515],[29.555649,40.854934],[29.555922,40.855328],[29.558665,40.861935],[29.557675,40.862329],[29.555512,40.864029],[29.554606,40.864203],[29.554027,40.864978],[29.553446,40.865288],[29.552994,40.866226],[29.552961,40.866815],[29.550252,40.866557],[29.548841,40.868133],[29.548867,40.868431],[29.548337,40.868815],[29.547874,40.868768],[29.547506,40.86883],[29.546666,40.869686],[29.546151,40.869811],[29.545374,40.870253],[29.544908,40.870346],[29.544715,40.871096],[29.543783,40.871714],[29.539606,40.872143],[29.539043,40.872669],[29.53736,40.873407],[29.534978,40.874626],[29.533817,40.875918],[29.535148,40.876727],[29.536572,40.876298],[29.538191,40.876711],[29.539763,40.877337],[29.541192,40.8782],[29.542221,40.879074],[29.542726,40.879123],[29.543997,40.879919],[29.544225,40.879938],[29.54487,40.88024],[29.545612,40.880278],[29.546395,40.880937],[29.546964,40.881915],[29.547823,40.88256],[29.549063,40.883832],[29.550766,40.884655],[29.552299,40.885025],[29.553419,40.884963],[29.554352,40.885295],[29.555036,40.886274],[29.556078,40.886662],[29.556738,40.887286],[29.557643,40.887514],[29.560442,40.887913],[29.562193,40.888378],[29.563344,40.888323],[29.566679,40.88902],[29.569925,40.890804],[29.570305,40.891446],[29.570473,40.892103],[29.570124,40.892597],[29.5701,40.893413],[29.571356,40.895122],[29.57348,40.896325],[29.57462,40.898092],[29.575708,40.899189],[29.577484,40.900754],[29.57894,40.90124],[29.580412,40.902339],[29.581787,40.903553],[29.584866,40.90556],[29.586964,40.905848],[29.589626,40.905195]]]}},{"type":"Feature","properties":{"id":"TR-Y-41-005-M-0008","level":"yerlesim","type":"mahalle","parent_id":"TR-D-41-005","province_id":"TR-P-41","district_id":"TR-D-41-005","name":"Mimar Sinan","source_raw_name":"Mimar Sinan","source":"Kullanıcı tarafından sağlanan KML","source_label":"Kullanıcı tarafından sağlanan KML","source_name":"Kocaeli Mahalle KML - kullanıcı tarafından sağlandı"},"geometry":{"type":"Polygon","coordinates":[[[29.544354,40.818445],[29.544211,40.818324],[29.54335,40.816362],[29.543524,40.816289],[29.54279,40.815489],[29.543438,40.815206],[29.544284,40.814168],[29.544534,40.814217],[29.545145,40.813821],[29.546221,40.813346],[29.551903,40.809628],[29.552811,40.809457],[29.553653,40.809116],[29.552863,40.807938],[29.552431,40.806986],[29.552309,40.806288],[29.551706,40.805394],[29.551693,40.804412],[29.551428,40.803757],[29.551534,40.80252],[29.552218,40.799771],[29.553172,40.797862],[29.553168,40.79761],[29.552199,40.796462],[29.551019,40.792812],[29.549745,40.791882],[29.548852,40.79144],[29.546134,40.790908],[29.543082,40.790427],[29.540856,40.790245],[29.538819,40.789492],[29.538713,40.788279],[29.53904,40.787476],[29.541351,40.785455],[29.541041,40.785389],[29.536536,40.786532],[29.535949,40.786579],[29.53516,40.786837],[29.534737,40.787009],[29.532998,40.788084],[29.531578,40.789076],[29.531286,40.789144],[29.530656,40.789511],[29.530084,40.789665],[29.530081,40.790185],[29.52971,40.791199],[29.529245,40.79349],[29.529282,40.794313],[29.529673,40.79468],[29.530908,40.795115],[29.531205,40.795795],[29.532213,40.796781],[29.532676,40.797564],[29.532741,40.797986],[29.533722,40.799342],[29.533919,40.800199],[29.533848,40.800769],[29.533472,40.801629],[29.532675,40.802867],[29.532623,40.803133],[29.532351,40.803394],[29.531993,40.803542],[29.531247,40.803675],[29.530923,40.804169],[29.530503,40.805206],[29.530494,40.805604],[29.531621,40.807113],[29.531495,40.807132],[29.531167,40.808035],[29.531004,40.809302],[29.531109,40.810182],[29.530806,40.811559],[29.529803,40.812791],[29.528207,40.813929],[29.52829,40.814045],[29.525871,40.817598],[29.530761,40.81916],[29.531606,40.819301],[29.531428,40.819359],[29.537476,40.819534],[29.538105,40.820047],[29.538916,40.82013],[29.54075,40.819853],[29.541588,40.819356],[29.541965,40.819272],[29.542979,40.818815],[29.543566,40.818811],[29.544354,40.818445]]]}},{"type":"Feature","properties":{"id":"TR-Y-41-005-M-0009","level":"yerlesim","type":"mahalle","parent_id":"TR-D-41-005","province_id":"TR-P-41","district_id":"TR-D-41-005","name":"Orhangazi","source_raw_name":"Orhangazi","source":"Kullanıcı tarafından sağlanan KML","source_label":"Kullanıcı tarafından sağlanan KML","source_name":"Kocaeli Mahalle KML - kullanıcı tarafından sağlandı"},"geometry":{"type":"Polygon","coordinates":[[[29.560103,40.802871],[29.560884,40.800932],[29.561314,40.80084],[29.562139,40.800961],[29.56299,40.799792],[29.562734,40.799552],[29.562902,40.798686],[29.563933,40.798748],[29.564806,40.798551],[29.564832,40.798171],[29.565503,40.798272],[29.565888,40.798164],[29.564986,40.797738],[29.564446,40.797365],[29.564917,40.796504],[29.565006,40.795756],[29.564818,40.79555],[29.565194,40.795525],[29.564989,40.79409],[29.564882,40.794039],[29.56441,40.794175],[29.564248,40.793606],[29.564413,40.792992],[29.564653,40.792988],[29.564818,40.79257],[29.564412,40.792193],[29.563304,40.792057],[29.563452,40.791791],[29.563332,40.791453],[29.562795,40.79083],[29.561469,40.789699],[29.560883,40.789336],[29.560278,40.788724],[29.560199,40.788816],[29.554807,40.79018],[29.553555,40.79011],[29.551543,40.787746],[29.549655,40.787118],[29.548824,40.786647],[29.548547,40.786381],[29.547485,40.785904],[29.546449,40.785258],[29.5462,40.784784],[29.546042,40.784762],[29.545745,40.784454],[29.545609,40.784447],[29.544357,40.783346],[29.544249,40.782536],[29.544119,40.782328],[29.544191,40.782251],[29.543992,40.782121],[29.54348,40.782016],[29.542927,40.781702],[29.542915,40.780828],[29.542789,40.780418],[29.541704,40.779553],[29.54125,40.779699],[29.540901,40.779948],[29.541251,40.782553],[29.541798,40.784475],[29.54166,40.785384],[29.541351,40.785455],[29.53904,40.787476],[29.538713,40.788279],[29.538819,40.789492],[29.540856,40.790245],[29.543082,40.790427],[29.546134,40.790908],[29.548852,40.79144],[29.549745,40.791882],[29.551019,40.792812],[29.552199,40.796462],[29.553168,40.79761],[29.553172,40.797862],[29.552218,40.799771],[29.551817,40.801246],[29.552559,40.801429],[29.553291,40.802067],[29.555184,40.802769],[29.556394,40.802805],[29.55923,40.803665],[29.560103,40.802871]]]}},{"type":"Feature","properties":{"id":"TR-Y-41-005-M-0010","level":"yerlesim","type":"mahalle","parent_id":"TR-D-41-005","province_id":"TR-P-41","district_id":"TR-D-41-005","name":"Tavşancıl","source_raw_name":"Tavşancıl","source":"Kullanıcı tarafından sağlanan KML","source_label":"Kullanıcı tarafından sağlanan KML","source_name":"Kocaeli Mahalle KML - kullanıcı tarafından sağlandı"},"geometry":{"type":"MultiPolygon","coordinates":[[[[29.545983,40.76996],[29.548713,40.767895],[29.54842,40.767672],[29.547356,40.768477],[29.547513,40.768615],[29.545694,40.769946],[29.546158,40.770086],[29.546266,40.770047],[29.545983,40.76996]]],[[[29.581695,40.797636],[29.581999,40.797505],[29.582153,40.796981],[29.583589,40.79679],[29.584601,40.796543],[29.58522,40.796296],[29.586311,40.796096],[29.588121,40.795319],[29.590035,40.79481],[29.591624,40.793561],[29.592736,40.793668],[29.593593,40.7936],[29.59359,40.793852],[29.594611,40.793992],[29.595807,40.793914],[29.596182,40.793133],[29.596796,40.790951],[29.596332,40.789444],[29.595621,40.787918],[29.596001,40.785293],[29.59665,40.784044],[29.596046,40.781451],[29.59682,40.779415],[29.596933,40.777918],[29.596655,40.777049],[29.596889,40.776551],[29.593472,40.774528],[29.595307,40.772715],[29.595163,40.772631],[29.595462,40.772436],[29.595321,40.772354],[29.595151,40.772623],[29.595007,40.772539],[29.593172,40.774353],[29.592809,40.774141],[29.592547,40.774328],[29.591772,40.773748],[29.591384,40.773598],[29.589723,40.773325],[29.589518,40.773204],[29.58937,40.773264],[29.587272,40.772288],[29.586265,40.771935],[29.585477,40.771443],[29.584327,40.771321],[29.583581,40.771023],[29.582246,40.770365],[29.580055,40.768996],[29.578742,40.768376],[29.576339,40.767788],[29.572926,40.767462],[29.572416,40.766992],[29.572522,40.766925],[29.573257,40.766914],[29.57325,40.766831],[29.572468,40.766858],[29.572354,40.766949],[29.571706,40.766575],[29.569817,40.766834],[29.569206,40.766704],[29.569075,40.766798],[29.569233,40.767142],[29.568602,40.767727],[29.568414,40.76761],[29.568227,40.767221],[29.568337,40.76705],[29.568695,40.767013],[29.568768,40.766924],[29.568703,40.766813],[29.568347,40.766734],[29.567439,40.767506],[29.566583,40.768074],[29.564632,40.768919],[29.563545,40.769142],[29.562748,40.769479],[29.561906,40.769983],[29.558227,40.771103],[29.557937,40.771084],[29.555844,40.771912],[29.555268,40.771874],[29.554754,40.772087],[29.554025,40.772159],[29.552164,40.772104],[29.550302,40.771679],[29.549811,40.77164],[29.549723,40.771792],[29.548186,40.771207],[29.548514,40.770771],[29.546329,40.770138],[29.548464,40.770782],[29.548156,40.771196],[29.547438,40.770999],[29.546873,40.771176],[29.545244,40.771051],[29.544717,40.771173],[29.544521,40.771348],[29.544495,40.771577],[29.544531,40.771792],[29.545049,40.77248],[29.544929,40.772868],[29.545232,40.773042],[29.545515,40.773003],[29.545836,40.772394],[29.546138,40.772438],[29.545939,40.771879],[29.546181,40.771663],[29.54703,40.771709],[29.54699,40.772452],[29.547536,40.773248],[29.547746,40.773308],[29.547932,40.77319],[29.548613,40.772494],[29.549208,40.772556],[29.549489,40.772714],[29.550038,40.773191],[29.550354,40.773652],[29.54921,40.774134],[29.549313,40.775074],[29.548968,40.775613],[29.550079,40.774984],[29.550737,40.774816],[29.552321,40.774801],[29.554257,40.775066],[29.554992,40.774949],[29.557194,40.773765],[29.559233,40.773197],[29.55989,40.775274],[29.559538,40.775362],[29.559376,40.776089],[29.559625,40.776416],[29.560227,40.77674],[29.559336,40.777594],[29.56037,40.778216],[29.560541,40.778729],[29.563371,40.779707],[29.563553,40.780106],[29.561165,40.78486],[29.561122,40.785111],[29.559599,40.785254],[29.560269,40.785654],[29.561224,40.786985],[29.560478,40.78741],[29.55988,40.786698],[29.559801,40.788227],[29.560883,40.789336],[29.561469,40.789699],[29.562795,40.79083],[29.563332,40.791453],[29.563452,40.791791],[29.563304,40.792057],[29.564427,40.792177],[29.56488,40.792585],[29.564676,40.793035],[29.564406,40.793031],[29.564331,40.793614],[29.564466,40.794147],[29.56487,40.793965],[29.565021,40.79404],[29.565764,40.793435],[29.566445,40.793271],[29.566398,40.793198],[29.567075,40.792928],[29.567134,40.792805],[29.566856,40.792613],[29.566911,40.792152],[29.567085,40.791862],[29.566682,40.791746],[29.56678,40.791502],[29.568347,40.792039],[29.568849,40.792102],[29.569707,40.792636],[29.570581,40.793003],[29.570951,40.793025],[29.571441,40.793255],[29.572165,40.793308],[29.57256,40.793228],[29.573366,40.79469],[29.573598,40.795371],[29.573788,40.796846],[29.574076,40.798026],[29.576322,40.797919],[29.57835,40.797765],[29.580999,40.797728],[29.581695,40.797636]],[[29.588652,40.790145],[29.588354,40.790186],[29.58822,40.790112],[29.588287,40.789788],[29.588395,40.789577],[29.588678,40.78943],[29.588913,40.789467],[29.588969,40.789598],[29.588652,40.790145]],[[29.589571,40.788971],[29.589237,40.788836],[29.589184,40.788691],[29.589718,40.788071],[29.590006,40.788091],[29.590377,40.788435],[29.589571,40.788971]]]]}},{"type":"Feature","properties":{"id":"TR-Y-41-005-M-0011","level":"yerlesim","type":"mahalle","parent_id":"TR-D-41-005","province_id":"TR-P-41","district_id":"TR-D-41-005","name":"Tepecik","source_raw_name":"Tepecik","source":"Kullanıcı tarafından sağlanan KML","source_label":"Kullanıcı tarafından sağlanan KML","source_name":"Kocaeli Mahalle KML - kullanıcı tarafından sağlandı"},"geometry":{"type":"Polygon","coordinates":[[[29.623796,40.901236],[29.627766,40.898724],[29.627605,40.898432],[29.62777,40.897942],[29.628049,40.897631],[29.628744,40.897139],[29.630019,40.897034],[29.630474,40.894687],[29.630894,40.893755],[29.63135,40.893333],[29.631848,40.893178],[29.63273,40.893205],[29.635146,40.892947],[29.635958,40.892512],[29.638203,40.891803],[29.638795,40.891392],[29.639479,40.891133],[29.641556,40.891794],[29.643702,40.891085],[29.644329,40.891342],[29.652781,40.890351],[29.654733,40.889936],[29.655911,40.889926],[29.656664,40.890089],[29.657442,40.89003],[29.657743,40.889887],[29.65829,40.889877],[29.659273,40.889323],[29.660489,40.889021],[29.662092,40.889273],[29.662908,40.889298],[29.663056,40.889259],[29.663059,40.889097],[29.663321,40.888883],[29.663697,40.888788],[29.663904,40.888595],[29.663948,40.88779],[29.664779,40.887542],[29.665052,40.88759],[29.665461,40.888132],[29.665716,40.888288],[29.666201,40.888321],[29.666989,40.888208],[29.668001,40.888623],[29.668262,40.888623],[29.668599,40.888396],[29.669205,40.887569],[29.669875,40.887371],[29.670656,40.887332],[29.670907,40.887132],[29.67102,40.886667],[29.671671,40.886563],[29.67229,40.886266],[29.672568,40.886345],[29.672763,40.886868],[29.673113,40.887359],[29.673549,40.887568],[29.673834,40.887508],[29.674826,40.886211],[29.675341,40.885921],[29.676243,40.885673],[29.677377,40.885063],[29.677737,40.885101],[29.678882,40.885565],[29.679889,40.885679],[29.680468,40.88563],[29.680796,40.885502],[29.681699,40.884904],[29.682802,40.884797],[29.683412,40.885073],[29.684014,40.885903],[29.684259,40.886074],[29.684848,40.886223],[29.686426,40.886203],[29.686502,40.885933],[29.686377,40.885721],[29.684891,40.88503],[29.684243,40.884613],[29.683336,40.883381],[29.682976,40.88241],[29.682487,40.881985],[29.681747,40.881731],[29.681314,40.881687],[29.680343,40.881857],[29.679647,40.881821],[29.679078,40.881646],[29.678304,40.88122],[29.677482,40.879122],[29.677886,40.878136],[29.677887,40.877902],[29.677524,40.877503],[29.676925,40.877178],[29.676438,40.877086],[29.675993,40.877123],[29.675764,40.877009],[29.675479,40.876208],[29.675305,40.875992],[29.675095,40.875912],[29.675887,40.874777],[29.67592,40.873802],[29.676252,40.873292],[29.676833,40.8729],[29.678304,40.872465],[29.679036,40.871848],[29.679665,40.871729],[29.679972,40.871568],[29.680299,40.871115],[29.680449,40.870682],[29.680269,40.869838],[29.680439,40.86971],[29.680945,40.869656],[29.681065,40.8695],[29.680189,40.867843],[29.68012,40.867035],[29.680458,40.866617],[29.680452,40.866329],[29.680137,40.865968],[29.679969,40.865457],[29.679437,40.865313],[29.678743,40.864487],[29.678763,40.864267],[29.682034,40.863397],[29.680959,40.862455],[29.677075,40.857553],[29.674228,40.85284],[29.672878,40.85038],[29.67216,40.846839],[29.670323,40.843195],[29.669561,40.842488],[29.669259,40.84194],[29.666734,40.842243],[29.665156,40.840429],[29.6619,40.838095],[29.657182,40.837293],[29.654564,40.836563],[29.652044,40.835732],[29.649073,40.834219],[29.643932,40.833952],[29.642274,40.833551],[29.639142,40.83232],[29.635814,40.833238],[29.635253,40.833514],[29.631717,40.833401],[29.630636,40.832997],[29.629266,40.835697],[29.627269,40.836781],[29.626752,40.837335],[29.623747,40.837778],[29.622855,40.837695],[29.621907,40.837319],[29.620247,40.837618],[29.616153,40.837196],[29.61558,40.838509],[29.612947,40.837253],[29.611051,40.836481],[29.608515,40.835871],[29.604984,40.833842],[29.603654,40.832524],[29.602711,40.83265],[29.603524,40.83308],[29.603612,40.83324],[29.603848,40.833278],[29.603166,40.83465],[29.602892,40.836363],[29.602809,40.838433],[29.601484,40.839778],[29.600873,40.840936],[29.601672,40.841756],[29.602845,40.844126],[29.601913,40.848431],[29.602008,40.851001],[29.602371,40.853389],[29.602424,40.859009],[29.602091,40.859329],[29.602177,40.860175],[29.601514,40.861916],[29.601624,40.865604],[29.601874,40.865636],[29.601412,40.865976],[29.601607,40.866576],[29.600697,40.866597],[29.600946,40.867089],[29.601101,40.86871],[29.601553,40.870247],[29.601441,40.873995],[29.601186,40.876805],[29.600859,40.878251],[29.600831,40.880776],[29.60131,40.883897],[29.602076,40.886207],[29.602136,40.886728],[29.602422,40.886785],[29.602646,40.887364],[29.602312,40.887447],[29.602233,40.88789],[29.602098,40.8878],[29.602649,40.889558],[29.602847,40.890918],[29.602597,40.892429],[29.600934,40.893701],[29.598825,40.895863],[29.599991,40.895764],[29.600649,40.89561],[29.601723,40.896499],[29.602921,40.89779],[29.603572,40.898138],[29.605524,40.898211],[29.60695,40.897864],[29.607989,40.897882],[29.609633,40.898492],[29.610531,40.898521],[29.612067,40.899846],[29.612175,40.90071],[29.618753,40.903679],[29.623796,40.901236]]]}},{"type":"Feature","properties":{"id":"TR-Y-41-005-M-0012","level":"yerlesim","type":"mahalle","parent_id":"TR-D-41-005","province_id":"TR-P-41","district_id":"TR-D-41-005","name":"Turgut Özal","source_raw_name":"Turgut Özal","source":"Kullanıcı tarafından sağlanan KML","source_label":"Kullanıcı tarafından sağlanan KML","source_name":"Kocaeli Mahalle KML - kullanıcı tarafından sağlandı"},"geometry":{"type":"Polygon","coordinates":[[[29.560199,40.788816],[29.560278,40.788724],[29.559801,40.788227],[29.55988,40.786679],[29.559247,40.786141],[29.559502,40.785206],[29.558928,40.785153],[29.555225,40.785712],[29.553562,40.785755],[29.551106,40.785485],[29.549509,40.785634],[29.548225,40.785596],[29.546449,40.785258],[29.547485,40.785904],[29.548547,40.786381],[29.548824,40.786647],[29.549655,40.787118],[29.551543,40.787746],[29.553555,40.79011],[29.554807,40.79018],[29.560199,40.788816]]]}}]}