{"type":"FeatureCollection","name":"turkiye_map.dist.mahalle_geometrileri_by_district.TR-D-34-033","features":[{"type":"Feature","properties":{"id":"TR-Y-34-033-M-0001","level":"yerlesim","type":"mahalle","parent_id":"TR-D-34-033","province_id":"TR-P-34","district_id":"TR-D-34-033","name":"50. Yıl","source_raw_name":"50. YIL","source":"Kullanıcı tarafından sağlanan KML","source_label":"Kullanıcı tarafından sağlanan KML","source_name":"Istanbul Mahalle KML"},"geometry":{"type":"Polygon","coordinates":[[[28.882839,41.091007],[28.882698,41.090967],[28.882569,41.090939],[28.882431,41.090914],[28.882208,41.090881],[28.882027,41.090851],[28.881803,41.090812],[28.88165,41.090782],[28.8814,41.090734],[28.881275,41.090708],[28.881134,41.090678],[28.880896,41.090616],[28.880677,41.090542],[28.880479,41.090475],[28.880163,41.090371],[28.879769,41.090235],[28.879271,41.09005],[28.878824,41.089879],[28.878538,41.089758],[28.878332,41.089671],[28.877957,41.089509],[28.877772,41.08943],[28.877586,41.08936],[28.877406,41.0893],[28.877277,41.089256],[28.877045,41.089194],[28.876481,41.089048],[28.875754,41.088861],[28.875086,41.088687],[28.874365,41.088501],[28.873793,41.088402],[28.873298,41.088325],[28.872972,41.088273],[28.872757,41.088215],[28.872221,41.088064],[28.871895,41.087973],[28.871458,41.087881],[28.871028,41.087792],[28.870554,41.087655],[28.870358,41.087572],[28.870053,41.087412],[28.869645,41.087203],[28.869513,41.087125],[28.869345,41.087006],[28.869233,41.086916],[28.868978,41.086681],[28.868745,41.086813],[28.868318,41.087045],[28.867909,41.08727],[28.86713,41.087695],[28.866667,41.087952],[28.866318,41.08816],[28.86601,41.08837],[28.865719,41.088596],[28.865549,41.088747],[28.865382,41.088917],[28.865131,41.089182],[28.864917,41.08941],[28.864764,41.08961],[28.864668,41.089797],[28.864601,41.089984],[28.864555,41.090169],[28.864524,41.090301],[28.864445,41.090679],[28.864367,41.09104],[28.864275,41.091486],[28.864228,41.091728],[28.864191,41.091917],[28.864123,41.092253],[28.864056,41.092582],[28.863987,41.092925],[28.863932,41.093216],[28.863895,41.093429],[28.863816,41.0938],[28.863754,41.094081],[28.864493,41.094249],[28.865347,41.094442],[28.865313,41.09485],[28.866486,41.09515],[28.867512,41.095409],[28.867608,41.095483],[28.868631,41.095733],[28.868684,41.09578],[28.869349,41.095934],[28.869569,41.095993],[28.869815,41.096023],[28.869949,41.096006],[28.870273,41.096081],[28.870584,41.096154],[28.872375,41.096712],[28.875049,41.0975],[28.875875,41.09776],[28.875988,41.097587],[28.876121,41.097385],[28.876293,41.097108],[28.876415,41.096935],[28.87658,41.096756],[28.876744,41.096601],[28.878224,41.095247],[28.879635,41.093963],[28.880008,41.093618],[28.880749,41.092927],[28.881896,41.091885],[28.882155,41.091652],[28.882421,41.091409],[28.882748,41.091093],[28.882839,41.091007]]]}},{"type":"Feature","properties":{"id":"TR-Y-34-033-M-0002","level":"yerlesim","type":"mahalle","parent_id":"TR-D-34-033","province_id":"TR-P-34","district_id":"TR-D-34-033","name":"75. Yıl","source_raw_name":"75. YIL","source":"Kullanıcı tarafından sağlanan KML","source_label":"Kullanıcı tarafından sağlanan KML","source_name":"Istanbul Mahalle KML"},"geometry":{"type":"Polygon","coordinates":[[[28.902724,41.101074],[28.904461,41.100918],[28.904376,41.100537],[28.904173,41.099776],[28.903993,41.099123],[28.903864,41.098534],[28.903767,41.098152],[28.904336,41.098117],[28.905351,41.098021],[28.906411,41.097935],[28.907248,41.097863],[28.908198,41.097785],[28.90902,41.097707],[28.909986,41.097614],[28.910887,41.097528],[28.91171,41.097445],[28.912197,41.097376],[28.912548,41.097346],[28.912689,41.097599],[28.912734,41.097735],[28.912769,41.097882],[28.912768,41.097961],[28.91275,41.09801],[28.912709,41.098079],[28.91234,41.098595],[28.912473,41.098634],[28.912562,41.098601],[28.912736,41.098492],[28.912892,41.098444],[28.912985,41.098392],[28.913207,41.0983],[28.913316,41.098209],[28.913384,41.098188],[28.913517,41.098107],[28.913606,41.097931],[28.913776,41.097878],[28.91388,41.09781],[28.914125,41.09771],[28.914275,41.09765],[28.914506,41.097634],[28.914657,41.097462],[28.914708,41.097425],[28.914826,41.097342],[28.915138,41.097256],[28.915436,41.097188],[28.915644,41.097133],[28.91603,41.097127],[28.916267,41.097123],[28.916747,41.097115],[28.916851,41.096999],[28.917069,41.09687],[28.91725,41.096787],[28.917603,41.096643],[28.91786,41.096541],[28.918147,41.096428],[28.918309,41.096362],[28.918057,41.096087],[28.91895,41.095602],[28.920763,41.09457],[28.921073,41.094357],[28.92079,41.094306],[28.920254,41.094199],[28.919703,41.094076],[28.919192,41.093947],[28.918657,41.093795],[28.918121,41.093629],[28.917595,41.093454],[28.916574,41.093081],[28.915768,41.092773],[28.914968,41.092471],[28.914427,41.092274],[28.913888,41.092092],[28.913339,41.091918],[28.912784,41.091755],[28.912224,41.091606],[28.911655,41.091468],[28.911085,41.091341],[28.910509,41.091226],[28.909937,41.091116],[28.909361,41.091027],[28.908762,41.090949],[28.908181,41.09089],[28.907593,41.090839],[28.907006,41.090804],[28.906558,41.09078],[28.906464,41.091623],[28.906417,41.09195],[28.906511,41.092382],[28.906088,41.092675],[28.905808,41.09299],[28.905292,41.093456],[28.905215,41.093511],[28.905144,41.093548],[28.905049,41.093587],[28.904673,41.0937],[28.904259,41.093823],[28.903619,41.094058],[28.903387,41.094116],[28.903269,41.094283],[28.903148,41.094413],[28.902863,41.094584],[28.902505,41.094807],[28.902296,41.094937],[28.902101,41.095058],[28.901844,41.095242],[28.901748,41.095328],[28.901705,41.095375],[28.90165,41.095442],[28.901615,41.095492],[28.901551,41.095609],[28.90149,41.095749],[28.901405,41.095975],[28.901282,41.096285],[28.901167,41.096568],[28.901042,41.096882],[28.900909,41.097164],[28.900757,41.097454],[28.90059,41.097777],[28.900416,41.098133],[28.900265,41.098399],[28.900009,41.098617],[28.899921,41.098941],[28.899883,41.099015],[28.899716,41.099331],[28.89946,41.099812],[28.899216,41.100254],[28.898961,41.100755],[28.898831,41.10104],[28.898702,41.101325],[28.898648,41.101446],[28.898786,41.101405],[28.899162,41.101372],[28.89978,41.101307],[28.900765,41.101214],[28.901831,41.101136],[28.902724,41.101074]]]}},{"type":"Feature","properties":{"id":"TR-Y-34-033-M-0003","level":"yerlesim","type":"mahalle","parent_id":"TR-D-34-033","province_id":"TR-P-34","district_id":"TR-D-34-033","name":"Cebeci","source_raw_name":"CEBECİ","source":"Kullanıcı tarafından sağlanan KML","source_label":"Kullanıcı tarafından sağlanan KML","source_name":"Istanbul Mahalle KML"},"geometry":{"type":"Polygon","coordinates":[[[28.898561,41.131678],[28.898674,41.131556],[28.898758,41.131466],[28.898804,41.131362],[28.898811,41.131276],[28.898787,41.131228],[28.898719,41.131161],[28.898595,41.13105],[28.898453,41.130853],[28.898391,41.13081],[28.898505,41.130773],[28.898946,41.130791],[28.899066,41.130749],[28.899169,41.130646],[28.899285,41.130466],[28.89937,41.130266],[28.899423,41.130114],[28.899337,41.12999],[28.899112,41.129795],[28.899105,41.129766],[28.899133,41.129744],[28.899228,41.129743],[28.899427,41.129731],[28.89951,41.129727],[28.899596,41.129693],[28.899682,41.129616],[28.899798,41.129474],[28.899866,41.129355],[28.89997,41.12917],[28.900008,41.129055],[28.900005,41.128984],[28.899974,41.128938],[28.899944,41.128824],[28.899959,41.12881],[28.900108,41.128767],[28.90017,41.12871],[28.90037,41.128426],[28.900455,41.128336],[28.90046,41.128298],[28.900583,41.128144],[28.90063,41.128055],[28.900668,41.127939],[28.900685,41.1279],[28.900718,41.127899],[28.900753,41.127886],[28.900753,41.127835],[28.900762,41.1278],[28.900829,41.127722],[28.900857,41.127677],[28.900946,41.127595],[28.901022,41.127477],[28.901097,41.127343],[28.901095,41.127252],[28.901062,41.127168],[28.901039,41.126962],[28.901047,41.126937],[28.901089,41.126955],[28.901197,41.127014],[28.901305,41.127039],[28.901441,41.127023],[28.901558,41.126984],[28.901695,41.126904],[28.901861,41.126763],[28.902435,41.126358],[28.90254,41.126326],[28.902631,41.126252],[28.902831,41.126124],[28.902859,41.12608],[28.902889,41.126051],[28.902903,41.126013],[28.902931,41.125982],[28.903042,41.125976],[28.903208,41.125908],[28.90351,41.125793],[28.903894,41.125608],[28.904571,41.125272],[28.904831,41.125166],[28.905076,41.125089],[28.905336,41.124972],[28.905377,41.124918],[28.905598,41.124676],[28.905759,41.124482],[28.905815,41.124316],[28.905813,41.124192],[28.905753,41.12407],[28.905635,41.123967],[28.905521,41.123922],[28.905466,41.123911],[28.905136,41.123845],[28.905033,41.123804],[28.904983,41.123759],[28.904865,41.123668],[28.904829,41.123558],[28.904809,41.12349],[28.904612,41.1232],[28.904484,41.122928],[28.904369,41.12272],[28.904299,41.122611],[28.90427,41.122537],[28.904229,41.12246],[28.904188,41.122432],[28.904102,41.12241],[28.903985,41.12238],[28.903928,41.122381],[28.903866,41.122391],[28.903828,41.122389],[28.903749,41.122361],[28.903631,41.122371],[28.903552,41.122389],[28.903428,41.122419],[28.903354,41.122454],[28.903291,41.122471],[28.903178,41.122478],[28.903051,41.122496],[28.902898,41.12251],[28.902829,41.122527],[28.902715,41.12257],[28.902557,41.122665],[28.902505,41.122674],[28.902447,41.122647],[28.902403,41.122601],[28.902331,41.12249],[28.902262,41.122451],[28.902122,41.122428],[28.901981,41.12241],[28.901928,41.122409],[28.901841,41.12239],[28.901715,41.122377],[28.901687,41.122372],[28.901392,41.122328],[28.900757,41.122222],[28.900538,41.122209],[28.900243,41.122185],[28.900178,41.122173],[28.899418,41.122375],[28.898892,41.122361],[28.898617,41.122503],[28.89849,41.122542],[28.898125,41.122679],[28.897943,41.122716],[28.89786,41.122719],[28.897825,41.122697],[28.897794,41.122684],[28.897707,41.122681],[28.897605,41.122717],[28.897548,41.122703],[28.897483,41.122726],[28.897226,41.122869],[28.897133,41.122882],[28.89709,41.122876],[28.897067,41.122855],[28.897085,41.122833],[28.897091,41.12281],[28.897049,41.122794],[28.897028,41.122809],[28.896986,41.122818],[28.896953,41.122807],[28.896917,41.122768],[28.896849,41.122697],[28.89678,41.122668],[28.896621,41.12265],[28.896256,41.122645],[28.896138,41.12263],[28.895986,41.1226],[28.895864,41.122538],[28.895763,41.122456],[28.895703,41.122367],[28.895682,41.122295],[28.895679,41.122217],[28.895739,41.122167],[28.89628,41.121985],[28.896338,41.121967],[28.896451,41.121979],[28.896556,41.12197],[28.896625,41.121952],[28.896688,41.121937],[28.896747,41.121932],[28.896814,41.121937],[28.896898,41.121917],[28.896959,41.12187],[28.897006,41.121809],[28.897052,41.121724],[28.897119,41.121641],[28.897266,41.121587],[28.897473,41.1216],[28.897764,41.121702],[28.89806,41.121739],[28.898209,41.12176],[28.898239,41.121777],[28.898271,41.121793],[28.898322,41.121772],[28.898468,41.121757],[28.898527,41.12169],[28.898635,41.121606],[28.89889,41.121532],[28.898951,41.121523],[28.898997,41.121485],[28.899052,41.121488],[28.899149,41.121458],[28.899345,41.121334],[28.899428,41.121324],[28.899522,41.121275],[28.899578,41.121262],[28.899702,41.121233],[28.900147,41.121151],[28.900304,41.121126],[28.90049,41.121153],[28.900673,41.121179],[28.90084,41.121175],[28.901044,41.121141],[28.901125,41.121113],[28.901182,41.121073],[28.901198,41.121047],[28.901212,41.12102],[28.901218,41.121],[28.901094,41.120913],[28.901066,41.12087],[28.901033,41.120871],[28.900974,41.120905],[28.900853,41.120904],[28.900838,41.120839],[28.900809,41.120795],[28.900777,41.120749],[28.900727,41.120724],[28.900667,41.120723],[28.90061,41.120636],[28.900265,41.120634],[28.899994,41.120617],[28.899731,41.120578],[28.899463,41.120513],[28.898966,41.120403],[28.898765,41.120334],[28.8986,41.120255],[28.898386,41.120071],[28.898173,41.119897],[28.897822,41.119659],[28.897524,41.119387],[28.897366,41.119218],[28.897239,41.119047],[28.89706,41.11862],[28.896892,41.118253],[28.896773,41.117887],[28.896679,41.117691],[28.89657,41.117588],[28.896436,41.117505],[28.896257,41.11744],[28.896125,41.117382],[28.895992,41.117217],[28.895928,41.11704],[28.895821,41.116782],[28.895722,41.116586],[28.8956,41.116257],[28.895375,41.115645],[28.89536,41.115507],[28.895373,41.1154],[28.895451,41.115078],[28.89554,41.114366],[28.895567,41.114072],[28.895574,41.113515],[28.895609,41.113249],[28.895712,41.113057],[28.895839,41.112915],[28.895967,41.112709],[28.896132,41.112411],[28.896174,41.112288],[28.896248,41.112164],[28.896342,41.112013],[28.896404,41.111924],[28.896496,41.111796],[28.896655,41.111558],[28.896756,41.111398],[28.896848,41.111135],[28.896886,41.111044],[28.89693,41.110961],[28.897103,41.110748],[28.897164,41.110657],[28.89718,41.11057],[28.897191,41.110381],[28.897177,41.110318],[28.897027,41.109977],[28.896836,41.109696],[28.896734,41.109499],[28.896645,41.109296],[28.895993,41.108985],[28.895051,41.108613],[28.894964,41.108588],[28.894762,41.108569],[28.894606,41.108492],[28.894531,41.108465],[28.894396,41.108414],[28.894261,41.108357],[28.894078,41.108287],[28.893905,41.108209],[28.893786,41.108138],[28.893584,41.108008],[28.893453,41.107931],[28.893313,41.107824],[28.893158,41.1077],[28.893022,41.107572],[28.892908,41.107453],[28.89278,41.107299],[28.892672,41.107166],[28.892578,41.107059],[28.892477,41.107474],[28.892329,41.107951],[28.892245,41.108254],[28.892153,41.108465],[28.891895,41.108762],[28.891789,41.108874],[28.891642,41.109078],[28.891514,41.109298],[28.891315,41.109622],[28.891284,41.109701],[28.891167,41.110176],[28.890992,41.110867],[28.890246,41.110822],[28.888425,41.110486],[28.888509,41.109462],[28.889081,41.107336],[28.889445,41.105876],[28.889594,41.104969],[28.889059,41.104891],[28.88837,41.105049],[28.885978,41.105304],[28.883457,41.106096],[28.879442,41.109521],[28.877898,41.108975],[28.87749,41.10887],[28.876711,41.108652],[28.876075,41.108474],[28.873791,41.10783],[28.871081,41.107068],[28.87029,41.106849],[28.869152,41.106527],[28.868301,41.106281],[28.867883,41.106128],[28.867397,41.106033],[28.866297,41.105711],[28.865458,41.105468],[28.864549,41.10521],[28.863571,41.104931],[28.863076,41.104781],[28.86271,41.104673],[28.862535,41.104619],[28.862282,41.104547],[28.862101,41.104536],[28.861451,41.104361],[28.86139,41.104513],[28.861204,41.104908],[28.8611,41.105129],[28.860937,41.105467],[28.860726,41.105916],[28.860523,41.106352],[28.860311,41.106802],[28.860141,41.107169],[28.859728,41.107992],[28.859521,41.108417],[28.858232,41.111037],[28.857921,41.111674],[28.857735,41.112052],[28.857521,41.112489],[28.85725,41.11305],[28.85707,41.113387],[28.856892,41.113641],[28.856675,41.113876],[28.856417,41.114088],[28.856135,41.114269],[28.855724,41.114474],[28.855142,41.114659],[28.854214,41.114938],[28.852949,41.115299],[28.852635,41.115385],[28.852362,41.11548],[28.852166,41.115569],[28.851996,41.115661],[28.851741,41.115838],[28.851377,41.116114],[28.850765,41.116573],[28.850367,41.116873],[28.849711,41.117372],[28.849373,41.117639],[28.849076,41.1179],[28.848803,41.118156],[28.848206,41.118725],[28.847858,41.11903],[28.847197,41.119518],[28.846134,41.120191],[28.845829,41.120395],[28.845613,41.120522],[28.845345,41.120692],[28.844751,41.121021],[28.84499,41.121265],[28.84574,41.121631],[28.84631,41.121907],[28.84663,41.122128],[28.846956,41.122408],[28.847349,41.122726],[28.847417,41.122954],[28.847453,41.12325],[28.847593,41.123413],[28.847883,41.123642],[28.848198,41.123941],[28.848466,41.124194],[28.848657,41.124375],[28.848711,41.124426],[28.848914,41.124536],[28.849152,41.124604],[28.84938,41.124416],[28.849813,41.124057],[28.850024,41.123882],[28.85013,41.123796],[28.850716,41.123345],[28.851021,41.12311],[28.851462,41.122771],[28.851971,41.123125],[28.852383,41.123416],[28.852773,41.123691],[28.853244,41.124024],[28.856606,41.12572],[28.861795,41.128339],[28.865953,41.130436],[28.869135,41.132042],[28.871187,41.133076],[28.871489,41.133229],[28.872693,41.133335],[28.873168,41.13335],[28.874187,41.133233],[28.874424,41.133278],[28.874832,41.133393],[28.875223,41.133434],[28.875551,41.133459],[28.875971,41.133622],[28.876193,41.133618],[28.876648,41.133989],[28.877033,41.134118],[28.8773,41.134278],[28.877621,41.134378],[28.877896,41.134486],[28.878269,41.134692],[28.878648,41.134848],[28.878888,41.134905],[28.879093,41.134886],[28.87941,41.134768],[28.879845,41.13467],[28.880478,41.134634],[28.880916,41.134659],[28.881033,41.134666],[28.881385,41.134704],[28.881834,41.13476],[28.882416,41.134777],[28.882824,41.134773],[28.883145,41.134791],[28.883421,41.134813],[28.883654,41.134836],[28.883908,41.134904],[28.884168,41.134975],[28.884375,41.135034],[28.884666,41.135105],[28.884959,41.135176],[28.885278,41.135253],[28.885614,41.135313],[28.88588,41.135363],[28.886215,41.135441],[28.88652,41.135512],[28.886825,41.135599],[28.887058,41.135673],[28.887377,41.135801],[28.888085,41.13615],[28.888338,41.136308],[28.888666,41.136556],[28.888983,41.136787],[28.889104,41.136872],[28.889237,41.136763],[28.889302,41.136642],[28.889316,41.136549],[28.889282,41.136455],[28.889141,41.136189],[28.889024,41.135917],[28.888904,41.135696],[28.888844,41.135522],[28.888701,41.135357],[28.888485,41.135012],[28.888379,41.134858],[28.888265,41.134707],[28.888154,41.134584],[28.888055,41.134447],[28.88753,41.133938],[28.887365,41.133791],[28.887254,41.133659],[28.887234,41.133558],[28.88721,41.133465],[28.88725,41.133349],[28.887339,41.1333],[28.887454,41.133302],[28.887617,41.13338],[28.887819,41.133528],[28.888107,41.133674],[28.889082,41.134531],[28.88922,41.134542],[28.889289,41.134649],[28.889495,41.135031],[28.889842,41.135411],[28.890035,41.13544],[28.890107,41.135385],[28.890225,41.13549],[28.890317,41.135653],[28.890396,41.135826],[28.890451,41.135904],[28.890549,41.135955],[28.890664,41.135981],[28.890763,41.13598],[28.890836,41.135942],[28.890938,41.135879],[28.891052,41.135849],[28.891308,41.135789],[28.89145,41.13575],[28.89164,41.135662],[28.891808,41.135571],[28.891987,41.135416],[28.892039,41.13534],[28.892118,41.135284],[28.892216,41.135287],[28.892311,41.135358],[28.892352,41.135398],[28.892442,41.135402],[28.892892,41.13531],[28.89299,41.135267],[28.89302,41.135187],[28.89306,41.135142],[28.893144,41.135151],[28.893195,41.135177],[28.893242,41.135192],[28.89362,41.135101],[28.893693,41.135093],[28.893731,41.135096],[28.893756,41.135074],[28.893791,41.135038],[28.893982,41.134974],[28.894224,41.134909],[28.894378,41.134887],[28.894517,41.13488],[28.894608,41.134854],[28.89472,41.134774],[28.894865,41.134795],[28.894969,41.134775],[28.895043,41.134697],[28.895126,41.134631],[28.895148,41.134568],[28.895178,41.134534],[28.895153,41.134493],[28.895208,41.134431],[28.895258,41.134449],[28.895341,41.134514],[28.895513,41.134549],[28.895612,41.134547],[28.895822,41.134432],[28.896762,41.133831],[28.897561,41.133177],[28.898081,41.1327],[28.89823,41.132475],[28.898272,41.132354],[28.898264,41.132263],[28.898186,41.132205],[28.898063,41.132206],[28.897896,41.132222],[28.897814,41.132206],[28.897727,41.132163],[28.897579,41.132168],[28.897513,41.132142],[28.89751,41.132106],[28.897546,41.132078],[28.897755,41.132003],[28.897869,41.131945],[28.898051,41.131813],[28.898187,41.131788],[28.89832,41.131766],[28.898427,41.131745],[28.898561,41.131678]]]}},{"type":"Feature","properties":{"id":"TR-Y-34-033-M-0004","level":"yerlesim","type":"mahalle","parent_id":"TR-D-34-033","province_id":"TR-P-34","district_id":"TR-D-34-033","name":"Cumhuriyet","source_raw_name":"CUMHURİYET","source":"Kullanıcı tarafından sağlanan KML","source_label":"Kullanıcı tarafından sağlanan KML","source_name":"Istanbul Mahalle KML"},"geometry":{"type":"Polygon","coordinates":[[[28.88981,41.090414],[28.888722,41.090159],[28.887939,41.089956],[28.887262,41.089753],[28.886258,41.089439],[28.885029,41.088994],[28.884361,41.088725],[28.883561,41.088377],[28.882989,41.088116],[28.882298,41.087786],[28.881546,41.087381],[28.88101,41.087083],[28.880339,41.086692],[28.8794,41.086081],[28.878962,41.085776],[28.878508,41.085456],[28.877188,41.084419],[28.876522,41.083827],[28.875938,41.083294],[28.875166,41.082489],[28.874742,41.082004],[28.874371,41.081556],[28.87418,41.081763],[28.873862,41.082116],[28.87303,41.083014],[28.872786,41.083287],[28.871788,41.084362],[28.871381,41.084796],[28.870888,41.085326],[28.870618,41.085599],[28.870413,41.085778],[28.870201,41.085945],[28.869879,41.086166],[28.869549,41.086367],[28.868978,41.086681],[28.869233,41.086916],[28.869345,41.087006],[28.869513,41.087125],[28.869645,41.087203],[28.870053,41.087412],[28.870358,41.087572],[28.870554,41.087655],[28.871028,41.087792],[28.871458,41.087881],[28.871895,41.087973],[28.872221,41.088064],[28.872757,41.088215],[28.872972,41.088273],[28.873298,41.088325],[28.873793,41.088402],[28.874365,41.088501],[28.875086,41.088687],[28.875754,41.088861],[28.876481,41.089048],[28.877045,41.089194],[28.877277,41.089256],[28.877406,41.0893],[28.877586,41.08936],[28.877772,41.08943],[28.877957,41.089509],[28.878332,41.089671],[28.878538,41.089758],[28.878824,41.089879],[28.879271,41.09005],[28.879769,41.090235],[28.880163,41.090371],[28.880479,41.090475],[28.880677,41.090542],[28.880896,41.090616],[28.881134,41.090678],[28.881275,41.090708],[28.8814,41.090734],[28.88165,41.090782],[28.881803,41.090812],[28.882027,41.090851],[28.882208,41.090881],[28.882431,41.090914],[28.882569,41.090939],[28.882698,41.090967],[28.882839,41.091007],[28.88355,41.091325],[28.884047,41.091557],[28.885374,41.092119],[28.886181,41.092484],[28.886853,41.092792],[28.887253,41.092974],[28.887494,41.093082],[28.888021,41.093321],[28.888726,41.09364],[28.88906,41.093793],[28.889455,41.09397],[28.889474,41.093854],[28.889549,41.093448],[28.889607,41.093092],[28.889649,41.092808],[28.889724,41.092335],[28.88981,41.091811],[28.889855,41.091512],[28.88981,41.090414]]]}},{"type":"Feature","properties":{"id":"TR-Y-34-033-M-0005","level":"yerlesim","type":"mahalle","parent_id":"TR-D-34-033","province_id":"TR-P-34","district_id":"TR-D-34-033","name":"Esentepe","source_raw_name":"ESENTEPE","source":"Kullanıcı tarafından sağlanan KML","source_label":"Kullanıcı tarafından sağlanan KML","source_name":"Istanbul Mahalle KML"},"geometry":{"type":"Polygon","coordinates":[[[28.892578,41.107059],[28.892451,41.106912],[28.892082,41.106533],[28.89181,41.106252],[28.891665,41.106103],[28.891608,41.106037],[28.891554,41.105961],[28.891524,41.105911],[28.891484,41.105848],[28.891336,41.105617],[28.89122,41.10543],[28.891171,41.105347],[28.891138,41.1053],[28.891089,41.105245],[28.891022,41.105177],[28.890951,41.105108],[28.890893,41.105052],[28.890818,41.104981],[28.890537,41.104742],[28.89038,41.104594],[28.890298,41.104508],[28.890229,41.104426],[28.890173,41.104342],[28.890039,41.104096],[28.889677,41.103409],[28.889535,41.103136],[28.88951,41.102938],[28.889611,41.102739],[28.889634,41.102661],[28.889651,41.102488],[28.889654,41.102308],[28.889654,41.101963],[28.889646,41.101279],[28.889651,41.100875],[28.889667,41.100333],[28.889652,41.100088],[28.889605,41.099652],[28.889578,41.099371],[28.889541,41.099067],[28.889454,41.098788],[28.889489,41.098573],[28.889489,41.098461],[28.889471,41.098345],[28.889399,41.097993],[28.889368,41.097874],[28.889198,41.097481],[28.889103,41.097283],[28.889047,41.097087],[28.889029,41.096972],[28.88902,41.096777],[28.889016,41.096487],[28.88899,41.096153],[28.889004,41.096002],[28.889053,41.095782],[28.889212,41.095337],[28.889312,41.095094],[28.889335,41.095015],[28.889368,41.094809],[28.889392,41.094482],[28.889423,41.09417],[28.889455,41.09397],[28.88906,41.093793],[28.888726,41.09364],[28.888021,41.093321],[28.887494,41.093082],[28.887253,41.092974],[28.886853,41.092792],[28.886181,41.092484],[28.885374,41.092119],[28.884047,41.091557],[28.88355,41.091325],[28.882839,41.091007],[28.882748,41.091093],[28.882421,41.091409],[28.882155,41.091652],[28.881896,41.091885],[28.880749,41.092927],[28.880008,41.093618],[28.879635,41.093963],[28.878224,41.095247],[28.876744,41.096601],[28.87658,41.096756],[28.876415,41.096935],[28.876293,41.097108],[28.876121,41.097385],[28.875988,41.097587],[28.875875,41.09776],[28.875446,41.098454],[28.875265,41.098739],[28.874605,41.099794],[28.874448,41.100048],[28.875136,41.100824],[28.876268,41.102153],[28.876551,41.102496],[28.878232,41.104438],[28.879043,41.10538],[28.879993,41.106475],[28.879899,41.106562],[28.879795,41.106672],[28.878594,41.108124],[28.87823,41.108566],[28.878089,41.108786],[28.877898,41.108975],[28.879442,41.109521],[28.883457,41.106096],[28.885978,41.105304],[28.88837,41.105049],[28.889059,41.104891],[28.889594,41.104969],[28.889445,41.105876],[28.889081,41.107336],[28.888509,41.109462],[28.888425,41.110486],[28.890246,41.110822],[28.890992,41.110867],[28.891167,41.110176],[28.891284,41.109701],[28.891315,41.109622],[28.891514,41.109298],[28.891642,41.109078],[28.891789,41.108874],[28.891895,41.108762],[28.892153,41.108465],[28.892245,41.108254],[28.892329,41.107951],[28.892477,41.107474],[28.892578,41.107059]]]}},{"type":"Feature","properties":{"id":"TR-Y-34-033-M-0006","level":"yerlesim","type":"mahalle","parent_id":"TR-D-34-033","province_id":"TR-P-34","district_id":"TR-D-34-033","name":"Eski Habipler","source_raw_name":"ESKİ HABİPLER","source":"Kullanıcı tarafından sağlanan KML","source_label":"Kullanıcı tarafından sağlanan KML","source_name":"Istanbul Mahalle KML"},"geometry":{"type":"Polygon","coordinates":[[[28.833387,41.133572],[28.833389,41.13357],[28.83347,41.133513],[28.833712,41.133314],[28.833827,41.133215],[28.833964,41.133081],[28.834064,41.13297],[28.834342,41.132699],[28.834527,41.132525],[28.834966,41.132111],[28.835365,41.131747],[28.835892,41.131244],[28.836292,41.130861],[28.836779,41.130397],[28.837344,41.129847],[28.837998,41.12924],[28.838393,41.128859],[28.838655,41.128625],[28.839037,41.128315],[28.839352,41.128097],[28.839693,41.127904],[28.840196,41.127617],[28.840588,41.127399],[28.840824,41.12728],[28.84068,41.127242],[28.840567,41.127227],[28.840171,41.127175],[28.839688,41.127111],[28.83892,41.127009],[28.838658,41.126966],[28.838075,41.126869],[28.837908,41.126783],[28.837796,41.126767],[28.837611,41.126755],[28.837418,41.126743],[28.837006,41.12672],[28.83677,41.126711],[28.836478,41.126705],[28.836242,41.126734],[28.836049,41.126766],[28.83592,41.126787],[28.835744,41.126826],[28.835636,41.126874],[28.835478,41.126943],[28.835291,41.127025],[28.835098,41.127109],[28.834972,41.127159],[28.834826,41.12721],[28.834417,41.12735],[28.833995,41.127497],[28.833588,41.127638],[28.833201,41.127736],[28.832899,41.127798],[28.832646,41.12785],[28.832558,41.127873],[28.832411,41.127912],[28.832359,41.127926],[28.832238,41.127995],[28.832024,41.128119],[28.831793,41.128255],[28.831643,41.128341],[28.831419,41.12845],[28.831186,41.128567],[28.8309,41.128734],[28.829826,41.12938],[28.829662,41.129477],[28.829484,41.129596],[28.828831,41.130001],[28.828097,41.130487],[28.827333,41.131018],[28.826364,41.132217],[28.826205,41.132416],[28.825351,41.133408],[28.824698,41.134228],[28.824646,41.134286],[28.824682,41.134535],[28.824824,41.135405],[28.824824,41.135405],[28.824826,41.135405],[28.824984,41.135431],[28.826388,41.13571],[28.826761,41.135732],[28.827375,41.135716],[28.82855,41.135642],[28.829009,41.135538],[28.829959,41.135308],[28.830573,41.135134],[28.831581,41.134587],[28.832706,41.133933],[28.83335,41.133599],[28.833387,41.133572]]]}},{"type":"Feature","properties":{"id":"TR-Y-34-033-M-0007","level":"yerlesim","type":"mahalle","parent_id":"TR-D-34-033","province_id":"TR-P-34","district_id":"TR-D-34-033","name":"Gazi","source_raw_name":"GAZİ","source":"Kullanıcı tarafından sağlanan KML","source_label":"Kullanıcı tarafından sağlanan KML","source_name":"Istanbul Mahalle KML"},"geometry":{"type":"Polygon","coordinates":[[[28.902724,41.101074],[28.901831,41.101136],[28.900765,41.101214],[28.89978,41.101307],[28.899162,41.101372],[28.898786,41.101405],[28.898648,41.101446],[28.897813,41.101492],[28.896663,41.101578],[28.895495,41.101649],[28.894292,41.101725],[28.893091,41.101808],[28.891953,41.101891],[28.891134,41.101916],[28.890548,41.101944],[28.889654,41.101963],[28.889654,41.102308],[28.889651,41.102488],[28.889634,41.102661],[28.889611,41.102739],[28.88951,41.102938],[28.889535,41.103136],[28.889677,41.103409],[28.890039,41.104096],[28.890173,41.104342],[28.890229,41.104426],[28.890298,41.104508],[28.89038,41.104594],[28.890537,41.104742],[28.890818,41.104981],[28.890893,41.105052],[28.890951,41.105108],[28.891022,41.105177],[28.891089,41.105245],[28.891138,41.1053],[28.891171,41.105347],[28.89122,41.10543],[28.891336,41.105617],[28.891484,41.105848],[28.891524,41.105911],[28.891554,41.105961],[28.891608,41.106037],[28.891665,41.106103],[28.89181,41.106252],[28.892082,41.106533],[28.892451,41.106912],[28.892578,41.107059],[28.892672,41.107166],[28.89278,41.107299],[28.892908,41.107453],[28.893022,41.107572],[28.893158,41.1077],[28.893313,41.107824],[28.893453,41.107931],[28.893584,41.108008],[28.893786,41.108138],[28.893905,41.108209],[28.894078,41.108287],[28.894261,41.108357],[28.894396,41.108414],[28.894531,41.108465],[28.894606,41.108492],[28.894762,41.108569],[28.894964,41.108588],[28.895051,41.108613],[28.895993,41.108985],[28.896645,41.109296],[28.896734,41.109499],[28.896836,41.109696],[28.897027,41.109977],[28.897177,41.110318],[28.897191,41.110381],[28.89718,41.11057],[28.897164,41.110657],[28.897103,41.110748],[28.89693,41.110961],[28.896886,41.111044],[28.896848,41.111135],[28.896756,41.111398],[28.896655,41.111558],[28.896496,41.111796],[28.896404,41.111924],[28.896342,41.112013],[28.896248,41.112164],[28.896174,41.112288],[28.896132,41.112411],[28.89651,41.112428],[28.896698,41.112443],[28.896868,41.11248],[28.897331,41.11248],[28.897704,41.112461],[28.897872,41.112438],[28.897966,41.112402],[28.89804,41.11236],[28.898126,41.112298],[28.898182,41.112233],[28.898346,41.112068],[28.898423,41.112003],[28.898531,41.111961],[28.898602,41.111967],[28.898844,41.11201],[28.899055,41.112033],[28.899137,41.112049],[28.899205,41.112022],[28.899248,41.111991],[28.89926,41.111854],[28.899279,41.111813],[28.899319,41.111529],[28.899339,41.111336],[28.899343,41.11126],[28.899337,41.11115],[28.899276,41.110896],[28.899254,41.110709],[28.899208,41.11057],[28.89899,41.110194],[28.899169,41.110187],[28.899449,41.110155],[28.899737,41.110075],[28.900057,41.109973],[28.900857,41.109803],[28.900518,41.109126],[28.900464,41.108983],[28.900297,41.10869],[28.900147,41.108506],[28.900292,41.108427],[28.900378,41.108356],[28.900425,41.108306],[28.900556,41.108243],[28.900659,41.108212],[28.901023,41.108112],[28.901108,41.108036],[28.901143,41.107972],[28.901167,41.107922],[28.90121,41.10788],[28.901279,41.107839],[28.901382,41.107769],[28.901684,41.107608],[28.901572,41.107494],[28.901568,41.107416],[28.901623,41.10734],[28.901821,41.107165],[28.901892,41.107134],[28.901985,41.107078],[28.902086,41.107044],[28.902248,41.106969],[28.9025,41.106826],[28.902616,41.106768],[28.902749,41.106665],[28.902844,41.106605],[28.902982,41.106602],[28.903046,41.1066],[28.903109,41.106565],[28.903125,41.106531],[28.903175,41.106516],[28.903555,41.106388],[28.903753,41.10633],[28.904057,41.106246],[28.904549,41.106195],[28.904579,41.106108],[28.904576,41.106016],[28.904526,41.105866],[28.904476,41.105748],[28.904205,41.105378],[28.904109,41.105296],[28.903977,41.105021],[28.903771,41.104808],[28.903595,41.10461],[28.903445,41.104358],[28.903345,41.104111],[28.903345,41.104029],[28.903217,41.103462],[28.903102,41.10312],[28.902971,41.102499],[28.902851,41.101745],[28.902779,41.101399],[28.902724,41.101074]]]}},{"type":"Feature","properties":{"id":"TR-Y-34-033-M-0008","level":"yerlesim","type":"mahalle","parent_id":"TR-D-34-033","province_id":"TR-P-34","district_id":"TR-D-34-033","name":"Habibler","source_raw_name":"HABİBLER","source":"Kullanıcı tarafından sağlanan KML","source_label":"Kullanıcı tarafından sağlanan KML","source_name":"Istanbul Mahalle KML"},"geometry":{"type":"Polygon","coordinates":[[[28.889104,41.136872],[28.888983,41.136787],[28.888666,41.136556],[28.888338,41.136308],[28.888085,41.13615],[28.887377,41.135801],[28.887058,41.135673],[28.886825,41.135599],[28.88652,41.135512],[28.886215,41.135441],[28.88588,41.135363],[28.885614,41.135313],[28.885278,41.135253],[28.884959,41.135176],[28.884666,41.135105],[28.884375,41.135034],[28.884168,41.134975],[28.883908,41.134904],[28.883654,41.134836],[28.883421,41.134813],[28.883145,41.134791],[28.882824,41.134773],[28.882416,41.134777],[28.881834,41.13476],[28.881385,41.134704],[28.881033,41.134666],[28.880916,41.134659],[28.880478,41.134634],[28.879845,41.13467],[28.87941,41.134768],[28.879093,41.134886],[28.878888,41.134905],[28.878648,41.134848],[28.878269,41.134692],[28.877896,41.134486],[28.877621,41.134378],[28.8773,41.134278],[28.877033,41.134118],[28.876648,41.133989],[28.876193,41.133618],[28.875971,41.133622],[28.875551,41.133459],[28.875223,41.133434],[28.874832,41.133393],[28.874424,41.133278],[28.874187,41.133233],[28.873168,41.13335],[28.872693,41.133335],[28.871489,41.133229],[28.871187,41.133076],[28.869135,41.132042],[28.865953,41.130436],[28.861795,41.128339],[28.856606,41.12572],[28.853244,41.124024],[28.852773,41.123691],[28.852383,41.123416],[28.851971,41.123125],[28.851462,41.122771],[28.851021,41.12311],[28.850716,41.123345],[28.85013,41.123796],[28.850024,41.123882],[28.849813,41.124057],[28.84938,41.124416],[28.849152,41.124604],[28.848914,41.124536],[28.848711,41.124426],[28.848657,41.124375],[28.848466,41.124194],[28.848198,41.123941],[28.847883,41.123642],[28.847593,41.123413],[28.847453,41.12325],[28.847417,41.122954],[28.847349,41.122726],[28.846956,41.122408],[28.84663,41.122128],[28.84631,41.121907],[28.84574,41.121631],[28.84499,41.121265],[28.844751,41.121021],[28.844095,41.121442],[28.844095,41.121446],[28.843831,41.121668],[28.843583,41.121956],[28.843438,41.122259],[28.843369,41.122526],[28.843358,41.122769],[28.843353,41.122888],[28.843356,41.122939],[28.843369,41.123144],[28.843378,41.123301],[28.843381,41.123373],[28.843378,41.123404],[28.843374,41.123447],[28.843359,41.123608],[28.843238,41.123962],[28.843099,41.124215],[28.843038,41.124325],[28.84289,41.124578],[28.842774,41.124775],[28.842637,41.12501],[28.842609,41.125057],[28.842484,41.125264],[28.84235,41.125485],[28.841997,41.126059],[28.841884,41.126241],[28.841796,41.126365],[28.841581,41.12667],[28.841538,41.126731],[28.84151,41.126761],[28.841468,41.126806],[28.841396,41.12688],[28.841295,41.126986],[28.841227,41.127029],[28.841154,41.127075],[28.841097,41.127111],[28.84106,41.127135],[28.840917,41.127225],[28.840889,41.127242],[28.840876,41.12725],[28.840824,41.12728],[28.840588,41.127399],[28.840196,41.127617],[28.839693,41.127904],[28.839352,41.128097],[28.839037,41.128315],[28.838655,41.128625],[28.838393,41.128859],[28.837998,41.12924],[28.837344,41.129847],[28.836779,41.130397],[28.836292,41.130861],[28.835892,41.131244],[28.835365,41.131747],[28.834966,41.132111],[28.834527,41.132525],[28.834342,41.132699],[28.834064,41.13297],[28.833964,41.133081],[28.833827,41.133215],[28.833712,41.133314],[28.83347,41.133513],[28.833389,41.13357],[28.833717,41.133742],[28.834021,41.133874],[28.83427,41.134064],[28.834481,41.134328],[28.834468,41.134447],[28.834544,41.134482],[28.834714,41.134597],[28.834797,41.134653],[28.834876,41.134668],[28.834856,41.13481],[28.834927,41.134881],[28.834995,41.134937],[28.835097,41.135002],[28.835187,41.135056],[28.835271,41.135082],[28.835417,41.135119],[28.835585,41.13519],[28.83573,41.135327],[28.835863,41.135476],[28.835972,41.135605],[28.83611,41.135741],[28.836198,41.135826],[28.836353,41.135891],[28.83735,41.135948],[28.837834,41.136006],[28.838079,41.136037],[28.838229,41.136054],[28.840445,41.137101],[28.840576,41.137163],[28.84068,41.137286],[28.841383,41.138121],[28.842589,41.139577],[28.843728,41.1403],[28.844747,41.141032],[28.845331,41.142304],[28.846115,41.143181],[28.847381,41.143193],[28.847686,41.143149],[28.84896,41.142983],[28.851146,41.142767],[28.855819,41.142315],[28.858126,41.142244],[28.860785,41.142161],[28.862743,41.140779],[28.864854,41.140382],[28.866624,41.140774],[28.867179,41.140868],[28.868263,41.141038],[28.869204,41.141186],[28.870192,41.141337],[28.870769,41.141425],[28.873793,41.142682],[28.873832,41.1427],[28.874569,41.142128],[28.874615,41.142112],[28.874648,41.1421],[28.874677,41.142083],[28.874719,41.142067],[28.874765,41.142057],[28.874779,41.142054],[28.874838,41.142047],[28.874932,41.142043],[28.875008,41.142045],[28.87508,41.14205],[28.875099,41.142052],[28.875157,41.142059],[28.875228,41.142072],[28.87526,41.142074],[28.875316,41.142075],[28.875357,41.14207],[28.875421,41.142057],[28.875479,41.142029],[28.875519,41.142011],[28.875589,41.141984],[28.875679,41.141952],[28.875755,41.141935],[28.876227,41.141916],[28.87664,41.141912],[28.876848,41.141924],[28.877004,41.141958],[28.877025,41.141965],[28.877064,41.141975],[28.877145,41.141976],[28.877291,41.141977],[28.877354,41.141983],[28.87752,41.142022],[28.877618,41.142054],[28.877674,41.142071],[28.877726,41.142094],[28.877743,41.142111],[28.877797,41.142121],[28.877829,41.142137],[28.87786,41.142157],[28.877886,41.14218],[28.877906,41.142198],[28.877921,41.142215],[28.877927,41.142253],[28.87793,41.142273],[28.87794,41.142308],[28.877949,41.142322],[28.877965,41.142384],[28.877976,41.142447],[28.877979,41.142576],[28.877982,41.142601],[28.877998,41.142636],[28.878012,41.142667],[28.878076,41.142732],[28.878299,41.142917],[28.878441,41.143033],[28.878501,41.143095],[28.878533,41.14313],[28.878606,41.1432],[28.878735,41.143336],[28.878838,41.14343],[28.878894,41.143471],[28.878927,41.143492],[28.878969,41.143517],[28.87911,41.143609],[28.879191,41.143683],[28.879247,41.143747],[28.879276,41.143802],[28.879295,41.143824],[28.87939,41.143989],[28.879465,41.144195],[28.879577,41.144454],[28.879604,41.144484],[28.879625,41.144509],[28.879638,41.144529],[28.879661,41.144552],[28.879692,41.144575],[28.879703,41.144601],[28.87974,41.144644],[28.87975,41.144651],[28.879775,41.144674],[28.879799,41.144693],[28.879833,41.144733],[28.879846,41.144753],[28.879913,41.144818],[28.879958,41.144867],[28.879961,41.14488],[28.879969,41.144897],[28.87998,41.144915],[28.879991,41.144923],[28.879997,41.144925],[28.880002,41.144934],[28.879998,41.144942],[28.88,41.144949],[28.880011,41.144958],[28.880021,41.144963],[28.880025,41.144995],[28.880029,41.145005],[28.880021,41.145018],[28.88003,41.145026],[28.880039,41.145032],[28.88005,41.145046],[28.880057,41.145054],[28.880054,41.14506],[28.880052,41.145065],[28.880054,41.145071],[28.880057,41.145073],[28.880067,41.145075],[28.880068,41.145081],[28.880063,41.145085],[28.880056,41.14509],[28.880058,41.145096],[28.880063,41.145105],[28.880071,41.145105],[28.880079,41.145126],[28.880082,41.145137],[28.880082,41.145142],[28.88008,41.145148],[28.880084,41.145155],[28.880086,41.145162],[28.880082,41.145168],[28.880089,41.145181],[28.880093,41.145196],[28.880097,41.145202],[28.880097,41.145212],[28.880091,41.145225],[28.880087,41.145235],[28.880084,41.145243],[28.880089,41.145254],[28.880092,41.145264],[28.880096,41.145273],[28.8801,41.145285],[28.880098,41.145293],[28.8801,41.145301],[28.880101,41.145311],[28.880097,41.145319],[28.880097,41.14533],[28.880098,41.145342],[28.880095,41.14536],[28.880098,41.145371],[28.880102,41.145385],[28.880098,41.145394],[28.880103,41.14541],[28.880101,41.14542],[28.880093,41.145436],[28.88009,41.145446],[28.880084,41.145458],[28.880078,41.14547],[28.880081,41.145475],[28.880078,41.145478],[28.88008,41.145485],[28.880082,41.145492],[28.880078,41.145507],[28.880074,41.145523],[28.880073,41.145528],[28.880074,41.145536],[28.880068,41.145554],[28.880065,41.145566],[28.880066,41.145575],[28.880068,41.145581],[28.880064,41.145595],[28.880061,41.1456],[28.88006,41.145608],[28.880058,41.145617],[28.880055,41.145623],[28.880055,41.145628],[28.880059,41.145635],[28.880057,41.145643],[28.880055,41.145648],[28.880053,41.145659],[28.880048,41.145683],[28.880045,41.145698],[28.880043,41.145706],[28.880045,41.14571],[28.880042,41.145724],[28.880037,41.145742],[28.880035,41.145755],[28.880029,41.145767],[28.880025,41.145786],[28.880026,41.145802],[28.880026,41.145821],[28.880028,41.145837],[28.880033,41.145853],[28.880036,41.145873],[28.88005,41.145894],[28.880054,41.145902],[28.880072,41.145928],[28.880129,41.145964],[28.880159,41.145999],[28.880174,41.146008],[28.880194,41.146015],[28.880211,41.146019],[28.880237,41.14602],[28.880269,41.14602],[28.880286,41.146025],[28.880314,41.146037],[28.880336,41.146043],[28.880357,41.146048],[28.880367,41.146055],[28.880389,41.14607],[28.880406,41.146088],[28.880417,41.146098],[28.880434,41.146108],[28.88045,41.146122],[28.880465,41.146139],[28.880482,41.146149],[28.880505,41.146161],[28.880539,41.146186],[28.880558,41.146204],[28.880593,41.146247],[28.880607,41.14627],[28.880623,41.146281],[28.880629,41.146288],[28.880632,41.146295],[28.880631,41.146302],[28.880632,41.14631],[28.88064,41.146315],[28.880648,41.146318],[28.880665,41.14632],[28.880684,41.146335],[28.880697,41.146358],[28.88075,41.146395],[28.880793,41.146432],[28.880815,41.146446],[28.880831,41.146465],[28.880836,41.146479],[28.880844,41.146486],[28.880845,41.146488],[28.880859,41.146489],[28.880867,41.146495],[28.880869,41.146503],[28.880863,41.146505],[28.880864,41.146511],[28.880877,41.146522],[28.880892,41.146529],[28.880909,41.14654],[28.88094,41.146569],[28.88096,41.146589],[28.880984,41.146628],[28.881004,41.146646],[28.881025,41.146657],[28.881053,41.146676],[28.881078,41.146689],[28.881134,41.14671],[28.881179,41.146717],[28.881217,41.14672],[28.881256,41.146723],[28.881289,41.146726],[28.881324,41.146735],[28.881349,41.146739],[28.881386,41.146741],[28.881403,41.146741],[28.881151,41.145888],[28.881264,41.145894],[28.881378,41.145874],[28.88144,41.145787],[28.881491,41.145742],[28.881567,41.145666],[28.881625,41.145602],[28.881684,41.145516],[28.881706,41.145453],[28.88168,41.145355],[28.881615,41.145269],[28.881535,41.145166],[28.881493,41.145052],[28.881451,41.144867],[28.881353,41.144716],[28.88133,41.144601],[28.881393,41.144573],[28.881491,41.144601],[28.881584,41.144705],[28.881627,41.144757],[28.8817,41.144809],[28.881745,41.14487],[28.881859,41.144986],[28.881936,41.145019],[28.882047,41.145046],[28.882143,41.145044],[28.882257,41.145001],[28.882377,41.144905],[28.88244,41.144766],[28.882584,41.14459],[28.8827,41.144422],[28.882743,41.144332],[28.882853,41.144143],[28.882898,41.143759],[28.882843,41.143538],[28.882893,41.143363],[28.882892,41.143184],[28.882909,41.143119],[28.882957,41.143105],[28.883012,41.14312],[28.883045,41.143248],[28.883075,41.143359],[28.883156,41.14344],[28.883297,41.143504],[28.88341,41.143538],[28.883529,41.143539],[28.883689,41.143483],[28.883797,41.143329],[28.883967,41.143064],[28.884038,41.142952],[28.884316,41.142354],[28.884594,41.141948],[28.884676,41.141763],[28.884539,41.141497],[28.884462,41.141367],[28.884388,41.141271],[28.884377,41.141214],[28.884459,41.141208],[28.884581,41.141238],[28.884757,41.14127],[28.884871,41.14125],[28.885009,41.141151],[28.885223,41.140814],[28.885403,41.14053],[28.88553,41.140249],[28.885523,41.140152],[28.885487,41.140023],[28.885413,41.139897],[28.885382,41.139804],[28.885411,41.139747],[28.885492,41.139734],[28.885662,41.139721],[28.885791,41.139633],[28.885845,41.139508],[28.885907,41.139509],[28.885962,41.139588],[28.886038,41.139607],[28.886205,41.139498],[28.886383,41.139338],[28.886642,41.139098],[28.88683,41.138867],[28.887223,41.138535],[28.887526,41.138274],[28.887703,41.138097],[28.887824,41.137955],[28.887873,41.137855],[28.887832,41.137784],[28.887729,41.137711],[28.887584,41.13761],[28.887453,41.137519],[28.887299,41.137425],[28.887172,41.137352],[28.886976,41.137239],[28.88675,41.137176],[28.886595,41.137128],[28.886572,41.137085],[28.886657,41.137079],[28.886799,41.137066],[28.886894,41.137024],[28.887003,41.137],[28.88715,41.137023],[28.887447,41.137069],[28.887795,41.137129],[28.887965,41.137142],[28.888205,41.137212],[28.888427,41.137228],[28.88864,41.137195],[28.888852,41.137082],[28.889104,41.136872]]]}},{"type":"Feature","properties":{"id":"TR-Y-34-033-M-0009","level":"yerlesim","type":"mahalle","parent_id":"TR-D-34-033","province_id":"TR-P-34","district_id":"TR-D-34-033","name":"İsmet Paşa","source_raw_name":"İSMETPAŞA","source":"Kullanıcı tarafından sağlanan KML","source_label":"Kullanıcı tarafından sağlanan KML","source_name":"Istanbul Mahalle KML"},"geometry":{"type":"Polygon","coordinates":[[[28.861451,41.104361],[28.861047,41.104251],[28.860495,41.104109],[28.859686,41.103902],[28.859226,41.103791],[28.858558,41.10362],[28.857761,41.10341],[28.856438,41.103063],[28.855221,41.10273],[28.855109,41.102668],[28.854374,41.102473],[28.854124,41.102391],[28.853802,41.102888],[28.853378,41.103586],[28.853197,41.103878],[28.852914,41.104355],[28.852626,41.104966],[28.852516,41.105177],[28.852374,41.10544],[28.852182,41.105756],[28.852018,41.106008],[28.851709,41.106476],[28.851253,41.106886],[28.851074,41.107043],[28.850755,41.107293],[28.850595,41.107394],[28.850431,41.107434],[28.850419,41.107501],[28.850394,41.107632],[28.850314,41.107763],[28.850137,41.108055],[28.850025,41.10824],[28.849552,41.109127],[28.848877,41.110356],[28.848462,41.111117],[28.848236,41.111532],[28.848386,41.111728],[28.848558,41.111902],[28.848604,41.111942],[28.848693,41.112005],[28.848787,41.112061],[28.848865,41.112105],[28.84923,41.112338],[28.85004,41.112746],[28.850349,41.112924],[28.850462,41.113002],[28.850575,41.113096],[28.850719,41.11322],[28.850795,41.113296],[28.850858,41.113363],[28.850922,41.113438],[28.850995,41.113533],[28.851065,41.113634],[28.851199,41.113832],[28.851353,41.114055],[28.85158,41.11439],[28.851814,41.114746],[28.851908,41.114907],[28.851949,41.114991],[28.851981,41.115077],[28.852029,41.11523],[28.852071,41.115363],[28.852166,41.115569],[28.852362,41.11548],[28.852635,41.115385],[28.852949,41.115299],[28.854214,41.114938],[28.855142,41.114659],[28.855724,41.114474],[28.856135,41.114269],[28.856417,41.114088],[28.856675,41.113876],[28.856892,41.113641],[28.85707,41.113387],[28.85725,41.11305],[28.857521,41.112489],[28.857735,41.112052],[28.857921,41.111674],[28.858232,41.111037],[28.859521,41.108417],[28.859728,41.107992],[28.860141,41.107169],[28.860311,41.106802],[28.860523,41.106352],[28.860726,41.105916],[28.860937,41.105467],[28.8611,41.105129],[28.861204,41.104908],[28.86139,41.104513],[28.861451,41.104361]]]}},{"type":"Feature","properties":{"id":"TR-Y-34-033-M-0010","level":"yerlesim","type":"mahalle","parent_id":"TR-D-34-033","province_id":"TR-P-34","district_id":"TR-D-34-033","name":"Malkoçoğlu","source_raw_name":"MALKOÇOĞLU","source":"Kullanıcı tarafından sağlanan KML","source_label":"Kullanıcı tarafından sağlanan KML","source_name":"Istanbul Mahalle KML"},"geometry":{"type":"Polygon","coordinates":[[[28.852166,41.115569],[28.852071,41.115363],[28.852029,41.11523],[28.851981,41.115077],[28.851949,41.114991],[28.851908,41.114907],[28.851814,41.114746],[28.85158,41.11439],[28.851353,41.114055],[28.851199,41.113832],[28.851065,41.113634],[28.850995,41.113533],[28.850922,41.113438],[28.850858,41.113363],[28.850795,41.113296],[28.850719,41.11322],[28.850575,41.113096],[28.850462,41.113002],[28.850349,41.112924],[28.85004,41.112746],[28.84923,41.112338],[28.848865,41.112105],[28.848787,41.112061],[28.848693,41.112005],[28.848604,41.111942],[28.848558,41.111902],[28.848386,41.111728],[28.848236,41.111532],[28.848136,41.111721],[28.848092,41.111766],[28.848064,41.111791],[28.847984,41.111851],[28.847878,41.111931],[28.847344,41.112318],[28.846799,41.11271],[28.84554,41.11254],[28.845212,41.113615],[28.844986,41.114355],[28.845009,41.114797],[28.845011,41.11484],[28.845055,41.115224],[28.846592,41.115324],[28.846589,41.115351],[28.84657,41.115395],[28.846523,41.115506],[28.846485,41.115592],[28.846408,41.115767],[28.846367,41.11586],[28.846332,41.115941],[28.84629,41.116034],[28.846277,41.116066],[28.846275,41.116077],[28.846275,41.116095],[28.846293,41.116176],[28.846304,41.116238],[28.846308,41.116259],[28.846311,41.116276],[28.846315,41.116345],[28.846315,41.116367],[28.846315,41.116396],[28.846316,41.116426],[28.846317,41.116462],[28.846317,41.116502],[28.846317,41.116528],[28.846317,41.116552],[28.846317,41.116576],[28.846318,41.116635],[28.846318,41.116669],[28.846319,41.116693],[28.84632,41.116729],[28.846321,41.116754],[28.846321,41.116796],[28.846322,41.116833],[28.846325,41.116887],[28.846326,41.116901],[28.846329,41.116936],[28.846333,41.116968],[28.846335,41.116995],[28.846339,41.117029],[28.846342,41.117057],[28.846345,41.117081],[28.846346,41.117097],[28.846348,41.117145],[28.846347,41.11717],[28.846341,41.117245],[28.846326,41.117511],[28.846305,41.117612],[28.846249,41.117869],[28.84623,41.117919],[28.846133,41.118154],[28.846026,41.118382],[28.845986,41.118459],[28.845934,41.118559],[28.845773,41.118711],[28.845708,41.118771],[28.845456,41.119017],[28.845097,41.119366],[28.845078,41.119385],[28.844964,41.119575],[28.844668,41.120068],[28.844555,41.120282],[28.844527,41.120336],[28.844518,41.120353],[28.844491,41.120417],[28.844471,41.120476],[28.844456,41.120518],[28.844437,41.120567],[28.844411,41.120635],[28.844386,41.120699],[28.844368,41.120749],[28.844304,41.12092],[28.844275,41.120973],[28.844243,41.121028],[28.844224,41.12106],[28.844191,41.121116],[28.84415,41.121186],[28.844124,41.121231],[28.844107,41.12126],[28.844091,41.121287],[28.844097,41.121344],[28.844097,41.121431],[28.844095,41.121442],[28.844751,41.121021],[28.845345,41.120692],[28.845613,41.120522],[28.845829,41.120395],[28.846134,41.120191],[28.847197,41.119518],[28.847858,41.11903],[28.848206,41.118725],[28.848803,41.118156],[28.849076,41.1179],[28.849373,41.117639],[28.849711,41.117372],[28.850367,41.116873],[28.850765,41.116573],[28.851377,41.116114],[28.851741,41.115838],[28.851996,41.115661],[28.852166,41.115569]]]}},{"type":"Feature","properties":{"id":"TR-Y-34-033-M-0011","level":"yerlesim","type":"mahalle","parent_id":"TR-D-34-033","province_id":"TR-P-34","district_id":"TR-D-34-033","name":"Sultançiftliği","source_raw_name":"SULTANÇİFTLİĞİ","source":"Kullanıcı tarafından sağlanan KML","source_label":"Kullanıcı tarafından sağlanan KML","source_name":"Istanbul Mahalle KML"},"geometry":{"type":"Polygon","coordinates":[[[28.863754,41.094081],[28.863816,41.0938],[28.863895,41.093429],[28.863932,41.093216],[28.863987,41.092925],[28.864056,41.092582],[28.864123,41.092253],[28.864191,41.091917],[28.864228,41.091728],[28.864275,41.091486],[28.864367,41.09104],[28.864445,41.090679],[28.864524,41.090301],[28.864555,41.090169],[28.864601,41.089984],[28.864668,41.089797],[28.864764,41.08961],[28.864917,41.08941],[28.864624,41.089559],[28.864307,41.089921],[28.863836,41.090235],[28.863608,41.090377],[28.863418,41.090523],[28.8632,41.090722],[28.862755,41.091244],[28.862412,41.091665],[28.862209,41.091959],[28.861868,41.092484],[28.861543,41.092955],[28.861423,41.093092],[28.861237,41.093305],[28.860634,41.093942],[28.860277,41.094321],[28.859829,41.094799],[28.859493,41.095157],[28.859204,41.095462],[28.858922,41.095767],[28.85871,41.095992],[28.858413,41.096375],[28.858055,41.096963],[28.857718,41.097529],[28.85736,41.098124],[28.857115,41.098478],[28.856939,41.098716],[28.856556,41.099202],[28.856118,41.099717],[28.855384,41.100468],[28.854991,41.100987],[28.85448,41.101825],[28.854124,41.102391],[28.854374,41.102473],[28.855109,41.102668],[28.855221,41.10273],[28.856438,41.103063],[28.857761,41.10341],[28.858558,41.10362],[28.859226,41.103791],[28.859686,41.103902],[28.860495,41.104109],[28.861047,41.104251],[28.861451,41.104361],[28.861558,41.104121],[28.861715,41.103765],[28.861984,41.103198],[28.862122,41.102907],[28.862306,41.102519],[28.862491,41.102134],[28.862638,41.101834],[28.862734,41.101645],[28.862833,41.101431],[28.862899,41.101201],[28.862915,41.101038],[28.862918,41.100693],[28.862929,41.100387],[28.862948,41.100024],[28.862971,41.099666],[28.862997,41.099329],[28.863031,41.098907],[28.86306,41.098546],[28.863078,41.098185],[28.863104,41.09778],[28.863131,41.097349],[28.863187,41.09692],[28.863267,41.096491],[28.863353,41.09606],[28.863442,41.095616],[28.863526,41.095187],[28.863588,41.094895],[28.863643,41.094615],[28.863707,41.094315],[28.863754,41.094081]]]}},{"type":"Feature","properties":{"id":"TR-Y-34-033-M-0012","level":"yerlesim","type":"mahalle","parent_id":"TR-D-34-033","province_id":"TR-P-34","district_id":"TR-D-34-033","name":"Uğur Mumcu","source_raw_name":"UĞUR MUMCU","source":"Kullanıcı tarafından sağlanan KML","source_label":"Kullanıcı tarafından sağlanan KML","source_name":"Istanbul Mahalle KML"},"geometry":{"type":"Polygon","coordinates":[[[28.861451,41.104361],[28.862101,41.104536],[28.862282,41.104547],[28.862535,41.104619],[28.86271,41.104673],[28.863076,41.104781],[28.863571,41.104931],[28.864549,41.10521],[28.865458,41.105468],[28.866297,41.105711],[28.867397,41.106033],[28.867883,41.106128],[28.868301,41.106281],[28.869152,41.106527],[28.87029,41.106849],[28.871081,41.107068],[28.873791,41.10783],[28.876075,41.108474],[28.876711,41.108652],[28.87749,41.10887],[28.877898,41.108975],[28.878089,41.108786],[28.87823,41.108566],[28.878594,41.108124],[28.879795,41.106672],[28.879899,41.106562],[28.879993,41.106475],[28.879043,41.10538],[28.878232,41.104438],[28.876551,41.102496],[28.876268,41.102153],[28.875136,41.100824],[28.874448,41.100048],[28.874605,41.099794],[28.875265,41.098739],[28.875446,41.098454],[28.875875,41.09776],[28.875049,41.0975],[28.872375,41.096712],[28.870584,41.096154],[28.870273,41.096081],[28.869949,41.096006],[28.869815,41.096023],[28.869569,41.095993],[28.869349,41.095934],[28.868684,41.09578],[28.868631,41.095733],[28.867608,41.095483],[28.867512,41.095409],[28.866486,41.09515],[28.865313,41.09485],[28.865347,41.094442],[28.864493,41.094249],[28.863754,41.094081],[28.863707,41.094315],[28.863643,41.094615],[28.863588,41.094895],[28.863526,41.095187],[28.863442,41.095616],[28.863353,41.09606],[28.863267,41.096491],[28.863187,41.09692],[28.863131,41.097349],[28.863104,41.09778],[28.863078,41.098185],[28.86306,41.098546],[28.863031,41.098907],[28.862997,41.099329],[28.862971,41.099666],[28.862948,41.100024],[28.862929,41.100387],[28.862918,41.100693],[28.862915,41.101038],[28.862899,41.101201],[28.862833,41.101431],[28.862734,41.101645],[28.862638,41.101834],[28.862491,41.102134],[28.862306,41.102519],[28.862122,41.102907],[28.861984,41.103198],[28.861715,41.103765],[28.861558,41.104121],[28.861451,41.104361]]]}},{"type":"Feature","properties":{"id":"TR-Y-34-033-M-0013","level":"yerlesim","type":"mahalle","parent_id":"TR-D-34-033","province_id":"TR-P-34","district_id":"TR-D-34-033","name":"Yayla","source_raw_name":"YAYLA","source":"Kullanıcı tarafından sağlanan KML","source_label":"Kullanıcı tarafından sağlanan KML","source_name":"Istanbul Mahalle KML"},"geometry":{"type":"Polygon","coordinates":[[[28.862303,41.158416],[28.862645,41.158345],[28.863117,41.158382],[28.863611,41.158044],[28.863949,41.157952],[28.864094,41.157797],[28.865066,41.157474],[28.865708,41.157517],[28.86607,41.157397],[28.866663,41.157068],[28.866923,41.157099],[28.867112,41.157084],[28.867279,41.15687],[28.867382,41.156615],[28.8673,41.156343],[28.867148,41.156011],[28.866498,41.154962],[28.866225,41.154343],[28.866176,41.15423],[28.866044,41.153932],[28.865567,41.153496],[28.865438,41.152826],[28.865702,41.152289],[28.866254,41.151557],[28.867512,41.151219],[28.867944,41.151626],[28.868614,41.151735],[28.868891,41.151961],[28.87044,41.152509],[28.871108,41.152385],[28.871685,41.152637],[28.87245,41.152304],[28.873111,41.152321],[28.873453,41.152074],[28.873841,41.151977],[28.874214,41.151549],[28.874798,41.151045],[28.875129,41.150822],[28.87542,41.150509],[28.87553,41.150168],[28.875771,41.149752],[28.876003,41.148743],[28.876167,41.147954],[28.875833,41.146951],[28.875022,41.145837],[28.87494,41.145294],[28.874613,41.144964],[28.873716,41.144056],[28.873609,41.143856],[28.873555,41.143608],[28.87351,41.143399],[28.873561,41.143285],[28.873819,41.142711],[28.873832,41.1427],[28.873793,41.142682],[28.870769,41.141425],[28.870192,41.141337],[28.869204,41.141186],[28.868263,41.141038],[28.867179,41.140868],[28.866624,41.140774],[28.864854,41.140382],[28.862743,41.140779],[28.860785,41.142161],[28.858126,41.142244],[28.855819,41.142315],[28.851146,41.142767],[28.84896,41.142983],[28.847686,41.143149],[28.847381,41.143193],[28.846115,41.143181],[28.845331,41.142304],[28.844747,41.141032],[28.843728,41.1403],[28.842589,41.139577],[28.841383,41.138121],[28.84068,41.137286],[28.840576,41.137163],[28.840445,41.137101],[28.838229,41.136054],[28.838079,41.136037],[28.837834,41.136006],[28.83735,41.135948],[28.836353,41.135891],[28.836198,41.135826],[28.83611,41.135741],[28.835972,41.135605],[28.835863,41.135476],[28.83573,41.135327],[28.835585,41.13519],[28.835417,41.135119],[28.835271,41.135082],[28.835187,41.135056],[28.835097,41.135002],[28.834995,41.134937],[28.834927,41.134881],[28.834856,41.13481],[28.834876,41.134668],[28.834797,41.134653],[28.834714,41.134597],[28.834544,41.134482],[28.834468,41.134447],[28.834481,41.134328],[28.83427,41.134064],[28.834021,41.133874],[28.833717,41.133742],[28.833389,41.13357],[28.833387,41.133572],[28.833492,41.133797],[28.83366,41.134136],[28.833685,41.134459],[28.833515,41.134857],[28.83267,41.136307],[28.832597,41.136585],[28.832615,41.136936],[28.832904,41.138337],[28.832957,41.139002],[28.83297,41.139178],[28.833049,41.140173],[28.83297,41.140511],[28.83293,41.140609],[28.832681,41.141219],[28.832701,41.141456],[28.832825,41.14175],[28.833425,41.142569],[28.833757,41.142869],[28.834067,41.143035],[28.834838,41.143247],[28.835533,41.143501],[28.836014,41.143761],[28.838402,41.145592],[28.839247,41.146427],[28.840197,41.147118],[28.840484,41.147327],[28.841137,41.147937],[28.84142,41.148285],[28.841901,41.149113],[28.842235,41.149655],[28.842553,41.150236],[28.842854,41.150974],[28.842905,41.151075],[28.842949,41.151137],[28.843011,41.151194],[28.843085,41.151242],[28.843196,41.151293],[28.843755,41.15144],[28.844316,41.151585],[28.844805,41.151654],[28.844979,41.151662],[28.845109,41.151672],[28.845372,41.15173],[28.845665,41.151826],[28.845916,41.151936],[28.846469,41.152265],[28.846634,41.152449],[28.846776,41.152821],[28.84684,41.152904],[28.846918,41.152975],[28.847044,41.153034],[28.847214,41.153074],[28.84748,41.153088],[28.847774,41.153073],[28.848118,41.153059],[28.848274,41.153056],[28.848405,41.153096],[28.848506,41.153155],[28.848567,41.153254],[28.848572,41.153362],[28.848509,41.153781],[28.848506,41.15388],[28.848469,41.153964],[28.848228,41.154261],[28.852331,41.155253],[28.853407,41.155581],[28.854082,41.156155],[28.854974,41.156933],[28.858411,41.15855],[28.859343,41.158824],[28.86136,41.159744],[28.86173,41.159522],[28.861778,41.159168],[28.86203,41.158674],[28.862303,41.158416]]]}},{"type":"Feature","properties":{"id":"TR-Y-34-033-M-0014","level":"yerlesim","type":"mahalle","parent_id":"TR-D-34-033","province_id":"TR-P-34","district_id":"TR-D-34-033","name":"Yunus Emre","source_raw_name":"YUNUS EMRE","source":"Kullanıcı tarafından sağlanan KML","source_label":"Kullanıcı tarafından sağlanan KML","source_name":"Istanbul Mahalle KML"},"geometry":{"type":"Polygon","coordinates":[[[28.898648,41.101446],[28.898702,41.101325],[28.898831,41.10104],[28.898961,41.100755],[28.899216,41.100254],[28.89946,41.099812],[28.899716,41.099331],[28.899883,41.099015],[28.899921,41.098941],[28.900009,41.098617],[28.900265,41.098399],[28.900416,41.098133],[28.90059,41.097777],[28.900757,41.097454],[28.900909,41.097164],[28.901042,41.096882],[28.901167,41.096568],[28.901282,41.096285],[28.901405,41.095975],[28.90149,41.095749],[28.901551,41.095609],[28.901615,41.095492],[28.90165,41.095442],[28.901705,41.095375],[28.901748,41.095328],[28.901844,41.095242],[28.902101,41.095058],[28.902296,41.094937],[28.902505,41.094807],[28.902863,41.094584],[28.903148,41.094413],[28.903269,41.094283],[28.903387,41.094116],[28.903619,41.094058],[28.904259,41.093823],[28.904673,41.0937],[28.905049,41.093587],[28.905144,41.093548],[28.905215,41.093511],[28.905292,41.093456],[28.905808,41.09299],[28.906088,41.092675],[28.906511,41.092382],[28.906417,41.09195],[28.906464,41.091623],[28.906558,41.09078],[28.905811,41.090762],[28.905209,41.090754],[28.904617,41.090768],[28.904017,41.090784],[28.902895,41.090854],[28.90046,41.091057],[28.899863,41.091105],[28.899276,41.09114],[28.898684,41.091171],[28.898088,41.09119],[28.897491,41.091199],[28.896899,41.091202],[28.896298,41.09119],[28.895711,41.091173],[28.895118,41.091143],[28.894527,41.091095],[28.893935,41.091045],[28.89335,41.090989],[28.892763,41.090921],[28.892492,41.090884],[28.892142,41.090835],[28.891587,41.090751],[28.89058,41.090576],[28.890224,41.090501],[28.88981,41.090414],[28.889855,41.091512],[28.88981,41.091811],[28.889724,41.092335],[28.889649,41.092808],[28.889607,41.093092],[28.889549,41.093448],[28.889474,41.093854],[28.889455,41.09397],[28.889423,41.09417],[28.889392,41.094482],[28.889368,41.094809],[28.889335,41.095015],[28.889312,41.095094],[28.889212,41.095337],[28.889053,41.095782],[28.889004,41.096002],[28.88899,41.096153],[28.889016,41.096487],[28.88902,41.096777],[28.889029,41.096972],[28.889047,41.097087],[28.889103,41.097283],[28.889198,41.097481],[28.889368,41.097874],[28.889399,41.097993],[28.889471,41.098345],[28.889489,41.098461],[28.889489,41.098573],[28.889454,41.098788],[28.889541,41.099067],[28.889578,41.099371],[28.889605,41.099652],[28.889652,41.100088],[28.889667,41.100333],[28.889651,41.100875],[28.889646,41.101279],[28.889654,41.101963],[28.890548,41.101944],[28.891134,41.101916],[28.891953,41.101891],[28.893091,41.101808],[28.894292,41.101725],[28.895495,41.101649],[28.896663,41.101578],[28.897813,41.101492],[28.898648,41.101446]]]}},{"type":"Feature","properties":{"id":"TR-Y-34-033-M-0015","level":"yerlesim","type":"mahalle","parent_id":"TR-D-34-033","province_id":"TR-P-34","district_id":"TR-D-34-033","name":"Zübeyde Hanım","source_raw_name":"ZÜBEYDE HANIM","source":"Kullanıcı tarafından sağlanan KML","source_label":"Kullanıcı tarafından sağlanan KML","source_name":"Istanbul Mahalle KML"},"geometry":{"type":"Polygon","coordinates":[[[28.901218,41.121],[28.90126,41.12099],[28.901302,41.120956],[28.901357,41.120884],[28.901385,41.120809],[28.901419,41.12072],[28.90144,41.120637],[28.901434,41.120504],[28.901407,41.120401],[28.901415,41.120357],[28.901457,41.120343],[28.901506,41.120354],[28.90153,41.120393],[28.901543,41.120422],[28.90152,41.120448],[28.901557,41.120494],[28.901849,41.120489],[28.901919,41.120527],[28.901968,41.120597],[28.902029,41.120715],[28.902056,41.120834],[28.902049,41.120917],[28.902067,41.120968],[28.902089,41.121022],[28.902122,41.12107],[28.902171,41.121078],[28.902201,41.121089],[28.902247,41.121133],[28.902349,41.121172],[28.902463,41.121214],[28.902553,41.121246],[28.902672,41.121278],[28.90273,41.121287],[28.902925,41.121297],[28.903111,41.121308],[28.90317,41.121331],[28.90321,41.121335],[28.903364,41.12134],[28.903463,41.121331],[28.903558,41.121304],[28.903696,41.121264],[28.903827,41.121241],[28.904015,41.121231],[28.904275,41.121241],[28.90438,41.121256],[28.904496,41.121253],[28.904582,41.121238],[28.904643,41.121231],[28.904874,41.121275],[28.904928,41.121342],[28.905016,41.121435],[28.905113,41.121513],[28.905238,41.121587],[28.905433,41.121689],[28.905592,41.121776],[28.905717,41.121848],[28.905828,41.121922],[28.905952,41.122045],[28.906059,41.122159],[28.906103,41.122196],[28.906141,41.122213],[28.906189,41.122213],[28.906217,41.122191],[28.906245,41.122161],[28.906309,41.122129],[28.90633,41.122074],[28.906348,41.12203],[28.906417,41.121996],[28.906443,41.121955],[28.90654,41.121839],[28.906582,41.121754],[28.906593,41.121705],[28.906594,41.121661],[28.906587,41.121619],[28.906597,41.121592],[28.906585,41.121565],[28.906571,41.121542],[28.906571,41.121501],[28.906564,41.12146],[28.906577,41.121432],[28.906608,41.121406],[28.906595,41.121354],[28.90656,41.121313],[28.906543,41.121276],[28.90654,41.12119],[28.906558,41.121159],[28.906598,41.121124],[28.906637,41.121078],[28.906665,41.12101],[28.906687,41.120911],[28.906672,41.120868],[28.906674,41.120841],[28.906666,41.12082],[28.906662,41.120796],[28.906642,41.120774],[28.906637,41.12075],[28.906621,41.12073],[28.906591,41.12069],[28.906587,41.120657],[28.906603,41.120612],[28.906644,41.120589],[28.906666,41.120578],[28.90668,41.120525],[28.906677,41.120405],[28.906794,41.120179],[28.906872,41.120025],[28.906883,41.11998],[28.906919,41.119951],[28.906937,41.1199],[28.906958,41.119839],[28.907157,41.119584],[28.907192,41.119573],[28.907221,41.119539],[28.907224,41.119491],[28.907224,41.11947],[28.907252,41.119451],[28.90728,41.119433],[28.907311,41.119387],[28.907414,41.119272],[28.907422,41.119245],[28.907494,41.119183],[28.907524,41.119145],[28.90753,41.119115],[28.907553,41.119084],[28.90757,41.118959],[28.907572,41.118886],[28.907582,41.118862],[28.907586,41.118793],[28.907589,41.118736],[28.907602,41.118704],[28.907643,41.1187],[28.907675,41.118729],[28.907717,41.118768],[28.90776,41.118795],[28.90782,41.118812],[28.907873,41.118817],[28.907948,41.118814],[28.908076,41.118731],[28.908243,41.118643],[28.908312,41.118598],[28.908336,41.118551],[28.908452,41.118506],[28.90861,41.118422],[28.908715,41.118333],[28.908814,41.118286],[28.908951,41.118204],[28.908972,41.118175],[28.90898,41.118149],[28.909015,41.118138],[28.909073,41.118138],[28.909349,41.117964],[28.909423,41.117886],[28.909497,41.117822],[28.909545,41.117739],[28.909584,41.117699],[28.909585,41.117641],[28.909567,41.117555],[28.909559,41.117484],[28.909586,41.117386],[28.909609,41.117299],[28.909638,41.117244],[28.909602,41.117144],[28.909597,41.117084],[28.909646,41.116994],[28.909713,41.116895],[28.909721,41.116821],[28.909707,41.116725],[28.909601,41.116443],[28.90959,41.116401],[28.909602,41.116371],[28.90961,41.116337],[28.909647,41.11629],[28.909665,41.116233],[28.909666,41.116172],[28.909657,41.116132],[28.90963,41.116064],[28.909606,41.116013],[28.909496,41.115914],[28.909319,41.115816],[28.909177,41.11572],[28.90897,41.115572],[28.908747,41.11534],[28.908684,41.115248],[28.908661,41.115172],[28.90872,41.115004],[28.908844,41.114992],[28.90893,41.115017],[28.909037,41.115091],[28.909196,41.115157],[28.909386,41.1152],[28.909505,41.115223],[28.909585,41.115209],[28.909634,41.115182],[28.909706,41.115184],[28.909761,41.115158],[28.909906,41.115082],[28.910053,41.114986],[28.910174,41.114883],[28.91024,41.114789],[28.910243,41.114726],[28.910268,41.114567],[28.910292,41.114494],[28.910288,41.114391],[28.910292,41.114292],[28.910277,41.114244],[28.910286,41.114178],[28.910291,41.114094],[28.910264,41.114025],[28.910212,41.113743],[28.910204,41.113625],[28.910252,41.113587],[28.910302,41.113559],[28.910325,41.113516],[28.910326,41.113445],[28.910343,41.113369],[28.910344,41.113337],[28.910247,41.113231],[28.910246,41.113209],[28.910266,41.113195],[28.910342,41.113251],[28.910489,41.113332],[28.910502,41.113409],[28.91056,41.113482],[28.910655,41.113612],[28.910731,41.11372],[28.910839,41.113812],[28.910934,41.113855],[28.910992,41.113863],[28.911083,41.113856],[28.911159,41.113835],[28.911242,41.113822],[28.911332,41.113823],[28.911442,41.113842],[28.911562,41.113869],[28.911696,41.113859],[28.911822,41.113832],[28.912449,41.113587],[28.912831,41.113467],[28.91321,41.113406],[28.913251,41.113351],[28.913287,41.113331],[28.913343,41.113356],[28.91353,41.113389],[28.913759,41.113397],[28.914473,41.113371],[28.914963,41.113338],[28.915457,41.11334],[28.915631,41.11332],[28.915746,41.11334],[28.915914,41.113371],[28.91601,41.113361],[28.916123,41.113308],[28.916226,41.113237],[28.916269,41.113226],[28.916335,41.113278],[28.916432,41.113331],[28.916561,41.113425],[28.916706,41.113469],[28.916854,41.113509],[28.916944,41.113574],[28.917074,41.113592],[28.917129,41.113619],[28.917166,41.113649],[28.917239,41.113683],[28.917342,41.113718],[28.917491,41.113774],[28.917585,41.113786],[28.9177,41.113804],[28.917755,41.113816],[28.91781,41.113808],[28.917854,41.113784],[28.917913,41.113705],[28.917948,41.113591],[28.917941,41.113445],[28.917966,41.113359],[28.918115,41.113257],[28.918227,41.113054],[28.918606,41.112418],[28.919153,41.111476],[28.91937,41.111156],[28.919699,41.110787],[28.919764,41.110698],[28.919741,41.110642],[28.919644,41.110581],[28.919479,41.110529],[28.919421,41.110472],[28.919422,41.110421],[28.919604,41.110366],[28.919834,41.110234],[28.919983,41.110045],[28.920187,41.109886],[28.920238,41.109845],[28.920307,41.109736],[28.920403,41.109629],[28.920396,41.109579],[28.920365,41.10956],[28.920437,41.109478],[28.920546,41.109318],[28.920605,41.109125],[28.920583,41.108749],[28.920543,41.108505],[28.920484,41.108399],[28.920452,41.108369],[28.920385,41.108342],[28.92033,41.108297],[28.920235,41.108243],[28.920137,41.10824],[28.92009,41.108221],[28.920002,41.108199],[28.919879,41.108162],[28.919627,41.10815],[28.919549,41.108174],[28.919465,41.108211],[28.919371,41.108227],[28.919225,41.108214],[28.919092,41.108225],[28.9188,41.108321],[28.918615,41.108396],[28.918517,41.108414],[28.918491,41.108455],[28.918433,41.108468],[28.918366,41.108502],[28.918267,41.10856],[28.918138,41.108603],[28.918019,41.108643],[28.917928,41.108654],[28.917877,41.108674],[28.917819,41.108685],[28.91767,41.108703],[28.917501,41.108701],[28.917433,41.108718],[28.9174,41.108729],[28.917339,41.108744],[28.917322,41.108713],[28.917366,41.108677],[28.917447,41.108632],[28.917569,41.108565],[28.917676,41.108528],[28.917734,41.108513],[28.917831,41.108421],[28.917946,41.108332],[28.91798,41.108283],[28.917991,41.108191],[28.917969,41.108128],[28.917928,41.108042],[28.917914,41.107968],[28.917952,41.10797],[28.918042,41.107996],[28.918161,41.107998],[28.918219,41.107976],[28.92014,41.107621],[28.92,41.107551],[28.919622,41.107167],[28.919241,41.106597],[28.918964,41.106024],[28.918885,41.105642],[28.918478,41.104632],[28.917823,41.104507],[28.917802,41.104434],[28.919018,41.103665],[28.919365,41.103083],[28.91956,41.102797],[28.919633,41.102707],[28.919663,41.102588],[28.919511,41.102401],[28.918786,41.101359],[28.918606,41.101017],[28.916961,41.097647],[28.916747,41.097115],[28.916267,41.097123],[28.91603,41.097127],[28.915644,41.097133],[28.915436,41.097188],[28.915138,41.097256],[28.914826,41.097342],[28.914708,41.097425],[28.914657,41.097462],[28.914506,41.097634],[28.914275,41.09765],[28.914125,41.09771],[28.91388,41.09781],[28.913776,41.097878],[28.913606,41.097931],[28.913517,41.098107],[28.913384,41.098188],[28.913316,41.098209],[28.913207,41.0983],[28.912985,41.098392],[28.912892,41.098444],[28.912736,41.098492],[28.912562,41.098601],[28.912473,41.098634],[28.91234,41.098595],[28.912709,41.098079],[28.91275,41.09801],[28.912768,41.097961],[28.912769,41.097882],[28.912734,41.097735],[28.912689,41.097599],[28.912548,41.097346],[28.912197,41.097376],[28.91171,41.097445],[28.910887,41.097528],[28.909986,41.097614],[28.90902,41.097707],[28.908198,41.097785],[28.907248,41.097863],[28.906411,41.097935],[28.905351,41.098021],[28.904336,41.098117],[28.903767,41.098152],[28.903864,41.098534],[28.903993,41.099123],[28.904173,41.099776],[28.904376,41.100537],[28.904461,41.100918],[28.902724,41.101074],[28.902779,41.101399],[28.902851,41.101745],[28.902971,41.102499],[28.903102,41.10312],[28.903217,41.103462],[28.903345,41.104029],[28.903345,41.104111],[28.903445,41.104358],[28.903595,41.10461],[28.903771,41.104808],[28.903977,41.105021],[28.904109,41.105296],[28.904205,41.105378],[28.904476,41.105748],[28.904526,41.105866],[28.904576,41.106016],[28.904579,41.106108],[28.904549,41.106195],[28.904057,41.106246],[28.903753,41.10633],[28.903555,41.106388],[28.903175,41.106516],[28.903125,41.106531],[28.903109,41.106565],[28.903046,41.1066],[28.902982,41.106602],[28.902844,41.106605],[28.902749,41.106665],[28.902616,41.106768],[28.9025,41.106826],[28.902248,41.106969],[28.902086,41.107044],[28.901985,41.107078],[28.901892,41.107134],[28.901821,41.107165],[28.901623,41.10734],[28.901568,41.107416],[28.901572,41.107494],[28.901684,41.107608],[28.901382,41.107769],[28.901279,41.107839],[28.90121,41.10788],[28.901167,41.107922],[28.901143,41.107972],[28.901108,41.108036],[28.901023,41.108112],[28.900659,41.108212],[28.900556,41.108243],[28.900425,41.108306],[28.900378,41.108356],[28.900292,41.108427],[28.900147,41.108506],[28.900297,41.10869],[28.900464,41.108983],[28.900518,41.109126],[28.900857,41.109803],[28.900057,41.109973],[28.899737,41.110075],[28.899449,41.110155],[28.899169,41.110187],[28.89899,41.110194],[28.899208,41.11057],[28.899254,41.110709],[28.899276,41.110896],[28.899337,41.11115],[28.899343,41.11126],[28.899339,41.111336],[28.899319,41.111529],[28.899279,41.111813],[28.89926,41.111854],[28.899248,41.111991],[28.899205,41.112022],[28.899137,41.112049],[28.899055,41.112033],[28.898844,41.11201],[28.898602,41.111967],[28.898531,41.111961],[28.898423,41.112003],[28.898346,41.112068],[28.898182,41.112233],[28.898126,41.112298],[28.89804,41.11236],[28.897966,41.112402],[28.897872,41.112438],[28.897704,41.112461],[28.897331,41.11248],[28.896868,41.11248],[28.896698,41.112443],[28.89651,41.112428],[28.896132,41.112411],[28.895967,41.112709],[28.895839,41.112915],[28.895712,41.113057],[28.895609,41.113249],[28.895574,41.113515],[28.895567,41.114072],[28.89554,41.114366],[28.895451,41.115078],[28.895373,41.1154],[28.89536,41.115507],[28.895375,41.115645],[28.8956,41.116257],[28.895722,41.116586],[28.895821,41.116782],[28.895928,41.11704],[28.895992,41.117217],[28.896125,41.117382],[28.896257,41.11744],[28.896436,41.117505],[28.89657,41.117588],[28.896679,41.117691],[28.896773,41.117887],[28.896892,41.118253],[28.89706,41.11862],[28.897239,41.119047],[28.897366,41.119218],[28.897524,41.119387],[28.897822,41.119659],[28.898173,41.119897],[28.898386,41.120071],[28.8986,41.120255],[28.898765,41.120334],[28.898966,41.120403],[28.899463,41.120513],[28.899731,41.120578],[28.899994,41.120617],[28.900265,41.120634],[28.90061,41.120636],[28.900667,41.120723],[28.900727,41.120724],[28.900777,41.120749],[28.900809,41.120795],[28.900838,41.120839],[28.900853,41.120904],[28.900974,41.120905],[28.901033,41.120871],[28.901066,41.12087],[28.901094,41.120913],[28.901218,41.121]]]}}]}