{"type":"FeatureCollection","name":"turkiye_map.dist.mahalle_geometrileri_by_district.TR-D-06-009","features":[{"type":"Feature","properties":{"id":"TR-Y-06-009-M-0001","level":"yerlesim","type":"mahalle","parent_id":"TR-D-06-009","province_id":"TR-P-06","district_id":"TR-D-06-009","name":"Akçaali","source_raw_name":"AKÇAALİ","source":"Kamuya açık veri ve kent rehberi servisleri","source_label":"Kamuya açık veri ve kent rehberi servisleri","source_name":"Ankara Büyükşehir Belediyesi Seffaf Ankara Açık Veri Platformu - MAKS Mahalle"},"geometry":{"type":"MultiPolygon","coordinates":[[[[33.086267,39.813522],[33.086218,39.813676],[33.086215,39.81381],[33.086284,39.814275],[33.08626,39.814527],[33.086167,39.814811],[33.086091,39.815159],[33.085741,39.816439],[33.085515,39.816947],[33.085451,39.817331],[33.08535,39.817745],[33.085271,39.817827],[33.085127,39.817924],[33.084896,39.81803],[33.084801,39.818145],[33.084938,39.818361],[33.085229,39.819075],[33.085176,39.819086],[33.085046,39.81991],[33.085424,39.82156],[33.082838,39.82215],[33.082124,39.82384],[33.082917,39.824605],[33.0856,39.828275],[33.101386,39.83285],[33.123112,39.83283],[33.138004,39.837173],[33.148532,39.837818],[33.155786,39.837467],[33.157351,39.837379],[33.158348,39.83421],[33.158084,39.833369],[33.158952,39.833363],[33.158924,39.832384],[33.15847,39.831833],[33.158381,39.831498],[33.159025,39.830531],[33.15853,39.830105],[33.158387,39.829851],[33.159486,39.828426],[33.160897,39.82856],[33.160222,39.827281],[33.160297,39.826739],[33.160093,39.826019],[33.160144,39.82551],[33.160658,39.824859],[33.161285,39.824842],[33.161244,39.824742],[33.163186,39.820681],[33.163284,39.820157],[33.164013,39.819587],[33.16403,39.818906],[33.159751,39.814354],[33.162461,39.810442],[33.163984,39.809233],[33.16208,39.806058],[33.156385,39.801872],[33.151809,39.798117],[33.148838,39.797497],[33.144755,39.79531],[33.141165,39.792169],[33.135592,39.785694],[33.134718,39.780929],[33.138909,39.776158],[33.145757,39.771784],[33.146813,39.769288],[33.146824,39.768619],[33.148252,39.766008],[33.14839,39.765266],[33.146813,39.762827],[33.145738,39.758352],[33.145492,39.757867],[33.139332,39.756393],[33.128045,39.763062],[33.102468,39.760792],[33.091184,39.772276],[33.091782,39.775029],[33.083459,39.778937],[33.081978,39.783986],[33.081688,39.789724],[33.080801,39.794312],[33.079465,39.793733],[33.079576,39.794678],[33.080192,39.796013],[33.079795,39.797578],[33.080435,39.798197],[33.080434,39.798816],[33.079336,39.801221],[33.08012,39.802524],[33.079819,39.80509],[33.080638,39.806274],[33.082565,39.806976],[33.083068,39.80731],[33.083722,39.808088],[33.084174,39.809028],[33.083998,39.809351],[33.0821,39.809881],[33.082463,39.810388],[33.08268,39.810367],[33.082768,39.810654],[33.083543,39.810437],[33.084679,39.811196],[33.084765,39.811555],[33.085217,39.812478],[33.086245,39.813327],[33.086267,39.813522]]]]}},{"type":"Feature","properties":{"id":"TR-Y-06-009-M-0002","level":"yerlesim","type":"mahalle","parent_id":"TR-D-06-009","province_id":"TR-P-06","district_id":"TR-D-06-009","name":"Aşağıkamışlı","source_raw_name":"AŞAĞIKAMIŞLI","source":"Kamuya açık veri ve kent rehberi servisleri","source_label":"Kamuya açık veri ve kent rehberi servisleri","source_name":"Ankara Büyükşehir Belediyesi Seffaf Ankara Açık Veri Platformu - MAKS Mahalle"},"geometry":{"type":"MultiPolygon","coordinates":[[[[33.277992,39.783683],[33.277091,39.780616],[33.278432,39.77589],[33.27929,39.777025],[33.284943,39.777321],[33.304207,39.775533],[33.307294,39.768423],[33.307078,39.76137],[33.303871,39.759534],[33.275201,39.76739],[33.267207,39.763743],[33.265373,39.759267],[33.26393,39.759749],[33.263266,39.758788],[33.262695,39.758452],[33.262631,39.758115],[33.261762,39.758677],[33.261357,39.758629],[33.260292,39.760054],[33.260322,39.760268],[33.260075,39.760837],[33.259992,39.76158],[33.25975,39.762097],[33.259969,39.762217],[33.259639,39.762137],[33.256896,39.756751],[33.25758,39.756534],[33.258255,39.755993],[33.258682,39.755627],[33.25953,39.755184],[33.25995,39.754898],[33.260045,39.754935],[33.260224,39.754605],[33.259921,39.75405],[33.258704,39.753612],[33.258112,39.75321],[33.257364,39.752886],[33.257702,39.752437],[33.257934,39.751756],[33.258223,39.751503],[33.258448,39.750482],[33.259239,39.748928],[33.259393,39.748457],[33.25937,39.747995],[33.259655,39.747996],[33.259433,39.746875],[33.259701,39.746597],[33.258857,39.746134],[33.258967,39.745877],[33.258959,39.745449],[33.259174,39.744866],[33.258478,39.744139],[33.258563,39.743874],[33.258821,39.743642],[33.259399,39.743788],[33.259927,39.743808],[33.26035,39.743775],[33.260422,39.743687],[33.259717,39.742852],[33.259369,39.742734],[33.257972,39.741825],[33.257709,39.742098],[33.257123,39.741912],[33.256936,39.742183],[33.256676,39.742269],[33.256598,39.742353],[33.256742,39.742631],[33.256753,39.74308],[33.256708,39.743297],[33.25665,39.743354],[33.256441,39.743271],[33.255821,39.743062],[33.2553,39.742934],[33.255137,39.742877],[33.254923,39.742774],[33.254737,39.742711],[33.254501,39.742651],[33.253701,39.742491],[33.253123,39.742413],[33.253136,39.742331],[33.253446,39.741729],[33.253219,39.741549],[33.252999,39.741775],[33.252629,39.74164],[33.252105,39.740955],[33.251887,39.740834],[33.250188,39.731017],[33.249697,39.730483],[33.249566,39.730575],[33.248473,39.730224],[33.248014,39.729976],[33.247656,39.729936],[33.247669,39.730099],[33.248281,39.730524],[33.248094,39.730737],[33.247695,39.730788],[33.246028,39.729351],[33.245314,39.729602],[33.24569,39.730575],[33.246448,39.730537],[33.247149,39.73124],[33.246528,39.731408],[33.246088,39.731261],[33.246232,39.731958],[33.24621,39.731983],[33.246226,39.732056],[33.246047,39.732254],[33.245469,39.731941],[33.243124,39.73101],[33.242348,39.731219],[33.241389,39.73116],[33.239838,39.730681],[33.239588,39.73107],[33.238865,39.731011],[33.238249,39.732326],[33.237824,39.731899],[33.237973,39.731699],[33.237971,39.731066],[33.234882,39.724332],[33.228425,39.725502],[33.224879,39.731705],[33.219236,39.733092],[33.211509,39.733566],[33.210899,39.733452],[33.210365,39.73536],[33.211322,39.736808],[33.214279,39.74013],[33.21447,39.740446],[33.21603,39.742288],[33.215976,39.743827],[33.216638,39.745799],[33.218868,39.748372],[33.219172,39.749934],[33.219328,39.750169],[33.219394,39.750385],[33.219551,39.750707],[33.219698,39.750917],[33.219765,39.751087],[33.218625,39.753578],[33.221719,39.753973],[33.221941,39.754425],[33.222,39.754787],[33.222443,39.755692],[33.222312,39.75593],[33.221976,39.756259],[33.222549,39.756575],[33.224044,39.756617],[33.22582,39.757157],[33.226215,39.756771],[33.226479,39.756748],[33.227904,39.757515],[33.228129,39.759076],[33.228454,39.759845],[33.227463,39.76176],[33.225825,39.762951],[33.225577,39.76345],[33.225356,39.764105],[33.22573,39.765532],[33.225394,39.765827],[33.224808,39.766009],[33.225016,39.766744],[33.224301,39.767121],[33.222411,39.76711],[33.222023,39.76713],[33.221754,39.767164],[33.2216,39.767216],[33.221475,39.767301],[33.221375,39.767923],[33.221113,39.769041],[33.221066,39.769537],[33.221094,39.770048],[33.221178,39.77034],[33.221247,39.770493],[33.221681,39.771074],[33.221847,39.771368],[33.221926,39.771548],[33.221957,39.771804],[33.221952,39.772072],[33.221884,39.772491],[33.222019,39.773323],[33.222734,39.772752],[33.224672,39.772045],[33.228023,39.773495],[33.228258,39.775051],[33.228588,39.775785],[33.230525,39.776085],[33.232594,39.776638],[33.234197,39.778364],[33.23438,39.77844],[33.23472,39.778806],[33.235852,39.779272],[33.237423,39.779324],[33.237996,39.779512],[33.238179,39.779658],[33.238716,39.780398],[33.240749,39.782235],[33.240768,39.782221],[33.241272,39.782676],[33.246108,39.779195],[33.248169,39.778654],[33.249213,39.778527],[33.249872,39.779115],[33.251508,39.779432],[33.254467,39.779053],[33.257075,39.779429],[33.258957,39.779802],[33.260631,39.780165],[33.261102,39.772604],[33.263801,39.775377],[33.265914,39.782879],[33.268778,39.784778],[33.272323,39.782478],[33.273914,39.784945],[33.275886,39.785535],[33.277992,39.783683]]]]}},{"type":"Feature","properties":{"id":"TR-Y-06-009-M-0003","level":"yerlesim","type":"mahalle","parent_id":"TR-D-06-009","province_id":"TR-P-06","district_id":"TR-D-06-009","name":"Deliler","source_raw_name":"DELİLER","source":"Kamuya açık veri ve kent rehberi servisleri","source_label":"Kamuya açık veri ve kent rehberi servisleri","source_name":"Ankara Büyükşehir Belediyesi Seffaf Ankara Açık Veri Platformu - MAKS Mahalle"},"geometry":{"type":"MultiPolygon","coordinates":[[[[33.162094,39.793311],[33.164873,39.792536],[33.166614,39.790133],[33.168834,39.788414],[33.173264,39.790195],[33.181451,39.792268],[33.184593,39.792319],[33.185067,39.792034],[33.186732,39.790331],[33.187481,39.789334],[33.18827,39.789201],[33.188453,39.789086],[33.188749,39.788555],[33.190121,39.787732],[33.191446,39.786882],[33.192166,39.786683],[33.192687,39.786377],[33.192881,39.786104],[33.192975,39.785525],[33.193067,39.785465],[33.19358,39.785368],[33.193682,39.785188],[33.193723,39.784805],[33.194251,39.784701],[33.194587,39.784664],[33.194509,39.784477],[33.194731,39.784049],[33.195051,39.783921],[33.195031,39.783726],[33.194719,39.783352],[33.195078,39.783097],[33.1952,39.782872],[33.195208,39.782388],[33.195386,39.782184],[33.195743,39.78199],[33.196373,39.781466],[33.196693,39.78148],[33.197467,39.781653],[33.197762,39.781653],[33.197971,39.781511],[33.198378,39.781102],[33.198934,39.780926],[33.199376,39.780637],[33.199959,39.780589],[33.20153,39.779956],[33.202138,39.779787],[33.203076,39.779383],[33.203971,39.779167],[33.204527,39.779112],[33.205092,39.779152],[33.205456,39.778943],[33.206378,39.778975],[33.207022,39.779162],[33.208367,39.77865],[33.208973,39.778758],[33.210739,39.77898],[33.213185,39.779181],[33.214474,39.779007],[33.216782,39.777905],[33.21847,39.77749],[33.220198,39.775635],[33.222541,39.773765],[33.222418,39.773004],[33.222019,39.773323],[33.221884,39.772491],[33.221952,39.772072],[33.221957,39.771804],[33.221926,39.771548],[33.221847,39.771368],[33.221681,39.771074],[33.221247,39.770493],[33.221178,39.77034],[33.221094,39.770048],[33.221066,39.769537],[33.221113,39.769041],[33.221375,39.767923],[33.221475,39.767301],[33.2216,39.767216],[33.221754,39.767164],[33.222023,39.76713],[33.222411,39.76711],[33.224301,39.767121],[33.225016,39.766744],[33.224808,39.766009],[33.225394,39.765827],[33.22573,39.765532],[33.225356,39.764105],[33.225577,39.76345],[33.225825,39.762951],[33.227463,39.76176],[33.228454,39.759845],[33.228129,39.759076],[33.227904,39.757515],[33.226479,39.756748],[33.226215,39.756771],[33.22582,39.757157],[33.224044,39.756617],[33.222549,39.756575],[33.221976,39.756259],[33.222312,39.75593],[33.222443,39.755692],[33.222,39.754787],[33.221941,39.754425],[33.221719,39.753973],[33.218625,39.753578],[33.219765,39.751087],[33.219698,39.750917],[33.219551,39.750707],[33.219394,39.750385],[33.219328,39.750169],[33.219172,39.749934],[33.218868,39.748372],[33.216638,39.745799],[33.215976,39.743827],[33.21603,39.742288],[33.21447,39.740446],[33.214279,39.74013],[33.211322,39.736808],[33.210365,39.73536],[33.210899,39.733452],[33.201696,39.731747],[33.196944,39.733132],[33.194264,39.731301],[33.193598,39.731727],[33.192102,39.732045],[33.191175,39.732007],[33.190387,39.731911],[33.190887,39.731261],[33.191539,39.729254],[33.190963,39.728301],[33.189746,39.729371],[33.188657,39.728983],[33.186996,39.729603],[33.186715,39.72929],[33.186206,39.729384],[33.185322,39.729395],[33.185065,39.728973],[33.184026,39.729547],[33.182987,39.729684],[33.182429,39.729098],[33.181136,39.729648],[33.180292,39.730073],[33.1805,39.730709],[33.180257,39.730859],[33.180359,39.73118],[33.179615,39.731259],[33.179439,39.731561],[33.178062,39.731445],[33.176022,39.732081],[33.174584,39.733639],[33.171911,39.734966],[33.170697,39.73579],[33.169246,39.736978],[33.16843,39.737868],[33.165754,39.739593],[33.164214,39.739967],[33.162497,39.741396],[33.160227,39.742662],[33.159988,39.743184],[33.158661,39.743329],[33.157731,39.743392],[33.157093,39.743351],[33.157066,39.74288],[33.155685,39.742923],[33.153668,39.743664],[33.151464,39.74422],[33.150801,39.744611],[33.15059,39.745062],[33.150032,39.74494],[33.150173,39.745534],[33.149747,39.74646],[33.149668,39.74685],[33.149244,39.746974],[33.148445,39.746216],[33.148075,39.747016],[33.147174,39.748207],[33.145051,39.749009],[33.142885,39.750423],[33.139329,39.756394],[33.145492,39.757867],[33.145738,39.758352],[33.146813,39.762827],[33.14839,39.765266],[33.148252,39.766008],[33.146824,39.768619],[33.146813,39.769288],[33.145757,39.771784],[33.138909,39.776158],[33.134718,39.780929],[33.135592,39.785694],[33.141165,39.792169],[33.144755,39.79531],[33.148838,39.797497],[33.151809,39.798117],[33.154841,39.796679],[33.159654,39.795032],[33.160577,39.793638],[33.162094,39.793311]]]]}},{"type":"Feature","properties":{"id":"TR-Y-06-009-M-0004","level":"yerlesim","type":"mahalle","parent_id":"TR-D-06-009","province_id":"TR-P-06","district_id":"TR-D-06-009","name":"Ediğe","source_raw_name":"EDİĞE","source":"Kamuya açık veri ve kent rehberi servisleri","source_label":"Kamuya açık veri ve kent rehberi servisleri","source_name":"Ankara Büyükşehir Belediyesi Seffaf Ankara Açık Veri Platformu - MAKS Mahalle"},"geometry":{"type":"MultiPolygon","coordinates":[[[[33.285401,39.88838],[33.288502,39.887342],[33.290677,39.887386],[33.294885,39.886399],[33.297674,39.886964],[33.300188,39.88606],[33.305669,39.883722],[33.305778,39.883556],[33.310131,39.881947],[33.310531,39.875852],[33.30431,39.869486],[33.298569,39.864868],[33.29231,39.863507],[33.292259,39.862145],[33.301213,39.856371],[33.30328,39.852694],[33.297295,39.845595],[33.285107,39.849986],[33.279151,39.849541],[33.280025,39.84472],[33.270494,39.847643],[33.266344,39.848424],[33.266649,39.850259],[33.256849,39.854186],[33.256999,39.854544],[33.257153,39.855033],[33.257342,39.8559],[33.257495,39.856449],[33.257559,39.856735],[33.257791,39.858141],[33.257882,39.85857],[33.258009,39.859084],[33.258167,39.859541],[33.258188,39.859658],[33.258145,39.859856],[33.257808,39.860536],[33.255135,39.865222],[33.254078,39.867761],[33.251821,39.869003],[33.249666,39.873219],[33.247307,39.876966],[33.246918,39.877294],[33.251817,39.879266],[33.253615,39.881515],[33.260325,39.887275],[33.262406,39.887591],[33.26699,39.887775],[33.273068,39.885601],[33.273592,39.886464],[33.275045,39.888202],[33.277158,39.889118],[33.280335,39.889616],[33.28248,39.889519],[33.285401,39.88838]]]]}},{"type":"Feature","properties":{"id":"TR-Y-06-009-M-0005","level":"yerlesim","type":"mahalle","parent_id":"TR-D-06-009","province_id":"TR-P-06","district_id":"TR-D-06-009","name":"Gümüşpala","source_raw_name":"GÜMÜŞPALA","source":"Kamuya açık veri ve kent rehberi servisleri","source_label":"Kamuya açık veri ve kent rehberi servisleri","source_name":"Ankara Büyükşehir Belediyesi Seffaf Ankara Açık Veri Platformu - MAKS Mahalle"},"geometry":{"type":"MultiPolygon","coordinates":[[[[33.235556,39.924047],[33.234036,39.923568],[33.2325,39.922839],[33.231755,39.92242],[33.231462,39.922134],[33.231059,39.921649],[33.23027,39.920505],[33.229692,39.920767],[33.227833,39.922042],[33.228169,39.922438],[33.230153,39.925067],[33.23043,39.925612],[33.230237,39.925733],[33.229935,39.925891],[33.230383,39.926436],[33.231427,39.927844],[33.231852,39.928287],[33.23229,39.928608],[33.233575,39.929205],[33.234228,39.929432],[33.234762,39.92947],[33.235355,39.929456],[33.236083,39.929292],[33.236692,39.929016],[33.237792,39.928433],[33.238401,39.928073],[33.23895,39.927642],[33.24025,39.92621],[33.240723,39.925831],[33.241041,39.925688],[33.241487,39.925557],[33.240593,39.923473],[33.239928,39.923744],[33.237815,39.924317],[33.236515,39.924212],[33.235736,39.924103],[33.235556,39.924047]]]]}},{"type":"Feature","properties":{"id":"TR-Y-06-009-M-0006","level":"yerlesim","type":"mahalle","parent_id":"TR-D-06-009","province_id":"TR-P-06","district_id":"TR-D-06-009","name":"Hasanoğlan Bahçelievler","source_raw_name":"HASANOĞLAN BAHÇELİEVLER","source":"Kamuya açık veri ve kent rehberi servisleri","source_label":"Kamuya açık veri ve kent rehberi servisleri","source_name":"Ankara Büyükşehir Belediyesi Seffaf Ankara Açık Veri Platformu - MAKS Mahalle"},"geometry":{"type":"MultiPolygon","coordinates":[[[[33.17296,39.983268],[33.172873,39.982914],[33.172706,39.982559],[33.172513,39.982246],[33.172142,39.981826],[33.171572,39.981267],[33.171331,39.980974],[33.171132,39.980699],[33.170991,39.980282],[33.17091,39.979914],[33.170914,39.979493],[33.170951,39.979168],[33.171873,39.97732],[33.172129,39.976899],[33.172445,39.976544],[33.172867,39.976143],[33.173148,39.975837],[33.173466,39.975386],[33.17458,39.975803],[33.175503,39.976337],[33.17614,39.976856],[33.176308,39.976908],[33.178411,39.977052],[33.180109,39.977018],[33.180975,39.977202],[33.181811,39.977218],[33.182919,39.977366],[33.183616,39.977345],[33.187626,39.97775],[33.188091,39.978336],[33.189011,39.978558],[33.189517,39.978496],[33.190499,39.978784],[33.194298,39.97872],[33.194954,39.978636],[33.197258,39.978881],[33.19909,39.979747],[33.211761,39.978079],[33.210122,39.97405],[33.205972,39.974751],[33.205967,39.972944],[33.204728,39.970734],[33.200711,39.968226],[33.198356,39.968787],[33.198309,39.968787],[33.195255,39.966722],[33.194194,39.967542],[33.192199,39.965042],[33.188856,39.965745],[33.188007,39.965348],[33.187798,39.964735],[33.18804,39.964491],[33.188036,39.963101],[33.187177,39.96271],[33.18661,39.962204],[33.18647,39.96202],[33.186194,39.961732],[33.185779,39.960154],[33.18463,39.95896],[33.18494,39.958821],[33.184792,39.958655],[33.184918,39.958511],[33.184643,39.958488],[33.184562,39.958396],[33.184655,39.958147],[33.184489,39.957916],[33.184233,39.957622],[33.183705,39.957785],[33.183539,39.957555],[33.183869,39.95736],[33.183648,39.957136],[33.183595,39.956866],[33.183396,39.95635],[33.182076,39.955049],[33.181486,39.954384],[33.181491,39.954358],[33.181305,39.954344],[33.179639,39.952714],[33.1797,39.952638],[33.179542,39.951151],[33.178932,39.950213],[33.178535,39.950013],[33.177479,39.950023],[33.177728,39.948458],[33.177664,39.948186],[33.177537,39.94801],[33.174857,39.945524],[33.174623,39.945402],[33.174369,39.945305],[33.173562,39.945179],[33.174073,39.943279],[33.174123,39.942982],[33.174093,39.942382],[33.173953,39.942218],[33.173841,39.942205],[33.173457,39.94032],[33.170983,39.937396],[33.169718,39.937258],[33.169707,39.932669],[33.167507,39.930381],[33.138918,39.94018],[33.136095,39.945479],[33.134288,39.952957],[33.132472,39.955452],[33.133899,39.96059],[33.137141,39.9623],[33.136539,39.964647],[33.134979,39.969573],[33.135193,39.969824],[33.135134,39.970027],[33.134779,39.970205],[33.134124,39.972272],[33.138994,39.978187],[33.146903,39.984406],[33.158597,39.979632],[33.158921,39.979334],[33.159612,39.979931],[33.160642,39.98061],[33.160852,39.98068],[33.161677,39.980803],[33.162836,39.983187],[33.163024,39.983536],[33.163024,39.983575],[33.163165,39.983739],[33.164558,39.982953],[33.166594,39.985126],[33.16704,39.985521],[33.167485,39.985793],[33.167968,39.986019],[33.168456,39.986166],[33.168992,39.98626],[33.170021,39.986267],[33.170573,39.986155],[33.170947,39.98603],[33.171742,39.985592],[33.172116,39.985295],[33.172346,39.985056],[33.172607,39.98468],[33.17276,39.984535],[33.172721,39.984508],[33.172809,39.984322],[33.1729,39.983992],[33.172977,39.983588],[33.17296,39.983268]]]]}},{"type":"Feature","properties":{"id":"TR-Y-06-009-M-0007","level":"yerlesim","type":"mahalle","parent_id":"TR-D-06-009","province_id":"TR-P-06","district_id":"TR-D-06-009","name":"Hasanoğlan Fatih","source_raw_name":"HASANOĞLAN FATİH","source":"Kamuya açık veri ve kent rehberi servisleri","source_label":"Kamuya açık veri ve kent rehberi servisleri","source_name":"Ankara Büyükşehir Belediyesi Seffaf Ankara Açık Veri Platformu - MAKS Mahalle"},"geometry":{"type":"MultiPolygon","coordinates":[[[[33.182597,39.993905],[33.182851,39.993855],[33.182986,39.993925],[33.18397,39.993789],[33.184487,39.993804],[33.186009,39.994113],[33.186456,39.993362],[33.186798,39.992968],[33.187105,39.991984],[33.187345,39.991511],[33.188888,39.989535],[33.189103,39.989014],[33.189214,39.988421],[33.189423,39.985613],[33.188884,39.983285],[33.189199,39.981941],[33.189599,39.981108],[33.189835,39.98075],[33.190494,39.980297],[33.190601,39.980039],[33.19057,39.979729],[33.190092,39.978665],[33.189556,39.978507],[33.189458,39.978663],[33.18924,39.978843],[33.186719,39.979846],[33.183933,39.981199],[33.182612,39.981783],[33.182129,39.982013],[33.182148,39.982464],[33.18166,39.982544],[33.180454,39.982873],[33.179512,39.983268],[33.178563,39.98372],[33.176772,39.984829],[33.176281,39.985049],[33.17543,39.985353],[33.17524,39.98511],[33.175184,39.984943],[33.175088,39.984853],[33.174894,39.985099],[33.175074,39.98534],[33.174562,39.985661],[33.173869,39.985233],[33.17355,39.985666],[33.175972,39.987836],[33.176529,39.988482],[33.17783,39.99006],[33.180036,39.992809],[33.180309,39.993318],[33.180768,39.994267],[33.182597,39.993905]]]]}},{"type":"Feature","properties":{"id":"TR-Y-06-009-M-0008","level":"yerlesim","type":"mahalle","parent_id":"TR-D-06-009","province_id":"TR-P-06","district_id":"TR-D-06-009","name":"Hasanoğlan Havuzbaşı","source_raw_name":"HASANOĞLAN HAVUZBAŞI","source":"Kamuya açık veri ve kent rehberi servisleri","source_label":"Kamuya açık veri ve kent rehberi servisleri","source_name":"Ankara Büyükşehir Belediyesi Seffaf Ankara Açık Veri Platformu - MAKS Mahalle"},"geometry":{"type":"MultiPolygon","coordinates":[[[[33.224205,40.064487],[33.223953,40.057336],[33.225921,40.050378],[33.231293,40.033399],[33.233273,40.030475],[33.233234,40.029244],[33.233244,40.026912],[33.233347,40.026586],[33.233331,40.026283],[33.233249,40.026089],[33.233269,40.025602],[33.233115,40.025466],[33.233071,40.024077],[33.231616,40.021855],[33.230889,40.021022],[33.228893,40.019079],[33.228159,40.015881],[33.2276,40.011154],[33.230489,40.008088],[33.228483,40.004892],[33.228642,39.998215],[33.227179,39.99335],[33.225,39.990711],[33.222277,39.98724],[33.221181,39.984881],[33.219745,39.986826],[33.217758,39.98683],[33.217614,39.986692],[33.217526,39.986671],[33.217474,39.986638],[33.217361,39.986641],[33.219374,39.984045],[33.218465,39.982517],[33.2134,39.981553],[33.21448,39.980021],[33.211762,39.978079],[33.19909,39.979747],[33.197258,39.978881],[33.194954,39.978636],[33.194298,39.97872],[33.190499,39.978784],[33.190092,39.978665],[33.19057,39.979729],[33.190601,39.980039],[33.190494,39.980297],[33.189835,39.98075],[33.189599,39.981108],[33.189199,39.981941],[33.188884,39.983285],[33.189423,39.985613],[33.189214,39.988421],[33.189103,39.989014],[33.188888,39.989535],[33.187311,39.991568],[33.187105,39.991984],[33.186798,39.992968],[33.186456,39.993362],[33.186009,39.994113],[33.184487,39.993804],[33.18397,39.993789],[33.182986,39.993925],[33.182845,39.993856],[33.180768,39.994267],[33.180643,39.994009],[33.1801,39.994153],[33.180068,39.996185],[33.178448,39.996161],[33.179653,39.997884],[33.181447,39.998638],[33.181295,39.998948],[33.181108,39.999506],[33.18091,39.999886],[33.1808,40.00032],[33.180674,40.000355],[33.180833,40.000485],[33.180847,40.000554],[33.180787,40.000855],[33.180617,40.000868],[33.180724,40.001198],[33.180729,40.001528],[33.180942,40.001706],[33.181375,40.002753],[33.181398,40.004723],[33.181349,40.004915],[33.181345,40.005363],[33.181377,40.00566],[33.181479,40.006072],[33.181651,40.006455],[33.182482,40.007917],[33.182476,40.007959],[33.182798,40.00854],[33.182989,40.00893],[33.184112,40.009495],[33.184759,40.010552],[33.183702,40.011569],[33.182604,40.012192],[33.182601,40.012338],[33.182502,40.012941],[33.182172,40.013334],[33.181965,40.013762],[33.181884,40.013993],[33.181667,40.014204],[33.181451,40.014448],[33.181298,40.014747],[33.180853,40.015939],[33.180814,40.016182],[33.180855,40.016422],[33.181198,40.017214],[33.181409,40.017381],[33.18206,40.017815],[33.1827,40.018849],[33.182805,40.019045],[33.182867,40.019247],[33.183039,40.019673],[33.183105,40.020058],[33.183327,40.020668],[33.183432,40.020859],[33.183596,40.021053],[33.183792,40.021251],[33.184001,40.021544],[33.184306,40.022239],[33.184396,40.022512],[33.184399,40.022655],[33.184374,40.022842],[33.184311,40.023118],[33.184403,40.023484],[33.184907,40.024358],[33.185028,40.02448],[33.185215,40.02463],[33.18524,40.024701],[33.185246,40.02513],[33.185279,40.02538],[33.185214,40.026298],[33.184365,40.028617],[33.184974,40.02922],[33.183901,40.029884],[33.176809,40.053619],[33.180975,40.057384],[33.181734,40.059122],[33.185135,40.060857],[33.194009,40.062582],[33.201559,40.063294],[33.211173,40.060377],[33.217213,40.060801],[33.224207,40.064558],[33.224205,40.064487]]]]}},{"type":"Feature","properties":{"id":"TR-Y-06-009-M-0009","level":"yerlesim","type":"mahalle","parent_id":"TR-D-06-009","province_id":"TR-P-06","district_id":"TR-D-06-009","name":"İsmetpaşa","source_raw_name":"İSMETPAŞA","source":"Kamuya açık veri ve kent rehberi servisleri","source_label":"Kamuya açık veri ve kent rehberi servisleri","source_name":"Ankara Büyükşehir Belediyesi Seffaf Ankara Açık Veri Platformu - MAKS Mahalle"},"geometry":{"type":"MultiPolygon","coordinates":[[[[33.240593,39.923473],[33.241382,39.922769],[33.241534,39.922479],[33.24158,39.922226],[33.239913,39.92232],[33.239173,39.921695],[33.238114,39.921384],[33.238652,39.920867],[33.238076,39.920507],[33.237066,39.920482],[33.236654,39.920094],[33.236797,39.919721],[33.237368,39.919509],[33.237614,39.918826],[33.236607,39.917626],[33.234707,39.917274],[33.234424,39.917309],[33.232085,39.918044],[33.23178,39.918326],[33.229817,39.919719],[33.23027,39.920505],[33.231059,39.921649],[33.231462,39.922134],[33.231755,39.92242],[33.2325,39.922839],[33.234036,39.923568],[33.235736,39.924103],[33.236515,39.924212],[33.237815,39.924317],[33.239928,39.923744],[33.240593,39.923473]]]]}},{"type":"Feature","properties":{"id":"TR-Y-06-009-M-0010","level":"yerlesim","type":"mahalle","parent_id":"TR-D-06-009","province_id":"TR-P-06","district_id":"TR-D-06-009","name":"İstasyon","source_raw_name":"İSTASYON","source":"Kamuya açık veri ve kent rehberi servisleri","source_label":"Kamuya açık veri ve kent rehberi servisleri","source_name":"Ankara Büyükşehir Belediyesi Seffaf Ankara Açık Veri Platformu - MAKS Mahalle"},"geometry":{"type":"MultiPolygon","coordinates":[[[[33.174274,39.986314],[33.17355,39.985666],[33.173755,39.985391],[33.17276,39.984535],[33.172607,39.98468],[33.172346,39.985056],[33.172116,39.985295],[33.171742,39.985592],[33.170947,39.98603],[33.170573,39.986155],[33.170021,39.986267],[33.168992,39.98626],[33.168456,39.986166],[33.167968,39.986019],[33.167485,39.985793],[33.16704,39.985521],[33.166594,39.985126],[33.166,39.984489],[33.164604,39.985334],[33.164964,39.985719],[33.165959,39.986578],[33.168295,39.989584],[33.168788,39.990628],[33.17008,39.991923],[33.170792,39.992458],[33.173206,39.993471],[33.177971,39.996125],[33.178448,39.996161],[33.180068,39.996185],[33.1801,39.994153],[33.180643,39.994009],[33.180309,39.993318],[33.180036,39.992809],[33.17783,39.99006],[33.176529,39.988482],[33.175972,39.987836],[33.174274,39.986314]]]]}},{"type":"Feature","properties":{"id":"TR-Y-06-009-M-0011","level":"yerlesim","type":"mahalle","parent_id":"TR-D-06-009","province_id":"TR-P-06","district_id":"TR-D-06-009","name":"Karacahasan","source_raw_name":"KARACAHASAN","source":"Kamuya açık veri ve kent rehberi servisleri","source_label":"Kamuya açık veri ve kent rehberi servisleri","source_name":"Ankara Büyükşehir Belediyesi Seffaf Ankara Açık Veri Platformu - MAKS Mahalle"},"geometry":{"type":"MultiPolygon","coordinates":[[[[33.228115,39.872229],[33.228477,39.872164],[33.228802,39.872177],[33.229869,39.872375],[33.230095,39.872321],[33.230888,39.871859],[33.231194,39.871794],[33.231742,39.871828],[33.23254,39.871855],[33.233115,39.871804],[33.233745,39.871517],[33.23431,39.871351],[33.234579,39.871191],[33.234963,39.870905],[33.235313,39.870693],[33.236125,39.870333],[33.236894,39.870081],[33.237441,39.869937],[33.238589,39.86932],[33.238895,39.869104],[33.239015,39.868933],[33.238991,39.86887],[33.239307,39.868759],[33.247717,39.867399],[33.256435,39.862964],[33.257808,39.860536],[33.258145,39.859856],[33.258188,39.859658],[33.258167,39.859541],[33.258009,39.859084],[33.257882,39.85857],[33.257666,39.857436],[33.257559,39.856735],[33.257342,39.8559],[33.257153,39.855033],[33.256999,39.854544],[33.256849,39.854186],[33.256528,39.853219],[33.25608,39.852519],[33.255967,39.852047],[33.255814,39.850625],[33.255569,39.849445],[33.255923,39.848552],[33.256616,39.847361],[33.258586,39.843622],[33.260633,39.83398],[33.259001,39.834559],[33.254327,39.835721],[33.25455,39.834577],[33.254602,39.83443],[33.248866,39.83209],[33.245882,39.832813],[33.240068,39.83287],[33.239645,39.828294],[33.239658,39.826541],[33.23888,39.824438],[33.23732,39.821946],[33.236037,39.82129],[33.234403,39.820754],[33.234114,39.820761],[33.23379,39.820714],[33.23342,39.820637],[33.233027,39.82066],[33.232496,39.820717],[33.232307,39.820763],[33.231968,39.820918],[33.231806,39.820974],[33.231628,39.820992],[33.231381,39.820941],[33.231183,39.820874],[33.230977,39.820827],[33.230788,39.820811],[33.230614,39.820832],[33.23024,39.82084],[33.230112,39.820825],[33.230023,39.820794],[33.229931,39.820739],[33.229835,39.820639],[33.22959,39.820466],[33.229329,39.820343],[33.229054,39.820183],[33.228349,39.819616],[33.227347,39.818858],[33.227079,39.818635],[33.226906,39.818457],[33.226443,39.817914],[33.226021,39.817534],[33.225821,39.817441],[33.225436,39.817432],[33.224616,39.817336],[33.224325,39.817318],[33.22416,39.817345],[33.223512,39.817584],[33.22341,39.817584],[33.223344,39.817564],[33.223248,39.817504],[33.222764,39.817043],[33.222587,39.816907],[33.222236,39.816678],[33.221878,39.8165],[33.221668,39.816445],[33.22143,39.816408],[33.221147,39.816379],[33.220989,39.816406],[33.220708,39.816557],[33.220506,39.816568],[33.219921,39.816402],[33.219398,39.816221],[33.21865,39.816049],[33.218538,39.816032],[33.218041,39.816055],[33.217709,39.816115],[33.217462,39.816101],[33.216836,39.81579],[33.216443,39.816804],[33.215041,39.816503],[33.213365,39.815854],[33.206071,39.814119],[33.200486,39.813588],[33.197057,39.814307],[33.19395,39.814126],[33.182349,39.821742],[33.16403,39.818906],[33.164013,39.819587],[33.163284,39.820157],[33.163186,39.820681],[33.161244,39.824742],[33.161285,39.824842],[33.160658,39.824859],[33.160144,39.82551],[33.160093,39.826019],[33.160297,39.826739],[33.160222,39.827281],[33.160897,39.82856],[33.159486,39.828426],[33.158387,39.829851],[33.15853,39.830105],[33.159025,39.830531],[33.158381,39.831498],[33.15847,39.831833],[33.158924,39.832384],[33.158952,39.833363],[33.158084,39.833369],[33.158348,39.83421],[33.15735,39.837379],[33.172684,39.844707],[33.188194,39.854753],[33.190746,39.856788],[33.200245,39.859407],[33.223061,39.872315],[33.226738,39.872863],[33.228115,39.872229]]]]}},{"type":"Feature","properties":{"id":"TR-Y-06-009-M-0012","level":"yerlesim","type":"mahalle","parent_id":"TR-D-06-009","province_id":"TR-P-06","district_id":"TR-D-06-009","name":"Kayadibi","source_raw_name":"KAYADİBİ","source":"Kamuya açık veri ve kent rehberi servisleri","source_label":"Kamuya açık veri ve kent rehberi servisleri","source_name":"Ankara Büyükşehir Belediyesi Seffaf Ankara Açık Veri Platformu - MAKS Mahalle"},"geometry":{"type":"MultiPolygon","coordinates":[[[[33.309102,40.024197],[33.318713,40.024083],[33.325876,40.02173],[33.331956,40.02341],[33.335263,40.022551],[33.342421,40.019348],[33.345987,40.015095],[33.349018,40.014237],[33.352888,40.01571],[33.359232,40.015266],[33.363366,40.014193],[33.368859,40.009508],[33.370768,40.005471],[33.374895,40.003336],[33.375135,39.996758],[33.380346,39.991437],[33.380597,39.986981],[33.383324,39.981456],[33.395672,39.972432],[33.383956,39.957326],[33.37851,39.943117],[33.377267,39.933942],[33.373936,39.924314],[33.371258,39.925241],[33.363499,39.92343],[33.355426,39.918406],[33.344105,39.919129],[33.338432,39.91708],[33.339904,39.913404],[33.336332,39.914103],[33.328884,39.914583],[33.327686,39.914623],[33.32713,39.915836],[33.326594,39.916919],[33.32352,39.919343],[33.322273,39.91987],[33.319486,39.925311],[33.315652,39.934909],[33.309558,39.937523],[33.302386,39.943792],[33.297195,39.948663],[33.293972,39.953728],[33.29502,39.955871],[33.294811,39.958017],[33.293121,39.959242],[33.290007,39.959881],[33.287888,39.959039],[33.287234,39.961194],[33.285475,39.963069],[33.283028,39.966624],[33.287471,39.968598],[33.290374,39.970955],[33.288255,39.983063],[33.28972,39.98751],[33.292079,39.989452],[33.300831,40.00598],[33.308752,40.024202],[33.309102,40.024197]]]]}},{"type":"Feature","properties":{"id":"TR-Y-06-009-M-0013","level":"yerlesim","type":"mahalle","parent_id":"TR-D-06-009","province_id":"TR-P-06","district_id":"TR-D-06-009","name":"Kemalpaşa","source_raw_name":"KEMALPAŞA","source":"Kamuya açık veri ve kent rehberi servisleri","source_label":"Kamuya açık veri ve kent rehberi servisleri","source_name":"Ankara Büyükşehir Belediyesi Seffaf Ankara Açık Veri Platformu - MAKS Mahalle"},"geometry":{"type":"MultiPolygon","coordinates":[[[[33.212471,39.941866],[33.212907,39.941398],[33.213073,39.941192],[33.213322,39.94095],[33.213397,39.940837],[33.214422,39.939715],[33.215884,39.938148],[33.21671,39.937225],[33.217967,39.935867],[33.218012,39.935835],[33.218175,39.935787],[33.218648,39.935709],[33.218776,39.935666],[33.218889,39.935587],[33.219584,39.934849],[33.220705,39.933776],[33.221096,39.933343],[33.221359,39.933138],[33.222882,39.932244],[33.223172,39.93211],[33.224103,39.931561],[33.224397,39.931407],[33.225394,39.930815],[33.226103,39.930381],[33.226965,39.929815],[33.228337,39.928966],[33.227043,39.928087],[33.228008,39.927305],[33.229935,39.925891],[33.230237,39.925733],[33.23043,39.925612],[33.230153,39.925067],[33.228169,39.922438],[33.227833,39.922042],[33.229692,39.920767],[33.23027,39.920505],[33.229817,39.919719],[33.23178,39.918326],[33.232085,39.918044],[33.230943,39.917307],[33.230525,39.91664],[33.230421,39.916156],[33.230281,39.915858],[33.230106,39.915709],[33.229226,39.916193],[33.227818,39.916876],[33.227603,39.917006],[33.224647,39.918498],[33.224543,39.918574],[33.223855,39.918933],[33.221716,39.920336],[33.220733,39.92106],[33.220172,39.921512],[33.217778,39.923715],[33.214814,39.926652],[33.212936,39.928481],[33.211274,39.930038],[33.210103,39.931186],[33.209893,39.931435],[33.209469,39.931792],[33.199073,39.941819],[33.198261,39.942592],[33.19815,39.942645],[33.198613,39.942804],[33.199132,39.942896],[33.200037,39.942944],[33.201447,39.942967],[33.202568,39.942857],[33.203266,39.942752],[33.204905,39.942569],[33.208142,39.941639],[33.208369,39.942009],[33.208848,39.942915],[33.208918,39.943683],[33.208812,39.944334],[33.209567,39.944297],[33.209809,39.944252],[33.210219,39.944112],[33.21048,39.943951],[33.210708,39.943784],[33.211053,39.943447],[33.212471,39.941866]]]]}},{"type":"Feature","properties":{"id":"TR-Y-06-009-M-0014","level":"yerlesim","type":"mahalle","parent_id":"TR-D-06-009","province_id":"TR-P-06","district_id":"TR-D-06-009","name":"Kurtuluş","source_raw_name":"KURTULUŞ","source":"Kamuya açık veri ve kent rehberi servisleri","source_label":"Kamuya açık veri ve kent rehberi servisleri","source_name":"Ankara Büyükşehir Belediyesi Seffaf Ankara Açık Veri Platformu - MAKS Mahalle"},"geometry":{"type":"MultiPolygon","coordinates":[[[[33.265073,39.922403],[33.265581,39.922396],[33.265584,39.922237],[33.266623,39.920521],[33.267345,39.919838],[33.267261,39.918992],[33.26661,39.917012],[33.266685,39.91487],[33.266959,39.914816],[33.267233,39.914736],[33.267531,39.914626],[33.267785,39.914463],[33.268131,39.914097],[33.268218,39.913897],[33.268188,39.913784],[33.268227,39.913716],[33.268447,39.913474],[33.268465,39.913286],[33.268505,39.913172],[33.268579,39.913118],[33.268709,39.913102],[33.268878,39.913102],[33.269029,39.913129],[33.26938,39.913143],[33.269976,39.913123],[33.270729,39.913144],[33.271095,39.912994],[33.271314,39.912869],[33.271576,39.912785],[33.271924,39.912706],[33.272278,39.912569],[33.272813,39.912443],[33.273182,39.912252],[33.273489,39.912113],[33.273605,39.912097],[33.276266,39.910893],[33.277391,39.910651],[33.277662,39.910547],[33.27849,39.910289],[33.279045,39.910144],[33.279677,39.909945],[33.279875,39.909894],[33.280156,39.90988],[33.280322,39.909834],[33.280459,39.909778],[33.282763,39.909548],[33.283021,39.909566],[33.283566,39.909561],[33.283887,39.909582],[33.28427,39.909663],[33.284448,39.909646],[33.284625,39.909652],[33.284702,39.90996],[33.284809,39.910032],[33.28497,39.910058],[33.285551,39.909806],[33.286177,39.909797],[33.286304,39.909743],[33.286733,39.90951],[33.286877,39.909318],[33.287241,39.908967],[33.287574,39.908758],[33.287732,39.908602],[33.287835,39.908442],[33.289266,39.907061],[33.291294,39.906413],[33.292275,39.905853],[33.293218,39.905078],[33.294055,39.904846],[33.294749,39.90512],[33.295893,39.905515],[33.298586,39.904343],[33.29952,39.903654],[33.300164,39.90387],[33.303482,39.903809],[33.30629,39.902739],[33.304684,39.900651],[33.303809,39.894817],[33.302545,39.888494],[33.305669,39.883722],[33.300188,39.88606],[33.297674,39.886964],[33.294885,39.886399],[33.290677,39.887386],[33.288502,39.887342],[33.285401,39.88838],[33.28248,39.889519],[33.280335,39.889616],[33.277158,39.889118],[33.275045,39.888202],[33.273592,39.886464],[33.273068,39.885601],[33.26699,39.887775],[33.262406,39.887591],[33.260325,39.887275],[33.253615,39.881515],[33.251817,39.879266],[33.246918,39.877294],[33.245615,39.881577],[33.245767,39.881724],[33.245837,39.882003],[33.245746,39.882391],[33.245415,39.882916],[33.245157,39.883083],[33.24371,39.88784],[33.243555,39.888073],[33.243474,39.888314],[33.243508,39.888508],[33.243507,39.888669],[33.243472,39.888829],[33.243202,39.889272],[33.243153,39.889433],[33.243175,39.8896],[33.241579,39.894845],[33.239019,39.896374],[33.24031,39.899016],[33.238935,39.903532],[33.235834,39.90493],[33.232691,39.906109],[33.231369,39.905643],[33.22946,39.905874],[33.229306,39.906126],[33.229497,39.906623],[33.229498,39.906837],[33.229555,39.907154],[33.229562,39.907291],[33.229797,39.908011],[33.230069,39.908457],[33.230397,39.908949],[33.231356,39.910145],[33.231969,39.911083],[33.232391,39.911658],[33.232637,39.911892],[33.23307,39.912107],[33.235069,39.913688],[33.236015,39.913537],[33.236559,39.913466],[33.237918,39.913423],[33.238444,39.913455],[33.239938,39.913657],[33.240237,39.913757],[33.24054,39.913839],[33.240608,39.913842],[33.240766,39.913903],[33.241634,39.914135],[33.245192,39.915755],[33.245787,39.916014],[33.24643,39.916261],[33.247888,39.916957],[33.249503,39.91769],[33.2508,39.918033],[33.2518,39.918084],[33.25377,39.917907],[33.254525,39.917918],[33.255027,39.917994],[33.255564,39.918159],[33.256,39.918368],[33.256179,39.918506],[33.256354,39.918558],[33.257086,39.9192],[33.257229,39.919304],[33.25731,39.919442],[33.257839,39.920061],[33.259317,39.921597],[33.260205,39.922167],[33.260719,39.922356],[33.261215,39.922488],[33.26184,39.922587],[33.262478,39.922614],[33.263217,39.92259],[33.263558,39.922529],[33.264127,39.922459],[33.264697,39.922408],[33.265073,39.922403]]]]}},{"type":"Feature","properties":{"id":"TR-Y-06-009-M-0015","level":"yerlesim","type":"mahalle","parent_id":"TR-D-06-009","province_id":"TR-P-06","district_id":"TR-D-06-009","name":"Kuşçuali","source_raw_name":"KUŞÇUALİ","source":"Kamuya açık veri ve kent rehberi servisleri","source_label":"Kamuya açık veri ve kent rehberi servisleri","source_name":"Ankara Büyükşehir Belediyesi Seffaf Ankara Açık Veri Platformu - MAKS Mahalle"},"geometry":{"type":"MultiPolygon","coordinates":[[[[33.260633,39.83398],[33.269565,39.829781],[33.272758,39.831003],[33.28001,39.831506],[33.281244,39.831002],[33.285126,39.827895],[33.286633,39.826271],[33.289942,39.824738],[33.28973,39.82437],[33.291538,39.823387],[33.296895,39.82173],[33.296739,39.820264],[33.293547,39.819138],[33.292701,39.815315],[33.287333,39.812575],[33.288815,39.811194],[33.283822,39.808954],[33.282829,39.802718],[33.275647,39.792179],[33.275886,39.785535],[33.273914,39.784945],[33.272323,39.782478],[33.268778,39.784778],[33.265914,39.782879],[33.263801,39.775377],[33.261102,39.772604],[33.260631,39.780165],[33.258957,39.779802],[33.257075,39.779429],[33.254467,39.779053],[33.251508,39.779432],[33.249872,39.779115],[33.249213,39.778527],[33.248169,39.778654],[33.246108,39.779195],[33.241272,39.782676],[33.240768,39.782221],[33.240749,39.782235],[33.238716,39.780398],[33.238179,39.779658],[33.237169,39.781653],[33.238095,39.784214],[33.236966,39.78503],[33.233598,39.78452],[33.231164,39.786161],[33.230527,39.788041],[33.231836,39.78994],[33.230449,39.792602],[33.229717,39.794386],[33.22933,39.796302],[33.228623,39.798087],[33.227939,39.799491],[33.227473,39.799967],[33.225962,39.802106],[33.226619,39.802077],[33.227239,39.802564],[33.227951,39.803159],[33.228822,39.805016],[33.229239,39.807902],[33.223761,39.807294],[33.218814,39.807982],[33.216893,39.810857],[33.216802,39.81531],[33.216836,39.81579],[33.217462,39.816101],[33.217709,39.816115],[33.218041,39.816055],[33.218538,39.816032],[33.21865,39.816049],[33.219398,39.816221],[33.219921,39.816402],[33.220506,39.816568],[33.220708,39.816557],[33.220989,39.816406],[33.221147,39.816379],[33.221668,39.816445],[33.221878,39.8165],[33.222095,39.816601],[33.222345,39.816743],[33.222764,39.817043],[33.223248,39.817504],[33.223344,39.817564],[33.22341,39.817584],[33.223512,39.817584],[33.22416,39.817345],[33.224325,39.817318],[33.224616,39.817336],[33.225436,39.817432],[33.225821,39.817441],[33.226021,39.817534],[33.226232,39.817711],[33.226443,39.817914],[33.226906,39.818457],[33.227079,39.818635],[33.227347,39.818858],[33.228349,39.819616],[33.229054,39.820183],[33.229329,39.820343],[33.22959,39.820466],[33.229835,39.820639],[33.229931,39.820739],[33.230023,39.820794],[33.230112,39.820825],[33.230372,39.820841],[33.230788,39.820811],[33.230977,39.820827],[33.231183,39.820874],[33.231381,39.820941],[33.231628,39.820992],[33.231806,39.820974],[33.231968,39.820918],[33.232307,39.820763],[33.232496,39.820717],[33.233027,39.82066],[33.23342,39.820637],[33.23379,39.820714],[33.234114,39.820761],[33.234403,39.820754],[33.236037,39.82129],[33.23732,39.821946],[33.23888,39.824438],[33.239658,39.826541],[33.239645,39.828294],[33.240068,39.83287],[33.245882,39.832813],[33.248866,39.83209],[33.254602,39.83443],[33.25455,39.834577],[33.254327,39.835721],[33.259001,39.834559],[33.260633,39.83398]]]]}},{"type":"Feature","properties":{"id":"TR-Y-06-009-M-0016","level":"yerlesim","type":"mahalle","parent_id":"TR-D-06-009","province_id":"TR-P-06","district_id":"TR-D-06-009","name":"Lalabel","source_raw_name":"LALABEL","source":"Kamuya açık veri ve kent rehberi servisleri","source_label":"Kamuya açık veri ve kent rehberi servisleri","source_name":"Ankara Büyükşehir Belediyesi Seffaf Ankara Açık Veri Platformu - MAKS Mahalle"},"geometry":{"type":"MultiPolygon","coordinates":[[[[33.219745,39.986826],[33.221181,39.984881],[33.222426,39.98346],[33.223736,39.983408],[33.223361,39.982243],[33.223033,39.981786],[33.223179,39.981145],[33.223755,39.979886],[33.224584,39.978706],[33.224908,39.977973],[33.225485,39.977069],[33.225721,39.976508],[33.226507,39.975911],[33.227559,39.975334],[33.224319,39.972939],[33.228373,39.964595],[33.22822,39.964577],[33.226365,39.964736],[33.226138,39.964742],[33.225238,39.964709],[33.224854,39.964636],[33.22268,39.964368],[33.222166,39.964261],[33.22115,39.964002],[33.220841,39.963964],[33.220092,39.963829],[33.219566,39.963721],[33.218608,39.963492],[33.218271,39.96345],[33.217591,39.963274],[33.21599,39.962987],[33.214319,39.962907],[33.21413,39.962884],[33.214004,39.962914],[33.213778,39.962853],[33.213309,39.962768],[33.212784,39.962702],[33.210767,39.962559],[33.209614,39.962446],[33.208717,39.962314],[33.207304,39.962175],[33.207094,39.962131],[33.207297,39.96133],[33.207359,39.960808],[33.207439,39.96041],[33.208796,39.959518],[33.210272,39.958508],[33.211034,39.95763],[33.211642,39.956531],[33.211945,39.955654],[33.211926,39.954882],[33.211686,39.954098],[33.211327,39.953497],[33.210713,39.952831],[33.209896,39.95227],[33.207768,39.95128],[33.207127,39.950748],[33.206672,39.950139],[33.206421,39.949459],[33.206328,39.948675],[33.206439,39.947907],[33.206776,39.947087],[33.207227,39.946458],[33.207973,39.945916],[33.208493,39.94527],[33.208807,39.944363],[33.208918,39.943683],[33.208848,39.942915],[33.208369,39.942009],[33.208142,39.941639],[33.204905,39.942569],[33.203266,39.942752],[33.202568,39.942857],[33.201447,39.942967],[33.200037,39.942944],[33.199132,39.942896],[33.198613,39.942804],[33.19815,39.942645],[33.198261,39.942592],[33.199073,39.941819],[33.204601,39.936478],[33.207031,39.934152],[33.206984,39.934125],[33.206684,39.933842],[33.204305,39.933146],[33.201835,39.93099],[33.198832,39.930859],[33.197915,39.930753],[33.196196,39.930607],[33.189863,39.930152],[33.18767,39.929441],[33.186851,39.928994],[33.183218,39.925996],[33.181989,39.924493],[33.18169,39.922453],[33.184888,39.916786],[33.183272,39.91666],[33.182029,39.917034],[33.181063,39.916907],[33.180301,39.916536],[33.179299,39.916681],[33.177905,39.916282],[33.17625,39.91517],[33.174387,39.913042],[33.173175,39.910671],[33.171461,39.910176],[33.169635,39.910366],[33.16393,39.913817],[33.166356,39.919813],[33.165896,39.921313],[33.165339,39.921529],[33.165991,39.922242],[33.164137,39.923031],[33.166834,39.925884],[33.166855,39.927082],[33.166188,39.927614],[33.167236,39.928333],[33.167507,39.930381],[33.169707,39.932669],[33.169718,39.937258],[33.170983,39.937396],[33.173457,39.94032],[33.173841,39.942205],[33.173953,39.942218],[33.174093,39.942382],[33.174123,39.942982],[33.174073,39.943279],[33.173562,39.945179],[33.174369,39.945305],[33.174623,39.945402],[33.174857,39.945524],[33.177537,39.94801],[33.177664,39.948186],[33.177728,39.948458],[33.177479,39.950023],[33.178535,39.950013],[33.178932,39.950213],[33.179542,39.951151],[33.1797,39.952638],[33.179639,39.952714],[33.181305,39.954344],[33.181491,39.954358],[33.181486,39.954384],[33.182076,39.955049],[33.183396,39.95635],[33.183595,39.956866],[33.183648,39.957136],[33.183869,39.95736],[33.183539,39.957555],[33.183705,39.957785],[33.184233,39.957622],[33.184489,39.957916],[33.184655,39.958147],[33.184562,39.958396],[33.184643,39.958488],[33.184918,39.958511],[33.184792,39.958655],[33.18494,39.958821],[33.18463,39.95896],[33.185779,39.960154],[33.186194,39.961732],[33.18647,39.96202],[33.18661,39.962204],[33.187177,39.96271],[33.188036,39.963101],[33.18804,39.964491],[33.187798,39.964735],[33.188007,39.965348],[33.188856,39.965745],[33.192199,39.965042],[33.194194,39.967542],[33.195255,39.966722],[33.198309,39.968787],[33.198356,39.968787],[33.200711,39.968226],[33.204728,39.970734],[33.205967,39.972944],[33.205972,39.974751],[33.210122,39.97405],[33.211761,39.978079],[33.21448,39.980021],[33.2134,39.981553],[33.218465,39.982517],[33.219374,39.984045],[33.217361,39.986641],[33.217474,39.986638],[33.217526,39.986671],[33.217614,39.986692],[33.217758,39.98683],[33.219745,39.986826]]]]}},{"type":"Feature","properties":{"id":"TR-Y-06-009-M-0017","level":"yerlesim","type":"mahalle","parent_id":"TR-D-06-009","province_id":"TR-P-06","district_id":"TR-D-06-009","name":"Muzaffer Ekşi","source_raw_name":"MUZAFFER EKŞİ","source":"Kamuya açık veri ve kent rehberi servisleri","source_label":"Kamuya açık veri ve kent rehberi servisleri","source_name":"Ankara Büyükşehir Belediyesi Seffaf Ankara Açık Veri Platformu - MAKS Mahalle"},"geometry":{"type":"MultiPolygon","coordinates":[[[[33.175074,39.98534],[33.174894,39.985099],[33.175088,39.984853],[33.175184,39.984943],[33.17524,39.98511],[33.17543,39.985353],[33.176281,39.985049],[33.176772,39.984829],[33.178563,39.98372],[33.179512,39.983268],[33.180454,39.982873],[33.18166,39.982544],[33.182148,39.982464],[33.182129,39.982013],[33.182612,39.981783],[33.183933,39.981199],[33.186719,39.979846],[33.18924,39.978843],[33.189458,39.978663],[33.189556,39.978507],[33.18951,39.978496],[33.189011,39.978558],[33.188091,39.978336],[33.187626,39.97775],[33.183616,39.977345],[33.182919,39.977366],[33.181811,39.977218],[33.180975,39.977202],[33.180109,39.977018],[33.178411,39.977052],[33.176308,39.976908],[33.17614,39.976856],[33.175503,39.976337],[33.17458,39.975803],[33.173466,39.975386],[33.173148,39.975837],[33.172867,39.976143],[33.172445,39.976544],[33.172129,39.976899],[33.171873,39.97732],[33.170951,39.979168],[33.170914,39.979493],[33.17091,39.979914],[33.170991,39.980282],[33.171132,39.980699],[33.171331,39.980974],[33.171572,39.981267],[33.172142,39.981826],[33.172513,39.982246],[33.172706,39.982559],[33.172873,39.982914],[33.17296,39.983268],[33.172977,39.983588],[33.1729,39.983992],[33.172809,39.984322],[33.172721,39.984508],[33.173755,39.985391],[33.173869,39.985233],[33.174562,39.985661],[33.175074,39.98534]]]]}},{"type":"Feature","properties":{"id":"TR-Y-06-009-M-0018","level":"yerlesim","type":"mahalle","parent_id":"TR-D-06-009","province_id":"TR-P-06","district_id":"TR-D-06-009","name":"Şehitlik","source_raw_name":"ŞEHİTLİK","source":"Kamuya açık veri ve kent rehberi servisleri","source_label":"Kamuya açık veri ve kent rehberi servisleri","source_name":"Ankara Büyükşehir Belediyesi Seffaf Ankara Açık Veri Platformu - MAKS Mahalle"},"geometry":{"type":"MultiPolygon","coordinates":[[[[33.177111,40.05261],[33.183901,40.029884],[33.184974,40.02922],[33.184365,40.028617],[33.185214,40.026298],[33.185279,40.02538],[33.185246,40.02513],[33.18524,40.024701],[33.185215,40.02463],[33.185028,40.02448],[33.184907,40.024358],[33.184403,40.023484],[33.184311,40.023118],[33.184374,40.022842],[33.184399,40.022655],[33.184396,40.022512],[33.184306,40.022239],[33.184001,40.021544],[33.183792,40.021251],[33.183596,40.021053],[33.183432,40.020859],[33.183327,40.020668],[33.183105,40.020058],[33.183039,40.019673],[33.182867,40.019247],[33.182805,40.019045],[33.1827,40.018849],[33.18206,40.017815],[33.181409,40.017381],[33.181198,40.017214],[33.180855,40.016422],[33.180814,40.016182],[33.180853,40.015939],[33.181298,40.014747],[33.181451,40.014448],[33.181667,40.014204],[33.181884,40.013993],[33.181965,40.013762],[33.182172,40.013334],[33.182502,40.012941],[33.182601,40.012338],[33.182604,40.012192],[33.183702,40.011569],[33.184759,40.010552],[33.184112,40.009495],[33.182989,40.00893],[33.182798,40.00854],[33.182476,40.007959],[33.182482,40.007917],[33.181651,40.006455],[33.181479,40.006072],[33.181377,40.00566],[33.181345,40.005363],[33.181349,40.004915],[33.181398,40.004723],[33.181375,40.002753],[33.180942,40.001706],[33.180729,40.001528],[33.180724,40.001198],[33.180617,40.000868],[33.180787,40.000855],[33.180847,40.000554],[33.180833,40.000485],[33.180674,40.000355],[33.1808,40.00032],[33.18091,39.999886],[33.181108,39.999506],[33.181295,39.998948],[33.181447,39.998638],[33.179653,39.997884],[33.178448,39.996161],[33.177971,39.996125],[33.173206,39.993471],[33.170792,39.992458],[33.17008,39.991923],[33.168788,39.990628],[33.168295,39.989584],[33.165959,39.986578],[33.164964,39.985719],[33.164604,39.985334],[33.166,39.984489],[33.164558,39.982953],[33.163165,39.983739],[33.163024,39.983575],[33.163024,39.983536],[33.162836,39.983187],[33.161677,39.980803],[33.160852,39.98068],[33.160642,39.98061],[33.159612,39.979931],[33.158921,39.979334],[33.158597,39.979632],[33.146903,39.984406],[33.133362,39.996882],[33.122244,40.008265],[33.112407,40.021702],[33.11092,40.024686],[33.116595,40.027205],[33.117337,40.03042],[33.121493,40.031218],[33.125647,40.033968],[33.128484,40.03817],[33.129622,40.041359],[33.13378,40.045124],[33.138309,40.045843],[33.143415,40.048448],[33.147942,40.048007],[33.152089,40.046697],[33.158496,40.046689],[33.1585,40.048116],[33.158391,40.048233],[33.158398,40.048426],[33.158501,40.048572],[33.16039,40.049874],[33.159639,40.05118],[33.16568,40.052767],[33.171904,40.052033],[33.176809,40.053619],[33.177111,40.05261]]]]}},{"type":"Feature","properties":{"id":"TR-Y-06-009-M-0019","level":"yerlesim","type":"mahalle","parent_id":"TR-D-06-009","province_id":"TR-P-06","district_id":"TR-D-06-009","name":"Seyitcemali","source_raw_name":"SEYİTCEMALİ","source":"Kamuya açık veri ve kent rehberi servisleri","source_label":"Kamuya açık veri ve kent rehberi servisleri","source_name":"Ankara Büyükşehir Belediyesi Seffaf Ankara Açık Veri Platformu - MAKS Mahalle"},"geometry":{"type":"MultiPolygon","coordinates":[[[[33.270297,40.067334],[33.274949,40.059809],[33.285853,40.050213],[33.291845,40.039614],[33.308752,40.024202],[33.300831,40.00598],[33.292079,39.989452],[33.28972,39.98751],[33.288255,39.983063],[33.290374,39.970955],[33.287471,39.968598],[33.283029,39.966623],[33.269278,39.961415],[33.265781,39.964268],[33.257809,39.96585],[33.25006,39.969796],[33.247168,39.968969],[33.247174,39.970498],[33.244838,39.973022],[33.246193,39.974182],[33.247312,39.975286],[33.247822,39.975895],[33.24907,39.978465],[33.24988,39.979684],[33.250666,39.981131],[33.25206,39.983053],[33.252535,39.983939],[33.254281,39.987695],[33.254848,39.989155],[33.255137,39.990242],[33.255188,39.991911],[33.254951,39.991791],[33.253481,39.990832],[33.25337,39.990787],[33.25253,39.991707],[33.252282,39.992019],[33.25196,39.992323],[33.251652,39.992512],[33.251177,39.99268],[33.251052,39.992805],[33.251256,39.992978],[33.2512,39.993067],[33.250903,39.993279],[33.250413,39.993532],[33.25017,39.993697],[33.249521,39.994375],[33.249234,39.994711],[33.249087,39.994935],[33.248797,39.995283],[33.248543,39.995317],[33.247742,39.995521],[33.247514,39.99571],[33.247412,39.996008],[33.247432,39.996422],[33.246771,39.997202],[33.246603,39.997332],[33.246287,39.997397],[33.245742,39.998111],[33.245133,39.998534],[33.245262,39.999498],[33.244738,40.000042],[33.244317,40.000245],[33.244202,40.00048],[33.243992,40.000602],[33.243888,40.000991],[33.243678,40.00117],[33.243658,40.001486],[33.243532,40.00164],[33.243617,40.001891],[33.243175,40.00203],[33.242978,40.002833],[33.235628,40.005926],[33.234961,40.005909],[33.234477,40.005988],[33.233029,40.00642],[33.232584,40.006736],[33.232213,40.006944],[33.231471,40.007675],[33.230479,40.008094],[33.2276,40.011154],[33.228159,40.015881],[33.228893,40.019079],[33.230889,40.021022],[33.231616,40.021855],[33.233071,40.024077],[33.233115,40.025466],[33.233269,40.025602],[33.233249,40.026089],[33.233331,40.026283],[33.233347,40.026586],[33.233244,40.026912],[33.233234,40.029244],[33.233273,40.030475],[33.231293,40.033399],[33.225921,40.050378],[33.223953,40.057336],[33.224207,40.064558],[33.228223,40.063266],[33.233331,40.064336],[33.239803,40.063375],[33.244449,40.064945],[33.248841,40.066578],[33.249381,40.06713],[33.252536,40.069574],[33.254243,40.071745],[33.257826,40.072027],[33.262538,40.070712],[33.264979,40.067661],[33.270297,40.067334]]]]}},{"type":"Feature","properties":{"id":"TR-Y-06-009-M-0020","level":"yerlesim","type":"mahalle","parent_id":"TR-D-06-009","province_id":"TR-P-06","district_id":"TR-D-06-009","name":"Süleymanlı","source_raw_name":"SÜLEYMANLI","source":"Kamuya açık veri ve kent rehberi servisleri","source_label":"Kamuya açık veri ve kent rehberi servisleri","source_name":"Ankara Büyükşehir Belediyesi Seffaf Ankara Açık Veri Platformu - MAKS Mahalle"},"geometry":{"type":"MultiPolygon","coordinates":[[[[33.148075,39.747016],[33.148445,39.746216],[33.149244,39.746974],[33.149668,39.74685],[33.149747,39.74646],[33.150173,39.745534],[33.150032,39.74494],[33.15059,39.745062],[33.150801,39.744611],[33.151464,39.74422],[33.153668,39.743664],[33.155685,39.742923],[33.157066,39.74288],[33.157093,39.743351],[33.157731,39.743392],[33.158661,39.743329],[33.159988,39.743184],[33.160227,39.742662],[33.162497,39.741396],[33.164214,39.739967],[33.165754,39.739593],[33.16843,39.737868],[33.169246,39.736978],[33.170697,39.73579],[33.171911,39.734966],[33.174584,39.733639],[33.176022,39.732081],[33.178062,39.731445],[33.179439,39.731561],[33.179615,39.731259],[33.180359,39.73118],[33.180257,39.730859],[33.1805,39.730709],[33.180292,39.730073],[33.181136,39.729648],[33.182429,39.729098],[33.182987,39.729684],[33.184026,39.729547],[33.185065,39.728973],[33.185322,39.729395],[33.186206,39.729384],[33.186715,39.72929],[33.186996,39.729603],[33.188657,39.728983],[33.189746,39.729371],[33.190963,39.728301],[33.191539,39.729254],[33.190887,39.731261],[33.190387,39.731911],[33.191175,39.732007],[33.192102,39.732045],[33.193598,39.731727],[33.194264,39.731301],[33.194227,39.73068],[33.19416,39.730579],[33.193987,39.73019],[33.193643,39.728965],[33.193552,39.7282],[33.193497,39.72752],[33.193533,39.727161],[33.193587,39.727005],[33.193764,39.72673],[33.193847,39.726523],[33.193894,39.726373],[33.193919,39.726213],[33.19396,39.726155],[33.193952,39.726023],[33.19662,39.723724],[33.194234,39.720745],[33.193632,39.717992],[33.187971,39.712264],[33.178742,39.705623],[33.177549,39.70356],[33.174573,39.701728],[33.173077,39.6976],[33.173959,39.693927],[33.170978,39.689571],[33.160291,39.69234],[33.15436,39.696938],[33.150499,39.697402],[33.145147,39.695114],[33.141584,39.695577],[33.14248,39.69833],[33.134177,39.705913],[33.123189,39.708908],[33.125579,39.71579],[33.1143,39.723375],[33.116191,39.727751],[33.116015,39.728028],[33.115612,39.729321],[33.11539,39.729835],[33.115284,39.730003],[33.115173,39.730132],[33.114929,39.730331],[33.113945,39.73081],[33.113748,39.730925],[33.113566,39.731063],[33.113435,39.731203],[33.113331,39.73137],[33.113274,39.731519],[33.11326,39.731652],[33.113287,39.731914],[33.113387,39.7323],[33.113485,39.732597],[33.113619,39.732959],[33.113917,39.73365],[33.114102,39.734178],[33.114257,39.734446],[33.114668,39.735054],[33.114865,39.735465],[33.114923,39.735747],[33.114948,39.735989],[33.115001,39.736937],[33.115517,39.739438],[33.120576,39.742646],[33.124738,39.742871],[33.132469,39.74378],[33.138128,39.749511],[33.142885,39.750422],[33.145051,39.749009],[33.147174,39.748207],[33.148075,39.747016]]]]}},{"type":"Feature","properties":{"id":"TR-Y-06-009-M-0021","level":"yerlesim","type":"mahalle","parent_id":"TR-D-06-009","province_id":"TR-P-06","district_id":"TR-D-06-009","name":"Taburlar","source_raw_name":"TABURLAR","source":"Kamuya açık veri ve kent rehberi servisleri","source_label":"Kamuya açık veri ve kent rehberi servisleri","source_name":"Ankara Büyükşehir Belediyesi Seffaf Ankara Açık Veri Platformu - MAKS Mahalle"},"geometry":{"type":"MultiPolygon","coordinates":[[[[33.206071,39.814119],[33.213365,39.815854],[33.215041,39.816503],[33.216443,39.816804],[33.216836,39.81579],[33.216802,39.81531],[33.216893,39.810857],[33.218814,39.807982],[33.223761,39.807294],[33.229239,39.807902],[33.228822,39.805016],[33.227951,39.803159],[33.227239,39.802564],[33.226619,39.802077],[33.225962,39.802106],[33.227473,39.799967],[33.227939,39.799491],[33.228623,39.798087],[33.22933,39.796302],[33.229717,39.794386],[33.230449,39.792602],[33.231836,39.78994],[33.230527,39.788041],[33.231164,39.786161],[33.233598,39.78452],[33.236966,39.78503],[33.238095,39.784214],[33.237169,39.781653],[33.238179,39.779658],[33.237996,39.779512],[33.237423,39.779324],[33.235852,39.779272],[33.23472,39.778806],[33.23438,39.77844],[33.234197,39.778364],[33.232594,39.776638],[33.230525,39.776085],[33.228588,39.775785],[33.228258,39.775051],[33.228023,39.773495],[33.224672,39.772045],[33.222734,39.772752],[33.222418,39.773004],[33.222541,39.773765],[33.220198,39.775635],[33.21847,39.77749],[33.216782,39.777905],[33.214474,39.779007],[33.213185,39.779181],[33.210739,39.77898],[33.208973,39.778758],[33.208367,39.77865],[33.207022,39.779162],[33.206378,39.778975],[33.205456,39.778943],[33.205092,39.779152],[33.204527,39.779112],[33.203971,39.779167],[33.203076,39.779383],[33.202138,39.779787],[33.20153,39.779956],[33.199959,39.780589],[33.199376,39.780637],[33.198934,39.780926],[33.198378,39.781102],[33.197971,39.781511],[33.197762,39.781653],[33.197467,39.781653],[33.196693,39.78148],[33.196373,39.781466],[33.195743,39.78199],[33.195386,39.782184],[33.195208,39.782388],[33.1952,39.782872],[33.195078,39.783097],[33.194719,39.783352],[33.195031,39.783726],[33.195051,39.783921],[33.194731,39.784049],[33.194509,39.784477],[33.194587,39.784664],[33.194251,39.784701],[33.193723,39.784805],[33.193682,39.785188],[33.19358,39.785368],[33.193067,39.785465],[33.192975,39.785525],[33.192881,39.786104],[33.192687,39.786377],[33.192166,39.786683],[33.191446,39.786882],[33.190121,39.787732],[33.188749,39.788555],[33.188453,39.789086],[33.18827,39.789201],[33.187481,39.789334],[33.186732,39.790331],[33.185067,39.792034],[33.184593,39.792319],[33.181451,39.792268],[33.173264,39.790195],[33.168834,39.788414],[33.166614,39.790133],[33.164873,39.792536],[33.162094,39.793311],[33.160577,39.793638],[33.159654,39.795032],[33.154841,39.796679],[33.151809,39.798117],[33.156385,39.801872],[33.16208,39.806058],[33.163984,39.809233],[33.162461,39.810442],[33.159751,39.814354],[33.16403,39.818906],[33.182349,39.821742],[33.19395,39.814126],[33.197057,39.814307],[33.200486,39.813588],[33.206071,39.814119]]]]}},{"type":"Feature","properties":{"id":"TR-Y-06-009-M-0022","level":"yerlesim","type":"mahalle","parent_id":"TR-D-06-009","province_id":"TR-P-06","district_id":"TR-D-06-009","name":"Tatlıca","source_raw_name":"TATLICA","source":"Kamuya açık veri ve kent rehberi servisleri","source_label":"Kamuya açık veri ve kent rehberi servisleri","source_name":"Ankara Büyükşehir Belediyesi Seffaf Ankara Açık Veri Platformu - MAKS Mahalle"},"geometry":{"type":"MultiPolygon","coordinates":[[[[33.227818,39.916876],[33.229226,39.916193],[33.230106,39.915709],[33.230592,39.9155],[33.231124,39.915246],[33.232681,39.914451],[33.232685,39.91442],[33.232714,39.914438],[33.233026,39.91433],[33.233903,39.91396],[33.235069,39.913688],[33.23307,39.912107],[33.232637,39.911892],[33.232391,39.911658],[33.231969,39.911083],[33.231356,39.910145],[33.230397,39.908949],[33.230069,39.908457],[33.229797,39.908011],[33.229562,39.907291],[33.229555,39.907154],[33.229498,39.906837],[33.229497,39.906623],[33.229306,39.906126],[33.22946,39.905874],[33.231369,39.905643],[33.232691,39.906109],[33.235834,39.90493],[33.238935,39.903532],[33.24031,39.899016],[33.239019,39.896374],[33.241579,39.894845],[33.243175,39.8896],[33.243153,39.889433],[33.243202,39.889272],[33.243472,39.888829],[33.243507,39.888669],[33.243508,39.888508],[33.243474,39.888314],[33.243555,39.888073],[33.24371,39.88784],[33.245157,39.883083],[33.245415,39.882916],[33.245746,39.882391],[33.245837,39.882003],[33.245767,39.881724],[33.245615,39.881577],[33.246918,39.877294],[33.247307,39.876966],[33.249666,39.873219],[33.251821,39.869003],[33.254078,39.867761],[33.255135,39.865222],[33.256435,39.862964],[33.247717,39.867399],[33.239307,39.868759],[33.238991,39.86887],[33.239015,39.868933],[33.238895,39.869104],[33.238589,39.86932],[33.237441,39.869937],[33.236894,39.870081],[33.236125,39.870333],[33.235313,39.870693],[33.234963,39.870905],[33.234579,39.871191],[33.23431,39.871351],[33.233745,39.871517],[33.233115,39.871804],[33.23254,39.871855],[33.231742,39.871828],[33.231194,39.871794],[33.230888,39.871859],[33.230095,39.872321],[33.229869,39.872375],[33.228802,39.872177],[33.228477,39.872164],[33.228115,39.872229],[33.226738,39.872863],[33.223061,39.872315],[33.200245,39.859407],[33.190746,39.856788],[33.188194,39.854753],[33.172684,39.844707],[33.157352,39.837379],[33.152898,39.842892],[33.143689,39.852542],[33.146085,39.859194],[33.144901,39.862408],[33.142526,39.865853],[33.138665,39.870906],[33.145221,39.872734],[33.145829,39.8787],[33.144344,39.880997],[33.146734,39.884206],[33.150906,39.884889],[33.153896,39.889705],[33.150629,39.894299],[33.150938,39.899347],[33.159008,39.910121],[33.15947,39.91125],[33.158546,39.912751],[33.161803,39.913821],[33.163941,39.913821],[33.169635,39.910366],[33.171461,39.910176],[33.173175,39.910671],[33.174387,39.913042],[33.17625,39.91517],[33.177905,39.916282],[33.179299,39.916681],[33.180301,39.916536],[33.181063,39.916907],[33.182029,39.917034],[33.183272,39.91666],[33.184888,39.916786],[33.18169,39.922453],[33.181989,39.924493],[33.183218,39.925996],[33.186851,39.928994],[33.18767,39.929441],[33.189863,39.930152],[33.196196,39.930607],[33.197915,39.930753],[33.198832,39.930859],[33.201835,39.93099],[33.204305,39.933146],[33.206684,39.933842],[33.206984,39.934125],[33.207031,39.934152],[33.209469,39.931792],[33.209893,39.931435],[33.210103,39.931186],[33.211274,39.930038],[33.212936,39.928481],[33.214814,39.926652],[33.217778,39.923715],[33.220172,39.921512],[33.220394,39.921327],[33.220733,39.92106],[33.221716,39.920336],[33.223855,39.918933],[33.224543,39.918574],[33.224647,39.918498],[33.227603,39.917006],[33.227818,39.916876]]]]}},{"type":"Feature","properties":{"id":"TR-Y-06-009-M-0023","level":"yerlesim","type":"mahalle","parent_id":"TR-D-06-009","province_id":"TR-P-06","district_id":"TR-D-06-009","name":"Tekkeköy","source_raw_name":"TEKKE","source":"Kamuya açık veri ve kent rehberi servisleri","source_label":"Kamuya açık veri ve kent rehberi servisleri","source_name":"Ankara Büyükşehir Belediyesi Seffaf Ankara Açık Veri Platformu - MAKS Mahalle"},"geometry":{"type":"MultiPolygon","coordinates":[[[[33.082916,39.824605],[33.082124,39.82384],[33.082838,39.82215],[33.085424,39.82156],[33.085046,39.81991],[33.085176,39.819086],[33.085229,39.819075],[33.084938,39.818361],[33.084801,39.818145],[33.084896,39.81803],[33.085127,39.817924],[33.085271,39.817827],[33.08535,39.817745],[33.085451,39.817331],[33.085515,39.816947],[33.085741,39.816439],[33.086091,39.815159],[33.086167,39.814811],[33.08626,39.814527],[33.086284,39.814275],[33.086215,39.81381],[33.086218,39.813676],[33.086267,39.813522],[33.086245,39.813327],[33.085217,39.812478],[33.084765,39.811555],[33.084679,39.811196],[33.083543,39.810437],[33.082768,39.810654],[33.08268,39.810367],[33.082463,39.810388],[33.0821,39.809881],[33.083998,39.809351],[33.084174,39.809028],[33.083722,39.808088],[33.083068,39.80731],[33.082565,39.806976],[33.080638,39.806274],[33.079819,39.80509],[33.08012,39.802524],[33.079336,39.801221],[33.080434,39.798816],[33.080435,39.798197],[33.079795,39.797578],[33.080192,39.796013],[33.079576,39.794678],[33.079465,39.793733],[33.06711,39.788356],[33.060566,39.78813],[33.056702,39.791574],[33.051051,39.791348],[33.048375,39.792496],[33.04213,39.795711],[33.039152,39.794106],[33.032608,39.795485],[33.028147,39.797781],[33.027255,39.800994],[33.022496,39.805126],[33.016249,39.810175],[33.016548,39.816371],[33.021607,39.818206],[33.032915,39.815908],[33.040058,39.818889],[33.051368,39.819803],[33.065057,39.819337],[33.079051,39.825754],[33.082916,39.824605]]]]}},{"type":"Feature","properties":{"id":"TR-Y-06-009-M-0024","level":"yerlesim","type":"mahalle","parent_id":"TR-D-06-009","province_id":"TR-P-06","district_id":"TR-D-06-009","name":"Üçevler","source_raw_name":"ÜÇEVLER","source":"Kamuya açık veri ve kent rehberi servisleri","source_label":"Kamuya açık veri ve kent rehberi servisleri","source_name":"Ankara Büyükşehir Belediyesi Seffaf Ankara Açık Veri Platformu - MAKS Mahalle"},"geometry":{"type":"MultiPolygon","coordinates":[[[[33.209134,39.950865],[33.210885,39.950342],[33.211285,39.950203],[33.212835,39.94977],[33.214538,39.949266],[33.215521,39.948934],[33.216262,39.948785],[33.217265,39.948499],[33.21761,39.948386],[33.219129,39.947682],[33.219643,39.947467],[33.220182,39.947218],[33.220636,39.946991],[33.220966,39.946857],[33.221495,39.946686],[33.222311,39.946448],[33.224576,39.945871],[33.226204,39.945627],[33.22708,39.945566],[33.229201,39.945367],[33.229806,39.945336],[33.230765,39.945164],[33.231562,39.944986],[33.231885,39.944934],[33.23282,39.944822],[33.234706,39.944517],[33.235939,39.944191],[33.236155,39.944153],[33.236269,39.944179],[33.236681,39.943008],[33.237476,39.939497],[33.237725,39.938853],[33.23786,39.937544],[33.237915,39.937358],[33.238154,39.936836],[33.23846,39.936435],[33.23856,39.936013],[33.23859,39.935946],[33.241716,39.936535],[33.243321,39.935376],[33.242022,39.932034],[33.240379,39.929849],[33.240644,39.92894],[33.240749,39.928382],[33.241048,39.927551],[33.241203,39.926564],[33.241303,39.925718],[33.241487,39.925557],[33.241041,39.925688],[33.240723,39.925831],[33.24025,39.92621],[33.23895,39.927642],[33.238401,39.928073],[33.237792,39.928433],[33.236692,39.929016],[33.236083,39.929292],[33.235355,39.929456],[33.234762,39.92947],[33.234228,39.929432],[33.233575,39.929205],[33.23229,39.928608],[33.231852,39.928287],[33.231427,39.927844],[33.230383,39.926436],[33.229935,39.925891],[33.228008,39.927305],[33.227043,39.928087],[33.228337,39.928966],[33.226965,39.929815],[33.226103,39.930381],[33.225394,39.930815],[33.223305,39.932034],[33.222882,39.932244],[33.222689,39.932355],[33.221359,39.933138],[33.221261,39.933208],[33.221096,39.933343],[33.220705,39.933776],[33.219584,39.934849],[33.218889,39.935587],[33.218776,39.935666],[33.218648,39.935709],[33.218086,39.93581],[33.218012,39.935835],[33.217895,39.935931],[33.216028,39.937974],[33.215884,39.938148],[33.213397,39.940837],[33.213322,39.94095],[33.213073,39.941192],[33.212907,39.941398],[33.21275,39.941554],[33.211053,39.943447],[33.210708,39.943784],[33.21048,39.943951],[33.210219,39.944112],[33.209809,39.944252],[33.209567,39.944297],[33.208812,39.944334],[33.208493,39.94527],[33.207973,39.945916],[33.207227,39.946458],[33.206776,39.947087],[33.206439,39.947907],[33.206328,39.948675],[33.206421,39.949459],[33.206672,39.950139],[33.207127,39.950748],[33.207284,39.950878],[33.207402,39.950812],[33.207513,39.950804],[33.207723,39.950841],[33.208228,39.950977],[33.208462,39.951022],[33.208633,39.951011],[33.209134,39.950865]]]]}},{"type":"Feature","properties":{"id":"TR-Y-06-009-M-0025","level":"yerlesim","type":"mahalle","parent_id":"TR-D-06-009","province_id":"TR-P-06","district_id":"TR-D-06-009","name":"Yenice","source_raw_name":"YENİCE","source":"Kamuya açık veri ve kent rehberi servisleri","source_label":"Kamuya açık veri ve kent rehberi servisleri","source_name":"Ankara Büyükşehir Belediyesi Seffaf Ankara Açık Veri Platformu - MAKS Mahalle"},"geometry":{"type":"MultiPolygon","coordinates":[[[[33.241091,39.917633],[33.241932,39.916876],[33.239984,39.913771],[33.239938,39.913657],[33.238444,39.913455],[33.237918,39.913423],[33.236559,39.913466],[33.236015,39.913537],[33.235069,39.913688],[33.233903,39.91396],[33.233026,39.91433],[33.232714,39.914438],[33.232685,39.91442],[33.232681,39.914451],[33.231124,39.915246],[33.230592,39.9155],[33.230106,39.915709],[33.230281,39.915858],[33.230421,39.916156],[33.230525,39.91664],[33.230943,39.917307],[33.232085,39.918044],[33.234424,39.917309],[33.234707,39.917274],[33.237341,39.917752],[33.239997,39.918481],[33.240238,39.918401],[33.241091,39.917633]]]]}},{"type":"Feature","properties":{"id":"TR-Y-06-009-M-0026","level":"yerlesim","type":"mahalle","parent_id":"TR-D-06-009","province_id":"TR-P-06","district_id":"TR-D-06-009","name":"Yenidoğan","source_raw_name":"YENİDOĞAN","source":"Kamuya açık veri ve kent rehberi servisleri","source_label":"Kamuya açık veri ve kent rehberi servisleri","source_name":"Ankara Büyükşehir Belediyesi Seffaf Ankara Açık Veri Platformu - MAKS Mahalle"},"geometry":{"type":"MultiPolygon","coordinates":[[[[33.261098,39.927099],[33.262783,39.925836],[33.265516,39.925479],[33.265581,39.922396],[33.264697,39.922408],[33.2639,39.922482],[33.263217,39.92259],[33.262478,39.922614],[33.26184,39.922587],[33.261215,39.922488],[33.260719,39.922356],[33.260205,39.922167],[33.259317,39.921597],[33.257839,39.920061],[33.25731,39.919442],[33.257229,39.919304],[33.257086,39.9192],[33.256354,39.918558],[33.256179,39.918506],[33.256,39.918368],[33.255564,39.918159],[33.255027,39.917994],[33.254525,39.917918],[33.25377,39.917907],[33.2518,39.918084],[33.2508,39.918033],[33.249503,39.91769],[33.247888,39.916957],[33.24643,39.916261],[33.245787,39.916014],[33.245192,39.915755],[33.241634,39.914135],[33.240766,39.913903],[33.240608,39.913842],[33.24054,39.913839],[33.240237,39.913757],[33.239938,39.913657],[33.239984,39.913771],[33.241932,39.916876],[33.242568,39.917678],[33.243292,39.918675],[33.243399,39.91915],[33.243569,39.919562],[33.243427,39.920195],[33.243387,39.920508],[33.243552,39.920553],[33.243698,39.920534],[33.243774,39.920457],[33.24392,39.920471],[33.244121,39.920587],[33.24431,39.921177],[33.245294,39.922268],[33.246542,39.924262],[33.24704,39.925417],[33.2483,39.925373],[33.249455,39.9257],[33.250152,39.925843],[33.250826,39.926854],[33.25222,39.926727],[33.254097,39.926475],[33.254929,39.926679],[33.25777,39.92626],[33.259704,39.927102],[33.261098,39.927099]]]]}},{"type":"Feature","properties":{"id":"TR-Y-06-009-M-0027","level":"yerlesim","type":"mahalle","parent_id":"TR-D-06-009","province_id":"TR-P-06","district_id":"TR-D-06-009","name":"Yenimahalle","source_raw_name":"YENİMAHALLE","source":"Kamuya açık veri ve kent rehberi servisleri","source_label":"Kamuya açık veri ve kent rehberi servisleri","source_name":"Ankara Büyükşehir Belediyesi Seffaf Ankara Açık Veri Platformu - MAKS Mahalle"},"geometry":{"type":"MultiPolygon","coordinates":[[[[33.229554,39.983908],[33.230631,39.984071],[33.232517,39.983192],[33.231567,39.981753],[33.229761,39.980569],[33.230393,39.979576],[33.231656,39.978879],[33.236525,39.975113],[33.237791,39.975389],[33.243425,39.970098],[33.243515,39.970347],[33.243642,39.971109],[33.244104,39.972099],[33.244328,39.972461],[33.244838,39.973022],[33.247174,39.970498],[33.247168,39.968969],[33.25006,39.969796],[33.257809,39.96585],[33.265781,39.964268],[33.269278,39.961415],[33.283029,39.966623],[33.285475,39.963069],[33.287234,39.961194],[33.287888,39.959039],[33.290007,39.959881],[33.293121,39.959242],[33.294811,39.958017],[33.29502,39.955871],[33.293972,39.953728],[33.297195,39.948663],[33.302386,39.943792],[33.309558,39.937523],[33.315652,39.934909],[33.319486,39.925311],[33.322273,39.91987],[33.32352,39.919343],[33.326594,39.916919],[33.32713,39.915836],[33.327686,39.914623],[33.328884,39.914583],[33.327071,39.90931],[33.320923,39.907436],[33.320421,39.90498],[33.314514,39.90131],[33.304684,39.900651],[33.30629,39.902739],[33.303482,39.903809],[33.300164,39.90387],[33.29952,39.903654],[33.298586,39.904343],[33.295893,39.905515],[33.294749,39.90512],[33.294055,39.904846],[33.293218,39.905078],[33.292275,39.905853],[33.291294,39.906413],[33.289266,39.907061],[33.287835,39.908442],[33.287732,39.908602],[33.287574,39.908758],[33.287241,39.908967],[33.286877,39.909318],[33.286733,39.90951],[33.286304,39.909743],[33.286177,39.909797],[33.285551,39.909806],[33.28497,39.910058],[33.284809,39.910032],[33.284702,39.90996],[33.284625,39.909652],[33.284448,39.909646],[33.28427,39.909663],[33.283887,39.909582],[33.283566,39.909561],[33.283021,39.909566],[33.282763,39.909548],[33.280459,39.909778],[33.280322,39.909834],[33.280156,39.90988],[33.279875,39.909894],[33.279677,39.909945],[33.279045,39.910144],[33.27849,39.910289],[33.277662,39.910547],[33.277391,39.910651],[33.276266,39.910893],[33.273605,39.912097],[33.273489,39.912113],[33.273182,39.912252],[33.272813,39.912443],[33.272278,39.912569],[33.271924,39.912706],[33.271576,39.912785],[33.271314,39.912869],[33.271095,39.912994],[33.270729,39.913144],[33.269976,39.913123],[33.26938,39.913143],[33.269029,39.913129],[33.268878,39.913102],[33.268709,39.913102],[33.268579,39.913118],[33.268505,39.913172],[33.268465,39.913286],[33.268447,39.913474],[33.268227,39.913716],[33.268188,39.913784],[33.268218,39.913897],[33.268131,39.914097],[33.267785,39.914463],[33.267531,39.914626],[33.267233,39.914736],[33.266959,39.914816],[33.266685,39.91487],[33.26661,39.917012],[33.267261,39.918992],[33.267345,39.919838],[33.266623,39.920521],[33.265584,39.922237],[33.265516,39.925479],[33.262783,39.925836],[33.261098,39.927099],[33.259704,39.927102],[33.25777,39.92626],[33.254929,39.926679],[33.254097,39.926475],[33.25222,39.926727],[33.250826,39.926854],[33.250152,39.925843],[33.249455,39.9257],[33.2483,39.925373],[33.24704,39.925417],[33.2453,39.926081],[33.244361,39.926],[33.243394,39.925383],[33.241945,39.925159],[33.241303,39.925718],[33.241203,39.926564],[33.241048,39.927551],[33.240749,39.928382],[33.240644,39.92894],[33.240379,39.929849],[33.242022,39.932034],[33.243321,39.935376],[33.241716,39.936535],[33.23859,39.935946],[33.23856,39.936013],[33.23846,39.936435],[33.238154,39.936836],[33.237915,39.937358],[33.23786,39.937544],[33.237725,39.938853],[33.237476,39.939497],[33.236681,39.943008],[33.236269,39.944179],[33.236155,39.944153],[33.235939,39.944191],[33.234706,39.944517],[33.23282,39.944822],[33.231885,39.944934],[33.231562,39.944986],[33.230765,39.945164],[33.229806,39.945336],[33.229201,39.945367],[33.22708,39.945566],[33.226204,39.945627],[33.224576,39.945871],[33.222311,39.946448],[33.221495,39.946686],[33.220966,39.946857],[33.220636,39.946991],[33.220182,39.947218],[33.219643,39.947467],[33.219129,39.947682],[33.21761,39.948386],[33.217265,39.948499],[33.216262,39.948785],[33.215521,39.948934],[33.214538,39.949266],[33.212835,39.94977],[33.211285,39.950203],[33.210885,39.950342],[33.209863,39.95064],[33.208777,39.950977],[33.208633,39.951011],[33.208462,39.951022],[33.208228,39.950977],[33.207723,39.950841],[33.207513,39.950804],[33.207402,39.950812],[33.207283,39.950878],[33.207768,39.95128],[33.209896,39.95227],[33.210713,39.952831],[33.211327,39.953497],[33.211686,39.954098],[33.211926,39.954882],[33.211945,39.955654],[33.211642,39.956531],[33.211034,39.95763],[33.210272,39.958508],[33.208796,39.959518],[33.207439,39.96041],[33.207359,39.960808],[33.207297,39.96133],[33.207094,39.962131],[33.207304,39.962175],[33.208717,39.962314],[33.209614,39.962446],[33.210767,39.962559],[33.212784,39.962702],[33.213309,39.962768],[33.213778,39.962853],[33.214004,39.962914],[33.21413,39.962884],[33.214319,39.962907],[33.21599,39.962987],[33.217591,39.963274],[33.218271,39.96345],[33.218608,39.963492],[33.219566,39.963721],[33.220092,39.963829],[33.220841,39.963964],[33.22115,39.964002],[33.222166,39.964261],[33.22268,39.964368],[33.224854,39.964636],[33.225238,39.964709],[33.226138,39.964742],[33.226365,39.964736],[33.22822,39.964577],[33.228373,39.964595],[33.224319,39.972939],[33.227559,39.975334],[33.226507,39.975911],[33.225721,39.976508],[33.225485,39.977069],[33.224908,39.977973],[33.224584,39.978706],[33.223755,39.979886],[33.223179,39.981145],[33.223033,39.981786],[33.223361,39.982243],[33.223736,39.983408],[33.225155,39.983949],[33.227003,39.984359],[33.229554,39.983908]]]]}},{"type":"Feature","properties":{"id":"TR-Y-06-009-M-0028","level":"yerlesim","type":"mahalle","parent_id":"TR-D-06-009","province_id":"TR-P-06","district_id":"TR-D-06-009","name":"Yenipınar","source_raw_name":"YENİPINAR","source":"Kamuya açık veri ve kent rehberi servisleri","source_label":"Kamuya açık veri ve kent rehberi servisleri","source_name":"Ankara Büyükşehir Belediyesi Seffaf Ankara Açık Veri Platformu - MAKS Mahalle"},"geometry":{"type":"MultiPolygon","coordinates":[[[[33.24704,39.925417],[33.246542,39.924262],[33.245294,39.922268],[33.24431,39.921177],[33.244121,39.920587],[33.24392,39.920471],[33.243774,39.920457],[33.243698,39.920534],[33.243552,39.920553],[33.243387,39.920508],[33.243427,39.920195],[33.243569,39.919562],[33.243399,39.91915],[33.243292,39.918675],[33.242568,39.917678],[33.241932,39.916876],[33.240238,39.918401],[33.239997,39.918481],[33.237341,39.917752],[33.236607,39.917626],[33.237614,39.918826],[33.237368,39.919509],[33.236797,39.919721],[33.236654,39.920094],[33.237066,39.920482],[33.238076,39.920507],[33.238652,39.920867],[33.238114,39.921384],[33.239173,39.921695],[33.239913,39.92232],[33.24158,39.922226],[33.241534,39.922479],[33.241382,39.922769],[33.240593,39.923473],[33.241487,39.925557],[33.241945,39.925159],[33.243394,39.925383],[33.244361,39.926],[33.2453,39.926081],[33.24704,39.925417]]]]}},{"type":"Feature","properties":{"id":"TR-Y-06-009-M-0029","level":"yerlesim","type":"mahalle","parent_id":"TR-D-06-009","province_id":"TR-P-06","district_id":"TR-D-06-009","name":"Yeşildere Fatih","source_raw_name":"YEŞİLDERE FATİH","source":"Kamuya açık veri ve kent rehberi servisleri","source_label":"Kamuya açık veri ve kent rehberi servisleri","source_name":"Ankara Büyükşehir Belediyesi Seffaf Ankara Açık Veri Platformu - MAKS Mahalle"},"geometry":{"type":"MultiPolygon","coordinates":[[[[33.2347,40.005952],[33.234961,40.005909],[33.235628,40.005926],[33.242978,40.002833],[33.243175,40.00203],[33.243617,40.001891],[33.243532,40.00164],[33.243658,40.001486],[33.243678,40.00117],[33.243888,40.000991],[33.243992,40.000602],[33.244202,40.00048],[33.244317,40.000245],[33.244738,40.000042],[33.245262,39.999498],[33.245133,39.998534],[33.245742,39.998111],[33.246287,39.997397],[33.246603,39.997332],[33.246771,39.997202],[33.247432,39.996422],[33.247412,39.996008],[33.247514,39.99571],[33.247742,39.995521],[33.248543,39.995317],[33.248797,39.995283],[33.249087,39.994935],[33.249234,39.994711],[33.249521,39.994375],[33.25017,39.993697],[33.250413,39.993532],[33.250903,39.993279],[33.2512,39.993067],[33.251256,39.992978],[33.251052,39.992805],[33.251177,39.99268],[33.251652,39.992512],[33.25196,39.992323],[33.252282,39.992019],[33.25253,39.991707],[33.25337,39.990787],[33.253481,39.990832],[33.254951,39.991791],[33.255188,39.991911],[33.255137,39.990242],[33.254848,39.989155],[33.254281,39.987695],[33.252535,39.983939],[33.25206,39.983053],[33.250666,39.981131],[33.24988,39.979684],[33.24907,39.978465],[33.247822,39.975895],[33.247312,39.975286],[33.246193,39.974182],[33.244838,39.973022],[33.244328,39.972461],[33.244104,39.972099],[33.243642,39.971109],[33.243515,39.970347],[33.243425,39.970098],[33.237791,39.975389],[33.236525,39.975113],[33.231656,39.978879],[33.230393,39.979576],[33.229761,39.980569],[33.231567,39.981753],[33.232517,39.983192],[33.230631,39.984071],[33.229556,39.983908],[33.227003,39.984359],[33.225155,39.983949],[33.223736,39.983408],[33.222426,39.98346],[33.221182,39.984883],[33.222277,39.98724],[33.225,39.990711],[33.227179,39.99335],[33.228642,39.998215],[33.228483,40.004892],[33.230489,40.008088],[33.231471,40.007675],[33.232213,40.006944],[33.232584,40.006736],[33.233029,40.00642],[33.234477,40.005988],[33.2347,40.005952]]]]}},{"type":"Feature","properties":{"id":"TR-Y-06-009-M-0030","level":"yerlesim","type":"mahalle","parent_id":"TR-D-06-009","province_id":"TR-P-06","district_id":"TR-D-06-009","name":"Yukarıkamışlı","source_raw_name":"YUKARIKAMIŞLI","source":"Kamuya açık veri ve kent rehberi servisleri","source_label":"Kamuya açık veri ve kent rehberi servisleri","source_name":"Ankara Büyükşehir Belediyesi Seffaf Ankara Açık Veri Platformu - MAKS Mahalle"},"geometry":{"type":"MultiPolygon","coordinates":[[[[33.234882,39.724332],[33.237971,39.731066],[33.237973,39.731699],[33.237824,39.731899],[33.238249,39.732326],[33.238865,39.731011],[33.239588,39.73107],[33.239838,39.730681],[33.241389,39.73116],[33.242348,39.731219],[33.243124,39.73101],[33.245469,39.731941],[33.246047,39.732254],[33.246226,39.732056],[33.24621,39.731983],[33.246232,39.731958],[33.246088,39.731261],[33.246528,39.731408],[33.247149,39.73124],[33.246448,39.730537],[33.24569,39.730575],[33.245314,39.729602],[33.246028,39.729351],[33.247695,39.730788],[33.248094,39.730737],[33.248281,39.730524],[33.247669,39.730099],[33.247656,39.729936],[33.248014,39.729976],[33.248473,39.730224],[33.249566,39.730575],[33.249697,39.730483],[33.250188,39.731017],[33.251887,39.740834],[33.252105,39.740955],[33.252629,39.74164],[33.252999,39.741775],[33.253219,39.741549],[33.253446,39.741729],[33.253136,39.742331],[33.253123,39.742413],[33.253701,39.742491],[33.254501,39.742651],[33.254737,39.742711],[33.254923,39.742774],[33.255137,39.742877],[33.2553,39.742934],[33.255821,39.743062],[33.256441,39.743271],[33.25665,39.743354],[33.256708,39.743297],[33.256753,39.74308],[33.256742,39.742631],[33.256598,39.742353],[33.256676,39.742269],[33.256936,39.742183],[33.257123,39.741912],[33.257709,39.742098],[33.257972,39.741825],[33.259369,39.742734],[33.259717,39.742852],[33.260422,39.743687],[33.26035,39.743775],[33.259927,39.743808],[33.259399,39.743788],[33.258821,39.743642],[33.258563,39.743874],[33.258478,39.744139],[33.259174,39.744866],[33.258959,39.745449],[33.258967,39.745877],[33.258857,39.746134],[33.259701,39.746597],[33.259433,39.746875],[33.259655,39.747996],[33.25937,39.747995],[33.259393,39.748457],[33.259239,39.748928],[33.258448,39.750482],[33.258223,39.751503],[33.257934,39.751756],[33.257702,39.752437],[33.257364,39.752886],[33.258112,39.75321],[33.258704,39.753612],[33.259921,39.75405],[33.260224,39.754605],[33.260045,39.754935],[33.25995,39.754898],[33.25953,39.755184],[33.258682,39.755627],[33.258255,39.755993],[33.25758,39.756534],[33.256896,39.756751],[33.259639,39.762137],[33.259969,39.762217],[33.25975,39.762097],[33.259992,39.76158],[33.260075,39.760837],[33.260322,39.760268],[33.260292,39.760054],[33.261357,39.758629],[33.261762,39.758677],[33.262631,39.758115],[33.262695,39.758452],[33.263266,39.758788],[33.26393,39.759749],[33.265373,39.759267],[33.26398,39.74766],[33.265325,39.746995],[33.268343,39.749971],[33.269817,39.750607],[33.270321,39.750911],[33.270841,39.751048],[33.271078,39.751223],[33.271496,39.75139],[33.271686,39.751413],[33.271892,39.751501],[33.27202,39.751598],[33.272256,39.751622],[33.27236,39.751703],[33.275634,39.753115],[33.280317,39.76057],[33.283141,39.762359],[33.285039,39.761406],[33.283499,39.748329],[33.285572,39.746488],[33.283757,39.738919],[33.278103,39.737097],[33.270062,39.737344],[33.268237,39.740372],[33.264138,39.738736],[33.261436,39.731628],[33.264998,39.725635],[33.263145,39.721103],[33.257832,39.721539],[33.255418,39.716772],[33.255719,39.712593],[33.242948,39.714227],[33.240262,39.71102],[33.237286,39.711234],[33.238789,39.714695],[33.237015,39.717223],[33.234882,39.724332]]]]}}]}