{"type":"FeatureCollection","name":"turkiye_map.dist.mahalle_geometrileri_by_district.TR-D-34-006","features":[{"type":"Feature","properties":{"id":"TR-Y-34-006-M-0001","level":"yerlesim","type":"mahalle","parent_id":"TR-D-34-006","province_id":"TR-P-34","district_id":"TR-D-34-006","name":"Bahçelievler","source_raw_name":"BAHÇELİEVLER","source":"Kullanıcı tarafından sağlanan KML","source_label":"Kullanıcı tarafından sağlanan KML","source_name":"Istanbul Mahalle KML"},"geometry":{"type":"Polygon","coordinates":[[[28.881183,41.007768],[28.881229,41.007428],[28.881446,41.006169],[28.881886,41.005506],[28.882184,41.005216],[28.883698,41.004173],[28.88479,41.003583],[28.885336,41.002521],[28.885178,41.002186],[28.88559,41.001666],[28.884772,41.001407],[28.884135,41.001219],[28.882983,41.000884],[28.881742,41.000517],[28.880738,41.000218],[28.880419,41.000122],[28.879382,40.999815],[28.87822,40.999466],[28.87765,40.999298],[28.876585,40.998984],[28.87562,40.998697],[28.874935,40.998512],[28.874063,40.998281],[28.874059,40.99828],[28.872302,40.997816],[28.871491,40.997614],[28.870029,40.997201],[28.869626,40.997094],[28.868074,40.996594],[28.86715,40.996355],[28.866755,40.996183],[28.866116,40.995894],[28.865117,40.995577],[28.863252,40.994997],[28.860223,40.994103],[28.857063,40.99317],[28.855706,40.992762],[28.854744,40.992518],[28.853549,40.992247],[28.852177,40.992036],[28.851619,40.992472],[28.851144,40.992813],[28.852085,40.993608],[28.85223,40.993968],[28.852163,40.99474],[28.854327,40.995806],[28.854501,40.99644],[28.85827,40.998755],[28.856776,41.000105],[28.857532,41.000447],[28.860449,41.001546],[28.859512,41.003101],[28.859283,41.003965],[28.859072,41.006197],[28.859171,41.006339],[28.858923,41.007037],[28.858977,41.009053],[28.859173,41.00952],[28.859939,41.010311],[28.861769,41.011677],[28.86221,41.011892],[28.864718,41.012697],[28.864853,41.012608],[28.865117,41.012354],[28.867109,41.010689],[28.869436,41.007961],[28.87061,41.006282],[28.873722,41.007517],[28.874342,41.007909],[28.875095,41.008625],[28.875093,41.009504],[28.875263,41.009947],[28.876846,41.011433],[28.877229,41.011854],[28.877728,41.012724],[28.877915,41.01317],[28.878032,41.014373],[28.879685,41.01649],[28.880986,41.016571],[28.880805,41.01634],[28.880597,41.015945],[28.880258,41.014591],[28.881054,41.010253],[28.881183,41.007768]]]}},{"type":"Feature","properties":{"id":"TR-Y-34-006-M-0002","level":"yerlesim","type":"mahalle","parent_id":"TR-D-34-006","province_id":"TR-P-34","district_id":"TR-D-34-006","name":"Çobançeşme","source_raw_name":"ÇOBANÇEŞME","source":"Kullanıcı tarafından sağlanan KML","source_label":"Kullanıcı tarafından sağlanan KML","source_name":"Istanbul Mahalle KML"},"geometry":{"type":"Polygon","coordinates":[[[28.831169,40.997101],[28.831348,40.994567],[28.829927,40.994608],[28.82914,40.992648],[28.826375,40.992837],[28.826376,40.992838],[28.826361,40.993404],[28.823364,40.993847],[28.822832,40.998855],[28.821701,41.003566],[28.821551,41.004944],[28.822037,41.007546],[28.822313,41.008396],[28.822767,41.010464],[28.822884,41.010659],[28.825598,41.010266],[28.826656,41.010274],[28.827106,41.009884],[28.827259,41.009487],[28.827413,41.009202],[28.827484,41.008896],[28.827519,41.008867],[28.828446,41.008734],[28.829146,41.008549],[28.829825,41.008249],[28.830419,41.008238],[28.830863,41.008166],[28.831066,41.006993],[28.831083,41.005242],[28.830975,41.004023],[28.830205,41.001921],[28.830254,41.001053],[28.830511,40.999294],[28.831169,40.997101]]]}},{"type":"Feature","properties":{"id":"TR-Y-34-006-M-0003","level":"yerlesim","type":"mahalle","parent_id":"TR-D-34-006","province_id":"TR-P-34","district_id":"TR-D-34-006","name":"Cumhuriyet","source_raw_name":"CUMHURİYET","source":"Kullanıcı tarafından sağlanan KML","source_label":"Kullanıcı tarafından sağlanan KML","source_name":"Istanbul Mahalle KML"},"geometry":{"type":"Polygon","coordinates":[[[28.85847,41.019146],[28.858474,41.019145],[28.858482,41.01951],[28.85846,41.019668],[28.858447,41.020329],[28.858447,41.02033],[28.859069,41.019594],[28.859413,41.019083],[28.859906,41.018055],[28.860193,41.017607],[28.860194,41.017605],[28.860266,41.017497],[28.861444,41.015752],[28.863074,41.014311],[28.863065,41.014312],[28.860737,41.014721],[28.857671,41.014985],[28.857499,41.014367],[28.855011,41.014446],[28.854334,41.01455],[28.852684,41.014311],[28.850269,41.013536],[28.847796,41.013426],[28.848407,41.013912],[28.848718,41.016847],[28.848777,41.017429],[28.848766,41.018434],[28.848606,41.020241],[28.848446,41.021439],[28.849866,41.021261],[28.851914,41.0212],[28.853894,41.021159],[28.853945,41.021087],[28.854004,41.021065],[28.854129,41.021063],[28.854527,41.021074],[28.854589,41.021069],[28.854645,41.021048],[28.854775,41.021036],[28.855107,41.021026],[28.855123,41.020954],[28.855201,41.020599],[28.85527,41.020284],[28.855276,41.020244],[28.855324,41.020062],[28.855397,41.019997],[28.855539,41.019909],[28.855772,41.019803],[28.856258,41.019619],[28.856368,41.019575],[28.856476,41.019552],[28.856908,41.019463],[28.85717,41.019407],[28.857887,41.01927],[28.85847,41.019146]]]}},{"type":"Feature","properties":{"id":"TR-Y-34-006-M-0004","level":"yerlesim","type":"mahalle","parent_id":"TR-D-34-006","province_id":"TR-P-34","district_id":"TR-D-34-006","name":"Fevzi Çakmak","source_raw_name":"FEVZİ ÇAKMAK","source":"Kullanıcı tarafından sağlanan KML","source_label":"Kullanıcı tarafından sağlanan KML","source_name":"Istanbul Mahalle KML"},"geometry":{"type":"Polygon","coordinates":[[[28.835703,40.992288],[28.82914,40.992648],[28.829927,40.994608],[28.831348,40.994567],[28.831169,40.997101],[28.830511,40.999294],[28.830254,41.001053],[28.830205,41.001921],[28.830975,41.004023],[28.831083,41.005242],[28.831066,41.006993],[28.830863,41.008166],[28.831237,41.009392],[28.832485,41.008443],[28.832701,41.008057],[28.833058,41.006608],[28.833126,41.005539],[28.832978,41.00366],[28.833076,41.003364],[28.834161,41.002927],[28.834282,41.00131],[28.834273,41.000428],[28.835352,40.993717],[28.835703,40.992288]]]}},{"type":"Feature","properties":{"id":"TR-Y-34-006-M-0005","level":"yerlesim","type":"mahalle","parent_id":"TR-D-34-006","province_id":"TR-P-34","district_id":"TR-D-34-006","name":"Hürriyet","source_raw_name":"HÜRRİYET","source":"Kullanıcı tarafından sağlanan KML","source_label":"Kullanıcı tarafından sağlanan KML","source_name":"Istanbul Mahalle KML"},"geometry":{"type":"Polygon","coordinates":[[[28.841813,41.003912],[28.84213,41.002438],[28.842612,40.998941],[28.843002,40.993406],[28.843329,40.991854],[28.83871,40.99212],[28.838595,40.994242],[28.8385,40.997598],[28.838762,41.001724],[28.838669,41.008029],[28.838897,41.00902],[28.841431,41.008827],[28.84138,41.005275],[28.841813,41.003912]]]}},{"type":"Feature","properties":{"id":"TR-Y-34-006-M-0006","level":"yerlesim","type":"mahalle","parent_id":"TR-D-34-006","province_id":"TR-P-34","district_id":"TR-D-34-006","name":"Kocasinan Merkez","source_raw_name":"KOCASİNAN MERKEZ","source":"Kullanıcı tarafından sağlanan KML","source_label":"Kullanıcı tarafından sağlanan KML","source_name":"Istanbul Mahalle KML"},"geometry":{"type":"Polygon","coordinates":[[[28.848606,41.020241],[28.848766,41.018434],[28.848777,41.017429],[28.848718,41.016847],[28.848407,41.013912],[28.847796,41.013426],[28.847555,41.013171],[28.847322,41.012587],[28.846947,41.010777],[28.846922,41.010615],[28.846933,41.010526],[28.847543,41.008853],[28.847578,41.008639],[28.84755,41.008453],[28.847112,41.007557],[28.847072,41.007352],[28.846981,41.00639],[28.845822,41.005963],[28.841813,41.003912],[28.84138,41.005275],[28.841431,41.008827],[28.838897,41.00902],[28.839168,41.01056],[28.838927,41.012395],[28.839223,41.014566],[28.836396,41.014448],[28.83584,41.014701],[28.835666,41.014896],[28.832622,41.015931],[28.832372,41.015978],[28.832006,41.016239],[28.832911,41.016827],[28.833855,41.017233],[28.831415,41.017694],[28.83179,41.0184],[28.830884,41.018754],[28.82913,41.019637],[28.828533,41.019887],[28.8271,41.020323],[28.827415,41.021063],[28.828061,41.022199],[28.82826,41.022199],[28.830495,41.022237],[28.834645,41.022925],[28.836049,41.023301],[28.8363,41.023278],[28.837182,41.023434],[28.837589,41.02356],[28.83799,41.023736],[28.839344,41.022086],[28.839725,41.02222],[28.840825,41.021697],[28.841642,41.02136],[28.842777,41.021419],[28.844221,41.021386],[28.844386,41.021466],[28.84453,41.021635],[28.845677,41.022869],[28.847328,41.024151],[28.847557,41.024283],[28.847564,41.024147],[28.848281,41.022727],[28.848446,41.021439],[28.848606,41.020241]]]}},{"type":"Feature","properties":{"id":"TR-Y-34-006-M-0007","level":"yerlesim","type":"mahalle","parent_id":"TR-D-34-006","province_id":"TR-P-34","district_id":"TR-D-34-006","name":"Şirinevler","source_raw_name":"ŞİRİNEVLER","source":"Kullanıcı tarafından sağlanan KML","source_label":"Kullanıcı tarafından sağlanan KML","source_name":"Istanbul Mahalle KML"},"geometry":{"type":"Polygon","coordinates":[[[28.849411,41.006382],[28.849097,41.004616],[28.849013,41.002882],[28.848655,41.002882],[28.848869,41.002036],[28.850415,41.00206],[28.852025,41.001992],[28.852228,40.999362],[28.851497,40.997398],[28.849951,40.996067],[28.850016,40.995922],[28.850909,40.996111],[28.852085,40.993608],[28.851144,40.992813],[28.851619,40.992472],[28.852177,40.992036],[28.851049,40.991862],[28.850546,40.991807],[28.850167,40.991773],[28.849484,40.99173],[28.848895,40.991694],[28.84829,40.991669],[28.847114,40.991664],[28.845654,40.991717],[28.843329,40.991854],[28.843002,40.993406],[28.842612,40.998941],[28.84213,41.002438],[28.841813,41.003912],[28.845822,41.005963],[28.846981,41.00639],[28.849411,41.006382]]]}},{"type":"Feature","properties":{"id":"TR-Y-34-006-M-0008","level":"yerlesim","type":"mahalle","parent_id":"TR-D-34-006","province_id":"TR-P-34","district_id":"TR-D-34-006","name":"Siyavuşpaşa","source_raw_name":"SİYAVUŞPAŞA","source":"Kullanıcı tarafından sağlanan KML","source_label":"Kullanıcı tarafından sağlanan KML","source_name":"Istanbul Mahalle KML"},"geometry":{"type":"Polygon","coordinates":[[[28.859072,41.006197],[28.859283,41.003965],[28.859512,41.003101],[28.860449,41.001546],[28.857532,41.000447],[28.856776,41.000105],[28.85827,40.998755],[28.854501,40.99644],[28.854327,40.995806],[28.852163,40.99474],[28.85223,40.993968],[28.852085,40.993608],[28.850909,40.996111],[28.850016,40.995922],[28.849951,40.996067],[28.851497,40.997398],[28.852228,40.999362],[28.852025,41.001992],[28.850415,41.00206],[28.848869,41.002036],[28.848655,41.002882],[28.849013,41.002882],[28.849097,41.004616],[28.849411,41.006382],[28.849546,41.006893],[28.852886,41.006743],[28.853119,41.007319],[28.853501,41.007827],[28.855138,41.007154],[28.859072,41.006197]]]}},{"type":"Feature","properties":{"id":"TR-Y-34-006-M-0009","level":"yerlesim","type":"mahalle","parent_id":"TR-D-34-006","province_id":"TR-P-34","district_id":"TR-D-34-006","name":"Soğanlı","source_raw_name":"SOĞANLI","source":"Kullanıcı tarafından sağlanan KML","source_label":"Kullanıcı tarafından sağlanan KML","source_name":"Istanbul Mahalle KML"},"geometry":{"type":"Polygon","coordinates":[[[28.863074,41.014311],[28.863093,41.014291],[28.86313,41.014264],[28.863158,41.014228],[28.864718,41.012697],[28.86221,41.011892],[28.861769,41.011677],[28.859939,41.010311],[28.859173,41.00952],[28.858977,41.009053],[28.858923,41.007037],[28.859171,41.006339],[28.859072,41.006197],[28.855138,41.007154],[28.853501,41.007827],[28.853119,41.007319],[28.852886,41.006743],[28.849546,41.006893],[28.849411,41.006382],[28.846981,41.00639],[28.847072,41.007352],[28.847112,41.007557],[28.84755,41.008453],[28.847578,41.008639],[28.847543,41.008853],[28.846933,41.010526],[28.846922,41.010615],[28.846947,41.010777],[28.847322,41.012587],[28.847555,41.013171],[28.847796,41.013426],[28.850269,41.013536],[28.852684,41.014311],[28.854334,41.01455],[28.855011,41.014446],[28.857499,41.014367],[28.857671,41.014985],[28.860737,41.014721],[28.863065,41.014312],[28.863074,41.014311]]]}},{"type":"Feature","properties":{"id":"TR-Y-34-006-M-0010","level":"yerlesim","type":"mahalle","parent_id":"TR-D-34-006","province_id":"TR-P-34","district_id":"TR-D-34-006","name":"Yenibosna Merkez","source_raw_name":"YENİBOSNA MERKEZ","source":"Kullanıcı tarafından sağlanan KML","source_label":"Kullanıcı tarafından sağlanan KML","source_name":"Istanbul Mahalle KML"},"geometry":{"type":"Polygon","coordinates":[[[28.822934,41.019777],[28.823174,41.019778],[28.823385,41.019799],[28.823614,41.019841],[28.824001,41.019994],[28.825213,41.020374],[28.825407,41.020411],[28.82562,41.020435],[28.825761,41.020444],[28.825936,41.020439],[28.8271,41.020323],[28.828533,41.019887],[28.82913,41.019637],[28.830884,41.018754],[28.83179,41.0184],[28.831415,41.017694],[28.833855,41.017233],[28.832911,41.016827],[28.832006,41.016239],[28.832372,41.015978],[28.832622,41.015931],[28.835666,41.014896],[28.83584,41.014701],[28.836396,41.014448],[28.834037,41.014537],[28.831426,41.014415],[28.83049,41.014312],[28.830735,41.013824],[28.830972,41.013489],[28.83141,41.013174],[28.831765,41.012845],[28.832108,41.012533],[28.832373,41.012257],[28.832554,41.012056],[28.832616,41.012014],[28.832738,41.01187],[28.832839,41.011748],[28.832871,41.01171],[28.833007,41.011542],[28.833096,41.011443],[28.832436,41.011068],[28.831237,41.009392],[28.830863,41.008166],[28.830419,41.008238],[28.829825,41.008249],[28.829146,41.008549],[28.828446,41.008734],[28.827519,41.008867],[28.827484,41.008896],[28.827413,41.009202],[28.827259,41.009487],[28.827106,41.009884],[28.826656,41.010274],[28.825598,41.010266],[28.822884,41.010659],[28.822767,41.010464],[28.822313,41.008396],[28.822037,41.007546],[28.821551,41.004944],[28.821701,41.003566],[28.822832,40.998855],[28.823364,40.993847],[28.826361,40.993404],[28.826376,40.992838],[28.826375,40.992837],[28.821828,40.99299],[28.821693,40.992998],[28.820575,40.993065],[28.819763,40.993121],[28.818896,40.993325],[28.819208,40.993923],[28.819326,40.994155],[28.817047,40.995005],[28.816764,40.995111],[28.816586,40.995162],[28.816561,40.99528],[28.816465,40.995414],[28.816061,40.995878],[28.815819,40.996347],[28.815158,40.997407],[28.814703,40.997861],[28.814638,40.998155],[28.813944,40.999057],[28.813512,40.999471],[28.811804,41.000566],[28.81148,41.001007],[28.811406,41.001394],[28.812039,41.002635],[28.810303,41.005139],[28.810173,41.00552],[28.810226,41.006109],[28.81016,41.006638],[28.809704,41.007342],[28.809503,41.007448],[28.809118,41.007517],[28.809034,41.007594],[28.809084,41.008146],[28.809383,41.008272],[28.809459,41.008381],[28.809561,41.008529],[28.809579,41.008673],[28.809063,41.009238],[28.808871,41.010291],[28.808907,41.010524],[28.808882,41.01078],[28.808954,41.011622],[28.808931,41.012072],[28.808736,41.012384],[28.808724,41.013036],[28.808629,41.013217],[28.808562,41.013519],[28.808361,41.013928],[28.808272,41.014338],[28.808388,41.014681],[28.808376,41.015092],[28.807975,41.015258],[28.807751,41.01547],[28.807455,41.015447],[28.807274,41.015302],[28.807024,41.015284],[28.806701,41.015366],[28.806686,41.01537],[28.806352,41.015469],[28.806121,41.015537],[28.806206,41.015612],[28.806023,41.015874],[28.805957,41.016133],[28.80599,41.016576],[28.805912,41.01692],[28.80667,41.017914],[28.806676,41.017925],[28.806789,41.018128],[28.806825,41.018412],[28.806801,41.018536],[28.806768,41.018706],[28.806952,41.019263],[28.806497,41.020166],[28.806631,41.020675],[28.806954,41.021132],[28.807146,41.021809],[28.807403,41.02201],[28.807518,41.022061],[28.807854,41.022212],[28.807939,41.02231],[28.808028,41.023611],[28.80872,41.024855],[28.808246,41.025665],[28.808001,41.026248],[28.808102,41.026594],[28.808173,41.026746],[28.808226,41.02686],[28.80866,41.027785],[28.808698,41.027863],[28.808711,41.02785],[28.809002,41.02777],[28.80959,41.027608],[28.81098,41.027167],[28.811015,41.026814],[28.812749,41.025445],[28.814642,41.023905],[28.815761,41.023176],[28.817979,41.022297],[28.82015,41.021239],[28.82105,41.020701],[28.821707,41.020223],[28.822472,41.019845],[28.822618,41.01981],[28.822934,41.019777]]]}},{"type":"Feature","properties":{"id":"TR-Y-34-006-M-0011","level":"yerlesim","type":"mahalle","parent_id":"TR-D-34-006","province_id":"TR-P-34","district_id":"TR-D-34-006","name":"Zafer","source_raw_name":"ZAFER","source":"Kullanıcı tarafından sağlanan KML","source_label":"Kullanıcı tarafından sağlanan KML","source_name":"Istanbul Mahalle KML"},"geometry":{"type":"Polygon","coordinates":[[[28.834037,41.014537],[28.836396,41.014448],[28.839223,41.014566],[28.838927,41.012395],[28.839168,41.01056],[28.838897,41.00902],[28.838669,41.008029],[28.838762,41.001724],[28.8385,40.997598],[28.838595,40.994242],[28.83871,40.99212],[28.835703,40.992288],[28.835352,40.993717],[28.834273,41.000428],[28.834282,41.00131],[28.834161,41.002927],[28.833076,41.003364],[28.832978,41.00366],[28.833126,41.005539],[28.833058,41.006608],[28.832701,41.008057],[28.832485,41.008443],[28.831237,41.009392],[28.832436,41.011068],[28.833096,41.011443],[28.833007,41.011542],[28.832871,41.01171],[28.832839,41.011748],[28.832738,41.01187],[28.832616,41.012014],[28.832554,41.012056],[28.832373,41.012257],[28.832108,41.012533],[28.831765,41.012845],[28.83141,41.013174],[28.830972,41.013489],[28.830735,41.013824],[28.83049,41.014312],[28.831426,41.014415],[28.834037,41.014537]]]}}]}