{"type":"FeatureCollection","name":"turkiye_map.dist.mahalle_geometrileri_by_district.TR-D-16-003","features":[{"type":"Feature","properties":{"id":"TR-Y-16-003-M-0001","level":"yerlesim","type":"mahalle","parent_id":"TR-D-16-003","province_id":"TR-P-16","district_id":"TR-D-16-003","name":"Adaköy","source_raw_name":"ADAKÖY","source":"Kamuya açık veri ve kent rehberi servisleri","source_label":"Kamuya açık veri ve kent rehberi servisleri","source_name":"Bursa Açık Yeşil Platformu - Mahalle Sınırları"},"geometry":{"type":"MultiPolygon","coordinates":[[[[29.223482,40.243782],[29.238033,40.229392],[29.239959,40.227819],[29.24154,40.225669],[29.24328,40.218778],[29.242731,40.216728],[29.242789,40.2153],[29.244302,40.212614],[29.243795,40.212464],[29.243427,40.21316],[29.23972,40.21049],[29.239516,40.210538],[29.236962,40.212183],[29.224642,40.214438],[29.217839,40.216017],[29.215684,40.216078],[29.211722,40.217155],[29.210815,40.222104],[29.210708,40.223289],[29.210612,40.223541],[29.210719,40.224338],[29.210625,40.225191],[29.210033,40.225316],[29.209984,40.225277],[29.209247,40.225426],[29.209314,40.226079],[29.209313,40.22608],[29.209284,40.226099],[29.209012,40.226264],[29.209742,40.229126],[29.210255,40.229013],[29.211055,40.231227],[29.211046,40.231232],[29.210178,40.231754],[29.210012,40.231855],[29.209028,40.232447],[29.208997,40.233476],[29.208994,40.233617],[29.211236,40.235743],[29.213547,40.235645],[29.214658,40.237569],[29.21503,40.243889],[29.21958,40.243883],[29.223482,40.243782]]]]}},{"type":"Feature","properties":{"id":"TR-Y-16-003-M-0002","level":"yerlesim","type":"mahalle","parent_id":"TR-D-16-003","province_id":"TR-P-16","district_id":"TR-D-16-003","name":"Ağaköy","source_raw_name":"AĞAKÖY","source":"Kamuya açık veri ve kent rehberi servisleri","source_label":"Kamuya açık veri ve kent rehberi servisleri","source_name":"Bursa Açık Yeşil Platformu - Mahalle Sınırları"},"geometry":{"type":"MultiPolygon","coordinates":[[[[29.177724,40.250581],[29.177042,40.247425],[29.178774,40.247032],[29.178399,40.244723],[29.177126,40.244827],[29.177225,40.240865],[29.177237,40.240586],[29.177583,40.237717],[29.178642,40.237774],[29.178547,40.236928],[29.177518,40.236954],[29.177297,40.235994],[29.174705,40.23559],[29.17481,40.235447],[29.174872,40.235358],[29.174946,40.235219],[29.174987,40.235138],[29.175062,40.23493],[29.17516,40.234664],[29.175208,40.234567],[29.175253,40.234498],[29.175426,40.234302],[29.175515,40.2342],[29.175662,40.234022],[29.175714,40.233942],[29.175762,40.233791],[29.175938,40.233179],[29.176029,40.232884],[29.176096,40.232716],[29.176202,40.232543],[29.176382,40.231967],[29.169908,40.231227],[29.169141,40.228104],[29.167812,40.228126],[29.167604,40.227603],[29.166967,40.22784],[29.166176,40.227985],[29.167216,40.230579],[29.167208,40.232738],[29.167359,40.233625],[29.166133,40.2339],[29.164018,40.235298],[29.164009,40.237701],[29.162801,40.237725],[29.162687,40.238341],[29.161221,40.238672],[29.163453,40.240028],[29.164029,40.24147],[29.161359,40.24139],[29.161309,40.244593],[29.161191,40.245214],[29.162471,40.24523],[29.161917,40.246241],[29.161733,40.247017],[29.161396,40.247857],[29.160719,40.247754],[29.160176,40.248855],[29.161813,40.2492],[29.161877,40.249366],[29.16077,40.25227],[29.162734,40.252852],[29.16429,40.253806],[29.165908,40.255019],[29.167629,40.255567],[29.169471,40.255694],[29.171225,40.255403],[29.178407,40.253753],[29.177023,40.250771],[29.177724,40.250581]]]]}},{"type":"Feature","properties":{"id":"TR-Y-16-003-M-0003","level":"yerlesim","type":"mahalle","parent_id":"TR-D-16-003","province_id":"TR-P-16","district_id":"TR-D-16-003","name":"Canbazlarköyü","source_raw_name":"CANBAZLARKÖYÜ","source":"Kamuya açık veri ve kent rehberi servisleri","source_label":"Kamuya açık veri ve kent rehberi servisleri","source_name":"Bursa Açık Yeşil Platformu - Mahalle Sınırları"},"geometry":{"type":"MultiPolygon","coordinates":[[[[29.178407,40.253753],[29.186287,40.251827],[29.186293,40.251848],[29.187202,40.251634],[29.187479,40.251578],[29.188531,40.251314],[29.188889,40.251236],[29.189045,40.251191],[29.189536,40.251045],[29.189759,40.250963],[29.190127,40.250785],[29.19047,40.250581],[29.190722,40.250367],[29.190968,40.250167],[29.191325,40.249898],[29.191556,40.249765],[29.19189,40.249664],[29.1924,40.249556],[29.192485,40.249543],[29.193015,40.249432],[29.193718,40.249285],[29.193719,40.249285],[29.193842,40.249257],[29.194304,40.249151],[29.193129,40.24546],[29.192493,40.238934],[29.192476,40.23872],[29.191955,40.236915],[29.191827,40.23691],[29.191433,40.236932],[29.191088,40.236935],[29.190941,40.236926],[29.190831,40.236914],[29.190777,40.236895],[29.190705,40.236877],[29.190614,40.236827],[29.19051,40.236771],[29.190395,40.236703],[29.190277,40.236635],[29.190207,40.236589],[29.190146,40.23655],[29.190063,40.236488],[29.189956,40.236393],[29.189835,40.236291],[29.18973,40.236209],[29.189612,40.236144],[29.18953,40.236089],[29.189449,40.236044],[29.190614,40.235411],[29.190622,40.235406],[29.189627,40.23267],[29.188165,40.23266],[29.1885,40.231282],[29.187894,40.228777],[29.186982,40.228835],[29.186656,40.2269],[29.182335,40.226639],[29.182363,40.227808],[29.177702,40.227775],[29.17766,40.227785],[29.177537,40.228077],[29.177465,40.228315],[29.177482,40.228518],[29.177603,40.228804],[29.177714,40.229106],[29.177741,40.229263],[29.177715,40.229467],[29.177676,40.229573],[29.177597,40.229711],[29.177474,40.22984],[29.177188,40.23002],[29.176945,40.230179],[29.176841,40.230293],[29.176799,40.230425],[29.176765,40.230632],[29.176733,40.230844],[29.176677,40.23114],[29.17645,40.231751],[29.176202,40.232543],[29.176096,40.232716],[29.176029,40.232884],[29.175938,40.233179],[29.175762,40.233791],[29.175714,40.233942],[29.175662,40.234022],[29.175515,40.2342],[29.175426,40.234302],[29.175253,40.234498],[29.175208,40.234567],[29.17516,40.234664],[29.175062,40.23493],[29.174987,40.235138],[29.174946,40.235219],[29.174872,40.235358],[29.17481,40.235447],[29.174705,40.23559],[29.177297,40.235994],[29.177518,40.236954],[29.178547,40.236928],[29.178642,40.237774],[29.177583,40.237717],[29.177237,40.240586],[29.177225,40.240865],[29.177126,40.244827],[29.178399,40.244723],[29.178774,40.247032],[29.177042,40.247425],[29.177724,40.250581],[29.177023,40.250771],[29.178407,40.253753]]]]}},{"type":"Feature","properties":{"id":"TR-Y-16-003-M-0004","level":"yerlesim","type":"mahalle","parent_id":"TR-D-16-003","province_id":"TR-P-16","district_id":"TR-D-16-003","name":"Dışkayaköyü","source_raw_name":"DIŞKAYAKÖYÜ","source":"Kamuya açık veri ve kent rehberi servisleri","source_label":"Kamuya açık veri ve kent rehberi servisleri","source_name":"Bursa Açık Yeşil Platformu - Mahalle Sınırları"},"geometry":{"type":"MultiPolygon","coordinates":[[[[29.233848,40.327703],[29.243643,40.324786],[29.243643,40.324786],[29.257922,40.31913],[29.258911,40.317967],[29.256227,40.315059],[29.256574,40.314314],[29.257165,40.314577],[29.258697,40.31423],[29.257739,40.3126],[29.259428,40.313293],[29.262571,40.31302],[29.262498,40.311948],[29.261008,40.310412],[29.26195,40.309671],[29.263374,40.311402],[29.263982,40.310106],[29.265375,40.310732],[29.26901,40.308124],[29.271695,40.310902],[29.273356,40.310328],[29.275458,40.31216],[29.275814,40.310636],[29.278151,40.31124],[29.280473,40.310113],[29.284599,40.310366],[29.284489,40.308741],[29.28548,40.30735],[29.286015,40.30482],[29.285172,40.302281],[29.285615,40.300498],[29.286686,40.29953],[29.287169,40.298006],[29.289501,40.298118],[29.292015,40.297062],[29.29104,40.295275],[29.28885,40.293833],[29.281076,40.290926],[29.276127,40.285601],[29.274495,40.277633],[29.27459,40.272697],[29.275235,40.271824],[29.274365,40.269967],[29.275398,40.268669],[29.277092,40.268749],[29.28127,40.264618],[29.281109,40.26374],[29.278533,40.262814],[29.277348,40.260377],[29.271674,40.263436],[29.271228,40.264242],[29.27073,40.264224],[29.270271,40.264418],[29.269772,40.264884],[29.268756,40.264657],[29.268968,40.265031],[29.268542,40.265504],[29.268144,40.265941],[29.268356,40.266266],[29.268399,40.266705],[29.268252,40.267664],[29.267724,40.268233],[29.267407,40.268835],[29.267132,40.269355],[29.266244,40.269518],[29.265399,40.270283],[29.265844,40.271322],[29.265448,40.272713],[29.265457,40.273012],[29.265207,40.273314],[29.264787,40.273282],[29.264989,40.272896],[29.264955,40.272545],[29.26476,40.272355],[29.264587,40.272335],[29.264325,40.272522],[29.264111,40.272909],[29.263888,40.273002],[29.263529,40.273028],[29.263693,40.272679],[29.263758,40.272405],[29.263586,40.272281],[29.262994,40.272182],[29.263219,40.271938],[29.263672,40.271212],[29.263811,40.27091],[29.263666,40.270634],[29.263459,40.270358],[29.263366,40.269827],[29.263421,40.269269],[29.263473,40.269052],[29.263388,40.26889],[29.26264,40.269482],[29.262326,40.269944],[29.262221,40.27],[29.261676,40.270282],[29.261146,40.270485],[29.260788,40.270455],[29.26048,40.270358],[29.260622,40.26981],[29.260465,40.269487],[29.260496,40.269134],[29.260599,40.268833],[29.260589,40.26873],[29.260465,40.268536],[29.260101,40.268074],[29.259897,40.267571],[29.259767,40.267557],[29.259444,40.267978],[29.259436,40.268166],[29.259424,40.268413],[29.259342,40.268518],[29.259198,40.268562],[29.259045,40.268568],[29.258605,40.268461],[29.25829,40.268513],[29.257806,40.268696],[29.257414,40.268999],[29.257239,40.269081],[29.257052,40.269106],[29.256893,40.26911],[29.256682,40.269058],[29.256114,40.26895],[29.255962,40.268894],[29.255802,40.26875],[29.255679,40.268678],[29.255579,40.268653],[29.255417,40.268676],[29.255299,40.268728],[29.255113,40.268889],[29.254822,40.269368],[29.254599,40.269567],[29.254408,40.269632],[29.253966,40.26971],[29.253729,40.269749],[29.253475,40.269917],[29.253189,40.27022],[29.252881,40.270723],[29.252874,40.270731],[29.252706,40.270844],[29.252435,40.270892],[29.251999,40.270965],[29.251265,40.271168],[29.250765,40.271422],[29.250387,40.271574],[29.25016,40.271792],[29.249944,40.271941],[29.249673,40.27196],[29.249456,40.271873],[29.248799,40.271118],[29.248537,40.2709],[29.248096,40.270585],[29.24765,40.270387],[29.24752,40.270298],[29.247226,40.269898],[29.247098,40.269692],[29.246916,40.269536],[29.24653,40.2693],[29.245811,40.269002],[29.245666,40.26893],[29.245601,40.268865],[29.245618,40.268765],[29.245671,40.268723],[29.245771,40.268685],[29.245858,40.268669],[29.246425,40.268773],[29.247067,40.268963],[29.246449,40.268631],[29.24612,40.268543],[29.24559,40.268448],[29.245552,40.268435],[29.245534,40.268443],[29.245312,40.268433],[29.245029,40.2685],[29.244822,40.268613],[29.244546,40.268814],[29.244159,40.2692],[29.243856,40.26957],[29.243782,40.269788],[29.243775,40.269941],[29.243842,40.270044],[29.243958,40.270254],[29.244029,40.270529],[29.24408,40.270736],[29.244185,40.271068],[29.24422,40.271266],[29.244214,40.27159],[29.24421,40.271639],[29.244168,40.271788],[29.244067,40.27193],[29.243929,40.272029],[29.24371,40.272087],[29.243579,40.27212],[29.243385,40.272207],[29.243279,40.272282],[29.243038,40.272412],[29.242915,40.272509],[29.242546,40.273245],[29.242582,40.27335],[29.242653,40.273438],[29.243023,40.27372],[29.243165,40.273868],[29.243196,40.273961],[29.243204,40.273983],[29.243187,40.274133],[29.243076,40.274263],[29.24292,40.274367],[29.242732,40.274456],[29.242635,40.274525],[29.242602,40.274639],[29.242631,40.274847],[29.242708,40.275195],[29.242747,40.275357],[29.242929,40.275747],[29.243016,40.276002],[29.243037,40.276119],[29.242972,40.276381],[29.242957,40.276508],[29.242942,40.276707],[29.242973,40.277029],[29.243116,40.277298],[29.243127,40.277479],[29.242908,40.277839],[29.242633,40.278233],[29.242448,40.278422],[29.2424,40.278491],[29.242016,40.279031],[29.241873,40.279229],[29.241232,40.278916],[29.240488,40.278937],[29.239764,40.279318],[29.241499,40.280304],[29.241679,40.281489],[29.24143,40.28233],[29.238667,40.283304],[29.234463,40.28285],[29.2312,40.281524],[29.228801,40.280125],[29.22619,40.279109],[29.224741,40.278405],[29.222121,40.276914],[29.221813,40.276715],[29.221628,40.276555],[29.222172,40.275685],[29.220499,40.273396],[29.220002,40.271132],[29.220644,40.26828],[29.22548,40.266131],[29.2324,40.264358],[29.23609,40.263192],[29.236291,40.261814],[29.236709,40.260835],[29.237312,40.260023],[29.236468,40.257325],[29.236154,40.256225],[29.23493,40.255221],[29.234704,40.255017],[29.228717,40.257751],[29.225516,40.263284],[29.225223,40.263276],[29.223789,40.263238],[29.216455,40.266761],[29.215067,40.271267],[29.218338,40.274472],[29.217426,40.276317],[29.215126,40.277211],[29.215645,40.279975],[29.212157,40.282745],[29.209613,40.282695],[29.205871,40.283547],[29.195841,40.28351],[29.194134,40.284407],[29.196148,40.285594],[29.196558,40.286255],[29.194215,40.290977],[29.20516,40.297209],[29.204238,40.301856],[29.202968,40.302939],[29.200612,40.304612],[29.199789,40.305753],[29.199902,40.306387],[29.199901,40.306386],[29.199911,40.306447],[29.199912,40.306448],[29.199915,40.306462],[29.201415,40.306798],[29.202674,40.306827],[29.203203,40.307033],[29.203205,40.307033],[29.203205,40.307033],[29.204162,40.306892],[29.205541,40.307435],[29.206895,40.307444],[29.209823,40.308227],[29.210704,40.308236],[29.210705,40.308236],[29.210706,40.308236],[29.214079,40.308165],[29.216259,40.308563],[29.218361,40.308604],[29.2195,40.308196],[29.220826,40.308247],[29.222007,40.308693],[29.222364,40.308695],[29.222961,40.30888],[29.223656,40.309695],[29.224166,40.309736],[29.224245,40.310694],[29.220427,40.312475],[29.221424,40.313717],[29.224643,40.315484],[29.230895,40.321736],[29.230879,40.323108],[29.228384,40.329329],[29.233848,40.327703]]]]}},{"type":"Feature","properties":{"id":"TR-Y-16-003-M-0005","level":"yerlesim","type":"mahalle","parent_id":"TR-D-16-003","province_id":"TR-P-16","district_id":"TR-D-16-003","name":"Ericekköyü","source_raw_name":"ERİCEKKÖYÜ","source":"Kamuya açık veri ve kent rehberi servisleri","source_label":"Kamuya açık veri ve kent rehberi servisleri","source_name":"Bursa Açık Yeşil Platformu - Mahalle Sınırları"},"geometry":{"type":"MultiPolygon","coordinates":[[[[29.299568,40.335792],[29.302753,40.327959],[29.302769,40.327919],[29.301343,40.326339],[29.299496,40.324293],[29.299519,40.32426],[29.299519,40.32426],[29.305205,40.315915],[29.305235,40.315824],[29.306081,40.313257],[29.303947,40.310354],[29.298404,40.308859],[29.295683,40.307348],[29.293979,40.303992],[29.294881,40.302861],[29.294036,40.298503],[29.292015,40.297062],[29.289501,40.298118],[29.287169,40.298006],[29.286686,40.29953],[29.285615,40.300498],[29.285172,40.302281],[29.286015,40.30482],[29.28548,40.30735],[29.284489,40.308741],[29.284599,40.310366],[29.280473,40.310113],[29.278151,40.31124],[29.275814,40.310636],[29.275458,40.31216],[29.273356,40.310328],[29.271695,40.310902],[29.26901,40.308124],[29.265375,40.310732],[29.263982,40.310106],[29.263374,40.311402],[29.26195,40.309671],[29.261008,40.310412],[29.262498,40.311948],[29.262571,40.31302],[29.259428,40.313293],[29.257739,40.3126],[29.258697,40.31423],[29.257165,40.314577],[29.256574,40.314314],[29.256227,40.315059],[29.258911,40.317967],[29.257922,40.31913],[29.243643,40.324786],[29.261035,40.324541],[29.262433,40.324809],[29.277001,40.327598],[29.275036,40.328787],[29.275137,40.328811],[29.278306,40.329555],[29.278498,40.329389],[29.279763,40.328297],[29.281108,40.329507],[29.279525,40.330667],[29.280455,40.331095],[29.280455,40.331095],[29.282802,40.329875],[29.283031,40.330401],[29.283796,40.332155],[29.286564,40.331328],[29.287789,40.331822],[29.290654,40.330386],[29.293805,40.328806],[29.294677,40.329855],[29.29511,40.330375],[29.298122,40.333997],[29.295279,40.333876],[29.289234,40.333619],[29.289213,40.333618],[29.289249,40.333694],[29.289819,40.334907],[29.290085,40.335474],[29.296743,40.337207],[29.299927,40.338035],[29.299927,40.338035],[29.299568,40.335792]]]]}},{"type":"Feature","properties":{"id":"TR-Y-16-003-M-0006","level":"yerlesim","type":"mahalle","parent_id":"TR-D-16-003","province_id":"TR-P-16","district_id":"TR-D-16-003","name":"Hasanköy","source_raw_name":"HASANKÖY","source":"Kamuya açık veri ve kent rehberi servisleri","source_label":"Kamuya açık veri ve kent rehberi servisleri","source_name":"Bursa Açık Yeşil Platformu - Mahalle Sınırları"},"geometry":{"type":"MultiPolygon","coordinates":[[[[29.214658,40.237569],[29.213547,40.235645],[29.211236,40.235743],[29.208994,40.233617],[29.208997,40.233476],[29.209028,40.232447],[29.210012,40.231855],[29.210178,40.231754],[29.211046,40.231232],[29.211055,40.231227],[29.210255,40.229013],[29.209742,40.229126],[29.209742,40.229127],[29.207169,40.229889],[29.204581,40.226558],[29.202921,40.227164],[29.201833,40.226888],[29.199622,40.226092],[29.198252,40.225979],[29.193391,40.227634],[29.19368,40.228334],[29.190499,40.228555],[29.188411,40.227298],[29.18687,40.226949],[29.186656,40.2269],[29.186982,40.228835],[29.187894,40.228777],[29.1885,40.231282],[29.188165,40.23266],[29.189627,40.23267],[29.190622,40.235406],[29.190614,40.235411],[29.189449,40.236044],[29.18953,40.236089],[29.189612,40.236144],[29.18973,40.236209],[29.189835,40.236291],[29.189956,40.236393],[29.190063,40.236488],[29.190146,40.23655],[29.190207,40.236589],[29.190277,40.236635],[29.190395,40.236703],[29.19051,40.236771],[29.190614,40.236827],[29.190705,40.236877],[29.190777,40.236895],[29.190831,40.236914],[29.190941,40.236926],[29.191088,40.236935],[29.191433,40.236932],[29.191827,40.23691],[29.191955,40.236915],[29.192476,40.23872],[29.192493,40.238934],[29.193129,40.24546],[29.199484,40.245748],[29.200189,40.246566],[29.202848,40.246226],[29.205216,40.244959],[29.207141,40.244355],[29.21503,40.243889],[29.214658,40.237569]]]]}},{"type":"Feature","properties":{"id":"TR-Y-16-003-M-0007","level":"yerlesim","type":"mahalle","parent_id":"TR-D-16-003","province_id":"TR-P-16","district_id":"TR-D-16-003","name":"İğdirköyü","source_raw_name":"İĞDİRKÖYÜ","source":"Kamuya açık veri ve kent rehberi servisleri","source_label":"Kamuya açık veri ve kent rehberi servisleri","source_name":"Bursa Açık Yeşil Platformu - Mahalle Sınırları"},"geometry":{"type":"MultiPolygon","coordinates":[[[[29.205871,40.283547],[29.209613,40.282695],[29.212157,40.282745],[29.215645,40.279975],[29.215126,40.277211],[29.217426,40.276317],[29.218338,40.274472],[29.215067,40.271267],[29.216455,40.266761],[29.223789,40.263238],[29.219195,40.257133],[29.210913,40.249249],[29.21024,40.245152],[29.212323,40.244646],[29.213993,40.246073],[29.217282,40.245567],[29.219607,40.24528],[29.21958,40.243883],[29.21503,40.243889],[29.207141,40.244355],[29.205216,40.244959],[29.202848,40.246226],[29.200189,40.246566],[29.199484,40.245748],[29.193129,40.24546],[29.194304,40.249151],[29.193842,40.249257],[29.193719,40.249285],[29.193718,40.249285],[29.193015,40.249432],[29.192485,40.249543],[29.1924,40.249556],[29.19189,40.249664],[29.191556,40.249765],[29.191325,40.249898],[29.190968,40.250167],[29.190722,40.250367],[29.19047,40.250581],[29.190127,40.250785],[29.189759,40.250963],[29.189536,40.251045],[29.189045,40.251191],[29.188889,40.251236],[29.188531,40.251314],[29.187479,40.251578],[29.187202,40.251634],[29.186293,40.251848],[29.186287,40.251827],[29.178407,40.253753],[29.171225,40.255403],[29.171134,40.255905],[29.170071,40.256125],[29.169953,40.257164],[29.171287,40.257271],[29.172503,40.258367],[29.173972,40.258719],[29.174704,40.25952],[29.174263,40.261791],[29.172709,40.264053],[29.175132,40.267059],[29.176844,40.279738],[29.178994,40.281114],[29.179039,40.281157],[29.182862,40.280926],[29.190561,40.2837],[29.194485,40.284223],[29.195841,40.28351],[29.205871,40.283547]]]]}},{"type":"Feature","properties":{"id":"TR-Y-16-003-M-0008","level":"yerlesim","type":"mahalle","parent_id":"TR-D-16-003","province_id":"TR-P-16","district_id":"TR-D-16-003","name":"İpekyolu","source_raw_name":"İPEKYOLU","source":"Kamuya açık veri ve kent rehberi servisleri","source_label":"Kamuya açık veri ve kent rehberi servisleri","source_name":"Bursa Açık Yeşil Platformu - Mahalle Sınırları"},"geometry":{"type":"MultiPolygon","coordinates":[[[[29.240488,40.278937],[29.241232,40.278916],[29.241873,40.279229],[29.242016,40.279031],[29.2424,40.278491],[29.242448,40.278422],[29.242633,40.278233],[29.242908,40.277839],[29.243127,40.277479],[29.243116,40.277298],[29.242973,40.277029],[29.242942,40.276707],[29.242957,40.276508],[29.242972,40.276381],[29.243037,40.276119],[29.243016,40.276002],[29.242929,40.275747],[29.242747,40.275357],[29.242708,40.275195],[29.242631,40.274847],[29.242602,40.274639],[29.242635,40.274525],[29.242732,40.274456],[29.24292,40.274367],[29.243076,40.274263],[29.243187,40.274133],[29.243204,40.273983],[29.243196,40.273961],[29.243165,40.273868],[29.243023,40.27372],[29.242653,40.273438],[29.242582,40.27335],[29.242546,40.273245],[29.242915,40.272509],[29.243038,40.272412],[29.243279,40.272282],[29.243385,40.272207],[29.243579,40.27212],[29.24371,40.272087],[29.243929,40.272029],[29.244067,40.27193],[29.244168,40.271788],[29.24421,40.271639],[29.244214,40.27159],[29.24422,40.271266],[29.244185,40.271068],[29.24408,40.270736],[29.244029,40.270529],[29.243958,40.270254],[29.243842,40.270044],[29.243775,40.269941],[29.243782,40.269788],[29.243856,40.26957],[29.244159,40.2692],[29.244546,40.268814],[29.244822,40.268613],[29.245029,40.2685],[29.245312,40.268433],[29.245534,40.268443],[29.245552,40.268435],[29.24559,40.268448],[29.24612,40.268543],[29.246449,40.268631],[29.247067,40.268963],[29.246425,40.268773],[29.245858,40.268669],[29.245771,40.268685],[29.245671,40.268723],[29.245618,40.268765],[29.245601,40.268865],[29.245666,40.26893],[29.245811,40.269002],[29.24653,40.2693],[29.246916,40.269536],[29.247098,40.269692],[29.247226,40.269898],[29.24752,40.270298],[29.24765,40.270387],[29.248096,40.270585],[29.248537,40.2709],[29.248799,40.271118],[29.249456,40.271873],[29.249673,40.27196],[29.249944,40.271941],[29.25016,40.271792],[29.250387,40.271574],[29.250765,40.271422],[29.251265,40.271168],[29.251999,40.270965],[29.252435,40.270892],[29.252706,40.270844],[29.252874,40.270731],[29.252881,40.270723],[29.253189,40.27022],[29.253475,40.269917],[29.253729,40.269749],[29.253966,40.26971],[29.254408,40.269632],[29.254599,40.269567],[29.254822,40.269368],[29.255113,40.268889],[29.255299,40.268728],[29.255417,40.268676],[29.255579,40.268653],[29.255679,40.268678],[29.255802,40.26875],[29.255962,40.268894],[29.256114,40.26895],[29.256682,40.269058],[29.256893,40.26911],[29.257052,40.269106],[29.257239,40.269081],[29.257414,40.268999],[29.257806,40.268696],[29.25829,40.268513],[29.258605,40.268461],[29.259045,40.268568],[29.259198,40.268562],[29.259342,40.268518],[29.259424,40.268413],[29.259436,40.268166],[29.259444,40.267978],[29.259767,40.267557],[29.259897,40.267571],[29.260101,40.268074],[29.260465,40.268536],[29.260589,40.26873],[29.260599,40.268833],[29.260496,40.269134],[29.260465,40.269487],[29.260622,40.26981],[29.26048,40.270358],[29.260788,40.270455],[29.261146,40.270485],[29.261676,40.270282],[29.262221,40.27],[29.262326,40.269944],[29.26264,40.269482],[29.263388,40.26889],[29.263473,40.269052],[29.263421,40.269269],[29.263366,40.269827],[29.263459,40.270358],[29.263666,40.270634],[29.263811,40.27091],[29.263672,40.271212],[29.263219,40.271938],[29.262994,40.272182],[29.263586,40.272281],[29.263758,40.272405],[29.263693,40.272679],[29.263529,40.273028],[29.263888,40.273002],[29.264111,40.272909],[29.264325,40.272522],[29.264587,40.272335],[29.26476,40.272355],[29.264955,40.272545],[29.264989,40.272896],[29.264787,40.273282],[29.265207,40.273314],[29.265457,40.273012],[29.265448,40.272713],[29.265844,40.271322],[29.265399,40.270283],[29.266244,40.269518],[29.267132,40.269355],[29.267407,40.268835],[29.267724,40.268233],[29.268252,40.267664],[29.268399,40.266705],[29.268356,40.266266],[29.268144,40.265941],[29.268542,40.265504],[29.268968,40.265031],[29.268756,40.264657],[29.269772,40.264884],[29.270271,40.264418],[29.27073,40.264224],[29.271228,40.264242],[29.271674,40.263436],[29.277348,40.260377],[29.27733,40.260338],[29.280873,40.257989],[29.282613,40.257903],[29.283736,40.255896],[29.284677,40.255155],[29.280918,40.2538],[29.280962,40.253746],[29.282242,40.252864],[29.280365,40.251997],[29.279929,40.251324],[29.278543,40.250926],[29.2788,40.250652],[29.277663,40.249882],[29.275929,40.249513],[29.274336,40.249893],[29.272645,40.249395],[29.272034,40.248781],[29.270077,40.246813],[29.269871,40.246211],[29.265168,40.246003],[29.264993,40.246537],[29.260428,40.247304],[29.259628,40.246812],[29.259614,40.246113],[29.258495,40.246577],[29.257186,40.246114],[29.254585,40.247494],[29.252292,40.247804],[29.249414,40.249377],[29.248497,40.251742],[29.245075,40.250746],[29.242736,40.251348],[29.234704,40.255017],[29.23493,40.255221],[29.236154,40.256225],[29.236468,40.257325],[29.237312,40.260023],[29.236709,40.260835],[29.236291,40.261814],[29.23609,40.263192],[29.2324,40.264358],[29.22548,40.266131],[29.220644,40.26828],[29.220002,40.271132],[29.220499,40.273396],[29.222172,40.275685],[29.221628,40.276555],[29.221813,40.276715],[29.222121,40.276914],[29.224741,40.278405],[29.22619,40.279109],[29.228801,40.280125],[29.2312,40.281524],[29.234463,40.28285],[29.238667,40.283304],[29.24143,40.28233],[29.241679,40.281489],[29.241499,40.280304],[29.239764,40.279318],[29.240488,40.278937]]]]}},{"type":"Feature","properties":{"id":"TR-Y-16-003-M-0009","level":"yerlesim","type":"mahalle","parent_id":"TR-D-16-003","province_id":"TR-P-16","district_id":"TR-D-16-003","name":"İstiklal","source_raw_name":"İSTİKLAL","source":"Kamuya açık veri ve kent rehberi servisleri","source_label":"Kamuya açık veri ve kent rehberi servisleri","source_name":"Bursa Açık Yeşil Platformu - Mahalle Sınırları"},"geometry":{"type":"MultiPolygon","coordinates":[[[[29.209247,40.225426],[29.209984,40.225277],[29.210033,40.225316],[29.210625,40.225191],[29.210719,40.224338],[29.210612,40.223541],[29.210708,40.223289],[29.210815,40.222104],[29.211722,40.217155],[29.215684,40.216078],[29.217839,40.216017],[29.224642,40.214438],[29.236962,40.212183],[29.239516,40.210538],[29.23972,40.21049],[29.238452,40.210485],[29.237431,40.210416],[29.236031,40.210195],[29.232863,40.209648],[29.229855,40.209142],[29.227302,40.208682],[29.226688,40.208622],[29.226572,40.208571],[29.226535,40.208565],[29.22591,40.208634],[29.225612,40.208689],[29.225497,40.208716],[29.225389,40.208737],[29.225243,40.208783],[29.22429,40.208944],[29.220735,40.209612],[29.220451,40.209674],[29.219801,40.209641],[29.219369,40.209604],[29.218768,40.209581],[29.218542,40.209618],[29.218217,40.209691],[29.217949,40.209736],[29.217628,40.209808],[29.217304,40.20992],[29.216667,40.209959],[29.216072,40.210034],[29.215441,40.210138],[29.215169,40.210161],[29.214889,40.210129],[29.214529,40.21005],[29.214182,40.209953],[29.21412,40.209943],[29.214138,40.209883],[29.214149,40.209824],[29.214226,40.209452],[29.21425,40.209371],[29.214272,40.209241],[29.21432,40.208918],[29.214362,40.208647],[29.214377,40.20841],[29.214367,40.208016],[29.21208,40.208141],[29.21203,40.207749],[29.210668,40.20778],[29.210476,40.207547],[29.209761,40.207413],[29.208581,40.207303],[29.208095,40.20684],[29.207415,40.206174],[29.206443,40.205264],[29.20597,40.205412],[29.205516,40.205018],[29.204761,40.203543],[29.204177,40.203696],[29.203884,40.203239],[29.202948,40.203336],[29.202131,40.203382],[29.201224,40.204343],[29.201235,40.204375],[29.201298,40.204447],[29.201463,40.204621],[29.201633,40.20481],[29.20182,40.205044],[29.201949,40.205237],[29.20199,40.205323],[29.202026,40.20545],[29.202029,40.205508],[29.202031,40.205537],[29.202024,40.205603],[29.202005,40.205659],[29.20199,40.205697],[29.201967,40.205728],[29.201873,40.205815],[29.201837,40.205852],[29.201774,40.205928],[29.201719,40.206003],[29.201684,40.206054],[29.201665,40.206086],[29.201628,40.206137],[29.201557,40.206216],[29.201472,40.206309],[29.201441,40.206347],[29.201428,40.206366],[29.201405,40.206407],[29.201392,40.206444],[29.201362,40.206556],[29.20134,40.206672],[29.201275,40.206819],[29.201188,40.206903],[29.201113,40.206966],[29.201047,40.207003],[29.200902,40.207077],[29.200552,40.20727],[29.200236,40.207462],[29.20012,40.207524],[29.199964,40.207631],[29.19986,40.207725],[29.199859,40.207726],[29.199647,40.207783],[29.19953,40.207817],[29.199385,40.207852],[29.199022,40.207925],[29.19881,40.207979],[29.198726,40.208],[29.198649,40.208021],[29.198519,40.208064],[29.198429,40.2081],[29.198289,40.208166],[29.198178,40.208215],[29.198013,40.208284],[29.197766,40.208376],[29.197467,40.208479],[29.197281,40.208537],[29.196896,40.208663],[29.196693,40.208729],[29.196647,40.208747],[29.196557,40.208785],[29.196389,40.208869],[29.194936,40.209803],[29.194097,40.210343],[29.193855,40.210499],[29.193663,40.210592],[29.193362,40.210737],[29.192837,40.210986],[29.192755,40.211315],[29.192631,40.21138],[29.192469,40.211484],[29.192448,40.211672],[29.192448,40.211673],[29.192415,40.211802],[29.192312,40.212211],[29.192237,40.212471],[29.192215,40.212697],[29.192235,40.212816],[29.19226,40.212889],[29.192548,40.213312],[29.192747,40.213585],[29.192796,40.213705],[29.192843,40.21385],[29.192853,40.214148],[29.192815,40.21451],[29.192844,40.214852],[29.192848,40.214906],[29.193034,40.215499],[29.193079,40.215751],[29.193117,40.21582],[29.193142,40.215851],[29.193163,40.215876],[29.193213,40.215922],[29.19328,40.21596],[29.193336,40.215919],[29.193786,40.216383],[29.194425,40.216702],[29.194643,40.216911],[29.194792,40.216964],[29.195526,40.217281],[29.19558,40.217368],[29.195666,40.217474],[29.195836,40.217691],[29.195982,40.217809],[29.196061,40.217891],[29.196238,40.218],[29.19661,40.218204],[29.196659,40.218267],[29.196804,40.218473],[29.196872,40.218687],[29.196977,40.218988],[29.197051,40.219198],[29.197085,40.219311],[29.197166,40.219496],[29.197243,40.219596],[29.197322,40.219673],[29.197416,40.219736],[29.197601,40.219828],[29.197672,40.219855],[29.198173,40.220249],[29.198402,40.220442],[29.198509,40.220479],[29.198651,40.220564],[29.19982,40.221205],[29.20028,40.221442],[29.200436,40.221607],[29.200781,40.222143],[29.200946,40.222374],[29.201047,40.222452],[29.20127,40.222577],[29.201376,40.222623],[29.201556,40.222664],[29.201746,40.222697],[29.20199,40.222728],[29.202117,40.222753],[29.202227,40.222783],[29.202319,40.222822],[29.2026,40.222962],[29.203017,40.223189],[29.203279,40.223333],[29.203543,40.223481],[29.204198,40.223803],[29.204643,40.224034],[29.205495,40.224431],[29.205997,40.224643],[29.20641,40.224775],[29.206664,40.224839],[29.207128,40.224933],[29.207308,40.224965],[29.207555,40.225034],[29.207689,40.225103],[29.207742,40.225129],[29.209263,40.22605],[29.209313,40.22608],[29.209314,40.226079],[29.209247,40.225426]]]]}},{"type":"Feature","properties":{"id":"TR-Y-16-003-M-0010","level":"yerlesim","type":"mahalle","parent_id":"TR-D-16-003","province_id":"TR-P-16","district_id":"TR-D-16-003","name":"Karahıdırköyü","source_raw_name":"KARAHIDIRKÖYÜ","source":"Kamuya açık veri ve kent rehberi servisleri","source_label":"Kamuya açık veri ve kent rehberi servisleri","source_name":"Bursa Açık Yeşil Platformu - Mahalle Sınırları"},"geometry":{"type":"MultiPolygon","coordinates":[[[[29.242736,40.251348],[29.245075,40.250746],[29.248497,40.251742],[29.249414,40.249377],[29.252292,40.247804],[29.254585,40.247494],[29.257186,40.246114],[29.258495,40.246577],[29.259492,40.240607],[29.260012,40.239539],[29.261842,40.238868],[29.260922,40.237758],[29.261862,40.237082],[29.261103,40.236655],[29.260547,40.237106],[29.258865,40.234919],[29.259335,40.234581],[29.259026,40.234242],[29.258129,40.233263],[29.259431,40.232444],[29.260317,40.231954],[29.260677,40.231784],[29.259768,40.231839],[29.259669,40.231189],[29.26059,40.230253],[29.25899,40.228342],[29.259861,40.228121],[29.25964,40.227031],[29.25779,40.227685],[29.257725,40.229731],[29.253173,40.229409],[29.250136,40.230965],[29.248073,40.229717],[29.242897,40.234069],[29.238033,40.229392],[29.223482,40.243782],[29.21958,40.243883],[29.219607,40.24528],[29.217282,40.245567],[29.213993,40.246073],[29.212323,40.244646],[29.21024,40.245152],[29.210913,40.249249],[29.219195,40.257133],[29.223789,40.263238],[29.225223,40.263276],[29.225516,40.263284],[29.228717,40.257751],[29.242736,40.251348]]]]}},{"type":"Feature","properties":{"id":"TR-Y-16-003-M-0011","level":"yerlesim","type":"mahalle","parent_id":"TR-D-16-003","province_id":"TR-P-16","district_id":"TR-D-16-003","name":"Kazıklıköyü","source_raw_name":"KAZIKLIKÖYÜ","source":"Kamuya açık veri ve kent rehberi servisleri","source_label":"Kamuya açık veri ve kent rehberi servisleri","source_name":"Bursa Açık Yeşil Platformu - Mahalle Sınırları"},"geometry":{"type":"MultiPolygon","coordinates":[[[[29.157665,40.283042],[29.161177,40.278946],[29.169254,40.281749],[29.179039,40.281157],[29.178994,40.281114],[29.176844,40.279738],[29.175132,40.267059],[29.172709,40.264053],[29.174263,40.261791],[29.174704,40.25952],[29.173972,40.258719],[29.172503,40.258367],[29.171287,40.257271],[29.169953,40.257164],[29.170071,40.256125],[29.171134,40.255905],[29.171225,40.255403],[29.169471,40.255694],[29.167629,40.255567],[29.165908,40.255019],[29.16429,40.253806],[29.162734,40.252852],[29.16077,40.25227],[29.161877,40.249366],[29.161813,40.2492],[29.160176,40.248855],[29.160719,40.247754],[29.161396,40.247857],[29.161733,40.247017],[29.161917,40.246241],[29.162471,40.24523],[29.161191,40.245214],[29.161309,40.244593],[29.161359,40.24139],[29.164029,40.24147],[29.163453,40.240028],[29.161221,40.238672],[29.159185,40.237114],[29.161591,40.236157],[29.161748,40.235492],[29.160663,40.235825],[29.1605,40.235256],[29.156989,40.235588],[29.156974,40.236822],[29.154196,40.236931],[29.154096,40.23646],[29.152271,40.236706],[29.152224,40.23539],[29.151473,40.236132],[29.149701,40.235672],[29.148874,40.237453],[29.148792,40.237345],[29.148754,40.23725],[29.148731,40.237158],[29.148703,40.237018],[29.148568,40.236453],[29.148482,40.236145],[29.148459,40.236026],[29.148438,40.235937],[29.148359,40.23567],[29.148221,40.235317],[29.148143,40.235189],[29.148071,40.235083],[29.14793,40.234898],[29.14783,40.234797],[29.147657,40.234666],[29.147508,40.234558],[29.147387,40.234481],[29.147209,40.234397],[29.147075,40.23435],[29.146969,40.234313],[29.14686,40.234292],[29.146657,40.234246],[29.146508,40.234205],[29.146408,40.234174],[29.146043,40.234091],[29.145061,40.233867],[29.144963,40.234218],[29.144962,40.234225],[29.144958,40.234235],[29.145145,40.234762],[29.144933,40.234842],[29.144922,40.234846],[29.144921,40.234846],[29.14492,40.234847],[29.144537,40.235031],[29.144206,40.235243],[29.144444,40.235814],[29.144309,40.23734],[29.144259,40.237328],[29.141781,40.236684],[29.141083,40.236552],[29.141152,40.237582],[29.140821,40.237625],[29.140688,40.237642],[29.140882,40.238191],[29.141094,40.239706],[29.142139,40.239789],[29.142455,40.241401],[29.142997,40.243066],[29.142549,40.243417],[29.141394,40.243887],[29.139496,40.244661],[29.139986,40.24655],[29.139982,40.246551],[29.140002,40.246625],[29.139961,40.246646],[29.140015,40.246676],[29.14004,40.246773],[29.140931,40.247179],[29.140941,40.247185],[29.14072,40.24748],[29.141332,40.247862],[29.140453,40.248396],[29.140838,40.249614],[29.14085,40.249612],[29.142586,40.249383],[29.143343,40.249821],[29.142958,40.251789],[29.142791,40.252596],[29.138555,40.25216],[29.137107,40.251771],[29.134662,40.250109],[29.134535,40.250274],[29.134201,40.250709],[29.134278,40.25083],[29.134372,40.250978],[29.134031,40.252003],[29.133991,40.252081],[29.133918,40.252265],[29.133808,40.252656],[29.133794,40.252714],[29.133334,40.254093],[29.133489,40.255971],[29.133459,40.25602],[29.133391,40.256224],[29.133442,40.256281],[29.133468,40.256345],[29.133459,40.256389],[29.133409,40.256486],[29.133447,40.256607],[29.133446,40.256697],[29.133465,40.256916],[29.133558,40.257274],[29.133606,40.257383],[29.133646,40.257864],[29.133793,40.258214],[29.13369,40.258499],[29.133958,40.25869],[29.134037,40.258796],[29.134281,40.259377],[29.134374,40.259785],[29.134451,40.260473],[29.134717,40.260843],[29.135054,40.261219],[29.135056,40.261223],[29.134884,40.26138],[29.130809,40.265116],[29.130781,40.265141],[29.130782,40.265142],[29.130781,40.265142],[29.132377,40.268406],[29.132382,40.268463],[29.132685,40.268795],[29.133051,40.26908],[29.13324,40.269178],[29.133676,40.269535],[29.134081,40.26967],[29.134186,40.269739],[29.134394,40.269806],[29.134528,40.269819],[29.135302,40.270078],[29.135849,40.270409],[29.136848,40.271474],[29.136952,40.271671],[29.137146,40.27188],[29.137355,40.272015],[29.137599,40.272275],[29.137842,40.272299],[29.138196,40.272472],[29.138516,40.272365],[29.140433,40.272552],[29.140555,40.272593],[29.140695,40.272578],[29.141671,40.272673],[29.142923,40.27349],[29.143111,40.273704],[29.146209,40.275696],[29.146745,40.275984],[29.146757,40.275992],[29.146759,40.276001],[29.146776,40.276213],[29.147239,40.276792],[29.147098,40.277178],[29.147575,40.278253],[29.148308,40.278902],[29.148552,40.279443],[29.14936,40.280341],[29.157526,40.283204],[29.157665,40.283042]]]]}},{"type":"Feature","properties":{"id":"TR-Y-16-003-M-0012","level":"yerlesim","type":"mahalle","parent_id":"TR-D-16-003","province_id":"TR-P-16","district_id":"TR-D-16-003","name":"Kumlukalan","source_raw_name":"KUMLUKALAN","source":"Kamuya açık veri ve kent rehberi servisleri","source_label":"Kamuya açık veri ve kent rehberi servisleri","source_name":"Bursa Açık Yeşil Platformu - Mahalle Sınırları"},"geometry":{"type":"MultiPolygon","coordinates":[[[[29.164009,40.237701],[29.164018,40.235298],[29.166133,40.2339],[29.167359,40.233625],[29.167208,40.232738],[29.167216,40.230579],[29.166176,40.227985],[29.166037,40.225848],[29.166036,40.225835],[29.165902,40.22585],[29.165281,40.225975],[29.164622,40.226101],[29.164309,40.226203],[29.164072,40.226237],[29.163224,40.226628],[29.163202,40.225583],[29.16315,40.224228],[29.163142,40.223457],[29.162619,40.223502],[29.162467,40.223531],[29.162051,40.223552],[29.161041,40.223478],[29.160964,40.223409],[29.160191,40.2233],[29.160413,40.222671],[29.160435,40.222572],[29.16046,40.222442],[29.159588,40.222421],[29.159587,40.222437],[29.159569,40.222436],[29.159554,40.222694],[29.159495,40.222981],[29.15941,40.223166],[29.159346,40.22315],[29.159334,40.223167],[29.159327,40.223165],[29.159233,40.223295],[29.159013,40.223473],[29.159246,40.223748],[29.158689,40.223937],[29.158372,40.223944],[29.157313,40.224013],[29.156851,40.223969],[29.156259,40.224014],[29.155295,40.224061],[29.155106,40.222556],[29.154428,40.222443],[29.153534,40.222495],[29.150798,40.223034],[29.15022,40.223224],[29.149041,40.224142],[29.148192,40.224458],[29.146635,40.224733],[29.146017,40.224933],[29.145219,40.225403],[29.143162,40.22703],[29.142935,40.226972],[29.142069,40.227115],[29.141893,40.227056],[29.141432,40.227127],[29.141011,40.227357],[29.140756,40.227222],[29.140701,40.227277],[29.140013,40.227448],[29.139835,40.227542],[29.139764,40.227852],[29.139722,40.227958],[29.139629,40.228045],[29.139439,40.228128],[29.139132,40.228165],[29.138583,40.228323],[29.138386,40.228412],[29.138692,40.229097],[29.138855,40.229499],[29.138861,40.229625],[29.13886,40.229653],[29.138679,40.229734],[29.138519,40.229826],[29.138202,40.22994],[29.138136,40.230031],[29.138122,40.230082],[29.138257,40.230221],[29.138337,40.230328],[29.138345,40.230341],[29.138445,40.230472],[29.138526,40.230573],[29.138614,40.230644],[29.138718,40.230689],[29.138663,40.230877],[29.138645,40.230905],[29.140055,40.232968],[29.14027,40.232994],[29.140686,40.233068],[29.141598,40.233263],[29.142451,40.233423],[29.1429,40.233534],[29.143583,40.233508],[29.143749,40.233546],[29.14406,40.233627],[29.14446,40.233726],[29.144745,40.233796],[29.145061,40.233867],[29.146043,40.234091],[29.146408,40.234174],[29.146508,40.234205],[29.146657,40.234246],[29.14686,40.234292],[29.146969,40.234313],[29.147075,40.23435],[29.147209,40.234397],[29.147387,40.234481],[29.147508,40.234558],[29.147657,40.234666],[29.14783,40.234797],[29.14793,40.234898],[29.148071,40.235083],[29.148143,40.235189],[29.148221,40.235317],[29.148359,40.23567],[29.148438,40.235937],[29.148459,40.236026],[29.148482,40.236145],[29.148568,40.236453],[29.148703,40.237018],[29.148731,40.237158],[29.148754,40.23725],[29.148792,40.237345],[29.148874,40.237453],[29.149701,40.235672],[29.151473,40.236132],[29.152224,40.23539],[29.152271,40.236706],[29.154096,40.23646],[29.154196,40.236931],[29.156974,40.236822],[29.156989,40.235588],[29.1605,40.235256],[29.160663,40.235825],[29.161748,40.235492],[29.161591,40.236157],[29.159185,40.237114],[29.161221,40.238672],[29.162687,40.238341],[29.162801,40.237725],[29.164009,40.237701]]]]}},{"type":"Feature","properties":{"id":"TR-Y-16-003-M-0013","level":"yerlesim","type":"mahalle","parent_id":"TR-D-16-003","province_id":"TR-P-16","district_id":"TR-D-16-003","name":"Kurtuluş","source_raw_name":"KURTULUŞ","source":"Kamuya açık veri ve kent rehberi servisleri","source_label":"Kamuya açık veri ve kent rehberi servisleri","source_name":"Bursa Açık Yeşil Platformu - Mahalle Sınırları"},"geometry":{"type":"MultiPolygon","coordinates":[[[[29.186232,40.215651],[29.187507,40.215593],[29.187526,40.21567],[29.187555,40.21567],[29.187555,40.215671],[29.187673,40.215759],[29.188378,40.215732],[29.18852,40.215721],[29.188836,40.21568],[29.188908,40.215665],[29.189201,40.215588],[29.189212,40.215585],[29.189461,40.215504],[29.189549,40.215472],[29.189715,40.215391],[29.189911,40.215321],[29.189997,40.215284],[29.19014,40.215223],[29.190318,40.215093],[29.190485,40.214953],[29.190698,40.214734],[29.190926,40.214691],[29.191242,40.214611],[29.19139,40.214584],[29.191452,40.214733],[29.191532,40.215012],[29.191926,40.214982],[29.192174,40.214954],[29.192647,40.214879],[29.192844,40.214852],[29.192815,40.21451],[29.192853,40.214148],[29.192843,40.21385],[29.192796,40.213705],[29.192747,40.213585],[29.192548,40.213312],[29.19226,40.212889],[29.192235,40.212816],[29.192215,40.212697],[29.192237,40.212471],[29.192312,40.212211],[29.192415,40.211802],[29.192448,40.211673],[29.192448,40.211672],[29.192469,40.211484],[29.192631,40.21138],[29.192755,40.211315],[29.192837,40.210986],[29.193362,40.210737],[29.193663,40.210592],[29.193855,40.210499],[29.194097,40.210343],[29.194936,40.209803],[29.195248,40.209603],[29.195863,40.209207],[29.196389,40.208869],[29.196557,40.208785],[29.196647,40.208747],[29.196693,40.208729],[29.196896,40.208663],[29.197281,40.208537],[29.197467,40.208479],[29.197766,40.208376],[29.198013,40.208284],[29.198178,40.208215],[29.198289,40.208166],[29.198429,40.2081],[29.198519,40.208064],[29.198649,40.208021],[29.198726,40.208],[29.19881,40.207979],[29.199022,40.207925],[29.199385,40.207852],[29.19953,40.207817],[29.199647,40.207783],[29.199859,40.207726],[29.19986,40.207725],[29.199964,40.207631],[29.20012,40.207524],[29.200236,40.207462],[29.200552,40.20727],[29.200902,40.207077],[29.201047,40.207003],[29.201113,40.206966],[29.201188,40.206903],[29.201275,40.206819],[29.20134,40.206672],[29.201362,40.206556],[29.201392,40.206444],[29.201405,40.206407],[29.201428,40.206366],[29.201441,40.206347],[29.201472,40.206309],[29.201557,40.206216],[29.201628,40.206137],[29.201665,40.206086],[29.201684,40.206054],[29.201719,40.206003],[29.201774,40.205928],[29.201837,40.205852],[29.201873,40.205815],[29.201967,40.205728],[29.20199,40.205697],[29.202005,40.205659],[29.202024,40.205603],[29.202031,40.205537],[29.202029,40.205508],[29.202026,40.20545],[29.20199,40.205323],[29.201949,40.205237],[29.20182,40.205044],[29.201633,40.20481],[29.201463,40.204621],[29.201298,40.204447],[29.201235,40.204375],[29.201224,40.204343],[29.200366,40.204606],[29.199979,40.204711],[29.199921,40.204742],[29.199616,40.204861],[29.19833,40.20482],[29.19632,40.204796],[29.195604,40.2048],[29.195256,40.2048],[29.194376,40.204809],[29.194361,40.204809],[29.194344,40.204765],[29.194156,40.204503],[29.193976,40.204237],[29.193786,40.203945],[29.19362,40.203682],[29.192626,40.203697],[29.190815,40.203709],[29.19086,40.203984],[29.190921,40.204247],[29.190991,40.204522],[29.191008,40.204629],[29.191019,40.204797],[29.191027,40.204837],[29.190247,40.204828],[29.18981,40.204824],[29.189509,40.204824],[29.189218,40.204817],[29.188611,40.204778],[29.188236,40.204764],[29.187526,40.204753],[29.187078,40.204744],[29.186065,40.204734],[29.185221,40.204722],[29.184501,40.204717],[29.184359,40.204716],[29.183452,40.204709],[29.183456,40.204784],[29.183326,40.204779],[29.183332,40.204832],[29.183342,40.205068],[29.183367,40.205262],[29.183377,40.205261],[29.183667,40.205221],[29.183936,40.205198],[29.183936,40.205199],[29.183938,40.205228],[29.183961,40.205531],[29.183953,40.205816],[29.183975,40.205817],[29.18399,40.20589],[29.184022,40.206136],[29.183886,40.206138],[29.183894,40.206334],[29.183076,40.206675],[29.183074,40.206758],[29.18296,40.206757],[29.182947,40.206757],[29.182935,40.207194],[29.183349,40.207201],[29.183526,40.207869],[29.182556,40.207968],[29.182357,40.208401],[29.182367,40.208659],[29.182447,40.208849],[29.181371,40.209053],[29.181357,40.209613],[29.181768,40.20962],[29.181551,40.210351],[29.181065,40.210322],[29.180988,40.210556],[29.180899,40.210562],[29.18068,40.210774],[29.180586,40.211025],[29.180633,40.211079],[29.180834,40.211402],[29.180966,40.211548],[29.181063,40.211623],[29.181388,40.211898],[29.181705,40.212142],[29.181465,40.212577],[29.181532,40.212829],[29.181833,40.21303],[29.182082,40.212993],[29.182541,40.212417],[29.182932,40.212477],[29.183492,40.212626],[29.183659,40.212713],[29.184162,40.212946],[29.184168,40.213913],[29.184234,40.214192],[29.184363,40.215016],[29.184562,40.21594],[29.184892,40.215895],[29.185493,40.21579],[29.186232,40.215651]]]]}},{"type":"Feature","properties":{"id":"TR-Y-16-003-M-0014","level":"yerlesim","type":"mahalle","parent_id":"TR-D-16-003","province_id":"TR-P-16","district_id":"TR-D-16-003","name":"Yenidoğan","source_raw_name":"YENİDOĞAN","source":"Kamuya açık veri ve kent rehberi servisleri","source_label":"Kamuya açık veri ve kent rehberi servisleri","source_name":"Bursa Açık Yeşil Platformu - Mahalle Sınırları"},"geometry":{"type":"MultiPolygon","coordinates":[[[[29.178107,40.216648],[29.178196,40.216355],[29.179668,40.216491],[29.181596,40.216193],[29.18409,40.216049],[29.184562,40.21594],[29.184363,40.215016],[29.184234,40.214192],[29.184168,40.213913],[29.184162,40.212946],[29.183659,40.212713],[29.183492,40.212626],[29.182932,40.212477],[29.182541,40.212417],[29.182082,40.212993],[29.181833,40.21303],[29.181532,40.212829],[29.181465,40.212577],[29.181705,40.212142],[29.181388,40.211898],[29.181063,40.211623],[29.180966,40.211548],[29.180834,40.211402],[29.180633,40.211079],[29.180586,40.211025],[29.18068,40.210774],[29.180899,40.210562],[29.180988,40.210556],[29.181065,40.210322],[29.181551,40.210351],[29.181768,40.20962],[29.181357,40.209613],[29.181371,40.209053],[29.182447,40.208849],[29.182367,40.208659],[29.182357,40.208401],[29.182556,40.207968],[29.183526,40.207869],[29.183349,40.207201],[29.182935,40.207194],[29.182947,40.206757],[29.18296,40.206757],[29.183074,40.206758],[29.183076,40.206675],[29.183894,40.206334],[29.183886,40.206138],[29.184022,40.206136],[29.18399,40.20589],[29.183975,40.205817],[29.183953,40.205816],[29.183961,40.205531],[29.183938,40.205228],[29.183936,40.205199],[29.183936,40.205198],[29.183667,40.205221],[29.183377,40.205261],[29.183367,40.205262],[29.183342,40.205068],[29.183332,40.204832],[29.183326,40.204779],[29.183456,40.204784],[29.183452,40.204709],[29.18344,40.204709],[29.183402,40.204025],[29.183805,40.204067],[29.183726,40.203223],[29.183548,40.203138],[29.183819,40.203107],[29.183592,40.202359],[29.183507,40.20235],[29.183435,40.202357],[29.183185,40.202374],[29.182788,40.202381],[29.182793,40.201948],[29.181804,40.20186],[29.181894,40.201689],[29.181922,40.201451],[29.181945,40.201076],[29.182,40.20065],[29.181971,40.200278],[29.181926,40.200054],[29.181888,40.199596],[29.181894,40.199515],[29.182428,40.199532],[29.183196,40.19957],[29.183269,40.199578],[29.183132,40.199139],[29.183109,40.19906],[29.183171,40.199059],[29.183534,40.199082],[29.183933,40.199155],[29.18401,40.199181],[29.184147,40.199224],[29.184246,40.199278],[29.184264,40.199286],[29.184358,40.199328],[29.184412,40.198985],[29.184418,40.198732],[29.184378,40.198448],[29.184285,40.197642],[29.184297,40.197492],[29.184075,40.197463],[29.183229,40.197334],[29.182527,40.197263],[29.17998,40.196942],[29.179444,40.196888],[29.178395,40.196758],[29.178328,40.196894],[29.178005,40.197671],[29.177768,40.198298],[29.17759,40.19883],[29.177546,40.199027],[29.177522,40.199163],[29.177531,40.199304],[29.177567,40.199521],[29.177688,40.199934],[29.177706,40.200241],[29.177693,40.200419],[29.177712,40.200876],[29.177734,40.201328],[29.177735,40.201335],[29.177786,40.201699],[29.177881,40.201915],[29.177956,40.202072],[29.178017,40.202194],[29.178032,40.202433],[29.178037,40.202684],[29.178026,40.202774],[29.177983,40.202959],[29.177908,40.203117],[29.177732,40.203422],[29.17763,40.203669],[29.177594,40.203762],[29.177588,40.203848],[29.177582,40.203969],[29.177592,40.204218],[29.177578,40.204364],[29.177546,40.204493],[29.177467,40.204604],[29.177258,40.204817],[29.177111,40.204917],[29.17692,40.205011],[29.176714,40.205148],[29.176369,40.205391],[29.17624,40.205494],[29.176074,40.205698],[29.175963,40.206006],[29.175894,40.206227],[29.175755,40.20648],[29.17557,40.206771],[29.175346,40.207126],[29.175332,40.207174],[29.175351,40.207496],[29.175391,40.207732],[29.175378,40.207795],[29.175335,40.207844],[29.175261,40.207908],[29.17518,40.207966],[29.175181,40.20797],[29.175198,40.208136],[29.175244,40.208415],[29.175372,40.208778],[29.175381,40.208798],[29.175389,40.208819],[29.175398,40.208835],[29.175428,40.2089],[29.175501,40.208984],[29.175722,40.209124],[29.176814,40.209618],[29.176975,40.209676],[29.177135,40.209726],[29.177611,40.209895],[29.177801,40.209971],[29.177978,40.210051],[29.178168,40.210127],[29.178475,40.210256],[29.178507,40.210274],[29.178598,40.210319],[29.178693,40.210356],[29.178781,40.210421],[29.178942,40.210703],[29.178983,40.21078],[29.179007,40.210865],[29.179099,40.211599],[29.17903,40.211631],[29.178929,40.211646],[29.178362,40.211643],[29.178247,40.211711],[29.177848,40.211896],[29.177656,40.211983],[29.177538,40.212048],[29.177491,40.212153],[29.177436,40.212317],[29.177391,40.212405],[29.177289,40.212807],[29.177233,40.212919],[29.177053,40.21323],[29.177005,40.213285],[29.176716,40.213421],[29.176685,40.213888],[29.176648,40.214463],[29.176538,40.214459],[29.176529,40.214583],[29.176626,40.214585],[29.176635,40.214657],[29.176635,40.21467],[29.176546,40.214678],[29.176645,40.214867],[29.176697,40.215109],[29.176792,40.215116],[29.176812,40.21533],[29.176827,40.215509],[29.176837,40.215627],[29.176841,40.215673],[29.176851,40.215783],[29.176858,40.215859],[29.176876,40.216009],[29.176877,40.216017],[29.17688,40.216047],[29.176896,40.2162],[29.176914,40.216185],[29.176936,40.216237],[29.177041,40.216259],[29.177007,40.21662],[29.177344,40.216628],[29.178107,40.216648],[29.178107,40.216648]]]]}},{"type":"Feature","properties":{"id":"TR-Y-16-003-M-0015","level":"yerlesim","type":"mahalle","parent_id":"TR-D-16-003","province_id":"TR-P-16","district_id":"TR-D-16-003","name":"Zafer","source_raw_name":"ZAFER","source":"Kamuya açık veri ve kent rehberi servisleri","source_label":"Kamuya açık veri ve kent rehberi servisleri","source_name":"Bursa Açık Yeşil Platformu - Mahalle Sınırları"},"geometry":{"type":"MultiPolygon","coordinates":[[[[29.177465,40.228315],[29.177537,40.228077],[29.17766,40.227785],[29.177702,40.227775],[29.182363,40.227808],[29.182335,40.226639],[29.186656,40.2269],[29.18687,40.226949],[29.188411,40.227298],[29.190499,40.228555],[29.19368,40.228334],[29.193391,40.227634],[29.198252,40.225979],[29.199622,40.226092],[29.201833,40.226888],[29.202921,40.227164],[29.204581,40.226558],[29.207169,40.229889],[29.209742,40.229127],[29.209012,40.226264],[29.209284,40.226099],[29.209313,40.22608],[29.209263,40.22605],[29.207742,40.225129],[29.207689,40.225103],[29.207555,40.225034],[29.207308,40.224965],[29.207128,40.224933],[29.206664,40.224839],[29.20641,40.224775],[29.205997,40.224643],[29.205495,40.224431],[29.204643,40.224034],[29.204198,40.223803],[29.203543,40.223481],[29.203279,40.223333],[29.203017,40.223189],[29.2026,40.222962],[29.202319,40.222822],[29.202227,40.222783],[29.202117,40.222753],[29.20199,40.222728],[29.201746,40.222697],[29.201556,40.222664],[29.201376,40.222623],[29.20127,40.222577],[29.201047,40.222452],[29.200946,40.222374],[29.200781,40.222143],[29.200436,40.221607],[29.20028,40.221442],[29.19982,40.221205],[29.198651,40.220564],[29.198509,40.220479],[29.198402,40.220442],[29.198173,40.220249],[29.197672,40.219855],[29.197601,40.219828],[29.197416,40.219736],[29.197322,40.219673],[29.197243,40.219596],[29.197166,40.219496],[29.197085,40.219311],[29.197051,40.219198],[29.196977,40.218988],[29.196872,40.218687],[29.196804,40.218473],[29.196659,40.218267],[29.19661,40.218204],[29.196238,40.218],[29.196061,40.217891],[29.195982,40.217809],[29.195836,40.217691],[29.195666,40.217474],[29.19558,40.217368],[29.195526,40.217281],[29.194792,40.216964],[29.194643,40.216911],[29.194425,40.216702],[29.193786,40.216383],[29.193336,40.215919],[29.19328,40.21596],[29.193213,40.215922],[29.193163,40.215876],[29.193142,40.215851],[29.193117,40.21582],[29.193079,40.215751],[29.193034,40.215499],[29.192848,40.214906],[29.192844,40.214852],[29.192647,40.214879],[29.192174,40.214954],[29.191926,40.214982],[29.191532,40.215012],[29.191452,40.214733],[29.19139,40.214584],[29.191242,40.214611],[29.190926,40.214691],[29.190698,40.214734],[29.190485,40.214953],[29.190318,40.215093],[29.19014,40.215223],[29.189997,40.215284],[29.189911,40.215321],[29.189715,40.215391],[29.189549,40.215472],[29.189461,40.215504],[29.189212,40.215585],[29.189201,40.215588],[29.188908,40.215665],[29.188836,40.21568],[29.18852,40.215721],[29.188378,40.215732],[29.187673,40.215759],[29.187555,40.215671],[29.187555,40.21567],[29.187526,40.21567],[29.187507,40.215593],[29.186232,40.215651],[29.185493,40.21579],[29.184892,40.215895],[29.184562,40.21594],[29.18409,40.216049],[29.181596,40.216193],[29.179668,40.216491],[29.178196,40.216355],[29.178107,40.216648],[29.177344,40.216628],[29.177007,40.21662],[29.177041,40.216259],[29.176936,40.216237],[29.176914,40.216185],[29.176896,40.2162],[29.176867,40.216252],[29.17667,40.216606],[29.175753,40.217815],[29.175339,40.217694],[29.175186,40.218042],[29.175184,40.218041],[29.175183,40.218042],[29.175144,40.218024],[29.175104,40.218019],[29.175076,40.218036],[29.175018,40.218128],[29.174888,40.218358],[29.174886,40.218357],[29.174886,40.218358],[29.174346,40.218179],[29.17424,40.218385],[29.174166,40.218464],[29.173969,40.218528],[29.173329,40.219003],[29.173252,40.219015],[29.173251,40.219015],[29.173249,40.219015],[29.173177,40.218998],[29.172874,40.219281],[29.17275,40.219344],[29.172511,40.219314],[29.171535,40.219378],[29.170835,40.21941],[29.170551,40.219501],[29.170116,40.219584],[29.16942,40.219627],[29.169384,40.219674],[29.169333,40.219963],[29.169105,40.220783],[29.169102,40.220783],[29.169102,40.220783],[29.168887,40.220778],[29.168887,40.220778],[29.168071,40.220774],[29.167278,40.220807],[29.166929,40.220839],[29.166913,40.22097],[29.166877,40.221641],[29.166874,40.221753],[29.166872,40.22229],[29.16687,40.222288],[29.166869,40.222355],[29.167116,40.222489],[29.167116,40.222488],[29.167135,40.222498],[29.167105,40.223757],[29.166876,40.223763],[29.166835,40.223764],[29.166834,40.223764],[29.166824,40.223764],[29.166726,40.224255],[29.166754,40.224717],[29.166734,40.225573],[29.16672,40.225615],[29.166688,40.225651],[29.166624,40.225699],[29.166622,40.225699],[29.166553,40.225726],[29.16643,40.225773],[29.166382,40.225784],[29.166233,40.225806],[29.166087,40.225843],[29.166037,40.225848],[29.166176,40.227985],[29.166967,40.22784],[29.167604,40.227603],[29.167812,40.228126],[29.169141,40.228104],[29.169908,40.231227],[29.176382,40.231967],[29.17645,40.231751],[29.176677,40.23114],[29.176733,40.230844],[29.176765,40.230632],[29.176799,40.230425],[29.176841,40.230293],[29.176945,40.230179],[29.177188,40.23002],[29.177474,40.22984],[29.177597,40.229711],[29.177676,40.229573],[29.177715,40.229467],[29.177741,40.229263],[29.177714,40.229106],[29.177603,40.228804],[29.177482,40.228518],[29.177465,40.228315]]]]}},{"type":"Feature","properties":{"id":"TR-Y-16-003-OSB-KURTULUSOSB","level":"yerlesim","type":"mahalle","parent_id":"TR-D-16-003","province_id":"TR-P-16","district_id":"TR-D-16-003","name":"Kurtuluşosb","source_raw_name":"Kurtuluşosb","source":"Kamuya açık veri ve kent rehberi servisleri","source_label":"Kamuya açık veri ve kent rehberi servisleri","source_name":"Bursa Açık Yeşil Platformu - Mahalle Sınırları","source_only":true,"osb":true},"geometry":{"type":"MultiPolygon","coordinates":[[[[29.192637,40.203696],[29.19362,40.203682],[29.193786,40.203945],[29.193976,40.204237],[29.194156,40.204503],[29.194344,40.204765],[29.194361,40.204809],[29.194376,40.204809],[29.195256,40.2048],[29.195604,40.2048],[29.19632,40.204796],[29.19833,40.20482],[29.199616,40.204861],[29.199921,40.204742],[29.199979,40.204711],[29.200366,40.204606],[29.201224,40.204343],[29.201224,40.204343],[29.201164,40.204312],[29.200623,40.204034],[29.200464,40.203888],[29.200291,40.203759],[29.200119,40.203666],[29.199643,40.203131],[29.19871,40.20201],[29.198189,40.201126],[29.197891,40.200125],[29.197363,40.198936],[29.197271,40.198443],[29.19727,40.198441],[29.197256,40.198367],[29.196755,40.197887],[29.196684,40.197327],[29.196664,40.196987],[29.196663,40.196987],[29.196659,40.196911],[29.196644,40.196912],[29.196122,40.196941],[29.19559,40.196993],[29.195184,40.197042],[29.193518,40.197232],[29.1919,40.197418],[29.190968,40.197519],[29.190806,40.197537],[29.189756,40.197652],[29.188999,40.197751],[29.188384,40.197803],[29.188023,40.197812],[29.188039,40.198575],[29.188164,40.200549],[29.188218,40.201952],[29.188386,40.202418],[29.188429,40.202644],[29.188501,40.202688],[29.188601,40.202732],[29.188822,40.203046],[29.189845,40.204567],[29.18981,40.204824],[29.190247,40.204828],[29.191027,40.204837],[29.191019,40.204797],[29.191008,40.204629],[29.190991,40.204522],[29.190921,40.204247],[29.19086,40.203984],[29.190815,40.203709],[29.192626,40.203697],[29.192637,40.203696]]]]}},{"type":"Feature","properties":{"id":"TR-Y-16-003-OSB-YENIDOGANOSB","level":"yerlesim","type":"mahalle","parent_id":"TR-D-16-003","province_id":"TR-P-16","district_id":"TR-D-16-003","name":"Yenidoğanosb","source_raw_name":"Yenidoğanosb","source":"Kamuya açık veri ve kent rehberi servisleri","source_label":"Kamuya açık veri ve kent rehberi servisleri","source_name":"Bursa Açık Yeşil Platformu - Mahalle Sınırları","source_only":true,"osb":true},"geometry":{"type":"MultiPolygon","coordinates":[[[[29.189845,40.204567],[29.188822,40.203046],[29.188601,40.202732],[29.188501,40.202688],[29.188429,40.202644],[29.188386,40.202418],[29.188218,40.201952],[29.188164,40.200549],[29.188039,40.198575],[29.188023,40.197812],[29.187799,40.197818],[29.187147,40.197804],[29.186803,40.197783],[29.186496,40.197757],[29.186115,40.197714],[29.185211,40.1976],[29.1844,40.197506],[29.184297,40.197492],[29.184285,40.197642],[29.184378,40.198448],[29.184418,40.198732],[29.184412,40.198985],[29.184358,40.199328],[29.184264,40.199286],[29.184246,40.199278],[29.184147,40.199224],[29.18401,40.199181],[29.183933,40.199155],[29.183534,40.199082],[29.183171,40.199059],[29.183109,40.19906],[29.183132,40.199139],[29.183269,40.199578],[29.183196,40.19957],[29.182428,40.199532],[29.181894,40.199515],[29.181888,40.199596],[29.181926,40.200054],[29.181971,40.200278],[29.182,40.20065],[29.181945,40.201076],[29.181922,40.201451],[29.181894,40.201689],[29.181804,40.20186],[29.182793,40.201948],[29.182788,40.202381],[29.183185,40.202374],[29.183435,40.202357],[29.183507,40.20235],[29.183592,40.202359],[29.183819,40.203107],[29.183548,40.203138],[29.183726,40.203223],[29.183805,40.204067],[29.183402,40.204025],[29.18344,40.204709],[29.184359,40.204716],[29.184501,40.204717],[29.185221,40.204722],[29.186065,40.204734],[29.187078,40.204744],[29.187526,40.204753],[29.188236,40.204764],[29.188611,40.204778],[29.189218,40.204817],[29.189509,40.204824],[29.18981,40.204824],[29.189845,40.204567]]]]}}]}