{"type":"FeatureCollection","name":"turkiye_map.dist.mahalle_geometrileri_by_district.TR-D-59-004","features":[{"type":"Feature","properties":{"id":"TR-Y-59-004-M-0001","level":"yerlesim","type":"mahalle","parent_id":"TR-D-59-004","province_id":"TR-P-59","district_id":"TR-D-59-004","name":"Ataköy","source_raw_name":"Ataköy Mah.","source":"Kullanıcı tarafından sağlanan KML","source_label":"Kullanıcı tarafından sağlanan KML","source_name":"Tekirdağ Mahalle KML"},"geometry":{"type":"Polygon","coordinates":[[[27.0369,41.20848],[27.04474,41.20679],[27.05591,41.20089],[27.05711,41.19761],[27.05579,41.1964],[27.05807,41.19611],[27.06146,41.19257],[27.06063,41.19014],[27.06578,41.18833],[27.06549,41.18559],[27.06952,41.18273],[27.07075,41.17949],[27.07503,41.1774],[27.07571,41.17532],[27.07306,41.17428],[27.07416,41.17304],[27.07755,41.17338],[27.07777,41.17136],[27.07126,41.16257],[27.05647,41.1655],[27.04829,41.16079],[27.04702,41.16295],[27.03886,41.16213],[27.02864,41.165],[27.01164,41.16503],[27.01024,41.17343],[27.00636,41.17895],[27.01145,41.18724],[27.01097,41.19479],[27.02088,41.20197],[27.02632,41.20322],[27.02528,41.20571],[27.0369,41.20848]]]}},{"type":"Feature","properties":{"id":"TR-Y-59-004-M-0002","level":"yerlesim","type":"mahalle","parent_id":"TR-D-59-004","province_id":"TR-P-59","district_id":"TR-D-59-004","name":"Avluobası","source_raw_name":"Avluobası Mah.","source":"Kullanıcı tarafından sağlanan KML","source_label":"Kullanıcı tarafından sağlanan KML","source_name":"Tekirdağ Mahalle KML"},"geometry":{"type":"Polygon","coordinates":[[[27.24302,41.32088],[27.24953,41.31202],[27.25899,41.31156],[27.26321,41.3016],[27.26544,41.29989],[27.26493,41.29636],[27.25806,41.29296],[27.23798,41.28923],[27.23493,41.28991],[27.22848,41.28603],[27.2148,41.28454],[27.2132,41.28278],[27.21141,41.28327],[27.21086,41.28111],[27.20505,41.28402],[27.20361,41.28657],[27.20506,41.2892],[27.20174,41.29217],[27.20266,41.29324],[27.20093,41.29567],[27.19587,41.2981],[27.19634,41.30165],[27.2081,41.30318],[27.20713,41.30474],[27.2085,41.3064],[27.21342,41.30771],[27.21235,41.30982],[27.21554,41.31116],[27.21458,41.31228],[27.22453,41.31474],[27.22339,41.31612],[27.2285,41.31836],[27.24302,41.32088]]]}},{"type":"Feature","properties":{"id":"TR-Y-59-004-M-0003","level":"yerlesim","type":"mahalle","parent_id":"TR-D-59-004","province_id":"TR-P-59","district_id":"TR-D-59-004","name":"Aydınevler","source_raw_name":"Aydınevler Mah.","source":"Kullanıcı tarafından sağlanan KML","source_label":"Kullanıcı tarafından sağlanan KML","source_name":"Tekirdağ Mahalle KML"},"geometry":{"type":"Polygon","coordinates":[[[27.05968,41.21837],[27.06766,41.22034],[27.08485,41.21818],[27.09488,41.215],[27.10156,41.21503],[27.10461,41.2102],[27.09871,41.19713],[27.07413,41.17755],[27.06549,41.18559],[27.06578,41.18833],[27.06063,41.19014],[27.06146,41.19257],[27.05807,41.19611],[27.05579,41.1964],[27.05711,41.19761],[27.05591,41.20089],[27.04474,41.20679],[27.03586,41.20892],[27.03424,41.20809],[27.03246,41.21143],[27.03631,41.21247],[27.03257,41.21992],[27.03546,41.22087],[27.03821,41.2273],[27.04491,41.2224],[27.05968,41.21837]],[[27.05293,41.21611],[27.05224,41.2143],[27.0493,41.2159],[27.05085,41.21389],[27.04849,41.21236],[27.04634,41.21338],[27.03871,41.21153],[27.04563,41.211],[27.04554,41.20966],[27.04782,41.20897],[27.0513,41.21151],[27.05571,41.21167],[27.05293,41.21611]]]}},{"type":"Feature","properties":{"id":"TR-Y-59-004-M-0004","level":"yerlesim","type":"mahalle","parent_id":"TR-D-59-004","province_id":"TR-P-59","district_id":"TR-D-59-004","name":"Aydınlar","source_raw_name":"Aydınlar Mah.","source":"Kullanıcı tarafından sağlanan KML","source_label":"Kullanıcı tarafından sağlanan KML","source_name":"Tekirdağ Mahalle KML"},"geometry":{"type":"Polygon","coordinates":[[[26.96897,41.1988],[26.98295,41.19705],[26.98792,41.19271],[27.00087,41.18714],[27.00095,41.19002],[27.00714,41.19593],[27.01097,41.19478],[27.01145,41.18724],[27.00636,41.17895],[27.01024,41.17343],[27.01164,41.16503],[26.99846,41.16358],[26.99,41.15752],[26.96753,41.15439],[26.95727,41.15132],[26.94592,41.1547],[26.93595,41.16264],[26.92738,41.16613],[26.94078,41.17169],[26.95031,41.17843],[26.95009,41.18241],[26.945,41.19044],[26.94674,41.19489],[26.95775,41.19476],[26.96897,41.1988]]]}},{"type":"Feature","properties":{"id":"TR-Y-59-004-M-0005","level":"yerlesim","type":"mahalle","parent_id":"TR-D-59-004","province_id":"TR-P-59","district_id":"TR-D-59-004","name":"Bayramşah","source_raw_name":"Bayramşah Mah.","source":"Kullanıcı tarafından sağlanan KML","source_label":"Kullanıcı tarafından sağlanan KML","source_name":"Tekirdağ Mahalle KML"},"geometry":{"type":"Polygon","coordinates":[[[27.20834,41.15868],[27.21189,41.1607],[27.21294,41.1588],[27.21373,41.14902],[27.20903,41.14194],[27.21129,41.13926],[27.21048,41.13638],[27.21172,41.13308],[27.20959,41.13201],[27.21103,41.1289],[27.20993,41.12542],[27.21127,41.12262],[27.21676,41.12282],[27.21881,41.11626],[27.2109,41.11452],[27.2146,41.10834],[27.21085,41.10748],[27.20619,41.11139],[27.20317,41.11025],[27.20326,41.11575],[27.20122,41.11636],[27.20276,41.11858],[27.19814,41.12131],[27.20243,41.12908],[27.20242,41.13146],[27.19752,41.12895],[27.19961,41.12856],[27.19874,41.12595],[27.19988,41.1254],[27.1977,41.12121],[27.19046,41.12163],[27.18746,41.11992],[27.18783,41.12125],[27.18334,41.12236],[27.1811,41.12931],[27.17924,41.13007],[27.17635,41.14267],[27.18156,41.16243],[27.19916,41.16096],[27.20287,41.16454],[27.20834,41.15868]]]}},{"type":"Feature","properties":{"id":"TR-Y-59-004-M-0006","level":"yerlesim","type":"mahalle","parent_id":"TR-D-59-004","province_id":"TR-P-59","district_id":"TR-D-59-004","name":"Büyükkarakarlı","source_raw_name":"Büyükkarakarlı Mah.","source":"Kullanıcı tarafından sağlanan KML","source_label":"Kullanıcı tarafından sağlanan KML","source_name":"Tekirdağ Mahalle KML"},"geometry":{"type":"Polygon","coordinates":[[[27.27234,41.28956],[27.27277,41.28715],[27.28698,41.2789],[27.29165,41.27343],[27.29513,41.27268],[27.29475,41.26895],[27.29591,41.26812],[27.27934,41.25995],[27.28019,41.25737],[27.27878,41.25459],[27.28087,41.25395],[27.27724,41.24787],[27.27457,41.24442],[27.26991,41.24483],[27.26663,41.24234],[27.27173,41.23989],[27.26237,41.24308],[27.25198,41.2401],[27.24792,41.24073],[27.23992,41.23769],[27.23409,41.24119],[27.23347,41.2411],[27.23676,41.23846],[27.23242,41.23988],[27.2229,41.2389],[27.21886,41.23682],[27.21719,41.23739],[27.2183,41.24032],[27.21608,41.23805],[27.21296,41.23888],[27.21412,41.24136],[27.20967,41.23956],[27.21093,41.24275],[27.20843,41.2451],[27.20731,41.2518],[27.20375,41.25529],[27.2075,41.26224],[27.19907,41.26863],[27.20095,41.2738],[27.19718,41.27753],[27.19875,41.27877],[27.19796,41.28136],[27.20074,41.28045],[27.2024,41.28143],[27.20226,41.28393],[27.20469,41.28297],[27.20517,41.2848],[27.21086,41.28111],[27.21141,41.28327],[27.2132,41.28278],[27.2148,41.28454],[27.22848,41.28603],[27.23493,41.28991],[27.23798,41.28923],[27.25806,41.29296],[27.26572,41.29733],[27.27234,41.28956]],[[27.25043,41.26773],[27.25061,41.26599],[27.2533,41.26559],[27.25644,41.26235],[27.25433,41.26674],[27.26055,41.2699],[27.25043,41.26773]]]}},{"type":"Feature","properties":{"id":"TR-Y-59-004-M-0007","level":"yerlesim","type":"mahalle","parent_id":"TR-D-59-004","province_id":"TR-P-59","district_id":"TR-D-59-004","name":"Buzağcı","source_raw_name":"Buzağcı Mah.","source":"Kullanıcı tarafından sağlanan KML","source_label":"Kullanıcı tarafından sağlanan KML","source_name":"Tekirdağ Mahalle KML"},"geometry":{"type":"Polygon","coordinates":[[[27.19907,41.26863],[27.2075,41.26224],[27.20375,41.25529],[27.20731,41.2518],[27.20843,41.2451],[27.21112,41.2422],[27.20899,41.24053],[27.21014,41.23822],[27.20729,41.2331],[27.21058,41.22989],[27.207,41.22696],[27.20201,41.22627],[27.20265,41.22438],[27.19009,41.22174],[27.18912,41.21956],[27.1915,41.21601],[27.17591,41.21273],[27.1704,41.22729],[27.16881,41.2293],[27.16463,41.22766],[27.16375,41.22949],[27.16181,41.2425],[27.15752,41.25127],[27.16182,41.25366],[27.16385,41.25778],[27.17003,41.25965],[27.17217,41.26194],[27.19241,41.26709],[27.19181,41.26908],[27.1997,41.27104],[27.19907,41.26863]]]}},{"type":"Feature","properties":{"id":"TR-Y-59-004-M-0008","level":"yerlesim","type":"mahalle","parent_id":"TR-D-59-004","province_id":"TR-P-59","district_id":"TR-D-59-004","name":"Cambazdere","source_raw_name":"Cambazdere Mah.","source":"Kullanıcı tarafından sağlanan KML","source_label":"Kullanıcı tarafından sağlanan KML","source_name":"Tekirdağ Mahalle KML"},"geometry":{"type":"Polygon","coordinates":[[[26.93047,41.11865],[26.94037,41.11335],[26.94762,41.10339],[26.95527,41.09674],[26.9588,41.09055],[26.96205,41.0816],[26.9597,41.07843],[26.95457,41.0776],[26.95345,41.07531],[26.95482,41.07197],[26.94964,41.07467],[26.94835,41.07273],[26.94543,41.07217],[26.94474,41.06854],[26.93186,41.07738],[26.92236,41.08854],[26.91055,41.09583],[26.91305,41.09602],[26.91622,41.09907],[26.91922,41.1043],[26.92574,41.10695],[26.9226,41.11187],[26.92316,41.12687],[26.93047,41.11865]]]}},{"type":"Feature","properties":{"id":"TR-Y-59-004-M-0009","level":"yerlesim","type":"mahalle","parent_id":"TR-D-59-004","province_id":"TR-P-59","district_id":"TR-D-59-004","name":"Canhıdır","source_raw_name":"Canhıdır Mah.","source":"Kullanıcı tarafından sağlanan KML","source_label":"Kullanıcı tarafından sağlanan KML","source_name":"Tekirdağ Mahalle KML"},"geometry":{"type":"Polygon","coordinates":[[[27.16778,41.17524],[27.17709,41.1753],[27.18004,41.16412],[27.18217,41.164],[27.17635,41.14267],[27.17924,41.13007],[27.18172,41.12718],[27.18042,41.12526],[27.17692,41.1257],[27.16879,41.12323],[27.16756,41.11906],[27.15134,41.11999],[27.14697,41.1189],[27.14812,41.11754],[27.14554,41.11665],[27.13479,41.11684],[27.13341,41.11534],[27.12269,41.11731],[27.1188,41.11621],[27.1158,41.12164],[27.10807,41.12518],[27.1069,41.13015],[27.11167,41.13066],[27.11221,41.13226],[27.10954,41.1332],[27.10964,41.13451],[27.11505,41.13848],[27.10758,41.14624],[27.11395,41.1454],[27.11287,41.15063],[27.11913,41.14956],[27.12152,41.15883],[27.12436,41.16012],[27.12304,41.16162],[27.12686,41.16423],[27.1302,41.16385],[27.12509,41.16869],[27.13347,41.16944],[27.13456,41.16273],[27.15865,41.17527],[27.16685,41.17666],[27.16778,41.17524]]]}},{"type":"Feature","properties":{"id":"TR-Y-59-004-M-0011","level":"yerlesim","type":"mahalle","parent_id":"TR-D-59-004","province_id":"TR-P-59","district_id":"TR-D-59-004","name":"Çerkezmüsellim","source_raw_name":"Çerkezmüsellim Mah.","source":"Kullanıcı tarafından sağlanan KML","source_label":"Kullanıcı tarafından sağlanan KML","source_name":"Tekirdağ Mahalle KML"},"geometry":{"type":"Polygon","coordinates":[[[26.99005,41.3125],[26.99516,41.30958],[27.00895,41.30847],[27.01724,41.30508],[27.02239,41.29882],[27.02409,41.3019],[27.02882,41.30446],[27.03179,41.30219],[27.02902,41.29919],[27.04108,41.29405],[27.05118,41.29246],[27.05518,41.28933],[27.05918,41.29019],[27.05681,41.28671],[27.0585,41.28556],[27.05597,41.28386],[27.0622,41.27425],[27.062,41.26882],[27.07053,41.26776],[27.06791,41.26635],[27.06654,41.26263],[27.0656,41.25382],[27.04969,41.24141],[27.04894,41.24269],[27.04234,41.24328],[27.04313,41.24515],[27.04181,41.24703],[27.04388,41.24858],[27.04521,41.2552],[27.04351,41.25981],[27.03093,41.25638],[27.03963,41.25374],[27.03872,41.25023],[27.04048,41.24966],[27.03658,41.24889],[27.03636,41.25111],[27.0312,41.2516],[27.02989,41.25363],[27.02283,41.25415],[27.01028,41.24972],[27.00891,41.24976],[27.00856,41.25484],[26.99621,41.25412],[26.99073,41.25217],[26.98332,41.24606],[26.97806,41.23756],[26.97436,41.23476],[26.96201,41.23161],[26.96198,41.2377],[26.958,41.24329],[26.95398,41.25596],[26.93445,41.26612],[26.93076,41.27227],[26.93178,41.27511],[26.92821,41.27746],[26.93268,41.27715],[26.93623,41.27394],[26.94117,41.27576],[26.94212,41.27779],[26.94976,41.27595],[26.95738,41.27693],[26.95821,41.27554],[26.96778,41.27571],[26.96762,41.27817],[26.9717,41.2807],[26.97067,41.28758],[26.96752,41.28838],[26.968,41.29045],[26.9732,41.29297],[26.97387,41.29507],[26.97003,41.29583],[26.97521,41.30111],[26.97821,41.31401],[26.99005,41.3125]]]}},{"type":"Feature","properties":{"id":"TR-Y-59-004-M-0012","level":"yerlesim","type":"mahalle","parent_id":"TR-D-59-004","province_id":"TR-P-59","district_id":"TR-D-59-004","name":"Çıkrıkçı","source_raw_name":"Çıkrıkçı Mah.","source":"Kullanıcı tarafından sağlanan KML","source_label":"Kullanıcı tarafından sağlanan KML","source_name":"Tekirdağ Mahalle KML"},"geometry":{"type":"Polygon","coordinates":[[[27.13163,41.27572],[27.12839,41.27404],[27.1327,41.27126],[27.12962,41.26742],[27.13094,41.26591],[27.12928,41.26034],[27.13021,41.25928],[27.1226,41.25452],[27.12722,41.25341],[27.12648,41.25051],[27.12405,41.24948],[27.12712,41.24878],[27.12746,41.24693],[27.1302,41.24726],[27.12601,41.24449],[27.12164,41.24434],[27.12139,41.24119],[27.12473,41.23885],[27.11888,41.23656],[27.11788,41.23447],[27.11364,41.23557],[27.1147,41.23848],[27.11095,41.23734],[27.1034,41.2381],[27.0995,41.23606],[27.09538,41.23848],[27.08662,41.23552],[27.08221,41.23956],[27.07614,41.24044],[27.06397,41.23955],[27.06419,41.23533],[27.04969,41.24141],[27.0656,41.25382],[27.06506,41.25753],[27.06791,41.26635],[27.07327,41.26976],[27.07365,41.27149],[27.08868,41.27265],[27.09195,41.27495],[27.09517,41.27399],[27.0941,41.26969],[27.09583,41.2686],[27.11036,41.26867],[27.11092,41.25931],[27.12184,41.26557],[27.12457,41.2755],[27.13163,41.27572]],[[27.0792,41.25399],[27.0819,41.25457],[27.08252,41.25647],[27.0792,41.25399]]]}},{"type":"Feature","properties":{"id":"TR-Y-59-004-M-0013","level":"yerlesim","type":"mahalle","parent_id":"TR-D-59-004","province_id":"TR-P-59","district_id":"TR-D-59-004","name":"Dambaslar","source_raw_name":"Dambaslar Mah.","source":"Kullanıcı tarafından sağlanan KML","source_label":"Kullanıcı tarafından sağlanan KML","source_name":"Tekirdağ Mahalle KML"},"geometry":{"type":"Polygon","coordinates":[[[27.26464,41.24245],[27.27319,41.23951],[27.27294,41.23701],[27.27748,41.23517],[27.28327,41.2292],[27.28364,41.22573],[27.28963,41.22488],[27.2882,41.22089],[27.28685,41.22079],[27.29086,41.21968],[27.29539,41.22066],[27.29203,41.21786],[27.29479,41.21682],[27.29764,41.21807],[27.29592,41.21015],[27.28809,41.20731],[27.28482,41.20367],[27.2814,41.20363],[27.28071,41.19753],[27.27302,41.19766],[27.27257,41.20353],[27.2704,41.2043],[27.26979,41.2031],[27.26841,41.20472],[27.26566,41.20255],[27.26647,41.20105],[27.24726,41.20323],[27.25034,41.20564],[27.24147,41.20384],[27.2289,41.20549],[27.22563,41.20749],[27.2166,41.20718],[27.21573,41.21375],[27.20879,41.21804],[27.21171,41.22054],[27.21065,41.222],[27.21263,41.22509],[27.20586,41.22655],[27.21058,41.22989],[27.20729,41.2331],[27.20878,41.23728],[27.21276,41.24112],[27.21412,41.24136],[27.21296,41.23888],[27.21608,41.23805],[27.2183,41.24032],[27.21719,41.23739],[27.21886,41.23682],[27.2229,41.2389],[27.23242,41.23988],[27.23676,41.23846],[27.23347,41.2411],[27.23409,41.24119],[27.23992,41.23769],[27.24792,41.24073],[27.25659,41.24089],[27.25692,41.24251],[27.26464,41.24245]]]}},{"type":"Feature","properties":{"id":"TR-Y-59-004-M-0014","level":"yerlesim","type":"mahalle","parent_id":"TR-D-59-004","province_id":"TR-P-59","district_id":"TR-D-59-004","name":"Danişment","source_raw_name":"Danişment Mah.","source":"Kullanıcı tarafından sağlanan KML","source_label":"Kullanıcı tarafından sağlanan KML","source_name":"Tekirdağ Mahalle KML"},"geometry":{"type":"Polygon","coordinates":[[[26.96557,41.32079],[26.97971,41.31526],[26.97731,41.31163],[26.97521,41.30111],[26.97003,41.29583],[26.97387,41.29507],[26.97331,41.29321],[26.97182,41.29145],[26.969,41.2919],[26.96751,41.28846],[26.95969,41.28828],[26.946,41.29154],[26.93437,41.29849],[26.92485,41.3001],[26.92852,41.3064],[26.9337,41.30918],[26.94131,41.32133],[26.9431,41.32253],[26.96557,41.32079]]]}},{"type":"Feature","properties":{"id":"TR-Y-59-004-M-0015","level":"yerlesim","type":"mahalle","parent_id":"TR-D-59-004","province_id":"TR-P-59","district_id":"TR-D-59-004","name":"Delibedir","source_raw_name":"Delibedir Mah.","source":"Kullanıcı tarafından sağlanan KML","source_label":"Kullanıcı tarafından sağlanan KML","source_name":"Tekirdağ Mahalle KML"},"geometry":{"type":"Polygon","coordinates":[[[27.18172,41.12718],[27.1835,41.11981],[27.18131,41.10956],[27.17663,41.10117],[27.17597,41.10288],[27.1718,41.10421],[27.17377,41.10103],[27.15887,41.09854],[27.15873,41.09258],[27.15268,41.09048],[27.14292,41.08289],[27.13853,41.08471],[27.13844,41.08798],[27.12909,41.0893],[27.12215,41.09768],[27.12065,41.09429],[27.1146,41.09569],[27.11385,41.09779],[27.10734,41.09521],[27.10208,41.09513],[27.09948,41.09539],[27.10003,41.09719],[27.09853,41.09839],[27.09513,41.09759],[27.09326,41.09903],[27.09303,41.10192],[27.09951,41.105],[27.10334,41.10963],[27.10074,41.1189],[27.10364,41.12666],[27.10709,41.12664],[27.1158,41.12164],[27.1188,41.11621],[27.12269,41.11731],[27.13341,41.11534],[27.13479,41.11684],[27.14554,41.11665],[27.14812,41.11754],[27.14697,41.1189],[27.15134,41.11999],[27.16756,41.11906],[27.16799,41.12267],[27.17126,41.12429],[27.17692,41.1257],[27.17828,41.12466],[27.18172,41.12718]]]}},{"type":"Feature","properties":{"id":"TR-Y-59-004-M-0016","level":"yerlesim","type":"mahalle","parent_id":"TR-D-59-004","province_id":"TR-P-59","district_id":"TR-D-59-004","name":"Emiryakup","source_raw_name":"Emiryakup Mah.","source":"Kullanıcı tarafından sağlanan KML","source_label":"Kullanıcı tarafından sağlanan KML","source_name":"Tekirdağ Mahalle KML"},"geometry":{"type":"Polygon","coordinates":[[[27.22428,41.12567],[27.22405,41.12374],[27.22901,41.12303],[27.22503,41.12096],[27.22653,41.12037],[27.23813,41.1215],[27.23612,41.1202],[27.23781,41.11834],[27.23326,41.11475],[27.23358,41.1119],[27.2395,41.1072],[27.24468,41.10889],[27.2303,41.10034],[27.22887,41.10032],[27.22787,41.10484],[27.22615,41.10607],[27.22691,41.10384],[27.22474,41.09858],[27.21743,41.09769],[27.21588,41.09469],[27.21427,41.09543],[27.20989,41.09088],[27.19339,41.0849],[27.20566,41.07395],[27.21017,41.07183],[27.22249,41.05923],[27.22794,41.04899],[27.22557,41.04354],[27.21677,41.04411],[27.21214,41.04277],[27.20873,41.04715],[27.20496,41.04768],[27.19904,41.04373],[27.17735,41.04767],[27.16802,41.04596],[27.15893,41.04705],[27.15184,41.05041],[27.14823,41.05469],[27.15033,41.06477],[27.1476,41.07199],[27.1544,41.07088],[27.16115,41.07404],[27.16802,41.07317],[27.16928,41.07419],[27.17296,41.07233],[27.17675,41.07694],[27.17932,41.07517],[27.17789,41.07667],[27.17889,41.07793],[27.18793,41.08088],[27.18697,41.08236],[27.19194,41.07895],[27.19402,41.08427],[27.18916,41.08757],[27.18677,41.09972],[27.19311,41.10427],[27.19125,41.10547],[27.19333,41.10792],[27.19223,41.10935],[27.19504,41.11061],[27.19579,41.11655],[27.20326,41.11575],[27.2033,41.11014],[27.20619,41.11139],[27.21085,41.10748],[27.2146,41.10834],[27.2109,41.11452],[27.21881,41.11626],[27.21716,41.11951],[27.2198,41.11991],[27.21814,41.1222],[27.22434,41.12123],[27.22217,41.12227],[27.22253,41.12374],[27.21786,41.12378],[27.21801,41.12579],[27.22428,41.12567]]]}},{"type":"Feature","properties":{"id":"TR-Y-59-004-M-0017","level":"yerlesim","type":"mahalle","parent_id":"TR-D-59-004","province_id":"TR-P-59","district_id":"TR-D-59-004","name":"Fahrioğlu","source_raw_name":"Fahrioğlu Mah.","source":"Kullanıcı tarafından sağlanan KML","source_label":"Kullanıcı tarafından sağlanan KML","source_name":"Tekirdağ Mahalle KML"},"geometry":{"type":"Polygon","coordinates":[[[27.27556,41.14902],[27.27752,41.14908],[27.27757,41.14639],[27.28227,41.14695],[27.28272,41.1453],[27.28725,41.14641],[27.30004,41.14283],[27.29896,41.13756],[27.29618,41.13434],[27.30087,41.1324],[27.29054,41.12915],[27.28832,41.11908],[27.29074,41.11775],[27.28242,41.11382],[27.28627,41.11279],[27.28406,41.11026],[27.28663,41.10905],[27.28198,41.10458],[27.27827,41.10421],[27.25982,41.1116],[27.25732,41.11577],[27.25708,41.12094],[27.25431,41.12187],[27.25342,41.12427],[27.25617,41.12491],[27.25784,41.12801],[27.25639,41.13014],[27.25378,41.12901],[27.2493,41.13324],[27.24968,41.13512],[27.25175,41.13457],[27.2532,41.137],[27.25169,41.13824],[27.25855,41.13864],[27.25991,41.13732],[27.2601,41.14092],[27.2657,41.14215],[27.26892,41.14911],[27.26785,41.14953],[27.27518,41.15452],[27.27556,41.14902]]]}},{"type":"Feature","properties":{"id":"TR-Y-59-004-M-0019","level":"yerlesim","type":"mahalle","parent_id":"TR-D-59-004","province_id":"TR-P-59","district_id":"TR-D-59-004","name":"Hasköy","source_raw_name":"Hasköy Mah.","source":"Kullanıcı tarafından sağlanan KML","source_label":"Kullanıcı tarafından sağlanan KML","source_name":"Tekirdağ Mahalle KML"},"geometry":{"type":"Polygon","coordinates":[[[26.96869,41.14672],[26.97846,41.13006],[26.9883,41.12305],[26.98788,41.11813],[26.98517,41.11272],[26.98312,41.11287],[26.97396,41.10741],[26.97196,41.10792],[26.972,41.10561],[26.96799,41.10635],[26.95602,41.09909],[26.95076,41.10031],[26.94037,41.11335],[26.92968,41.11912],[26.92308,41.12711],[26.92457,41.13037],[26.93266,41.12958],[26.94563,41.14175],[26.94984,41.13989],[26.95645,41.1451],[26.96104,41.15253],[26.96869,41.14672]]]}},{"type":"Feature","properties":{"id":"TR-Y-59-004-M-0020","level":"yerlesim","type":"mahalle","parent_id":"TR-D-59-004","province_id":"TR-P-59","district_id":"TR-D-59-004","name":"Hedeyli","source_raw_name":"Hedeyli Mah.","source":"Kullanıcı tarafından sağlanan KML","source_label":"Kullanıcı tarafından sağlanan KML","source_name":"Tekirdağ Mahalle KML"},"geometry":{"type":"Polygon","coordinates":[[[27.00382,41.33764],[27.01162,41.34339],[27.01257,41.34781],[27.01451,41.34784],[27.01802,41.34438],[27.01758,41.34621],[27.02139,41.34795],[27.02284,41.34762],[27.02176,41.34629],[27.02316,41.34414],[27.0253,41.34458],[27.02425,41.34552],[27.02679,41.34714],[27.02807,41.34585],[27.02628,41.34531],[27.02869,41.3451],[27.02868,41.34318],[27.03348,41.34338],[27.03605,41.34043],[27.03862,41.34066],[27.04099,41.3433],[27.04039,41.34155],[27.04369,41.34088],[27.04273,41.34264],[27.04597,41.34411],[27.04527,41.34143],[27.04967,41.34115],[27.0483,41.34265],[27.05151,41.34454],[27.05501,41.33619],[27.05423,41.33273],[27.05081,41.33224],[27.05136,41.32667],[27.04808,41.32027],[27.03983,41.31363],[27.03927,41.30859],[27.03179,41.30219],[27.02882,41.30446],[27.02442,41.30211],[27.02239,41.29882],[27.01724,41.30508],[27.00927,41.30835],[26.99629,41.30933],[26.98251,41.31418],[26.9869,41.31624],[26.99239,41.32172],[27.00382,41.33764]]]}},{"type":"Feature","properties":{"id":"TR-Y-59-004-M-0021","level":"yerlesim","type":"mahalle","parent_id":"TR-D-59-004","province_id":"TR-P-59","district_id":"TR-D-59-004","name":"Hisar","source_raw_name":"Hisar Mah.","source":"Kullanıcı tarafından sağlanan KML","source_label":"Kullanıcı tarafından sağlanan KML","source_name":"Tekirdağ Mahalle KML"},"geometry":{"type":"Polygon","coordinates":[[[27.16027,41.24754],[27.15921,41.24678],[27.16181,41.2425],[27.16463,41.22766],[27.16881,41.2293],[27.17518,41.21347],[27.17779,41.21166],[27.17582,41.19789],[27.17753,41.19163],[27.13564,41.20231],[27.12123,41.20909],[27.11041,41.20979],[27.10685,41.21352],[27.10894,41.21807],[27.13242,41.23912],[27.13777,41.25051],[27.14638,41.25009],[27.1484,41.2479],[27.15494,41.25376],[27.16027,41.24754]]]}},{"type":"Feature","properties":{"id":"TR-Y-59-004-M-0022","level":"yerlesim","type":"mahalle","parent_id":"TR-D-59-004","province_id":"TR-P-59","district_id":"TR-D-59-004","name":"İlyas","source_raw_name":"İlyas Mah.","source":"Kullanıcı tarafından sağlanan KML","source_label":"Kullanıcı tarafından sağlanan KML","source_name":"Tekirdağ Mahalle KML"},"geometry":{"type":"Polygon","coordinates":[[[27.13215,41.23881],[27.10839,41.21751],[27.10461,41.2102],[27.10156,41.21503],[27.09488,41.215],[27.08485,41.21818],[27.06766,41.22034],[27.06022,41.21836],[27.06158,41.21912],[27.05978,41.22101],[27.0529,41.22473],[27.0581,41.22745],[27.04896,41.23261],[27.03984,41.22813],[27.03766,41.22873],[27.04439,41.23199],[27.04409,41.23714],[27.05107,41.24083],[27.06419,41.23533],[27.06397,41.23955],[27.07614,41.24044],[27.08221,41.23956],[27.08662,41.23552],[27.09538,41.23848],[27.0995,41.23606],[27.1034,41.2381],[27.11095,41.23734],[27.1147,41.23848],[27.11364,41.23557],[27.11788,41.23447],[27.11888,41.23656],[27.12473,41.23885],[27.12139,41.24119],[27.12164,41.24434],[27.12601,41.24449],[27.13092,41.24825],[27.13777,41.25051],[27.13215,41.23881]]]}},{"type":"Feature","properties":{"id":"TR-Y-59-004-M-0023","level":"yerlesim","type":"mahalle","parent_id":"TR-D-59-004","province_id":"TR-P-59","district_id":"TR-D-59-004","name":"İsmailli","source_raw_name":"İsmailli Mah.","source":"Kullanıcı tarafından sağlanan KML","source_label":"Kullanıcı tarafından sağlanan KML","source_name":"Tekirdağ Mahalle KML"},"geometry":{"type":"Polygon","coordinates":[[[27.12611,41.03881],[27.13642,41.03909],[27.1422,41.04303],[27.1542,41.04625],[27.15591,41.04849],[27.16802,41.04596],[27.17938,41.04744],[27.18236,41.04381],[27.17525,41.03425],[27.13808,41.01037],[27.13065,41.00733],[27.13113,41.022],[27.12807,41.02363],[27.12771,41.02814],[27.12897,41.02806],[27.12772,41.02915],[27.13061,41.03163],[27.12996,41.03481],[27.12487,41.03664],[27.12611,41.03881]]]}},{"type":"Feature","properties":{"id":"TR-Y-59-004-M-0024","level":"yerlesim","type":"mahalle","parent_id":"TR-D-59-004","province_id":"TR-P-59","district_id":"TR-D-59-004","name":"Kabahöyük","source_raw_name":"Kabahöyük Mah.","source":"Kullanıcı tarafından sağlanan KML","source_label":"Kullanıcı tarafından sağlanan KML","source_name":"Tekirdağ Mahalle KML"},"geometry":{"type":"Polygon","coordinates":[[[26.95844,41.22973],[26.96015,41.22578],[26.96507,41.22458],[26.96455,41.22235],[26.96594,41.22107],[26.98014,41.22355],[26.98856,41.22323],[26.98906,41.21991],[26.9964,41.2187],[27.00612,41.22052],[27.00905,41.21855],[27.0134,41.21084],[27.01631,41.20941],[27.01632,41.20711],[27.02528,41.20571],[27.02632,41.20322],[27.02088,41.20197],[27.01097,41.19478],[27.00714,41.19593],[27.00095,41.19002],[27.00087,41.18714],[26.98792,41.19271],[26.98295,41.19705],[26.97227,41.19898],[26.96653,41.19886],[26.95456,41.19437],[26.94353,41.19571],[26.94206,41.19731],[26.94359,41.20047],[26.9307,41.20722],[26.93463,41.21355],[26.93123,41.22119],[26.93279,41.22109],[26.93601,41.22555],[26.93969,41.22736],[26.95844,41.22973]]]}},{"type":"Feature","properties":{"id":"TR-Y-59-004-M-0025","level":"yerlesim","type":"mahalle","parent_id":"TR-D-59-004","province_id":"TR-P-59","district_id":"TR-D-59-004","name":"Kadriye","source_raw_name":"Kadriye Mah.","source":"Kullanıcı tarafından sağlanan KML","source_label":"Kullanıcı tarafından sağlanan KML","source_name":"Tekirdağ Mahalle KML"},"geometry":{"type":"Polygon","coordinates":[[[27.01116,41.34364],[27.00474,41.33869],[26.99239,41.32172],[26.98516,41.31515],[26.98126,41.31445],[26.96798,41.32],[26.9689,41.33796],[26.9726,41.34472],[26.96915,41.34763],[26.97299,41.35294],[26.97043,41.35716],[26.9732,41.35725],[26.97307,41.36023],[26.97654,41.36113],[26.97641,41.36324],[26.98599,41.35969],[26.98623,41.36142],[26.99031,41.36206],[26.98964,41.36383],[26.99308,41.36294],[26.99494,41.36439],[26.99441,41.3627],[26.9962,41.36128],[27.00098,41.3623],[27.00449,41.36047],[27.00048,41.35904],[27.00487,41.35782],[27.0036,41.35616],[27.00659,41.35485],[27.00532,41.35517],[27.00496,41.35368],[27.00794,41.35385],[27.00647,41.352],[27.00924,41.34716],[27.01172,41.3466],[27.01116,41.34364]]]}},{"type":"Feature","properties":{"id":"TR-Y-59-004-M-0026","level":"yerlesim","type":"mahalle","parent_id":"TR-D-59-004","province_id":"TR-P-59","district_id":"TR-D-59-004","name":"Kahya","source_raw_name":"Kahya Mah.","source":"Kullanıcı tarafından sağlanan KML","source_label":"Kullanıcı tarafından sağlanan KML","source_name":"Tekirdağ Mahalle KML"},"geometry":{"type":"Polygon","coordinates":[[[27.12123,41.20909],[27.13564,41.20231],[27.17689,41.19197],[27.1793,41.19065],[27.18031,41.17679],[27.17292,41.1749],[27.16795,41.17516],[27.16685,41.17666],[27.15903,41.17541],[27.13456,41.16273],[27.13347,41.16944],[27.12509,41.16869],[27.1302,41.16385],[27.12686,41.16423],[27.12304,41.16162],[27.12436,41.16012],[27.12152,41.15883],[27.11995,41.15096],[27.11804,41.14904],[27.11574,41.15061],[27.10706,41.15156],[27.10798,41.15345],[27.10293,41.15286],[27.1014,41.15487],[27.09175,41.15403],[27.07873,41.16187],[27.07134,41.16192],[27.07777,41.17136],[27.07755,41.17338],[27.07416,41.17304],[27.07306,41.17428],[27.07571,41.17532],[27.07471,41.17771],[27.09919,41.19767],[27.10671,41.21413],[27.10941,41.21039],[27.12123,41.20909]]]}},{"type":"Feature","properties":{"id":"TR-Y-59-004-M-0027","level":"yerlesim","type":"mahalle","parent_id":"TR-D-59-004","province_id":"TR-P-59","district_id":"TR-D-59-004","name":"Kandamış","source_raw_name":"Kandamış Mah.","source":"Kullanıcı tarafından sağlanan KML","source_label":"Kullanıcı tarafından sağlanan KML","source_name":"Tekirdağ Mahalle KML"},"geometry":{"type":"Polygon","coordinates":[[[27.23813,41.17134],[27.25988,41.17861],[27.26782,41.17834],[27.27685,41.17566],[27.27731,41.17386],[27.29113,41.17321],[27.29056,41.17065],[27.28596,41.17038],[27.28452,41.1675],[27.28787,41.16579],[27.28705,41.16451],[27.2777,41.16041],[27.27526,41.15772],[27.27972,41.15559],[27.2738,41.15404],[27.26785,41.14953],[27.26892,41.14911],[27.2657,41.14215],[27.2601,41.14092],[27.25991,41.13732],[27.25855,41.13864],[27.25194,41.13832],[27.2532,41.137],[27.25175,41.13457],[27.24968,41.13512],[27.2496,41.13365],[27.24563,41.13553],[27.24428,41.1332],[27.24314,41.13547],[27.22851,41.13974],[27.21757,41.13795],[27.2157,41.14205],[27.21107,41.14248],[27.21406,41.15303],[27.21256,41.15512],[27.21078,41.1691],[27.21288,41.17143],[27.21851,41.17187],[27.21782,41.17673],[27.22289,41.17892],[27.23813,41.17134]],[[27.26205,41.16025],[27.25883,41.15997],[27.25739,41.15964],[27.25818,41.15846],[27.26205,41.16025]]]}},{"type":"Feature","properties":{"id":"TR-Y-59-004-M-0028","level":"yerlesim","type":"mahalle","parent_id":"TR-D-59-004","province_id":"TR-P-59","district_id":"TR-D-59-004","name":"Karababa","source_raw_name":"Karababa Mah.","source":"Kullanıcı tarafından sağlanan KML","source_label":"Kullanıcı tarafından sağlanan KML","source_name":"Tekirdağ Mahalle KML"},"geometry":{"type":"Polygon","coordinates":[[[27.04296,41.14979],[27.04242,41.14807],[27.03787,41.1453],[27.03672,41.14187],[27.04159,41.13876],[27.04105,41.13399],[27.04621,41.13604],[27.04904,41.13087],[27.04907,41.12432],[27.04624,41.11899],[27.04648,41.11567],[27.04344,41.11215],[27.03179,41.1098],[26.99646,41.11661],[26.99663,41.11937],[26.99411,41.12002],[26.99126,41.11702],[26.99228,41.12],[26.98881,41.12076],[26.98777,41.12367],[26.97846,41.13006],[26.97022,41.14295],[26.97943,41.13778],[26.98312,41.13833],[26.99404,41.13559],[26.99454,41.1344],[26.9997,41.13407],[27.00082,41.13216],[27.00287,41.13442],[27.00598,41.13251],[27.01448,41.13359],[27.01645,41.13211],[27.02774,41.14345],[27.03352,41.14572],[27.03665,41.14977],[27.04296,41.14979]]]}},{"type":"Feature","properties":{"id":"TR-Y-59-004-M-0029","level":"yerlesim","type":"mahalle","parent_id":"TR-D-59-004","province_id":"TR-P-59","district_id":"TR-D-59-004","name":"Karabürçek","source_raw_name":"Karabürçek Mah.","source":"Kullanıcı tarafından sağlanan KML","source_label":"Kullanıcı tarafından sağlanan KML","source_name":"Tekirdağ Mahalle KML"},"geometry":{"type":"Polygon","coordinates":[[[27.00856,41.25484],[27.00891,41.24976],[27.02283,41.25415],[27.02989,41.25363],[27.0312,41.2516],[27.03636,41.25111],[27.03658,41.24889],[27.04048,41.24966],[27.04008,41.24738],[27.04313,41.24515],[27.04234,41.24328],[27.04894,41.24269],[27.05107,41.24083],[27.04409,41.23714],[27.04439,41.23199],[27.03766,41.22873],[27.03748,41.22365],[27.03257,41.21992],[27.03631,41.21247],[27.03246,41.21143],[27.03424,41.20809],[27.02528,41.20571],[27.01632,41.20711],[27.01631,41.20941],[27.0134,41.21084],[27.00905,41.21855],[27.00612,41.22052],[26.9964,41.2187],[26.98906,41.21991],[26.98856,41.22323],[26.98014,41.22355],[26.97408,41.22178],[26.97089,41.22277],[26.96694,41.2209],[26.96455,41.22235],[26.96507,41.22458],[26.95901,41.22728],[26.95919,41.22886],[26.96316,41.23127],[26.97155,41.23325],[26.97717,41.23673],[26.9805,41.2434],[26.99073,41.25217],[26.99661,41.25421],[27.00856,41.25484]]]}},{"type":"Feature","properties":{"id":"TR-Y-59-004-M-0030","level":"yerlesim","type":"mahalle","parent_id":"TR-D-59-004","province_id":"TR-P-59","district_id":"TR-D-59-004","name":"Karakavak","source_raw_name":"Karakavak Mah.","source":"Kullanıcı tarafından sağlanan KML","source_label":"Kullanıcı tarafından sağlanan KML","source_name":"Tekirdağ Mahalle KML"},"geometry":{"type":"Polygon","coordinates":[[[27.07175,41.34715],[27.07029,41.34679],[27.07131,41.34536],[27.07266,41.34653],[27.07446,41.34408],[27.0766,41.34395],[27.07642,41.34277],[27.07311,41.34279],[27.07448,41.34113],[27.08061,41.34101],[27.08391,41.33642],[27.08407,41.33328],[27.08125,41.32846],[27.08248,41.32746],[27.08047,41.3253],[27.08191,41.32428],[27.07938,41.31431],[27.07048,41.31308],[27.06766,41.30476],[27.06543,41.30291],[27.05254,41.3033],[27.04661,41.29732],[27.03723,41.29545],[27.02902,41.29919],[27.03927,41.30859],[27.03983,41.31363],[27.04945,41.32242],[27.05141,41.3269],[27.05081,41.33224],[27.05423,41.33273],[27.0547,41.33409],[27.05425,41.34275],[27.05647,41.34232],[27.05617,41.34365],[27.05854,41.34404],[27.05689,41.34138],[27.06286,41.34118],[27.0656,41.34295],[27.06406,41.34446],[27.06563,41.34611],[27.06942,41.34268],[27.07019,41.34485],[27.06866,41.34551],[27.07008,41.34783],[27.07175,41.34715]],[[27.05217,41.32044],[27.05408,41.32012],[27.05585,41.32249],[27.05466,41.32305],[27.05217,41.32044]]]}},{"type":"Feature","properties":{"id":"TR-Y-59-004-M-0031","level":"yerlesim","type":"mahalle","parent_id":"TR-D-59-004","province_id":"TR-P-59","district_id":"TR-D-59-004","name":"Karayahşi","source_raw_name":"Karayahşi Mah.","source":"Kullanıcı tarafından sağlanan KML","source_label":"Kullanıcı tarafından sağlanan KML","source_name":"Tekirdağ Mahalle KML"},"geometry":{"type":"Polygon","coordinates":[[[27.22641,41.20737],[27.2289,41.20549],[27.24147,41.20384],[27.25034,41.20564],[27.24726,41.20323],[27.26647,41.20105],[27.26566,41.20255],[27.26814,41.20457],[27.26979,41.2031],[27.27149,41.20421],[27.27364,41.2012],[27.27302,41.19766],[27.27488,41.19777],[27.27329,41.19452],[27.28068,41.19409],[27.28776,41.18883],[27.29482,41.18627],[27.29627,41.18505],[27.29555,41.1829],[27.29896,41.17924],[27.29529,41.17616],[27.28712,41.17879],[27.27922,41.17666],[27.28163,41.18281],[27.27698,41.18381],[27.26572,41.17816],[27.25893,41.17841],[27.23813,41.17134],[27.22608,41.1778],[27.22866,41.18297],[27.2249,41.1856],[27.22753,41.18962],[27.22337,41.19154],[27.22653,41.19259],[27.22642,41.19414],[27.22103,41.19473],[27.22842,41.19495],[27.22408,41.19582],[27.22742,41.19941],[27.22526,41.20361],[27.22017,41.20349],[27.22012,41.20733],[27.22641,41.20737]],[[27.26503,41.19706],[27.26288,41.19432],[27.27253,41.19382],[27.27311,41.19488],[27.26541,41.19601],[27.26503,41.19706]]]}},{"type":"Feature","properties":{"id":"TR-Y-59-004-M-0033","level":"yerlesim","type":"mahalle","parent_id":"TR-D-59-004","province_id":"TR-P-59","district_id":"TR-D-59-004","name":"Kılıçlar","source_raw_name":"Kılıçlar Mah.","source":"Kullanıcı tarafından sağlanan KML","source_label":"Kullanıcı tarafından sağlanan KML","source_name":"Tekirdağ Mahalle KML"},"geometry":{"type":"Polygon","coordinates":[[[27.34306,41.24819],[27.34059,41.24754],[27.34027,41.24223],[27.3372,41.24222],[27.33992,41.24094],[27.33667,41.2401],[27.32679,41.231],[27.3244,41.22944],[27.32345,41.23207],[27.31437,41.227],[27.3166,41.22511],[27.31353,41.22577],[27.316,41.22427],[27.31573,41.22235],[27.31322,41.22394],[27.31118,41.22115],[27.31346,41.21934],[27.30861,41.21968],[27.30234,41.21611],[27.29747,41.21655],[27.29764,41.21807],[27.29479,41.21682],[27.29203,41.21786],[27.29539,41.22066],[27.29086,41.21968],[27.28685,41.22079],[27.2882,41.22089],[27.28963,41.22488],[27.28364,41.22573],[27.28327,41.2292],[27.27748,41.23517],[27.27294,41.23701],[27.27319,41.23951],[27.26663,41.24234],[27.26991,41.24483],[27.27457,41.24442],[27.28073,41.25346],[27.27878,41.25459],[27.28019,41.25737],[27.27934,41.25995],[27.29554,41.26766],[27.29513,41.27268],[27.29883,41.26855],[27.30077,41.26953],[27.30638,41.26286],[27.30919,41.26386],[27.32247,41.25774],[27.3312,41.2558],[27.34306,41.24819]]]}},{"type":"Feature","properties":{"id":"TR-Y-59-004-M-0034","level":"yerlesim","type":"mahalle","parent_id":"TR-D-59-004","province_id":"TR-P-59","district_id":"TR-D-59-004","name":"Küçükkarakarlı","source_raw_name":"Küçükkarakarlı Mah.","source":"Kullanıcı tarafından sağlanan KML","source_label":"Kullanıcı tarafından sağlanan KML","source_name":"Tekirdağ Mahalle KML"},"geometry":{"type":"Polygon","coordinates":[[[27.16187,41.35633],[27.17425,41.35568],[27.18068,41.35254],[27.18544,41.35215],[27.19031,41.34231],[27.19434,41.34492],[27.19684,41.34155],[27.19879,41.3422],[27.20042,41.33916],[27.20279,41.34037],[27.21857,41.32989],[27.22018,41.33059],[27.22735,41.32386],[27.23249,41.32546],[27.23293,41.31903],[27.22339,41.31612],[27.22453,41.31474],[27.21458,41.31228],[27.21554,41.31116],[27.21235,41.30982],[27.21342,41.30771],[27.2085,41.3064],[27.20713,41.30474],[27.2081,41.30318],[27.19634,41.30165],[27.1944,41.29951],[27.19438,41.30097],[27.19066,41.30046],[27.18929,41.30514],[27.19147,41.30437],[27.19133,41.30643],[27.1935,41.30587],[27.19423,41.30721],[27.19,41.31203],[27.18984,41.31672],[27.188,41.31979],[27.17561,41.31709],[27.17222,41.31333],[27.1675,41.31843],[27.16947,41.32678],[27.17303,41.32591],[27.17373,41.31881],[27.17413,41.31883],[27.17338,41.32268],[27.1775,41.32926],[27.18304,41.32862],[27.18233,41.33038],[27.18757,41.33371],[27.18587,41.33543],[27.18064,41.33547],[27.17745,41.34022],[27.18064,41.34446],[27.18107,41.35157],[27.1757,41.35271],[27.16164,41.35145],[27.16187,41.35633]]]}},{"type":"Feature","properties":{"id":"TR-Y-59-004-M-0035","level":"yerlesim","type":"mahalle","parent_id":"TR-D-59-004","province_id":"TR-P-59","district_id":"TR-D-59-004","name":"Kurtdere","source_raw_name":"Kurtdere Mah.","source":"Kullanıcı tarafından sağlanan KML","source_label":"Kullanıcı tarafından sağlanan KML","source_name":"Tekirdağ Mahalle KML"},"geometry":{"type":"Polygon","coordinates":[[[27.09343,41.06635],[27.10429,41.06107],[27.10057,41.05936],[27.10251,41.05669],[27.10483,41.05746],[27.11058,41.05065],[27.11316,41.05061],[27.11264,41.04787],[27.11709,41.04727],[27.11665,41.04333],[27.11473,41.04345],[27.1129,41.04118],[27.10619,41.04203],[27.10412,41.04028],[27.09462,41.0417],[27.09418,41.03932],[27.09307,41.0395],[27.09025,41.04024],[27.0891,41.04315],[27.08489,41.04546],[27.08373,41.04861],[27.08099,41.04956],[27.08073,41.05539],[27.08586,41.06295],[27.09398,41.06934],[27.09343,41.06635]]]}},{"type":"Feature","properties":{"id":"TR-Y-59-004-M-0036","level":"yerlesim","type":"mahalle","parent_id":"TR-D-59-004","province_id":"TR-P-59","district_id":"TR-D-59-004","name":"Kutlugün","source_raw_name":"Kutlugün Mah.","source":"Kullanıcı tarafından sağlanan KML","source_label":"Kullanıcı tarafından sağlanan KML","source_name":"Tekirdağ Mahalle KML"},"geometry":{"type":"Polygon","coordinates":[[[26.99126,41.11702],[26.99411,41.12002],[26.99663,41.11937],[26.99646,41.11661],[27.02496,41.11136],[27.02933,41.10259],[27.02743,41.09758],[27.03435,41.09383],[27.03258,41.09283],[27.03127,41.08834],[27.02604,41.0839],[27.0212,41.08256],[27.02347,41.08182],[27.0206,41.08177],[27.02141,41.07956],[27.01903,41.07892],[27.02002,41.0778],[27.01469,41.0718],[27.01076,41.07338],[27.005,41.07144],[27.00023,41.07197],[26.99894,41.06459],[26.99755,41.06399],[26.99685,41.06791],[26.99479,41.06576],[26.99476,41.06214],[26.9894,41.0686],[26.96831,41.07295],[26.96027,41.08468],[26.95661,41.09466],[26.95295,41.09881],[26.95655,41.09935],[26.96799,41.10635],[26.972,41.10561],[26.97196,41.10792],[26.97396,41.10741],[26.98312,41.11287],[26.98517,41.11272],[26.98927,41.12127],[26.99228,41.12],[26.99126,41.11702]]]}},{"type":"Feature","properties":{"id":"TR-Y-59-004-M-0037","level":"yerlesim","type":"mahalle","parent_id":"TR-D-59-004","province_id":"TR-P-59","district_id":"TR-D-59-004","name":"Lahana","source_raw_name":"Lahana Mah.","source":"Kullanıcı tarafından sağlanan KML","source_label":"Kullanıcı tarafından sağlanan KML","source_name":"Tekirdağ Mahalle KML"},"geometry":{"type":"Polygon","coordinates":[[[27.12853,41.31739],[27.13231,41.31597],[27.13315,41.31267],[27.13663,41.31143],[27.13805,41.30815],[27.14283,41.30505],[27.14231,41.30367],[27.1462,41.29891],[27.14889,41.29857],[27.1478,41.29711],[27.15005,41.29752],[27.15435,41.29416],[27.15561,41.28935],[27.15727,41.28858],[27.15651,41.28764],[27.16155,41.28495],[27.16077,41.28393],[27.16216,41.28412],[27.16894,41.27684],[27.16754,41.2761],[27.17132,41.27489],[27.16506,41.26884],[27.16383,41.26945],[27.16261,41.26809],[27.1636,41.26686],[27.15808,41.2638],[27.1637,41.25678],[27.15977,41.25167],[27.15674,41.25137],[27.15494,41.25376],[27.1484,41.2479],[27.14638,41.25009],[27.13964,41.25077],[27.12746,41.24693],[27.12712,41.24878],[27.12405,41.24948],[27.12648,41.25051],[27.12722,41.25341],[27.12297,41.25408],[27.12302,41.25558],[27.13021,41.25928],[27.12928,41.26034],[27.13094,41.26591],[27.12962,41.26742],[27.1327,41.27126],[27.12839,41.27404],[27.13158,41.27557],[27.13086,41.27718],[27.13223,41.27825],[27.12366,41.28102],[27.12329,41.28589],[27.12007,41.2906],[27.1217,41.29491],[27.11881,41.29955],[27.12251,41.30811],[27.12032,41.31257],[27.11443,41.31464],[27.11394,41.31759],[27.11971,41.33005],[27.12648,41.33305],[27.12892,41.32596],[27.12764,41.32309],[27.12967,41.32097],[27.12787,41.31948],[27.12853,41.31739]]]}},{"type":"Feature","properties":{"id":"TR-Y-59-004-M-0038","level":"yerlesim","type":"mahalle","parent_id":"TR-D-59-004","province_id":"TR-P-59","district_id":"TR-D-59-004","name":"Muzruplu","source_raw_name":"Muzruplu Mah.","source":"Kullanıcı tarafından sağlanan KML","source_label":"Kullanıcı tarafından sağlanan KML","source_name":"Tekirdağ Mahalle KML"},"geometry":{"type":"Polygon","coordinates":[[[27.35296,41.23045],[27.36644,41.22522],[27.34801,41.21603],[27.34976,41.21378],[27.34529,41.21171],[27.347,41.20988],[27.34456,41.20709],[27.3339,41.20426],[27.32983,41.20646],[27.32549,41.20664],[27.32414,41.20838],[27.32132,41.20683],[27.31709,41.20905],[27.32257,41.21288],[27.31703,41.2156],[27.30885,41.21217],[27.306,41.21456],[27.2976,41.21006],[27.29544,41.21117],[27.29747,41.21655],[27.30398,41.21627],[27.30346,41.21752],[27.30861,41.21968],[27.31346,41.21934],[27.31118,41.22115],[27.31322,41.22394],[27.31573,41.22235],[27.316,41.22427],[27.31353,41.22577],[27.3166,41.22511],[27.31437,41.227],[27.32345,41.23207],[27.3244,41.22944],[27.33672,41.24013],[27.33876,41.24048],[27.35296,41.23045]]]}},{"type":"Feature","properties":{"id":"TR-Y-59-004-M-0040","level":"yerlesim","type":"mahalle","parent_id":"TR-D-59-004","province_id":"TR-P-59","district_id":"TR-D-59-004","name":"Övenler","source_raw_name":"Övenler Mah.","source":"Kullanıcı tarafından sağlanan KML","source_label":"Kullanıcı tarafından sağlanan KML","source_name":"Tekirdağ Mahalle KML"},"geometry":{"type":"Polygon","coordinates":[[[26.92433,41.30016],[26.93437,41.29849],[26.946,41.29154],[26.95969,41.28828],[26.96507,41.28936],[26.97067,41.28758],[26.9717,41.2807],[26.96762,41.27817],[26.95894,41.27969],[26.95738,41.27693],[26.94976,41.27595],[26.94212,41.27779],[26.94117,41.27576],[26.93623,41.27394],[26.93226,41.27732],[26.92425,41.27731],[26.92386,41.28107],[26.92659,41.28509],[26.92395,41.28609],[26.92454,41.28766],[26.92275,41.28853],[26.92753,41.29492],[26.92433,41.30016]]]}},{"type":"Feature","properties":{"id":"TR-Y-59-004-M-0041","level":"yerlesim","type":"mahalle","parent_id":"TR-D-59-004","province_id":"TR-P-59","district_id":"TR-D-59-004","name":"Parmaksız","source_raw_name":"Parmaksız Mah.","source":"Kullanıcı tarafından sağlanan KML","source_label":"Kullanıcı tarafından sağlanan KML","source_name":"Tekirdağ Mahalle KML"},"geometry":{"type":"Polygon","coordinates":[[[27.18783,41.12125],[27.18746,41.11992],[27.19046,41.12163],[27.19814,41.12131],[27.20285,41.11825],[27.20122,41.11636],[27.19579,41.11655],[27.19504,41.11061],[27.19223,41.10935],[27.19333,41.10792],[27.19125,41.10547],[27.19311,41.10427],[27.18859,41.1001],[27.18697,41.10047],[27.18671,41.09503],[27.18916,41.08757],[27.19402,41.08427],[27.19194,41.07895],[27.18697,41.08236],[27.18793,41.08088],[27.17792,41.0773],[27.16985,41.08299],[27.16878,41.08005],[27.17643,41.07708],[27.17296,41.07233],[27.16928,41.07419],[27.16802,41.07317],[27.16115,41.07404],[27.1544,41.07088],[27.14559,41.07268],[27.14531,41.07532],[27.14059,41.07955],[27.14275,41.07986],[27.14436,41.0851],[27.15873,41.09258],[27.15887,41.09854],[27.17377,41.10103],[27.1718,41.10421],[27.17597,41.10288],[27.17663,41.10117],[27.18131,41.10956],[27.18288,41.12299],[27.18783,41.12125]]]}},{"type":"Feature","properties":{"id":"TR-Y-59-004-M-0042","level":"yerlesim","type":"mahalle","parent_id":"TR-D-59-004","province_id":"TR-P-59","district_id":"TR-D-59-004","name":"Şalgamlı","source_raw_name":"Şalgamlı Mah.","source":"Kullanıcı tarafından sağlanan KML","source_label":"Kullanıcı tarafından sağlanan KML","source_name":"Tekirdağ Mahalle KML"},"geometry":{"type":"Polygon","coordinates":[[[27.00023,41.07197],[27.01929,41.07202],[27.02769,41.06887],[27.02933,41.06584],[27.02834,41.06395],[27.03113,41.06141],[27.02647,41.04717],[27.02843,41.04177],[27.02567,41.03222],[27.02166,41.02731],[27.01143,41.02418],[27.0108,41.02188],[27.00193,41.01664],[27.00094,41.01491],[27.00226,41.01172],[26.99749,41.00735],[26.9961,41.00274],[26.99363,41.00178],[26.99392,40.99886],[26.99005,40.99655],[26.98938,40.99424],[26.98341,40.99218],[26.98432,40.99477],[26.9788,40.99538],[26.97678,40.99975],[26.97464,40.99964],[26.97384,41.00121],[26.97519,41.00263],[26.97409,41.00507],[26.97618,41.01162],[26.97823,41.01411],[26.97555,41.01511],[26.97369,41.02247],[26.97072,41.02251],[26.97064,41.02532],[26.97469,41.0267],[26.98599,41.03518],[26.98622,41.03772],[26.99477,41.04295],[26.99726,41.05055],[26.99546,41.05197],[26.99391,41.05792],[26.99565,41.06116],[26.99512,41.06633],[26.99685,41.06791],[26.99755,41.06399],[26.99894,41.06459],[27.00023,41.07197]]]}},{"type":"Feature","properties":{"id":"TR-Y-59-004-M-0043","level":"yerlesim","type":"mahalle","parent_id":"TR-D-59-004","province_id":"TR-P-59","district_id":"TR-D-59-004","name":"Soylu","source_raw_name":"Soylu Mah.","source":"Kullanıcı tarafından sağlanan KML","source_label":"Kullanıcı tarafından sağlanan KML","source_name":"Tekirdağ Mahalle KML"},"geometry":{"type":"Polygon","coordinates":[[[27.12611,41.03881],[27.12487,41.03664],[27.12996,41.03481],[27.13061,41.03163],[27.12772,41.02915],[27.12898,41.02819],[27.12771,41.02814],[27.12807,41.02363],[27.13113,41.022],[27.13007,41.00821],[27.1227,41.00308],[27.12395,41.00179],[27.11809,40.99834],[27.11721,40.99529],[27.11124,40.99218],[27.1051,40.99233],[27.0978,40.9881],[27.09804,40.98601],[27.09443,40.98456],[27.0951,40.97988],[27.09039,40.98071],[27.08688,40.97666],[27.07637,40.97359],[27.07422,40.97601],[27.06976,40.97494],[27.06577,40.98156],[27.06546,40.98568],[27.06021,40.98757],[27.06164,40.99177],[27.06012,40.99558],[27.06169,40.99899],[27.06047,41.00001],[27.05734,40.99872],[27.05327,41.00077],[27.05977,41.0026],[27.05795,41.00557],[27.0606,41.01398],[27.05716,41.0159],[27.05823,41.01772],[27.06244,41.01855],[27.06137,41.02113],[27.06372,41.02514],[27.06772,41.02662],[27.06439,41.02998],[27.06927,41.02953],[27.0747,41.03272],[27.08264,41.03333],[27.08441,41.03685],[27.08802,41.03936],[27.0887,41.04332],[27.09025,41.04024],[27.09418,41.03932],[27.09462,41.0417],[27.10412,41.04028],[27.10619,41.04203],[27.1129,41.04118],[27.11473,41.04345],[27.11786,41.04359],[27.12919,41.0386],[27.12611,41.03881]]]}},{"type":"Feature","properties":{"id":"TR-Y-59-004-M-0044","level":"yerlesim","type":"mahalle","parent_id":"TR-D-59-004","province_id":"TR-P-59","district_id":"TR-D-59-004","name":"Subaşı","source_raw_name":"Subaşı Mah.","source":"Kullanıcı tarafından sağlanan KML","source_label":"Kullanıcı tarafından sağlanan KML","source_name":"Tekirdağ Mahalle KML"},"geometry":{"type":"Polygon","coordinates":[[[26.86054,41.12291],[26.87276,41.13055],[26.89008,41.13798],[26.90068,41.13824],[26.92053,41.13072],[26.92446,41.13058],[26.9229,41.12804],[26.92203,41.1172],[26.92266,41.11166],[26.92574,41.10695],[26.91922,41.1043],[26.91884,41.10193],[26.91717,41.102],[26.91305,41.09602],[26.90798,41.09569],[26.9028,41.09854],[26.89951,41.09464],[26.89633,41.09729],[26.8929,41.09405],[26.88672,41.09279],[26.88281,41.09402],[26.8754,41.09051],[26.87581,41.09256],[26.86931,41.09542],[26.86782,41.09893],[26.86508,41.10054],[26.86477,41.10598],[26.86774,41.11198],[26.86252,41.11356],[26.86054,41.12291]]]}},{"type":"Feature","properties":{"id":"TR-Y-59-004-M-0045","level":"yerlesim","type":"mahalle","parent_id":"TR-D-59-004","province_id":"TR-P-59","district_id":"TR-D-59-004","name":"Susuzmüsellim","source_raw_name":"Susuzmüsellim Mah.","source":"Kullanıcı tarafından sağlanan KML","source_label":"Kullanıcı tarafından sağlanan KML","source_name":"Tekirdağ Mahalle KML"},"geometry":{"type":"Polygon","coordinates":[[[27.06555,41.11753],[27.07428,41.11489],[27.08225,41.1154],[27.08534,41.11435],[27.08474,41.11291],[27.09015,41.11456],[27.08691,41.10952],[27.09048,41.10835],[27.09136,41.10595],[27.09552,41.10693],[27.09866,41.10493],[27.09301,41.10159],[27.09402,41.09792],[27.09694,41.09865],[27.10003,41.09719],[27.09699,41.09405],[27.09758,41.09081],[27.09994,41.08986],[27.09594,41.0874],[27.09905,41.08315],[27.09665,41.07979],[27.09398,41.07916],[27.09144,41.08107],[27.08501,41.07664],[27.09549,41.0744],[27.09677,41.07227],[27.09143,41.07148],[27.09398,41.06934],[27.09162,41.06869],[27.08446,41.07329],[27.08391,41.0717],[27.07817,41.06955],[27.07327,41.06328],[27.07101,41.06301],[27.0704,41.06588],[27.0735,41.0706],[27.05524,41.07095],[27.05571,41.07258],[27.04896,41.07892],[27.04768,41.07842],[27.04435,41.08389],[27.0413,41.08315],[27.03609,41.08835],[27.03543,41.08755],[27.03404,41.0912],[27.03145,41.08938],[27.03139,41.08956],[27.03196,41.09058],[27.03197,41.09101],[27.03281,41.09254],[27.03269,41.09303],[27.03435,41.09383],[27.02993,41.09523],[27.02722,41.09796],[27.02933,41.10259],[27.02594,41.11077],[27.03434,41.11018],[27.04379,41.11321],[27.06206,41.11533],[27.06555,41.11753]],[[27.05722,41.09465],[27.05936,41.09631],[27.05321,41.09982],[27.05722,41.09465]]]}},{"type":"Feature","properties":{"id":"TR-Y-59-004-M-0046","level":"yerlesim","type":"mahalle","parent_id":"TR-D-59-004","province_id":"TR-P-59","district_id":"TR-D-59-004","name":"Tatarlı","source_raw_name":"Tatarlı Mah.","source":"Kullanıcı tarafından sağlanan KML","source_label":"Kullanıcı tarafından sağlanan KML","source_name":"Tekirdağ Mahalle KML"},"geometry":{"type":"Polygon","coordinates":[[[27.05584,41.16535],[27.07873,41.16187],[27.09175,41.15403],[27.1014,41.15487],[27.10293,41.15286],[27.10798,41.15345],[27.10706,41.15156],[27.11272,41.15044],[27.11395,41.1454],[27.10754,41.14538],[27.11505,41.13848],[27.10964,41.13451],[27.10954,41.1332],[27.11221,41.13226],[27.11167,41.13066],[27.10716,41.1304],[27.10737,41.12681],[27.10245,41.12525],[27.10074,41.1189],[27.10358,41.1104],[27.09951,41.105],[27.09552,41.10693],[27.09136,41.10595],[27.09048,41.10835],[27.08691,41.10952],[27.09042,41.11401],[27.0896,41.11474],[27.08851,41.11319],[27.08763,41.11431],[27.08474,41.11291],[27.08534,41.11435],[27.08225,41.1154],[27.07428,41.11489],[27.06555,41.11753],[27.05676,41.11427],[27.04379,41.11321],[27.04641,41.11552],[27.04624,41.11899],[27.04907,41.12432],[27.04904,41.13087],[27.04621,41.13604],[27.04105,41.13399],[27.04159,41.13876],[27.03671,41.14213],[27.03787,41.1453],[27.0427,41.14859],[27.04567,41.16015],[27.05584,41.16535]]]}},{"type":"Feature","properties":{"id":"TR-Y-59-004-M-0047","level":"yerlesim","type":"mahalle","parent_id":"TR-D-59-004","province_id":"TR-P-59","district_id":"TR-D-59-004","name":"Temrezli","source_raw_name":"Temrezli Mah.","source":"Kullanıcı tarafından sağlanan KML","source_label":"Kullanıcı tarafından sağlanan KML","source_name":"Tekirdağ Mahalle KML"},"geometry":{"type":"Polygon","coordinates":[[[27.09038,41.32726],[27.09457,41.3235],[27.09913,41.32613],[27.10259,41.32353],[27.0986,41.31826],[27.10035,41.31671],[27.1,41.31455],[27.10341,41.31493],[27.10413,41.31164],[27.10777,41.3111],[27.10753,41.30477],[27.1111,41.30393],[27.10519,41.29567],[27.10529,41.28645],[27.10355,41.28762],[27.10022,41.28664],[27.08942,41.29047],[27.08543,41.28832],[27.07773,41.2874],[27.06856,41.28766],[27.06643,41.28936],[27.05811,41.29035],[27.05518,41.28933],[27.05118,41.29246],[27.03723,41.29545],[27.04661,41.29732],[27.05254,41.3033],[27.06543,41.30291],[27.06766,41.30476],[27.07048,41.31308],[27.07938,41.31431],[27.08191,41.32428],[27.08063,41.32574],[27.08438,41.32487],[27.09038,41.32726]]]}},{"type":"Feature","properties":{"id":"TR-Y-59-004-M-0049","level":"yerlesim","type":"mahalle","parent_id":"TR-D-59-004","province_id":"TR-P-59","district_id":"TR-D-59-004","name":"Umurbey","source_raw_name":"Umurbey Mah.","source":"Kullanıcı tarafından sağlanan KML","source_label":"Kullanıcı tarafından sağlanan KML","source_name":"Tekirdağ Mahalle KML"},"geometry":{"type":"Polygon","coordinates":[[[27.0354,41.088],[27.04166,41.08299],[27.04435,41.08389],[27.04768,41.07842],[27.04896,41.07892],[27.05571,41.07258],[27.05524,41.07095],[27.0735,41.0706],[27.0704,41.06588],[27.07101,41.06301],[27.07327,41.06328],[27.07817,41.06955],[27.08391,41.0717],[27.08446,41.07329],[27.09099,41.07002],[27.09187,41.06684],[27.08586,41.06295],[27.08128,41.05672],[27.08177,41.05227],[27.07661,41.0527],[27.07674,41.04809],[27.07547,41.04892],[27.07477,41.05274],[27.07412,41.05145],[27.0636,41.0521],[27.06072,41.05015],[27.05186,41.05461],[27.05009,41.05264],[27.04597,41.05939],[27.03903,41.06155],[27.04102,41.06161],[27.04145,41.06339],[27.0361,41.0649],[27.03888,41.06163],[27.0335,41.06489],[27.03504,41.06611],[27.03267,41.07092],[27.025,41.06978],[27.01929,41.07202],[27.01469,41.0718],[27.02002,41.0778],[27.01903,41.07892],[27.02141,41.07956],[27.0206,41.08177],[27.02347,41.08182],[27.0212,41.08256],[27.02604,41.0839],[27.03404,41.0912],[27.0354,41.088]]]}},{"type":"Feature","properties":{"id":"TR-Y-59-004-M-0050","level":"yerlesim","type":"mahalle","parent_id":"TR-D-59-004","province_id":"TR-P-59","district_id":"TR-D-59-004","name":"Umurcu","source_raw_name":"Umurçu Mah.","source":"Kullanıcı tarafından sağlanan KML","source_label":"Kullanıcı tarafından sağlanan KML","source_name":"Tekirdağ Mahalle KML"},"geometry":{"type":"Polygon","coordinates":[[[26.93595,41.16264],[26.95074,41.15251],[26.95727,41.15132],[26.96104,41.15253],[26.95529,41.14395],[26.94922,41.1397],[26.94563,41.14175],[26.9325,41.12949],[26.92053,41.13072],[26.90068,41.13824],[26.89214,41.13829],[26.89073,41.14139],[26.89185,41.14443],[26.89956,41.15246],[26.92299,41.16244],[26.92738,41.16613],[26.93595,41.16264]]]}},{"type":"Feature","properties":{"id":"TR-Y-59-004-M-0051","level":"yerlesim","type":"mahalle","parent_id":"TR-D-59-004","province_id":"TR-P-59","district_id":"TR-D-59-004","name":"Yörgüç","source_raw_name":"Yörgüç Mah.","source":"Kullanıcı tarafından sağlanan KML","source_label":"Kullanıcı tarafından sağlanan KML","source_name":"Tekirdağ Mahalle KML"},"geometry":{"type":"Polygon","coordinates":[[[27.03504,41.06611],[27.0335,41.06489],[27.04597,41.05939],[27.05009,41.05264],[27.05186,41.05461],[27.06072,41.05015],[27.0636,41.0521],[27.07412,41.05145],[27.07477,41.05274],[27.07547,41.04892],[27.07653,41.04802],[27.07587,41.04951],[27.07757,41.04925],[27.07661,41.0527],[27.08177,41.05227],[27.08099,41.04956],[27.08373,41.04861],[27.08489,41.04546],[27.08848,41.04314],[27.08802,41.03936],[27.08441,41.03685],[27.08264,41.03333],[27.0747,41.03272],[27.06927,41.02953],[27.06485,41.03031],[27.0644,41.02921],[27.06772,41.02662],[27.06372,41.02514],[27.06137,41.02113],[27.06244,41.01855],[27.05471,41.0166],[27.05464,41.01889],[27.0502,41.01812],[27.04908,41.02254],[27.05064,41.02247],[27.05118,41.02501],[27.04648,41.0218],[27.04529,41.02205],[27.04659,41.02324],[27.04302,41.02539],[27.04439,41.02671],[27.03063,41.02538],[27.02178,41.02765],[27.02567,41.03222],[27.02793,41.03922],[27.02845,41.04236],[27.02635,41.04642],[27.03118,41.06101],[27.02834,41.06395],[27.02933,41.06584],[27.02769,41.06887],[27.02335,41.07],[27.03267,41.07092],[27.03504,41.06611]]]}},{"type":"Feature","properties":{"id":"TR-Y-59-004-M-0052","level":"yerlesim","type":"mahalle","parent_id":"TR-D-59-004","province_id":"TR-P-59","district_id":"TR-D-59-004","name":"Yörükler","source_raw_name":"Yörükler Mah.","source":"Kullanıcı tarafından sağlanan KML","source_label":"Kullanıcı tarafından sağlanan KML","source_name":"Tekirdağ Mahalle KML"},"geometry":{"type":"Polygon","coordinates":[[[27.21107,41.14248],[27.2157,41.14205],[27.21757,41.13795],[27.22851,41.13974],[27.24314,41.13547],[27.24428,41.1332],[27.24563,41.13553],[27.25088,41.13271],[27.25378,41.12901],[27.25639,41.13014],[27.25784,41.12801],[27.25617,41.12491],[27.25342,41.12427],[27.25431,41.12187],[27.25708,41.12094],[27.25772,41.11591],[27.25213,41.11459],[27.24567,41.10937],[27.2395,41.1072],[27.23313,41.11289],[27.23326,41.11475],[27.23781,41.11834],[27.23612,41.1202],[27.23813,41.1215],[27.22653,41.12037],[27.22503,41.12096],[27.22901,41.12303],[27.22405,41.12374],[27.22428,41.12567],[27.2228,41.126],[27.21755,41.12525],[27.21786,41.12378],[27.22253,41.12374],[27.22217,41.12227],[27.22434,41.12123],[27.21814,41.1222],[27.21943,41.11919],[27.21733,41.12015],[27.21595,41.12361],[27.21127,41.12262],[27.20993,41.12542],[27.21098,41.12913],[27.20945,41.12996],[27.20959,41.13201],[27.21171,41.13249],[27.21129,41.13926],[27.20903,41.14194],[27.21086,41.14378],[27.21107,41.14248]]]}},{"type":"Feature","properties":{"id":"TR-Y-59-004-M-SRC-CENE","level":"yerlesim","type":"mahalle","parent_id":"TR-D-59-004","province_id":"TR-P-59","district_id":"TR-D-59-004","name":"Çene","source_raw_name":"Çene Mah.","source":"Kullanıcı tarafından sağlanan KML","source_label":"Kullanıcı tarafından sağlanan KML","source_name":"Tekirdağ Mahalle KML","source_only":true},"geometry":{"type":"Polygon","coordinates":[[[27.19128,41.21619],[27.18912,41.21956],[27.19009,41.22174],[27.20265,41.22438],[27.2017,41.22585],[27.20414,41.22712],[27.21223,41.22585],[27.21065,41.222],[27.21171,41.22054],[27.20879,41.21804],[27.21573,41.21375],[27.2166,41.20718],[27.21996,41.20763],[27.22017,41.20349],[27.22526,41.20361],[27.22742,41.19941],[27.22408,41.19582],[27.22842,41.19495],[27.221,41.19453],[27.22642,41.19414],[27.22653,41.19259],[27.22452,41.19288],[27.22339,41.1911],[27.22753,41.18962],[27.2249,41.1856],[27.2285,41.18375],[27.22788,41.17973],[27.22572,41.17769],[27.22289,41.17892],[27.21782,41.17673],[27.21851,41.17187],[27.21162,41.17054],[27.21067,41.16673],[27.21203,41.16119],[27.20834,41.15868],[27.20287,41.16454],[27.19892,41.16094],[27.18156,41.16243],[27.18217,41.164],[27.18004,41.16412],[27.17709,41.1753],[27.18081,41.17835],[27.1793,41.19065],[27.17753,41.19163],[27.17582,41.19789],[27.17785,41.20969],[27.17779,41.21166],[27.17591,41.21273],[27.19128,41.21619]]]}},{"type":"Feature","properties":{"id":"TR-Y-59-004-M-SRC-DUGCALI","level":"yerlesim","type":"mahalle","parent_id":"TR-D-59-004","province_id":"TR-P-59","district_id":"TR-D-59-004","name":"Duğcalı","source_raw_name":"Duğcalı Mah.","source":"Kullanıcı tarafından sağlanan KML","source_label":"Kullanıcı tarafından sağlanan KML","source_name":"Tekirdağ Mahalle KML","source_only":true},"geometry":{"type":"Polygon","coordinates":[[[27.18782,41.31992],[27.19,41.31203],[27.19423,41.30721],[27.1935,41.30587],[27.19133,41.30643],[27.19147,41.30437],[27.18929,41.30514],[27.19066,41.30046],[27.19547,41.3002],[27.19587,41.2981],[27.20172,41.29483],[27.20174,41.29217],[27.20524,41.28874],[27.20361,41.28657],[27.20469,41.28297],[27.20226,41.28393],[27.2024,41.28143],[27.20074,41.28045],[27.19796,41.28136],[27.19875,41.27877],[27.19718,41.27753],[27.20095,41.2738],[27.19951,41.27093],[27.19181,41.26908],[27.19241,41.26709],[27.17217,41.26194],[27.17003,41.25965],[27.16322,41.25712],[27.15808,41.2638],[27.1636,41.26686],[27.16261,41.26809],[27.16383,41.26945],[27.16506,41.26884],[27.17137,41.27476],[27.16754,41.2761],[27.16894,41.27684],[27.16216,41.28412],[27.16077,41.28393],[27.16155,41.28495],[27.15651,41.28764],[27.15727,41.28858],[27.15561,41.28935],[27.15435,41.29416],[27.15005,41.29752],[27.1478,41.29711],[27.14889,41.29857],[27.14596,41.29993],[27.16468,41.30547],[27.16453,41.30775],[27.16739,41.30898],[27.16602,41.31016],[27.17137,41.3126],[27.17416,41.30957],[27.17578,41.31136],[27.17222,41.31333],[27.17561,41.31709],[27.18782,41.31992]]]}},{"type":"Feature","properties":{"id":"TR-Y-59-004-M-SRC-HACILLI","level":"yerlesim","type":"mahalle","parent_id":"TR-D-59-004","province_id":"TR-P-59","district_id":"TR-D-59-004","name":"Hacıllı","source_raw_name":"Hacıllı Mah.","source":"Kullanıcı tarafından sağlanan KML","source_label":"Kullanıcı tarafından sağlanan KML","source_name":"Tekirdağ Mahalle KML","source_only":true},"geometry":{"type":"Polygon","coordinates":[[[27.12882,41.03879],[27.11684,41.04363],[27.11709,41.04727],[27.11264,41.04787],[27.11316,41.05061],[27.11058,41.05065],[27.10483,41.05746],[27.10251,41.05669],[27.10096,41.05819],[27.10057,41.05936],[27.10429,41.06107],[27.09343,41.06635],[27.09427,41.06885],[27.09143,41.07148],[27.09677,41.07227],[27.09549,41.0744],[27.0916,41.0762],[27.08522,41.07618],[27.09144,41.08107],[27.09398,41.07916],[27.09665,41.07979],[27.09887,41.08281],[27.09594,41.0874],[27.09994,41.08986],[27.09736,41.09113],[27.09725,41.09484],[27.10734,41.09521],[27.11385,41.09779],[27.1146,41.09569],[27.12065,41.09429],[27.12215,41.09768],[27.12909,41.0893],[27.13844,41.08798],[27.13853,41.08471],[27.14292,41.08289],[27.14275,41.07986],[27.14059,41.07955],[27.14531,41.07532],[27.14527,41.07301],[27.1476,41.07199],[27.15033,41.06477],[27.14838,41.05424],[27.15563,41.0474],[27.1422,41.04303],[27.13642,41.03909],[27.12882,41.03879]]]}},{"type":"Feature","properties":{"id":"TR-Y-59-004-M-SRC-KEMALLAR","level":"yerlesim","type":"mahalle","parent_id":"TR-D-59-004","province_id":"TR-P-59","district_id":"TR-D-59-004","name":"Kemallar","source_raw_name":"Kemallar Mah.","source":"Kullanıcı tarafından sağlanan KML","source_label":"Kullanıcı tarafından sağlanan KML","source_name":"Tekirdağ Mahalle KML","source_only":true},"geometry":{"type":"Polygon","coordinates":[[[27.30345,41.18519],[27.32182,41.17128],[27.32498,41.16781],[27.32554,41.16296],[27.33036,41.15976],[27.32824,41.15796],[27.31897,41.1607],[27.30945,41.14948],[27.30664,41.1519],[27.30004,41.14283],[27.28725,41.14641],[27.28272,41.1453],[27.28227,41.14695],[27.27757,41.14639],[27.27752,41.14908],[27.27568,41.14874],[27.27483,41.15061],[27.27634,41.15166],[27.27528,41.15325],[27.27972,41.15559],[27.27526,41.15772],[27.2777,41.16041],[27.28705,41.16451],[27.28787,41.16579],[27.28452,41.1675],[27.28596,41.17038],[27.29056,41.17065],[27.29113,41.17321],[27.27731,41.17386],[27.27685,41.17566],[27.26647,41.17855],[27.27698,41.18381],[27.28163,41.18281],[27.27922,41.17666],[27.28712,41.17879],[27.29529,41.17616],[27.2989,41.1799],[27.29992,41.17798],[27.30345,41.18519]]]}},{"type":"Feature","properties":{"id":"TR-Y-59-004-M-SRC-OREY","level":"yerlesim","type":"mahalle","parent_id":"TR-D-59-004","province_id":"TR-P-59","district_id":"TR-D-59-004","name":"Örey","source_raw_name":"Örey Mah.","source":"Kullanıcı tarafından sağlanan KML","source_label":"Kullanıcı tarafından sağlanan KML","source_name":"Tekirdağ Mahalle KML","source_only":true},"geometry":{"type":"Polygon","coordinates":[[[27.02864,41.165],[27.03886,41.16213],[27.04702,41.16295],[27.04829,41.16079],[27.04562,41.16006],[27.04333,41.15009],[27.03665,41.14977],[27.03352,41.14572],[27.02774,41.14345],[27.01645,41.13211],[27.01448,41.13359],[27.00598,41.13251],[27.00137,41.13687],[27.00009,41.13533],[26.97943,41.13778],[26.9725,41.14084],[26.96974,41.14318],[26.96869,41.14672],[26.96104,41.15253],[26.99,41.15752],[26.99887,41.16372],[27.02864,41.165]],[[26.9907,41.1455],[26.9918,41.14817],[26.98554,41.14888],[26.9896,41.14592],[26.9907,41.1455]]]}},{"type":"Feature","properties":{"id":"TR-Y-59-004-OSB-HAYRABOLUOSBMAH","level":"yerlesim","type":"mahalle","parent_id":"TR-D-59-004","province_id":"TR-P-59","district_id":"TR-D-59-004","name":"Hayraboluosb Mah.","source_raw_name":"Hayraboluosb Mah.","source":"Kullanıcı tarafından sağlanan KML","source_label":"Kullanıcı tarafından sağlanan KML","source_name":"Tekirdağ Mahalle KML","source_only":true,"osb":true},"geometry":{"type":"Polygon","coordinates":[[[27.0581,41.22745],[27.0529,41.22473],[27.06142,41.21885],[27.05023,41.22046],[27.03821,41.22728],[27.04896,41.23261],[27.0581,41.22745]]]}}]}