{"type":"FeatureCollection","name":"turkiye_map.dist.mahalle_geometrileri_by_district.TR-D-34-022","features":[{"type":"Feature","properties":{"id":"TR-Y-34-022-M-0001","level":"yerlesim","type":"mahalle","parent_id":"TR-D-34-022","province_id":"TR-P-34","district_id":"TR-D-34-022","name":"Abdurrahman Nafiz Gürman","source_raw_name":"ABDURRAHMAN NAFİZ GÜRMAN","source":"Kullanıcı tarafından sağlanan KML","source_label":"Kullanıcı tarafından sağlanan KML","source_name":"Istanbul Mahalle KML"},"geometry":{"type":"Polygon","coordinates":[[[28.892819,41.009818],[28.892801,41.009377],[28.893626,41.008471],[28.893743,41.008272],[28.894846,41.007042],[28.896007,41.007819],[28.896424,41.008029],[28.896617,41.008611],[28.897575,41.008352],[28.898125,41.008198],[28.896428,41.007052],[28.895954,41.006727],[28.895321,41.006301],[28.893749,41.005234],[28.892956,41.004707],[28.89206,41.004085],[28.891549,41.003773],[28.891124,41.003553],[28.890712,41.00334],[28.890237,41.003118],[28.889496,41.002852],[28.889033,41.002701],[28.888323,41.002477],[28.887142,41.002126],[28.88559,41.001666],[28.885178,41.002186],[28.885336,41.002521],[28.88479,41.003583],[28.883698,41.004173],[28.882184,41.005216],[28.881886,41.005506],[28.881446,41.006169],[28.881229,41.007428],[28.881183,41.007768],[28.88177,41.007668],[28.887737,41.009022],[28.890635,41.009721],[28.89169,41.009944],[28.892819,41.009818]]]}},{"type":"Feature","properties":{"id":"TR-Y-34-022-M-0002","level":"yerlesim","type":"mahalle","parent_id":"TR-D-34-022","province_id":"TR-P-34","district_id":"TR-D-34-022","name":"Akıncılar","source_raw_name":"AKINCILAR","source":"Kullanıcı tarafından sağlanan KML","source_label":"Kullanıcı tarafından sağlanan KML","source_name":"Istanbul Mahalle KML"},"geometry":{"type":"Polygon","coordinates":[[[28.865237,41.014106],[28.865586,41.015771],[28.865803,41.016177],[28.866078,41.016075],[28.866243,41.016311],[28.869445,41.018728],[28.869854,41.018182],[28.872028,41.016679],[28.87547,41.0154],[28.874903,41.014884],[28.874221,41.014448],[28.873081,41.014069],[28.871385,41.013811],[28.870475,41.014243],[28.869527,41.014206],[28.867197,41.013997],[28.865237,41.014106]]]}},{"type":"Feature","properties":{"id":"TR-Y-34-022-M-0003","level":"yerlesim","type":"mahalle","parent_id":"TR-D-34-022","province_id":"TR-P-34","district_id":"TR-D-34-022","name":"Gençosman","source_raw_name":"GENÇOSMAN","source":"Kullanıcı tarafından sağlanan KML","source_label":"Kullanıcı tarafından sağlanan KML","source_name":"Istanbul Mahalle KML"},"geometry":{"type":"Polygon","coordinates":[[[28.87257,41.038548],[28.872621,41.03849],[28.872668,41.038436],[28.872717,41.038357],[28.872761,41.03828],[28.872839,41.03815],[28.872955,41.037985],[28.873073,41.037837],[28.873201,41.037694],[28.873281,41.037619],[28.873618,41.03741],[28.873749,41.037319],[28.873776,41.037303],[28.874288,41.036998],[28.874379,41.036931],[28.874436,41.036882],[28.874517,41.036798],[28.874557,41.036744],[28.874604,41.036682],[28.87464,41.036547],[28.874689,41.036336],[28.874625,41.036038],[28.874608,41.035844],[28.874601,41.0357],[28.874652,41.03552],[28.87473,41.035422],[28.874957,41.03516],[28.875132,41.034967],[28.875258,41.034793],[28.875425,41.034515],[28.875629,41.034107],[28.875698,41.033964],[28.875767,41.033762],[28.875833,41.033596],[28.875882,41.033457],[28.875943,41.033277],[28.876093,41.032947],[28.876097,41.032937],[28.876228,41.032634],[28.87624,41.032606],[28.876356,41.032336],[28.876466,41.032076],[28.876524,41.031928],[28.87694,41.031988],[28.876993,41.031983],[28.877304,41.031979],[28.878348,41.032193],[28.878611,41.032263],[28.878796,41.032315],[28.879025,41.03238],[28.87916,41.032404],[28.879495,41.032488],[28.87999,41.032609],[28.880407,41.03271],[28.880452,41.032721],[28.880711,41.032784],[28.881129,41.032933],[28.881566,41.033089],[28.882136,41.033333],[28.882312,41.033393],[28.88253,41.033445],[28.882918,41.033539],[28.883336,41.03365],[28.883437,41.033678],[28.883468,41.033688],[28.883688,41.033756],[28.884019,41.033851],[28.884907,41.03399],[28.885477,41.033995],[28.885601,41.033839],[28.885778,41.033634],[28.885939,41.033473],[28.886096,41.033349],[28.8871,41.032611],[28.887312,41.032462],[28.887443,41.032365],[28.887549,41.032286],[28.887689,41.032182],[28.887815,41.03209],[28.887926,41.032008],[28.888042,41.031921],[28.888167,41.031818],[28.888282,41.031726],[28.88847,41.031564],[28.888557,41.031486],[28.888654,41.031403],[28.888758,41.031314],[28.888842,41.031237],[28.888986,41.031111],[28.889097,41.031012],[28.889274,41.030853],[28.889356,41.030783],[28.889449,41.030701],[28.889557,41.030605],[28.889724,41.030458],[28.889852,41.030346],[28.889947,41.030263],[28.890071,41.030151],[28.890157,41.030079],[28.89024,41.030018],[28.890405,41.029959],[28.890339,41.029904],[28.890639,41.029142],[28.889597,41.027907],[28.889488,41.027783],[28.88932,41.027589],[28.88909,41.027299],[28.888997,41.02718],[28.88886,41.026944],[28.888598,41.026654],[28.888326,41.026352],[28.888093,41.026077],[28.887992,41.025966],[28.887877,41.025861],[28.88725,41.025338],[28.887107,41.025227],[28.88554,41.022679],[28.885543,41.022672],[28.88554,41.022668],[28.885398,41.022602],[28.885397,41.022602],[28.88495,41.023613],[28.884636,41.024321],[28.883939,41.025888],[28.883938,41.025889],[28.882491,41.026066],[28.881894,41.026316],[28.88155,41.0263],[28.881477,41.026297],[28.881476,41.026297],[28.881259,41.026943],[28.881259,41.026944],[28.880682,41.026855],[28.879899,41.026774],[28.878864,41.026587],[28.877531,41.026412],[28.877437,41.026409],[28.876008,41.02637],[28.875463,41.026192],[28.87438,41.026561],[28.874023,41.026537],[28.873589,41.026824],[28.873588,41.026825],[28.87302,41.027301],[28.87296,41.027398],[28.872689,41.027837],[28.872695,41.027845],[28.872734,41.028371],[28.872725,41.028719],[28.87271,41.029067],[28.872667,41.029334],[28.872602,41.029732],[28.872531,41.03013],[28.872468,41.030456],[28.872428,41.030762],[28.872384,41.031056],[28.872324,41.031598],[28.872228,41.031977],[28.872109,41.032333],[28.87202,41.032696],[28.871608,41.033752],[28.871537,41.034155],[28.87137,41.036362],[28.871404,41.037156],[28.871338,41.037432],[28.871235,41.037786],[28.871258,41.037973],[28.871243,41.038449],[28.87138,41.038453],[28.872496,41.03851],[28.87257,41.038548]]]}},{"type":"Feature","properties":{"id":"TR-Y-34-022-M-0004","level":"yerlesim","type":"mahalle","parent_id":"TR-D-34-022","province_id":"TR-P-34","district_id":"TR-D-34-022","name":"Güneştepe","source_raw_name":"GÜNEŞTEPE","source":"Kullanıcı tarafından sağlanan KML","source_label":"Kullanıcı tarafından sağlanan KML","source_name":"Istanbul Mahalle KML"},"geometry":{"type":"Polygon","coordinates":[[[28.864953,41.029473],[28.865873,41.029449],[28.867389,41.029473],[28.869051,41.029123],[28.870873,41.027862],[28.871207,41.027678],[28.871241,41.027633],[28.871464,41.026884],[28.871624,41.026418],[28.871724,41.02638],[28.871819,41.025967],[28.871819,41.025967],[28.871182,41.026175],[28.870612,41.025821],[28.87045,41.02572],[28.870074,41.02537],[28.869832,41.025145],[28.869559,41.02401],[28.869557,41.024005],[28.869535,41.02395],[28.869364,41.023521],[28.869311,41.02339],[28.869311,41.02339],[28.869186,41.02331],[28.868821,41.02246],[28.868435,41.022317],[28.86812,41.022135],[28.867793,41.021578],[28.86708,41.020955],[28.865927,41.022114],[28.863356,41.020986],[28.862868,41.020772],[28.862414,41.020582],[28.862069,41.021072],[28.862604,41.021346],[28.862216,41.021839],[28.861703,41.022231],[28.861451,41.022424],[28.861335,41.022559],[28.860583,41.023429],[28.860299,41.023964],[28.860217,41.02412],[28.860049,41.024661],[28.860025,41.024697],[28.859911,41.024868],[28.859784,41.025186],[28.859507,41.025518],[28.859445,41.025584],[28.859336,41.025849],[28.858999,41.02709],[28.859008,41.027218],[28.859069,41.027479],[28.859091,41.027599],[28.859126,41.027638],[28.859539,41.027741],[28.859378,41.02821],[28.859362,41.028264],[28.859121,41.02863],[28.859067,41.028747],[28.859596,41.029038],[28.859736,41.029154],[28.859938,41.029258],[28.86074,41.02945],[28.86085,41.029202],[28.862339,41.029596],[28.862617,41.029728],[28.862838,41.029385],[28.863934,41.029733],[28.864324,41.029621],[28.864953,41.029473]]]}},{"type":"Feature","properties":{"id":"TR-Y-34-022-M-0005","level":"yerlesim","type":"mahalle","parent_id":"TR-D-34-022","province_id":"TR-P-34","district_id":"TR-D-34-022","name":"Güven","source_raw_name":"GÜVEN","source":"Kullanıcı tarafından sağlanan KML","source_label":"Kullanıcı tarafından sağlanan KML","source_name":"Istanbul Mahalle KML"},"geometry":{"type":"Polygon","coordinates":[[[28.874342,41.007909],[28.873031,41.009491],[28.873216,41.009589],[28.869527,41.014206],[28.870475,41.014243],[28.871385,41.013811],[28.873081,41.014069],[28.874221,41.014448],[28.874903,41.014884],[28.87547,41.0154],[28.875917,41.015642],[28.877797,41.016229],[28.878601,41.016399],[28.879685,41.01649],[28.878032,41.014373],[28.877915,41.01317],[28.877728,41.012724],[28.877229,41.011854],[28.876846,41.011433],[28.875263,41.009947],[28.875093,41.009504],[28.875095,41.008625],[28.874342,41.007909]]]}},{"type":"Feature","properties":{"id":"TR-Y-34-022-M-0006","level":"yerlesim","type":"mahalle","parent_id":"TR-D-34-022","province_id":"TR-P-34","district_id":"TR-D-34-022","name":"Haznedar","source_raw_name":"HAZNEDAR","source":"Kullanıcı tarafından sağlanan KML","source_label":"Kullanıcı tarafından sağlanan KML","source_name":"Istanbul Mahalle KML"},"geometry":{"type":"Polygon","coordinates":[[[28.865237,41.014106],[28.867197,41.013997],[28.869527,41.014206],[28.873216,41.009589],[28.873031,41.009491],[28.874342,41.007909],[28.873722,41.007517],[28.87061,41.006282],[28.869436,41.007961],[28.867109,41.010689],[28.865117,41.012354],[28.864853,41.012608],[28.864718,41.012697],[28.863158,41.014228],[28.86313,41.014264],[28.865237,41.014106]]]}},{"type":"Feature","properties":{"id":"TR-Y-34-022-M-0007","level":"yerlesim","type":"mahalle","parent_id":"TR-D-34-022","province_id":"TR-P-34","district_id":"TR-D-34-022","name":"Mareşal Çakmak","source_raw_name":"MAREŞAL ÇAKMAK","source":"Kullanıcı tarafından sağlanan KML","source_label":"Kullanıcı tarafından sağlanan KML","source_name":"Istanbul Mahalle KML"},"geometry":{"type":"Polygon","coordinates":[[[28.86708,41.020955],[28.868456,41.019922],[28.869445,41.018728],[28.866243,41.016311],[28.866078,41.016075],[28.865803,41.016177],[28.865586,41.015771],[28.865237,41.014106],[28.86313,41.014264],[28.863093,41.014291],[28.863074,41.014311],[28.861444,41.015752],[28.860266,41.017497],[28.860194,41.017605],[28.860193,41.017607],[28.860643,41.017802],[28.861352,41.018226],[28.863062,41.01906],[28.862966,41.019219],[28.862345,41.020251],[28.862204,41.02048],[28.862197,41.020492],[28.862414,41.020582],[28.862414,41.020582],[28.862868,41.020772],[28.863356,41.020986],[28.865927,41.022114],[28.86708,41.020955]]]}},{"type":"Feature","properties":{"id":"TR-Y-34-022-M-0008","level":"yerlesim","type":"mahalle","parent_id":"TR-D-34-022","province_id":"TR-P-34","district_id":"TR-D-34-022","name":"Mehmet Nesih Özmen","source_raw_name":"MEHMET NESİH ÖZMEN","source":"Kullanıcı tarafından sağlanan KML","source_label":"Kullanıcı tarafından sağlanan KML","source_name":"Istanbul Mahalle KML"},"geometry":{"type":"Polygon","coordinates":[[[28.886733,41.017364],[28.887112,41.017398],[28.888303,41.017392],[28.888679,41.017363],[28.889083,41.017321],[28.889273,41.017315],[28.889719,41.017381],[28.889843,41.017423],[28.890065,41.017524],[28.890616,41.017785],[28.890884,41.017926],[28.890913,41.017826],[28.890973,41.017622],[28.892293,41.013131],[28.8924,41.012511],[28.892954,41.012508],[28.893312,41.01251],[28.893743,41.012377],[28.893642,41.012184],[28.89385,41.01212],[28.893521,41.011473],[28.894033,41.011558],[28.894133,41.011362],[28.893479,41.010646],[28.893219,41.010303],[28.893294,41.010102],[28.893364,41.009762],[28.893363,41.009762],[28.892819,41.009818],[28.89169,41.009944],[28.890635,41.009721],[28.887737,41.009022],[28.88177,41.007668],[28.881183,41.007768],[28.881054,41.010253],[28.880258,41.014591],[28.880597,41.015945],[28.880805,41.01634],[28.880986,41.016571],[28.883026,41.018855],[28.883204,41.01901],[28.883466,41.0191],[28.883685,41.0191],[28.883933,41.018997],[28.885195,41.018217],[28.886009,41.017519],[28.886352,41.01738],[28.886533,41.017373],[28.886732,41.017364],[28.886733,41.017364],[28.886733,41.017364]]]}},{"type":"Feature","properties":{"id":"TR-Y-34-022-M-0009","level":"yerlesim","type":"mahalle","parent_id":"TR-D-34-022","province_id":"TR-P-34","district_id":"TR-D-34-022","name":"Merkez","source_raw_name":"MERKEZ","source":"Kullanıcı tarafından sağlanan KML","source_label":"Kullanıcı tarafından sağlanan KML","source_name":"Istanbul Mahalle KML"},"geometry":{"type":"Polygon","coordinates":[[[28.878864,41.026587],[28.878864,41.026586],[28.878949,41.026158],[28.878674,41.025373],[28.878682,41.024031],[28.879097,41.023047],[28.879132,41.022004],[28.879349,41.021309],[28.878521,41.020963],[28.878241,41.020939],[28.87617,41.020592],[28.874648,41.020788],[28.873976,41.020952],[28.873933,41.020454],[28.873827,41.020236],[28.877797,41.016229],[28.875917,41.015642],[28.87547,41.0154],[28.872028,41.016679],[28.869854,41.018182],[28.869445,41.018728],[28.868456,41.019922],[28.86708,41.020955],[28.867793,41.021578],[28.86812,41.022135],[28.868435,41.022317],[28.868821,41.02246],[28.869186,41.02331],[28.869311,41.02339],[28.869311,41.02339],[28.869364,41.023521],[28.869535,41.02395],[28.869557,41.024005],[28.869559,41.02401],[28.869832,41.025145],[28.870074,41.02537],[28.87045,41.02572],[28.870612,41.025821],[28.871182,41.026175],[28.871819,41.025967],[28.871819,41.025967],[28.871724,41.02638],[28.871624,41.026418],[28.871464,41.026884],[28.871241,41.027633],[28.871207,41.027678],[28.871272,41.027656],[28.871392,41.027647],[28.871754,41.027722],[28.87179,41.027718],[28.871822,41.027694],[28.872126,41.027104],[28.872126,41.027104],[28.872689,41.027837],[28.87296,41.027398],[28.87302,41.027301],[28.873588,41.026825],[28.873589,41.026824],[28.874023,41.026537],[28.87438,41.026561],[28.875463,41.026192],[28.876008,41.02637],[28.877437,41.026409],[28.877531,41.026412],[28.878864,41.026587]]]}},{"type":"Feature","properties":{"id":"TR-Y-34-022-M-0010","level":"yerlesim","type":"mahalle","parent_id":"TR-D-34-022","province_id":"TR-P-34","district_id":"TR-D-34-022","name":"Sanayi","source_raw_name":"SANAYİ","source":"Kullanıcı tarafından sağlanan KML","source_label":"Kullanıcı tarafından sağlanan KML","source_name":"Istanbul Mahalle KML"},"geometry":{"type":"Polygon","coordinates":[[[28.881259,41.026943],[28.881476,41.026297],[28.881477,41.026297],[28.88155,41.0263],[28.881894,41.026316],[28.882491,41.026066],[28.883938,41.025889],[28.883939,41.025888],[28.884636,41.024321],[28.88495,41.023613],[28.885397,41.022602],[28.885398,41.022602],[28.885713,41.0222],[28.885828,41.022026],[28.886229,41.021685],[28.887382,41.020787],[28.887454,41.020609],[28.887417,41.020493],[28.887185,41.019856],[28.886825,41.018973],[28.886662,41.018402],[28.886695,41.018161],[28.886775,41.017867],[28.886733,41.017364],[28.886733,41.017364],[28.886732,41.017364],[28.886533,41.017373],[28.886352,41.01738],[28.886009,41.017519],[28.885195,41.018217],[28.883933,41.018997],[28.883685,41.0191],[28.883466,41.0191],[28.883204,41.01901],[28.883026,41.018855],[28.880986,41.016571],[28.879685,41.01649],[28.878601,41.016399],[28.877797,41.016229],[28.873827,41.020236],[28.873933,41.020454],[28.873976,41.020952],[28.874648,41.020788],[28.87617,41.020592],[28.878241,41.020939],[28.878521,41.020963],[28.879349,41.021309],[28.879132,41.022004],[28.879097,41.023047],[28.878682,41.024031],[28.878674,41.025373],[28.878949,41.026158],[28.878864,41.026586],[28.878864,41.026587],[28.879899,41.026774],[28.880682,41.026855],[28.881259,41.026944],[28.881259,41.026943]]]}},{"type":"Feature","properties":{"id":"TR-Y-34-022-M-0011","level":"yerlesim","type":"mahalle","parent_id":"TR-D-34-022","province_id":"TR-P-34","district_id":"TR-D-34-022","name":"Tozkoparan","source_raw_name":"TOZKOPARAN","source":"Kullanıcı tarafından sağlanan KML","source_label":"Kullanıcı tarafından sağlanan KML","source_name":"Istanbul Mahalle KML"},"geometry":{"type":"Polygon","coordinates":[[[28.890973,41.017622],[28.890913,41.017826],[28.890884,41.017926],[28.8912,41.018095],[28.891638,41.018302],[28.892004,41.018577],[28.892277,41.018735],[28.892468,41.018795],[28.892774,41.018822],[28.894187,41.018869],[28.896208,41.018894],[28.897232,41.018908],[28.897808,41.01888],[28.8983,41.018938],[28.89884,41.019146],[28.899081,41.01926],[28.89927,41.019422],[28.899778,41.020071],[28.90009,41.020505],[28.900401,41.020639],[28.900541,41.020684],[28.900642,41.020719],[28.900658,41.020681],[28.900726,41.020512],[28.900921,41.018543],[28.900902,41.018398],[28.900975,41.01815],[28.900986,41.017968],[28.900969,41.017873],[28.90101,41.017724],[28.901019,41.017398],[28.901076,41.017353],[28.901314,41.01727],[28.901797,41.017338],[28.902474,41.017076],[28.902338,41.016675],[28.902302,41.016536],[28.902238,41.016071],[28.902282,41.015864],[28.90228,41.015827],[28.902244,41.015759],[28.902242,41.015672],[28.902264,41.015156],[28.902203,41.014829],[28.90218,41.01454],[28.901645,41.014508],[28.900891,41.014314],[28.900816,41.014258],[28.900838,41.014142],[28.900918,41.01412],[28.900964,41.014093],[28.900974,41.013981],[28.90097,41.013904],[28.900852,41.013815],[28.90074,41.013712],[28.900651,41.013602],[28.900454,41.013381],[28.900163,41.013064],[28.900162,41.012759],[28.899937,41.012576],[28.899885,41.012049],[28.899533,41.011605],[28.899235,41.010883],[28.899249,41.010399],[28.899171,41.010218],[28.898543,41.009503],[28.898138,41.009241],[28.897575,41.008352],[28.896617,41.008611],[28.896424,41.008029],[28.896007,41.007819],[28.894846,41.007042],[28.893743,41.008272],[28.893626,41.008471],[28.892801,41.009377],[28.892819,41.009818],[28.893364,41.009762],[28.893294,41.010102],[28.893219,41.010303],[28.893479,41.010646],[28.894133,41.011362],[28.894033,41.011558],[28.893521,41.011473],[28.89385,41.01212],[28.893642,41.012184],[28.893743,41.012377],[28.893312,41.01251],[28.892954,41.012508],[28.8924,41.012511],[28.892293,41.013131],[28.890973,41.017622]]]}}]}