{"type":"FeatureCollection","name":"turkiye_map.dist.mahalle_geometrileri_by_district.TR-D-59-010","features":[{"type":"Feature","properties":{"id":"TR-Y-59-010-M-0001","level":"yerlesim","type":"mahalle","parent_id":"TR-D-59-010","province_id":"TR-P-59","district_id":"TR-D-59-010","name":"100.Yıl","source_raw_name":"100. Yıl Mah.","source":"Kullanıcı tarafından sağlanan KML","source_label":"Kullanıcı tarafından sağlanan KML","source_name":"Tekirdağ Mahalle KML"},"geometry":{"type":"Polygon","coordinates":[[[27.49359,40.97471],[27.5019,40.97671],[27.50163,40.97264],[27.5053,40.97098],[27.48498,40.95762],[27.48266,40.96057],[27.4844,40.9672],[27.48252,40.97586],[27.48735,40.97988],[27.49359,40.97471]]]}},{"type":"Feature","properties":{"id":"TR-Y-59-010-M-0002","level":"yerlesim","type":"mahalle","parent_id":"TR-D-59-010","province_id":"TR-P-59","district_id":"TR-D-59-010","name":"Ahmedikli","source_raw_name":"Ahmedikli Mah.","source":"Kullanıcı tarafından sağlanan KML","source_label":"Kullanıcı tarafından sağlanan KML","source_name":"Tekirdağ Mahalle KML"},"geometry":{"type":"Polygon","coordinates":[[[27.26508,41.03605],[27.29639,41.03985],[27.29965,41.03303],[27.30804,41.02542],[27.30984,41.02228],[27.30632,41.02215],[27.30783,41.01771],[27.29742,41.0176],[27.29733,41.01444],[27.29375,41.01331],[27.28209,41.01454],[27.28103,41.00647],[27.27176,41.00218],[27.27106,41.00365],[27.26673,41.00457],[27.26701,41.00576],[27.26338,41.00749],[27.26369,41.01229],[27.26201,41.01223],[27.2627,41.01637],[27.26042,41.01971],[27.26082,41.02268],[27.26467,41.02675],[27.26508,41.03605]]]}},{"type":"Feature","properties":{"id":"TR-Y-59-010-M-0003","level":"yerlesim","type":"mahalle","parent_id":"TR-D-59-010","province_id":"TR-P-59","district_id":"TR-D-59-010","name":"Ahmetçe","source_raw_name":"Ahmetçe Mah.","source":"Kullanıcı tarafından sağlanan KML","source_label":"Kullanıcı tarafından sağlanan KML","source_name":"Tekirdağ Mahalle KML"},"geometry":{"type":"Polygon","coordinates":[[[27.23843,40.90202],[27.23676,40.89777],[27.23934,40.89338],[27.23731,40.89012],[27.22441,40.88551],[27.21523,40.87493],[27.21638,40.87382],[27.21294,40.87299],[27.21377,40.87181],[27.21052,40.86635],[27.21136,40.86268],[27.20969,40.8612],[27.20979,40.85829],[27.19957,40.86803],[27.17626,40.87409],[27.1685,40.8745],[27.1736,40.8792],[27.17645,40.88739],[27.17845,40.88589],[27.18489,40.89399],[27.18944,40.89658],[27.19809,40.89969],[27.20169,40.89425],[27.20772,40.89343],[27.20879,40.8918],[27.21556,40.89362],[27.22454,40.89353],[27.22499,40.90001],[27.23843,40.90202]]]}},{"type":"Feature","properties":{"id":"TR-Y-59-010-M-0004","level":"yerlesim","type":"mahalle","parent_id":"TR-D-59-010","province_id":"TR-P-59","district_id":"TR-D-59-010","name":"Akçahalil","source_raw_name":"Akçahalil Mah.","source":"Kullanıcı tarafından sağlanan KML","source_label":"Kullanıcı tarafından sağlanan KML","source_name":"Tekirdağ Mahalle KML"},"geometry":{"type":"Polygon","coordinates":[[[27.23113,40.92827],[27.23362,40.92235],[27.23166,40.92085],[27.23235,40.91755],[27.22993,40.91611],[27.2312,40.90987],[27.2303,40.90661],[27.23194,40.90704],[27.23658,40.9022],[27.22499,40.90001],[27.22454,40.89353],[27.21556,40.89362],[27.20879,40.8918],[27.20772,40.89343],[27.20169,40.89425],[27.19809,40.89969],[27.18392,40.89304],[27.18444,40.89438],[27.18233,40.8947],[27.18585,40.89907],[27.1768,40.90038],[27.1753,40.902],[27.17911,40.9028],[27.17764,40.90517],[27.18649,40.91475],[27.18716,40.91768],[27.19242,40.92168],[27.18728,40.91989],[27.18754,40.92235],[27.19467,40.92533],[27.19526,40.92358],[27.1964,40.92408],[27.19654,40.92866],[27.19843,40.92884],[27.19953,40.92664],[27.20512,40.92737],[27.20665,40.92573],[27.21014,40.92773],[27.21136,40.92708],[27.21014,40.92506],[27.21351,40.92661],[27.21507,40.92526],[27.21501,40.92683],[27.21789,40.92426],[27.22001,40.92772],[27.21949,40.9306],[27.23113,40.92827]]]}},{"type":"Feature","properties":{"id":"TR-Y-59-010-M-0005","level":"yerlesim","type":"mahalle","parent_id":"TR-D-59-010","province_id":"TR-P-59","district_id":"TR-D-59-010","name":"Altınova","source_raw_name":"Altınova Mah.","source":"Kullanıcı tarafından sağlanan KML","source_label":"Kullanıcı tarafından sağlanan KML","source_name":"Tekirdağ Mahalle KML"},"geometry":{"type":"Polygon","coordinates":[[[27.48517,40.95758],[27.48828,40.95274],[27.49191,40.95081],[27.48631,40.93874],[27.4825,40.93831],[27.47909,40.94016],[27.45606,40.944],[27.45903,40.94488],[27.46098,40.94914],[27.46577,40.94697],[27.47028,40.94773],[27.48517,40.95758]]]}},{"type":"Feature","properties":{"id":"TR-Y-59-010-M-0006","level":"yerlesim","type":"mahalle","parent_id":"TR-D-59-010","province_id":"TR-P-59","district_id":"TR-D-59-010","name":"Araphacı","source_raw_name":"Araphacı Mah.","source":"Kullanıcı tarafından sağlanan KML","source_label":"Kullanıcı tarafından sağlanan KML","source_name":"Tekirdağ Mahalle KML"},"geometry":{"type":"Polygon","coordinates":[[[27.26893,40.84792],[27.26202,40.8419],[27.26045,40.84317],[27.23748,40.83445],[27.23384,40.83473],[27.23348,40.83969],[27.23162,40.84208],[27.22194,40.84736],[27.22545,40.8479],[27.22254,40.85086],[27.22578,40.85406],[27.22479,40.85451],[27.22845,40.85595],[27.23552,40.85547],[27.25292,40.86101],[27.26674,40.85712],[27.26569,40.85415],[27.26711,40.85365],[27.26893,40.84792]]]}},{"type":"Feature","properties":{"id":"TR-Y-59-010-M-0007","level":"yerlesim","type":"mahalle","parent_id":"TR-D-59-010","province_id":"TR-P-59","district_id":"TR-D-59-010","name":"Aşağıkılıçlı","source_raw_name":"Aşağıkılıçlı Mah.","source":"Kullanıcı tarafından sağlanan KML","source_label":"Kullanıcı tarafından sağlanan KML","source_name":"Tekirdağ Mahalle KML"},"geometry":{"type":"Polygon","coordinates":[[[27.36182,40.96108],[27.36522,40.95608],[27.36767,40.95637],[27.37246,40.95301],[27.37479,40.94886],[27.37501,40.94424],[27.37748,40.94353],[27.37629,40.94344],[27.37641,40.94012],[27.37978,40.93657],[27.37789,40.93521],[27.37824,40.93291],[27.37532,40.92837],[27.3755,40.92438],[27.37057,40.92876],[27.36913,40.93332],[27.35897,40.92872],[27.34937,40.93141],[27.34755,40.92981],[27.345,40.93268],[27.34179,40.93196],[27.33832,40.93347],[27.33993,40.94835],[27.34488,40.95629],[27.36182,40.96108]]]}},{"type":"Feature","properties":{"id":"TR-Y-59-010-M-0008","level":"yerlesim","type":"mahalle","parent_id":"TR-D-59-010","province_id":"TR-P-59","district_id":"TR-D-59-010","name":"Atatürk","source_raw_name":"Atatürk Mah.","source":"Kullanıcı tarafından sağlanan KML","source_label":"Kullanıcı tarafından sağlanan KML","source_name":"Tekirdağ Mahalle KML"},"geometry":{"type":"Polygon","coordinates":[[[27.54594,40.98458],[27.53068,40.98221],[27.52835,40.98554],[27.53334,40.98827],[27.52823,40.99407],[27.52904,40.99809],[27.52249,40.99835],[27.52167,41.00416],[27.53124,41.00641],[27.53793,41.00549],[27.56424,40.99198],[27.54594,40.98458]]]}},{"type":"Feature","properties":{"id":"TR-Y-59-010-M-0009","level":"yerlesim","type":"mahalle","parent_id":"TR-D-59-010","province_id":"TR-P-59","district_id":"TR-D-59-010","name":"Avşar","source_raw_name":"Avşar Mah.","source":"Kullanıcı tarafından sağlanan KML","source_label":"Kullanıcı tarafından sağlanan KML","source_name":"Tekirdağ Mahalle KML"},"geometry":{"type":"Polygon","coordinates":[[[27.39326,40.91438],[27.39177,40.91137],[27.39356,40.91111],[27.39418,40.90905],[27.39066,40.90474],[27.3898,40.90076],[27.38276,40.90366],[27.37715,40.90335],[27.37342,40.89793],[27.37407,40.89181],[27.37159,40.88935],[27.36212,40.89212],[27.35021,40.88972],[27.33992,40.89108],[27.34158,40.899],[27.34685,40.90174],[27.35398,40.90259],[27.36999,40.91117],[27.37628,40.91527],[27.37465,40.9177],[27.3775,40.91926],[27.38687,40.91412],[27.39326,40.91438]]]}},{"type":"Feature","properties":{"id":"TR-Y-59-010-M-0010","level":"yerlesim","type":"mahalle","parent_id":"TR-D-59-010","province_id":"TR-P-59","district_id":"TR-D-59-010","name":"Aydoğdu","source_raw_name":"Aydoğdu Mah.","source":"Kullanıcı tarafından sağlanan KML","source_label":"Kullanıcı tarafından sağlanan KML","source_name":"Tekirdağ Mahalle KML"},"geometry":{"type":"Polygon","coordinates":[[[27.51109,40.97808],[27.5039,40.97715],[27.50028,40.98872],[27.50328,40.98916],[27.51109,40.97808]]]}},{"type":"Feature","properties":{"id":"TR-Y-59-010-M-0011","level":"yerlesim","type":"mahalle","parent_id":"TR-D-59-010","province_id":"TR-P-59","district_id":"TR-D-59-010","name":"Bahçelievler","source_raw_name":"Bahçelievler Mah.","source":"Kullanıcı tarafından sağlanan KML","source_label":"Kullanıcı tarafından sağlanan KML","source_name":"Tekirdağ Mahalle KML"},"geometry":{"type":"Polygon","coordinates":[[[27.63949,41.00377],[27.65363,41.00556],[27.66346,41.0043],[27.66391,41.00557],[27.6731,41.00761],[27.67586,41.01082],[27.68023,41.01001],[27.68748,41.01231],[27.68781,41.01501],[27.70293,41.014],[27.70325,41.009],[27.69785,41.00795],[27.69771,41.00262],[27.68162,41.00394],[27.66887,40.99953],[27.64773,40.99689],[27.62315,40.99054],[27.61538,40.99049],[27.60575,40.98574],[27.59704,40.9865],[27.59474,40.99536],[27.59542,41.007],[27.59244,41.01257],[27.61328,41.01947],[27.62201,41.02003],[27.63555,41.01536],[27.63815,41.01228],[27.63949,41.00377]]]}},{"type":"Feature","properties":{"id":"TR-Y-59-010-M-0012","level":"yerlesim","type":"mahalle","parent_id":"TR-D-59-010","province_id":"TR-P-59","district_id":"TR-D-59-010","name":"Banarlı","source_raw_name":"Banarlı Mah.","source":"Kullanıcı tarafından sağlanan KML","source_label":"Kullanıcı tarafından sağlanan KML","source_name":"Tekirdağ Mahalle KML"},"geometry":{"type":"Polygon","coordinates":[[[27.37084,41.09774],[27.39978,41.07905],[27.3719,41.05895],[27.3682,41.05546],[27.36957,41.05447],[27.3661,41.05043],[27.35803,41.046],[27.36336,41.04274],[27.35719,41.04194],[27.35607,41.043],[27.34844,41.03905],[27.34502,41.04179],[27.3454,41.04377],[27.3437,41.04522],[27.33891,41.0467],[27.32937,41.05406],[27.32166,41.05753],[27.31464,41.05832],[27.30883,41.05635],[27.30535,41.05953],[27.29745,41.05514],[27.29269,41.05969],[27.286,41.06193],[27.2864,41.06297],[27.27726,41.06523],[27.28623,41.0704],[27.28688,41.07535],[27.2932,41.07472],[27.29384,41.07723],[27.31564,41.0916],[27.32005,41.09104],[27.32743,41.09604],[27.32886,41.09471],[27.33458,41.09498],[27.34109,41.09822],[27.34529,41.09729],[27.34637,41.09511],[27.35309,41.09892],[27.37084,41.09774]]]}},{"type":"Feature","properties":{"id":"TR-Y-59-010-M-0013","level":"yerlesim","type":"mahalle","parent_id":"TR-D-59-010","province_id":"TR-P-59","district_id":"TR-D-59-010","name":"Barbaros","source_raw_name":"Barbaros Mah.","source":"Kullanıcı tarafından sağlanan KML","source_label":"Kullanıcı tarafından sağlanan KML","source_name":"Tekirdağ Mahalle KML"},"geometry":{"type":"Polygon","coordinates":[[[27.45479,40.93213],[27.45941,40.92336],[27.45964,40.92011],[27.46682,40.92185],[27.46999,40.91984],[27.47445,40.91966],[27.47026,40.91253],[27.46914,40.90249],[27.4684,40.90454],[27.46719,40.90183],[27.47007,40.90053],[27.47241,40.90264],[27.46746,40.89579],[27.46506,40.89557],[27.46348,40.89818],[27.45779,40.89706],[27.44692,40.88923],[27.4344,40.88398],[27.43435,40.88647],[27.43142,40.88679],[27.43204,40.88913],[27.42654,40.89113],[27.42409,40.89379],[27.42431,40.90038],[27.4274,40.90043],[27.43265,40.9045],[27.43617,40.91023],[27.44124,40.91256],[27.44092,40.92141],[27.43844,40.92599],[27.44223,40.9286],[27.43992,40.93027],[27.43812,40.92918],[27.43781,40.93159],[27.4406,40.93391],[27.44542,40.93486],[27.44241,40.93791],[27.4385,40.9391],[27.43631,40.94228],[27.43708,40.94315],[27.43435,40.94366],[27.44265,40.94612],[27.45479,40.93213]]]}},{"type":"Feature","properties":{"id":"TR-Y-59-010-M-0014","level":"yerlesim","type":"mahalle","parent_id":"TR-D-59-010","province_id":"TR-P-59","district_id":"TR-D-59-010","name":"Bıyıkali","source_raw_name":"Bıyıkali Mah.","source":"Kullanıcı tarafından sağlanan KML","source_label":"Kullanıcı tarafından sağlanan KML","source_name":"Tekirdağ Mahalle KML"},"geometry":{"type":"MultiPolygon","coordinates":[[[[27.39271,41.01028],[27.39629,41.00972],[27.39513,41.00827],[27.39845,41.00842],[27.396,41.00692],[27.39662,41.00541],[27.39397,41.00702],[27.39271,41.01028]]],[[[27.35658,41.04245],[27.3639,41.0427],[27.36889,41.04022],[27.37061,41.03666],[27.37295,41.03695],[27.37139,41.03364],[27.37428,41.03166],[27.3744,41.02953],[27.37896,41.02769],[27.37934,41.02596],[27.39342,41.03037],[27.40216,41.02991],[27.39286,41.02537],[27.39531,41.02133],[27.3985,41.02165],[27.40164,41.01988],[27.40081,41.0131],[27.39298,41.01125],[27.39146,41.01348],[27.38695,41.01276],[27.39112,41.00544],[27.38426,41.00117],[27.38248,40.9958],[27.3725,40.99032],[27.36665,40.99124],[27.36445,40.99261],[27.36577,40.99597],[27.35961,40.99707],[27.36088,40.99843],[27.35919,41.00082],[27.36045,41.00218],[27.3517,41.01069],[27.34803,41.01908],[27.34944,41.02447],[27.3471,41.02539],[27.35198,41.02959],[27.35277,41.03512],[27.34844,41.03905],[27.35658,41.04245]]]]}},{"type":"Feature","properties":{"id":"TR-Y-59-010-M-0015","level":"yerlesim","type":"mahalle","parent_id":"TR-D-59-010","province_id":"TR-P-59","district_id":"TR-D-59-010","name":"Çanakçı","source_raw_name":"Çanakçı Mah.","source":"Kullanıcı tarafından sağlanan KML","source_label":"Kullanıcı tarafından sağlanan KML","source_name":"Tekirdağ Mahalle KML"},"geometry":{"type":"Polygon","coordinates":[[[27.38181,40.90367],[27.39227,40.9008],[27.39061,40.89457],[27.39692,40.88764],[27.39341,40.88257],[27.39406,40.88143],[27.38944,40.87908],[27.37907,40.87792],[27.37558,40.87579],[27.36581,40.87537],[27.35392,40.87747],[27.34616,40.87356],[27.34849,40.87861],[27.3427,40.88031],[27.33992,40.89108],[27.35021,40.88972],[27.36212,40.89212],[27.37159,40.88935],[27.37407,40.89181],[27.37327,40.89752],[27.37689,40.90309],[27.38181,40.90367]]]}},{"type":"Feature","properties":{"id":"TR-Y-59-010-M-0016","level":"yerlesim","type":"mahalle","parent_id":"TR-D-59-010","province_id":"TR-P-59","district_id":"TR-D-59-010","name":"Çiftlikönü","source_raw_name":"Çiftlikönü Mah.","source":"Kullanıcı tarafından sağlanan KML","source_label":"Kullanıcı tarafından sağlanan KML","source_name":"Tekirdağ Mahalle KML"},"geometry":{"type":"Polygon","coordinates":[[[27.53056,40.98242],[27.52984,40.97965],[27.51858,40.97718],[27.51761,40.98605],[27.52249,40.99835],[27.52904,40.99809],[27.52823,40.99407],[27.53334,40.98827],[27.52835,40.98554],[27.53056,40.98242]]]}},{"type":"Feature","properties":{"id":"TR-Y-59-010-M-0017","level":"yerlesim","type":"mahalle","parent_id":"TR-D-59-010","province_id":"TR-P-59","district_id":"TR-D-59-010","name":"Çınarlı","source_raw_name":"Çınarlı Mah.","source":"Kullanıcı tarafından sağlanan KML","source_label":"Kullanıcı tarafından sağlanan KML","source_name":"Tekirdağ Mahalle KML"},"geometry":{"type":"Polygon","coordinates":[[[27.50028,40.98872],[27.5039,40.97715],[27.49439,40.97477],[27.4919,40.97512],[27.48735,40.97988],[27.50028,40.98872]]]}},{"type":"Feature","properties":{"id":"TR-Y-59-010-M-0018","level":"yerlesim","type":"mahalle","parent_id":"TR-D-59-010","province_id":"TR-P-59","district_id":"TR-D-59-010","name":"Cumhuriyet","source_raw_name":"Cumhuriyet Mah.","source":"Kullanıcı tarafından sağlanan KML","source_label":"Kullanıcı tarafından sağlanan KML","source_name":"Tekirdağ Mahalle KML"},"geometry":{"type":"Polygon","coordinates":[[[27.56817,40.98075],[27.56056,40.98132],[27.55062,40.97734],[27.54194,40.97671],[27.53068,40.97832],[27.52633,40.97724],[27.52617,40.97488],[27.52274,40.97388],[27.52237,40.97412],[27.52589,40.97511],[27.52587,40.97681],[27.5232,40.97675],[27.52361,40.97506],[27.52276,40.97657],[27.5165,40.97521],[27.51652,40.97263],[27.51618,40.975],[27.5142,40.97403],[27.51561,40.97563],[27.51389,40.9754],[27.52645,40.97955],[27.54491,40.97866],[27.55762,40.98306],[27.56815,40.98249],[27.57476,40.98866],[27.57699,40.98444],[27.56817,40.98075]]]}},{"type":"Feature","properties":{"id":"TR-Y-59-010-M-0019","level":"yerlesim","type":"mahalle","parent_id":"TR-D-59-010","province_id":"TR-P-59","district_id":"TR-D-59-010","name":"Dedecik","source_raw_name":"Dedecik Mah.","source":"Kullanıcı tarafından sağlanan KML","source_label":"Kullanıcı tarafından sağlanan KML","source_name":"Tekirdağ Mahalle KML"},"geometry":{"type":"Polygon","coordinates":[[[27.16303,40.98859],[27.16625,40.98971],[27.16934,40.98558],[27.16608,40.98362],[27.16748,40.98151],[27.16652,40.97814],[27.17265,40.97754],[27.18147,40.97373],[27.17689,40.97299],[27.1782,40.97076],[27.17585,40.96992],[27.17688,40.96762],[27.17975,40.96852],[27.17996,40.96504],[27.18258,40.96482],[27.18208,40.96062],[27.17513,40.95551],[27.16216,40.95117],[27.15735,40.95084],[27.1568,40.95336],[27.15368,40.95372],[27.15113,40.95174],[27.15346,40.95058],[27.14909,40.94728],[27.14858,40.94195],[27.14488,40.94102],[27.14541,40.94861],[27.1408,40.9492],[27.14077,40.94756],[27.13875,40.94788],[27.13642,40.95066],[27.13957,40.95586],[27.13462,40.95491],[27.13239,40.95799],[27.13461,40.96011],[27.13879,40.9716],[27.1254,40.97883],[27.12775,40.98344],[27.13694,40.98293],[27.14177,40.98152],[27.142,40.97901],[27.14623,40.9802],[27.14806,40.97909],[27.15647,40.98483],[27.15835,40.988],[27.16127,40.98798],[27.16158,40.98985],[27.16303,40.98859]]]}},{"type":"Feature","properties":{"id":"TR-Y-59-010-M-0020","level":"yerlesim","type":"mahalle","parent_id":"TR-D-59-010","province_id":"TR-P-59","district_id":"TR-D-59-010","name":"Değirmenaltı","source_raw_name":"Değirmenaltı Mah.","source":"Kullanıcı tarafından sağlanan KML","source_label":"Kullanıcı tarafından sağlanan KML","source_name":"Tekirdağ Mahalle KML"},"geometry":{"type":"Polygon","coordinates":[[[27.58858,40.98737],[27.5966,40.98809],[27.59704,40.9865],[27.58489,40.98302],[27.57569,40.98562],[27.57474,40.98869],[27.58858,40.98737]]]}},{"type":"Feature","properties":{"id":"TR-Y-59-010-M-0021","level":"yerlesim","type":"mahalle","parent_id":"TR-D-59-010","province_id":"TR-P-59","district_id":"TR-D-59-010","name":"Demirli","source_raw_name":"Demirli Mah.","source":"Kullanıcı tarafından sağlanan KML","source_label":"Kullanıcı tarafından sağlanan KML","source_name":"Tekirdağ Mahalle KML"},"geometry":{"type":"Polygon","coordinates":[[[27.34502,41.04179],[27.35192,41.03554],[27.35148,41.03435],[27.34573,41.03212],[27.33975,41.03377],[27.33966,41.03125],[27.334,41.0314],[27.32004,41.01429],[27.31082,41.01985],[27.30804,41.02542],[27.30065,41.03184],[27.29609,41.04051],[27.29302,41.04281],[27.30042,41.05058],[27.29745,41.05514],[27.30656,41.05948],[27.30883,41.05635],[27.317,41.05837],[27.32862,41.05442],[27.33891,41.0467],[27.3437,41.04522],[27.3454,41.04377],[27.34502,41.04179]]]}},{"type":"Feature","properties":{"id":"TR-Y-59-010-M-0023","level":"yerlesim","type":"mahalle","parent_id":"TR-D-59-010","province_id":"TR-P-59","district_id":"TR-D-59-010","name":"Ertuğrul","source_raw_name":"Ertuğrul Mah.","source":"Kullanıcı tarafından sağlanan KML","source_label":"Kullanıcı tarafından sağlanan KML","source_name":"Tekirdağ Mahalle KML"},"geometry":{"type":"Polygon","coordinates":[[[27.51874,40.97726],[27.50691,40.97113],[27.51083,40.97797],[27.51874,40.97726]]]}},{"type":"Feature","properties":{"id":"TR-Y-59-010-M-0024","level":"yerlesim","type":"mahalle","parent_id":"TR-D-59-010","province_id":"TR-P-59","district_id":"TR-D-59-010","name":"Evciler","source_raw_name":"Evciler Mah.","source":"Kullanıcı tarafından sağlanan KML","source_label":"Kullanıcı tarafından sağlanan KML","source_name":"Tekirdağ Mahalle KML"},"geometry":{"type":"Polygon","coordinates":[[[27.18371,40.95898],[27.18746,40.96033],[27.18829,40.958],[27.19082,40.95733],[27.19148,40.95392],[27.18838,40.95165],[27.19092,40.95061],[27.18213,40.94606],[27.18287,40.94508],[27.17046,40.93307],[27.17577,40.93006],[27.17594,40.92746],[27.16008,40.92989],[27.15341,40.92706],[27.14841,40.92844],[27.1378,40.92384],[27.13952,40.92954],[27.14241,40.9321],[27.14118,40.93305],[27.14439,40.94126],[27.14803,40.9412],[27.14909,40.94728],[27.15346,40.95058],[27.15113,40.95174],[27.15368,40.95372],[27.1568,40.95336],[27.15735,40.95084],[27.16216,40.95117],[27.17513,40.95551],[27.18208,40.96062],[27.18371,40.95898]]]}},{"type":"Feature","properties":{"id":"TR-Y-59-010-M-0025","level":"yerlesim","type":"mahalle","parent_id":"TR-D-59-010","province_id":"TR-P-59","district_id":"TR-D-59-010","name":"Ferhadanlı","source_raw_name":"Ferhadanlı Mah.","source":"Kullanıcı tarafından sağlanan KML","source_label":"Kullanıcı tarafından sağlanan KML","source_name":"Tekirdağ Mahalle KML"},"geometry":{"type":"Polygon","coordinates":[[[27.32004,41.01429],[27.32277,41.00655],[27.32625,41.00187],[27.33542,40.99901],[27.33338,40.99724],[27.33611,40.99661],[27.33555,40.99514],[27.33985,40.99455],[27.33829,40.99301],[27.33926,40.99233],[27.34273,40.99212],[27.34024,40.98685],[27.33805,40.98596],[27.33643,40.98065],[27.33415,40.97965],[27.33181,40.982],[27.32923,40.9812],[27.32125,40.97579],[27.31978,40.97614],[27.31962,40.97476],[27.31582,40.97635],[27.32042,40.96476],[27.31465,40.96364],[27.30868,40.96662],[27.30722,40.97241],[27.30063,40.97032],[27.29936,40.96734],[27.29468,40.96521],[27.29455,40.96991],[27.28775,40.96789],[27.28835,40.96968],[27.28655,40.97057],[27.28125,40.96799],[27.28,40.97069],[27.2731,40.967],[27.2696,40.96984],[27.26608,40.96757],[27.25949,40.96859],[27.25758,40.973],[27.25806,40.9758],[27.26313,40.9812],[27.26608,40.98051],[27.26926,40.98696],[27.26781,40.99136],[27.26263,40.99585],[27.26951,41.00011],[27.27104,41.0028],[27.28103,41.00647],[27.28191,41.01448],[27.29384,41.01332],[27.29733,41.01444],[27.29742,41.0176],[27.30773,41.01761],[27.30637,41.02221],[27.30984,41.02228],[27.32004,41.01429]],[[27.32446,40.98658],[27.3271,40.98443],[27.33197,40.98699],[27.3375,40.98688],[27.33084,40.98925],[27.3279,40.98873],[27.32682,40.99054],[27.32446,40.98658]],[[27.29748,40.98837],[27.29742,40.98808],[27.29787,40.98804],[27.29748,40.98837]]]}},{"type":"Feature","properties":{"id":"TR-Y-59-010-M-0026","level":"yerlesim","type":"mahalle","parent_id":"TR-D-59-010","province_id":"TR-P-59","district_id":"TR-D-59-010","name":"Gazioğlu","source_raw_name":"Gazioğlu Mah.","source":"Kullanıcı tarafından sağlanan KML","source_label":"Kullanıcı tarafından sağlanan KML","source_name":"Tekirdağ Mahalle KML"},"geometry":{"type":"Polygon","coordinates":[[[27.62746,41.04682],[27.64797,41.04179],[27.64805,41.03836],[27.65103,41.03797],[27.65063,41.03355],[27.64801,41.0331],[27.64859,41.02723],[27.64557,41.02641],[27.64557,41.00497],[27.63949,41.00377],[27.63725,41.01386],[27.62855,41.01867],[27.61813,41.02036],[27.60419,41.01606],[27.60309,41.01708],[27.60239,41.02122],[27.60536,41.02301],[27.6057,41.02528],[27.60794,41.02539],[27.60863,41.03129],[27.62375,41.03323],[27.62792,41.0357],[27.62793,41.03908],[27.63044,41.04067],[27.62778,41.04377],[27.62746,41.04682]]]}},{"type":"Feature","properties":{"id":"TR-Y-59-010-M-0027","level":"yerlesim","type":"mahalle","parent_id":"TR-D-59-010","province_id":"TR-P-59","district_id":"TR-D-59-010","name":"Generli","source_raw_name":"Generli Mah.","source":"Kullanıcı tarafından sağlanan KML","source_label":"Kullanıcı tarafından sağlanan KML","source_name":"Tekirdağ Mahalle KML"},"geometry":{"type":"Polygon","coordinates":[[[27.16745,41.01435],[27.16845,41.01195],[27.16743,41.00643],[27.17012,41.00656],[27.16916,41.0052],[27.17121,41.00106],[27.16856,40.99029],[27.16363,40.98835],[27.16158,40.98985],[27.16127,40.98798],[27.15835,40.988],[27.15647,40.98483],[27.14806,40.97909],[27.14623,40.9802],[27.142,40.97901],[27.14177,40.98152],[27.13694,40.98293],[27.119,40.98465],[27.11378,40.98813],[27.10834,40.98535],[27.1023,40.98455],[27.09801,40.98644],[27.0978,40.9881],[27.1038,40.9918],[27.11124,40.99218],[27.11721,40.99529],[27.11809,40.99834],[27.12395,41.00179],[27.1227,41.00308],[27.12995,41.00811],[27.13069,41.00627],[27.13605,41.00698],[27.13785,41.00574],[27.14048,41.00822],[27.15163,41.01244],[27.16745,41.01435]]]}},{"type":"Feature","properties":{"id":"TR-Y-59-010-M-0028","level":"yerlesim","type":"mahalle","parent_id":"TR-D-59-010","province_id":"TR-P-59","district_id":"TR-D-59-010","name":"Gündüzlü","source_raw_name":"Gündüzlü Mah.","source":"Kullanıcı tarafından sağlanan KML","source_label":"Kullanıcı tarafından sağlanan KML","source_name":"Tekirdağ Mahalle KML"},"geometry":{"type":"Polygon","coordinates":[[[27.53088,41.09825],[27.5335,41.09395],[27.52693,41.08629],[27.53503,41.08286],[27.53146,41.08147],[27.52787,41.08304],[27.52681,41.07966],[27.52531,41.06985],[27.52824,41.06439],[27.529,41.05501],[27.51986,41.05573],[27.5116,41.05176],[27.5075,41.04604],[27.50613,41.03957],[27.50283,41.04151],[27.49741,41.03817],[27.49299,41.03971],[27.49024,41.03871],[27.47827,41.04378],[27.4745,41.05045],[27.47736,41.05558],[27.47761,41.06172],[27.47589,41.06366],[27.47931,41.06882],[27.47465,41.07506],[27.47531,41.07969],[27.47115,41.08641],[27.47156,41.08807],[27.47975,41.08881],[27.48579,41.09116],[27.48602,41.09287],[27.49149,41.09264],[27.49372,41.09544],[27.49604,41.09472],[27.49642,41.09768],[27.49919,41.09661],[27.50135,41.09318],[27.50854,41.09062],[27.51006,41.09512],[27.51393,41.09393],[27.51677,41.09789],[27.51858,41.0974],[27.5171,41.09488],[27.52309,41.09287],[27.52442,41.09998],[27.52156,41.10238],[27.53088,41.09825]]]}},{"type":"Feature","properties":{"id":"TR-Y-59-010-M-0030","level":"yerlesim","type":"mahalle","parent_id":"TR-D-59-010","province_id":"TR-P-59","district_id":"TR-D-59-010","name":"Hacıköy","source_raw_name":"Hacıköy Mah.","source":"Kullanıcı tarafından sağlanan KML","source_label":"Kullanıcı tarafından sağlanan KML","source_name":"Tekirdağ Mahalle KML"},"geometry":{"type":"Polygon","coordinates":[[[27.35192,41.03554],[27.35198,41.02959],[27.3471,41.02539],[27.34944,41.02447],[27.34803,41.01908],[27.3517,41.01069],[27.36045,41.00218],[27.35919,41.00082],[27.36092,40.99876],[27.35667,40.99441],[27.35847,40.99238],[27.3544,40.99332],[27.34668,40.98843],[27.344,40.99064],[27.34209,40.98982],[27.34273,40.99212],[27.33829,40.99301],[27.33985,40.99455],[27.33555,40.99514],[27.33611,40.99661],[27.33338,40.99724],[27.33542,40.99901],[27.32625,41.00187],[27.32277,41.00655],[27.32004,41.01429],[27.334,41.0314],[27.33966,41.03125],[27.33975,41.03377],[27.34573,41.03212],[27.35192,41.03554]]]}},{"type":"Feature","properties":{"id":"TR-Y-59-010-M-0031","level":"yerlesim","type":"mahalle","parent_id":"TR-D-59-010","province_id":"TR-P-59","district_id":"TR-D-59-010","name":"Hürriyet","source_raw_name":"Hürriyet Mah.","source":"Kullanıcı tarafından sağlanan KML","source_label":"Kullanıcı tarafından sağlanan KML","source_name":"Tekirdağ Mahalle KML"},"geometry":{"type":"Polygon","coordinates":[[[27.56431,40.99198],[27.57476,40.98866],[27.56815,40.98249],[27.55762,40.98306],[27.54491,40.97866],[27.52984,40.97965],[27.52989,40.98217],[27.54594,40.98458],[27.56431,40.99198]]]}},{"type":"Feature","properties":{"id":"TR-Y-59-010-M-0032","level":"yerlesim","type":"mahalle","parent_id":"TR-D-59-010","province_id":"TR-P-59","district_id":"TR-D-59-010","name":"Hüsünlü","source_raw_name":"Husunlu Mah.","source":"Kullanıcı tarafından sağlanan KML","source_label":"Kullanıcı tarafından sağlanan KML","source_name":"Tekirdağ Mahalle KML"},"geometry":{"type":"Polygon","coordinates":[[[27.62345,41.07502],[27.62539,41.07081],[27.63065,41.06846],[27.64166,41.05862],[27.65301,41.05581],[27.64976,41.04551],[27.6455,41.04204],[27.62751,41.04684],[27.62778,41.04377],[27.63044,41.04067],[27.62793,41.03908],[27.62792,41.0357],[27.62375,41.03323],[27.60948,41.03164],[27.60832,41.02885],[27.59716,41.0319],[27.59342,41.03101],[27.59259,41.03269],[27.58938,41.03169],[27.58451,41.04285],[27.59372,41.057],[27.59341,41.05925],[27.58937,41.06237],[27.59131,41.06236],[27.59004,41.0653],[27.59408,41.06737],[27.59623,41.06748],[27.59539,41.06605],[27.59725,41.06497],[27.59746,41.06649],[27.60571,41.06706],[27.61396,41.07254],[27.61772,41.07064],[27.61689,41.07317],[27.62345,41.07502]]]}},{"type":"Feature","properties":{"id":"TR-Y-59-010-M-0033","level":"yerlesim","type":"mahalle","parent_id":"TR-D-59-010","province_id":"TR-P-59","district_id":"TR-D-59-010","name":"İnecik","source_raw_name":"İnecik Mah.","source":"Kullanıcı tarafından sağlanan KML","source_label":"Kullanıcı tarafından sağlanan KML","source_name":"Tekirdağ Mahalle KML"},"geometry":{"type":"Polygon","coordinates":[[[27.28105,40.96831],[27.28655,40.97057],[27.28835,40.96968],[27.28775,40.96789],[27.29455,40.96991],[27.29468,40.96521],[27.29082,40.96256],[27.29114,40.95521],[27.29947,40.95671],[27.30409,40.95569],[27.30246,40.9491],[27.30624,40.94904],[27.30623,40.94628],[27.30246,40.94628],[27.29748,40.93993],[27.30008,40.93888],[27.3034,40.94],[27.302,40.93802],[27.30447,40.93676],[27.30149,40.93522],[27.30189,40.93201],[27.31273,40.92313],[27.30914,40.91934],[27.3106,40.91851],[27.30168,40.91609],[27.29876,40.91284],[27.29522,40.91213],[27.30677,40.90308],[27.30634,40.89819],[27.29455,40.89011],[27.29247,40.89153],[27.28871,40.90041],[27.2831,40.89769],[27.28081,40.89998],[27.27241,40.90031],[27.26301,40.90607],[27.25173,40.90233],[27.24277,40.908],[27.23843,40.90202],[27.23702,40.9021],[27.23194,40.90704],[27.2303,40.90661],[27.2312,40.90987],[27.22993,40.91611],[27.23235,40.91755],[27.23166,40.92085],[27.23357,40.92311],[27.23124,40.92829],[27.21947,40.93128],[27.23016,40.93796],[27.23242,40.94101],[27.23601,40.93952],[27.2492,40.95268],[27.24532,40.95464],[27.24615,40.95669],[27.24346,40.96132],[27.25192,40.96296],[27.26062,40.9694],[27.26608,40.96757],[27.2696,40.96984],[27.2731,40.967],[27.28,40.97069],[27.28105,40.96831]]]}},{"type":"Feature","properties":{"id":"TR-Y-59-010-M-0034","level":"yerlesim","type":"mahalle","parent_id":"TR-D-59-010","province_id":"TR-P-59","district_id":"TR-D-59-010","name":"Işıklar","source_raw_name":"Işıklar Mah.","source":"Kullanıcı tarafından sağlanan KML","source_label":"Kullanıcı tarafından sağlanan KML","source_name":"Tekirdağ Mahalle KML"},"geometry":{"type":"Polygon","coordinates":[[[27.34049,40.896],[27.33973,40.8903],[27.34268,40.88036],[27.34852,40.87851],[27.34616,40.87356],[27.3558,40.87754],[27.37186,40.87323],[27.37098,40.8675],[27.37443,40.86563],[27.3758,40.86112],[27.36692,40.85724],[27.36298,40.85036],[27.36397,40.84836],[27.36196,40.84429],[27.36329,40.84097],[27.36218,40.83957],[27.36516,40.8342],[27.36867,40.83218],[27.3692,40.82861],[27.37574,40.82012],[27.38446,40.81766],[27.38228,40.81462],[27.35852,40.81883],[27.34569,40.81646],[27.32854,40.8152],[27.32483,40.81627],[27.32247,40.8255],[27.32057,40.82608],[27.30887,40.84044],[27.30725,40.84639],[27.30873,40.84875],[27.30556,40.85166],[27.30968,40.86017],[27.31213,40.85849],[27.32222,40.85944],[27.32496,40.8573],[27.33306,40.8625],[27.32814,40.88101],[27.3199,40.88712],[27.33235,40.89521],[27.34049,40.896]]]}},{"type":"Feature","properties":{"id":"TR-Y-59-010-M-0035","level":"yerlesim","type":"mahalle","parent_id":"TR-D-59-010","province_id":"TR-P-59","district_id":"TR-D-59-010","name":"İstiklal","source_raw_name":"İstiklal Mah.","source":"Kullanıcı tarafından sağlanan KML","source_label":"Kullanıcı tarafından sağlanan KML","source_name":"Tekirdağ Mahalle KML"},"geometry":{"type":"Polygon","coordinates":[[[27.51121,41.02299],[27.51812,41.02164],[27.52149,41.01097],[27.52969,41.01233],[27.53847,41.00924],[27.54408,41.01428],[27.55002,41.00756],[27.5556,41.00925],[27.55713,41.0122],[27.56334,41.01228],[27.56258,41.00859],[27.56624,41.00328],[27.5674,40.99644],[27.57415,40.98982],[27.56424,40.99198],[27.54042,41.0046],[27.53124,41.00641],[27.52053,41.00354],[27.4975,40.98682],[27.49074,40.99321],[27.49378,40.99817],[27.49088,40.99914],[27.49112,41.00033],[27.49491,41.00359],[27.49228,41.00862],[27.49164,41.02238],[27.50278,41.0217],[27.51121,41.02299]]]}},{"type":"Feature","properties":{"id":"TR-Y-59-010-M-0036","level":"yerlesim","type":"mahalle","parent_id":"TR-D-59-010","province_id":"TR-P-59","district_id":"TR-D-59-010","name":"Karabezirgan","source_raw_name":"Karabezirgan Mah.","source":"Kullanıcı tarafından sağlanan KML","source_label":"Kullanıcı tarafından sağlanan KML","source_name":"Tekirdağ Mahalle KML"},"geometry":{"type":"Polygon","coordinates":[[[27.27437,41.1057],[27.28198,41.10458],[27.28523,41.10783],[27.29292,41.10429],[27.29185,41.10352],[27.29766,41.10056],[27.30699,41.09203],[27.31158,41.09486],[27.31407,41.09083],[27.29384,41.07723],[27.2932,41.07472],[27.28688,41.07535],[27.28623,41.07245],[27.28109,41.07429],[27.28085,41.07187],[27.27319,41.0738],[27.27304,41.07623],[27.26755,41.07759],[27.26941,41.07822],[27.26699,41.0789],[27.26759,41.08122],[27.26079,41.08502],[27.25617,41.08579],[27.26217,41.089],[27.26354,41.09109],[27.26099,41.0918],[27.26455,41.09481],[27.26021,41.0986],[27.25667,41.09955],[27.25769,41.10107],[27.24948,41.11245],[27.25646,41.11602],[27.26125,41.11074],[27.27437,41.1057]]]}},{"type":"Feature","properties":{"id":"TR-Y-59-010-M-0037","level":"yerlesim","type":"mahalle","parent_id":"TR-D-59-010","province_id":"TR-P-59","district_id":"TR-D-59-010","name":"Karacakılavuz","source_raw_name":"Karacakılavuz Mah.","source":"Kullanıcı tarafından sağlanan KML","source_label":"Kullanıcı tarafından sağlanan KML","source_name":"Tekirdağ Mahalle KML"},"geometry":{"type":"Polygon","coordinates":[[[27.37672,41.17763],[27.38184,41.17554],[27.38152,41.17233],[27.38322,41.17155],[27.38266,41.16907],[27.3859,41.16411],[27.38476,41.16269],[27.38754,41.15908],[27.38798,41.15474],[27.39672,41.14741],[27.39847,41.1424],[27.41526,41.14947],[27.42539,41.13716],[27.41511,41.13141],[27.40544,41.13358],[27.4035,41.12753],[27.40357,41.12257],[27.40498,41.12118],[27.404,41.12022],[27.40807,41.11504],[27.41038,41.10446],[27.41397,41.09787],[27.40739,41.0937],[27.42,41.08103],[27.39976,41.07922],[27.38443,41.08778],[27.375,41.09544],[27.36774,41.09862],[27.35309,41.09892],[27.34637,41.09511],[27.34529,41.09729],[27.34109,41.09822],[27.33458,41.09498],[27.32886,41.09471],[27.32743,41.09604],[27.31918,41.09082],[27.31385,41.09363],[27.31842,41.09649],[27.31321,41.09855],[27.311,41.09694],[27.30784,41.09996],[27.30964,41.1025],[27.31945,41.10713],[27.32177,41.11018],[27.31961,41.11378],[27.32414,41.11562],[27.32363,41.11741],[27.33401,41.12417],[27.31843,41.13073],[27.29945,41.13259],[27.29622,41.13423],[27.29896,41.13756],[27.3007,41.14515],[27.30664,41.1519],[27.30945,41.14948],[27.31897,41.1607],[27.32824,41.15796],[27.33193,41.1604],[27.33148,41.15872],[27.33333,41.15838],[27.34557,41.16609],[27.35252,41.16709],[27.37672,41.17763]],[[27.36202,41.11983],[27.35638,41.11789],[27.3626,41.11216],[27.36542,41.10706],[27.36803,41.10662],[27.36565,41.10765],[27.3665,41.10896],[27.36239,41.1149],[27.36373,41.11616],[27.36148,41.11568],[27.35968,41.11824],[27.36202,41.11983]]]}},{"type":"Feature","properties":{"id":"TR-Y-59-010-M-0038","level":"yerlesim","type":"mahalle","parent_id":"TR-D-59-010","province_id":"TR-P-59","district_id":"TR-D-59-010","name":"Karaçalı","source_raw_name":"Karaçalı Mah.","source":"Kullanıcı tarafından sağlanan KML","source_label":"Kullanıcı tarafından sağlanan KML","source_name":"Tekirdağ Mahalle KML"},"geometry":{"type":"Polygon","coordinates":[[[27.28871,40.90041],[27.29247,40.89153],[27.29544,40.8901],[27.29353,40.88832],[27.29608,40.8865],[27.28933,40.88422],[27.28924,40.88202],[27.28464,40.88012],[27.27807,40.88076],[27.27122,40.88353],[27.26986,40.88696],[27.26352,40.88259],[27.25074,40.87829],[27.253,40.88789],[27.25771,40.89035],[27.26045,40.89384],[27.26125,40.89198],[27.27757,40.89533],[27.27711,40.89657],[27.28081,40.89998],[27.2831,40.89769],[27.28871,40.90041]]]}},{"type":"Feature","properties":{"id":"TR-Y-59-010-M-0039","level":"yerlesim","type":"mahalle","parent_id":"TR-D-59-010","province_id":"TR-P-59","district_id":"TR-D-59-010","name":"Karadeniz","source_raw_name":"Karadeniz Mah.","source":"Kullanıcı tarafından sağlanan KML","source_label":"Kullanıcı tarafından sağlanan KML","source_name":"Tekirdağ Mahalle KML"},"geometry":{"type":"Polygon","coordinates":[[[27.49228,41.00862],[27.49491,41.00359],[27.49112,41.00033],[27.49088,40.99914],[27.49378,40.99817],[27.49074,40.99321],[27.4975,40.98682],[27.48346,40.97714],[27.48237,40.97324],[27.47296,40.96956],[27.45821,40.96524],[27.45088,40.96796],[27.44733,40.96656],[27.43784,40.96696],[27.4379,40.97013],[27.43422,40.97288],[27.44416,40.97588],[27.44862,40.98018],[27.45966,40.97741],[27.4602,40.98089],[27.46464,40.98749],[27.46439,40.99204],[27.45874,41.00181],[27.46014,41.01132],[27.45561,41.0138],[27.45567,41.01629],[27.4623,41.01952],[27.47962,41.02106],[27.48104,41.02281],[27.49021,41.02514],[27.49228,41.00862]]]}},{"type":"Feature","properties":{"id":"TR-Y-59-010-M-0040","level":"yerlesim","type":"mahalle","parent_id":"TR-D-59-010","province_id":"TR-P-59","district_id":"TR-D-59-010","name":"Karaevli","source_raw_name":"Karaevli Mah.","source":"Kullanıcı tarafından sağlanan KML","source_label":"Kullanıcı tarafından sağlanan KML","source_name":"Tekirdağ Mahalle KML"},"geometry":{"type":"Polygon","coordinates":[[[27.70255,41.06421],[27.70162,41.06309],[27.70713,41.05788],[27.70255,41.05347],[27.70662,41.05339],[27.70001,41.04607],[27.70589,41.04687],[27.70877,41.03821],[27.70293,41.014],[27.68781,41.01501],[27.68748,41.01231],[27.68023,41.01001],[27.67586,41.01082],[27.6731,41.00761],[27.66391,41.00557],[27.66346,41.0043],[27.65363,41.00556],[27.64554,41.00401],[27.64557,41.02641],[27.64859,41.02723],[27.64801,41.0331],[27.65063,41.03355],[27.65103,41.03797],[27.64805,41.03836],[27.64797,41.04179],[27.6455,41.04204],[27.65015,41.04621],[27.65234,41.05484],[27.67414,41.05684],[27.6771,41.05562],[27.67837,41.05676],[27.68114,41.0558],[27.68397,41.05189],[27.69044,41.06878],[27.70255,41.06421]]]}},{"type":"Feature","properties":{"id":"TR-Y-59-010-M-0041","level":"yerlesim","type":"mahalle","parent_id":"TR-D-59-010","province_id":"TR-P-59","district_id":"TR-D-59-010","name":"Karahalil","source_raw_name":"Karahalil Mah.","source":"Kullanıcı tarafından sağlanan KML","source_label":"Kullanıcı tarafından sağlanan KML","source_name":"Tekirdağ Mahalle KML"},"geometry":{"type":"Polygon","coordinates":[[[27.30088,41.13265],[27.32205,41.12958],[27.33401,41.12417],[27.32363,41.11741],[27.32414,41.11562],[27.31961,41.11378],[27.32177,41.11018],[27.31945,41.10713],[27.3077,41.10077],[27.311,41.09694],[27.31321,41.09855],[27.31842,41.09649],[27.31385,41.09363],[27.3188,41.09117],[27.31407,41.09083],[27.31158,41.09486],[27.30699,41.09203],[27.29766,41.10056],[27.29185,41.10352],[27.29292,41.10429],[27.28523,41.10783],[27.28663,41.10905],[27.28406,41.11026],[27.28627,41.11279],[27.28242,41.11382],[27.29074,41.11775],[27.28832,41.11908],[27.29054,41.12915],[27.30088,41.13265]]]}},{"type":"Feature","properties":{"id":"TR-Y-59-010-M-0042","level":"yerlesim","type":"mahalle","parent_id":"TR-D-59-010","province_id":"TR-P-59","district_id":"TR-D-59-010","name":"Karahisarlı","source_raw_name":"Karahisarlı Mah.","source":"Kullanıcı tarafından sağlanan KML","source_label":"Kullanıcı tarafından sağlanan KML","source_name":"Tekirdağ Mahalle KML"},"geometry":{"type":"Polygon","coordinates":[[[27.39803,40.97178],[27.40429,40.96921],[27.40244,40.96767],[27.40104,40.96907],[27.39596,40.96727],[27.39575,40.9634],[27.41352,40.95871],[27.41169,40.95779],[27.41564,40.95635],[27.40929,40.95321],[27.4026,40.9429],[27.39766,40.93896],[27.39694,40.93443],[27.39446,40.93413],[27.38673,40.92792],[27.3824,40.92778],[27.37616,40.92368],[27.37532,40.92837],[27.37824,40.93291],[27.37789,40.93521],[27.37978,40.93657],[27.37641,40.94012],[27.37629,40.94344],[27.37748,40.94353],[27.37501,40.94424],[27.37479,40.94886],[27.37246,40.95301],[27.36767,40.95637],[27.36522,40.95608],[27.36182,40.96108],[27.38849,40.96933],[27.39598,40.9742],[27.39803,40.97178]]]}},{"type":"Feature","properties":{"id":"TR-Y-59-010-M-0043","level":"yerlesim","type":"mahalle","parent_id":"TR-D-59-010","province_id":"TR-P-59","district_id":"TR-D-59-010","name":"Karansıllı","source_raw_name":"Karansıllı Mah.","source":"Kullanıcı tarafından sağlanan KML","source_label":"Kullanıcı tarafından sağlanan KML","source_name":"Tekirdağ Mahalle KML"},"geometry":{"type":"Polygon","coordinates":[[[27.17926,40.97472],[27.20231,40.97573],[27.20524,40.97007],[27.20981,40.97038],[27.19756,40.95367],[27.19687,40.95887],[27.19285,40.95702],[27.18829,40.958],[27.18746,40.96033],[27.18418,40.95887],[27.18268,40.95974],[27.18151,40.96201],[27.18258,40.96482],[27.17996,40.96504],[27.17975,40.96852],[27.17688,40.96762],[27.17585,40.96992],[27.1782,40.97076],[27.17689,40.97299],[27.18138,40.97316],[27.17926,40.97472]]]}},{"type":"Feature","properties":{"id":"TR-Y-59-010-M-0044","level":"yerlesim","type":"mahalle","parent_id":"TR-D-59-010","province_id":"TR-P-59","district_id":"TR-D-59-010","name":"Kaşıkçı","source_raw_name":"Kaşıkçı Mah.","source":"Kullanıcı tarafından sağlanan KML","source_label":"Kullanıcı tarafından sağlanan KML","source_name":"Tekirdağ Mahalle KML"},"geometry":{"type":"Polygon","coordinates":[[[27.22603,41.05915],[27.23189,41.05619],[27.23389,41.05343],[27.23272,41.04981],[27.23877,41.04569],[27.24141,41.04926],[27.24527,41.04662],[27.25549,41.04809],[27.25863,41.03861],[27.26286,41.04018],[27.26576,41.03227],[27.2641,41.03051],[27.26467,41.02675],[27.26078,41.0225],[27.26042,41.01971],[27.2627,41.01637],[27.25634,41.01625],[27.24996,41.01158],[27.25006,41.01521],[27.24378,41.01233],[27.23973,41.016],[27.23392,41.01568],[27.22972,41.01825],[27.23094,41.01603],[27.22091,41.01443],[27.21815,41.00995],[27.21176,41.00631],[27.20724,41.00709],[27.2018,41.01112],[27.20291,41.01215],[27.19646,41.01059],[27.19732,41.01467],[27.19343,41.01863],[27.21099,41.02503],[27.21772,41.0326],[27.21634,41.03696],[27.21815,41.04054],[27.22094,41.04409],[27.22451,41.04272],[27.22826,41.04728],[27.22298,41.05833],[27.22603,41.05915]]]}},{"type":"Feature","properties":{"id":"TR-Y-59-010-M-0045","level":"yerlesim","type":"mahalle","parent_id":"TR-D-59-010","province_id":"TR-P-59","district_id":"TR-D-59-010","name":"Kayı","source_raw_name":"Kayı Mah.","source":"Kullanıcı tarafından sağlanan KML","source_label":"Kullanıcı tarafından sağlanan KML","source_name":"Tekirdağ Mahalle KML"},"geometry":{"type":"Polygon","coordinates":[[[27.51695,41.02218],[27.50815,41.02307],[27.50278,41.0217],[27.49164,41.02238],[27.4912,41.02118],[27.48916,41.03007],[27.48327,41.03723],[27.48173,41.04243],[27.49024,41.03871],[27.49299,41.03971],[27.49741,41.03817],[27.50283,41.04151],[27.50613,41.03957],[27.5075,41.04604],[27.5116,41.05176],[27.51986,41.05573],[27.52924,41.05496],[27.5409,41.04898],[27.54491,41.0484],[27.54999,41.0388],[27.55798,41.03359],[27.55848,41.02824],[27.56216,41.02553],[27.56132,41.02194],[27.56481,41.01492],[27.56334,41.01228],[27.55713,41.0122],[27.5556,41.00925],[27.55041,41.00758],[27.54408,41.01428],[27.53847,41.00924],[27.52969,41.01233],[27.52149,41.01097],[27.51877,41.01697],[27.51894,41.02024],[27.51695,41.02218]]]}},{"type":"Feature","properties":{"id":"TR-Y-59-010-M-0046","level":"yerlesim","type":"mahalle","parent_id":"TR-D-59-010","province_id":"TR-P-59","district_id":"TR-D-59-010","name":"Kazandere","source_raw_name":"Kazandere Mah.","source":"Kullanıcı tarafından sağlanan KML","source_label":"Kullanıcı tarafından sağlanan KML","source_name":"Tekirdağ Mahalle KML"},"geometry":{"type":"Polygon","coordinates":[[[27.20873,41.04715],[27.21214,41.04277],[27.22094,41.04409],[27.2165,41.03832],[27.21772,41.0326],[27.20991,41.02421],[27.18773,41.01654],[27.17837,41.01828],[27.17634,41.01603],[27.16883,41.01437],[27.15163,41.01244],[27.14048,41.00822],[27.13892,41.00595],[27.13069,41.00627],[27.13065,41.00733],[27.13808,41.01037],[27.1761,41.0349],[27.17587,41.03643],[27.18236,41.04381],[27.18048,41.04715],[27.19904,41.04373],[27.20342,41.04747],[27.20873,41.04715]],[[27.18496,41.02572],[27.18055,41.02516],[27.17836,41.02141],[27.18077,41.02045],[27.18496,41.02572]]]}},{"type":"Feature","properties":{"id":"TR-Y-59-010-M-0047","level":"yerlesim","type":"mahalle","parent_id":"TR-D-59-010","province_id":"TR-P-59","district_id":"TR-D-59-010","name":"Kılavuzlu","source_raw_name":"Kılavuzlu Mah.","source":"Kullanıcı tarafından sağlanan KML","source_label":"Kullanıcı tarafından sağlanan KML","source_name":"Tekirdağ Mahalle KML"},"geometry":{"type":"Polygon","coordinates":[[[27.56431,41.08801],[27.56895,41.08687],[27.56954,41.08184],[27.57181,41.08268],[27.57589,41.07476],[27.59382,41.05757],[27.5847,41.04347],[27.58701,41.03491],[27.58581,41.03346],[27.57875,41.03461],[27.57653,41.03655],[27.56808,41.03067],[27.56728,41.03192],[27.56341,41.02957],[27.56321,41.03153],[27.55848,41.02824],[27.55798,41.03359],[27.54999,41.0388],[27.54491,41.0484],[27.5409,41.04898],[27.529,41.05501],[27.52824,41.06439],[27.52531,41.06985],[27.52787,41.08304],[27.53146,41.08147],[27.53741,41.08241],[27.55186,41.08727],[27.55811,41.08504],[27.56431,41.08801]]]}},{"type":"Feature","properties":{"id":"TR-Y-59-010-M-0048","level":"yerlesim","type":"mahalle","parent_id":"TR-D-59-010","province_id":"TR-P-59","district_id":"TR-D-59-010","name":"Kınıklar","source_raw_name":"Kınıklar Mah.","source":"Kullanıcı tarafından sağlanan KML","source_label":"Kullanıcı tarafından sağlanan KML","source_name":"Tekirdağ Mahalle KML"},"geometry":{"type":"Polygon","coordinates":[[[27.16353,40.92996],[27.17566,40.92731],[27.1857,40.92932],[27.18525,40.92617],[27.18684,40.92408],[27.19067,40.92437],[27.18754,40.92235],[27.18706,40.91999],[27.19232,40.92212],[27.17764,40.90517],[27.17911,40.9028],[27.17545,40.9028],[27.1768,40.90067],[27.17595,40.89945],[27.17383,40.89906],[27.17097,40.90221],[27.16666,40.90036],[27.1657,40.9022],[27.16207,40.90222],[27.16503,40.90695],[27.15448,40.9112],[27.15815,40.91447],[27.15969,40.9142],[27.15939,40.91559],[27.15529,40.92059],[27.15473,40.92414],[27.1502,40.92761],[27.14742,40.92779],[27.15075,40.92847],[27.15341,40.92706],[27.16353,40.92996]]]}},{"type":"Feature","properties":{"id":"TR-Y-59-010-M-0049","level":"yerlesim","type":"mahalle","parent_id":"TR-D-59-010","province_id":"TR-P-59","district_id":"TR-D-59-010","name":"Köseilyas","source_raw_name":"Köseilyas Mah.","source":"Kullanıcı tarafından sağlanan KML","source_label":"Kullanıcı tarafından sağlanan KML","source_name":"Tekirdağ Mahalle KML"},"geometry":{"type":"Polygon","coordinates":[[[27.57523,41.03617],[27.58558,41.03341],[27.58701,41.03491],[27.58938,41.03169],[27.59259,41.03269],[27.59342,41.03101],[27.59716,41.0319],[27.60814,41.02916],[27.60794,41.02539],[27.6057,41.02528],[27.60536,41.02301],[27.60239,41.02122],[27.60309,41.01708],[27.60476,41.01638],[27.58599,41.0104],[27.5722,41.00001],[27.568,40.99917],[27.56258,41.00859],[27.56481,41.01492],[27.56132,41.02194],[27.56216,41.02553],[27.55848,41.02824],[27.56321,41.03153],[27.56341,41.02957],[27.56728,41.03192],[27.56808,41.03067],[27.57523,41.03617]]]}},{"type":"Feature","properties":{"id":"TR-Y-59-010-M-0050","level":"yerlesim","type":"mahalle","parent_id":"TR-D-59-010","province_id":"TR-P-59","district_id":"TR-D-59-010","name":"Kumbağ","source_raw_name":"Kumbağ Mah.","source":"Kullanıcı tarafından sağlanan KML","source_label":"Kullanıcı tarafından sağlanan KML","source_name":"Tekirdağ Mahalle KML"},"geometry":{"type":"Polygon","coordinates":[[[27.4637,40.89792],[27.46028,40.87311],[27.46046,40.8641],[27.45595,40.84657],[27.44949,40.84326],[27.43659,40.83155],[27.4313,40.83414],[27.43153,40.83685],[27.42832,40.84223],[27.42866,40.85379],[27.42985,40.85446],[27.42861,40.86188],[27.43047,40.86856],[27.43295,40.87233],[27.43748,40.87399],[27.4363,40.8814],[27.43291,40.88314],[27.44692,40.88923],[27.45779,40.89706],[27.4637,40.89792]]]}},{"type":"Feature","properties":{"id":"TR-Y-59-010-M-0051","level":"yerlesim","type":"mahalle","parent_id":"TR-D-59-010","province_id":"TR-P-59","district_id":"TR-D-59-010","name":"Mahramlı","source_raw_name":"Mahramlı Mah.","source":"Kullanıcı tarafından sağlanan KML","source_label":"Kullanıcı tarafından sağlanan KML","source_name":"Tekirdağ Mahalle KML"},"geometry":{"type":"Polygon","coordinates":[[[27.19727,40.95866],[27.19652,40.95482],[27.19947,40.94987],[27.23242,40.94101],[27.23016,40.93796],[27.21969,40.93172],[27.22001,40.92772],[27.21789,40.92426],[27.21501,40.92683],[27.21507,40.92526],[27.21351,40.92661],[27.21014,40.92506],[27.21136,40.92708],[27.21014,40.92773],[27.20665,40.92573],[27.2028,40.92793],[27.19953,40.92664],[27.19843,40.92884],[27.19636,40.9284],[27.1974,40.92516],[27.19548,40.92358],[27.19467,40.92533],[27.18684,40.92408],[27.18525,40.92617],[27.1857,40.92932],[27.17594,40.92746],[27.17577,40.93006],[27.17046,40.93307],[27.18287,40.94508],[27.18213,40.94606],[27.19092,40.95061],[27.18838,40.95165],[27.19148,40.95392],[27.19082,40.95733],[27.19727,40.95866]]]}},{"type":"Feature","properties":{"id":"TR-Y-59-010-M-0052","level":"yerlesim","type":"mahalle","parent_id":"TR-D-59-010","province_id":"TR-P-59","district_id":"TR-D-59-010","name":"Naip Köy","source_raw_name":"Naipköy Mah.","source":"Kullanıcı tarafından sağlanan KML","source_label":"Kullanıcı tarafından sağlanan KML","source_name":"Tekirdağ Mahalle KML"},"geometry":{"type":"Polygon","coordinates":[[[27.42447,40.89993],[27.42409,40.89379],[27.42654,40.89113],[27.43204,40.88913],[27.43151,40.88667],[27.43435,40.88647],[27.4344,40.88398],[27.43291,40.88314],[27.4363,40.8814],[27.43715,40.87858],[27.43748,40.87399],[27.43219,40.87162],[27.42861,40.86188],[27.42985,40.85446],[27.42866,40.85379],[27.42832,40.84223],[27.43137,40.83721],[27.42655,40.8398],[27.41583,40.83912],[27.40458,40.84498],[27.40189,40.84901],[27.40121,40.85411],[27.39534,40.85358],[27.39596,40.85807],[27.39438,40.8636],[27.39642,40.86657],[27.40433,40.86139],[27.40376,40.86644],[27.40221,40.86775],[27.40466,40.87017],[27.3935,40.87525],[27.39192,40.87494],[27.39478,40.87313],[27.39278,40.87103],[27.38722,40.86989],[27.38254,40.87834],[27.38944,40.87908],[27.39406,40.88143],[27.39341,40.88257],[27.39743,40.88711],[27.39687,40.88909],[27.40197,40.89473],[27.41027,40.89701],[27.40888,40.89492],[27.40991,40.89434],[27.41371,40.89923],[27.42012,40.89989],[27.42197,40.90203],[27.42447,40.89993]]]}},{"type":"Feature","properties":{"id":"TR-Y-59-010-M-0053","level":"yerlesim","type":"mahalle","parent_id":"TR-D-59-010","province_id":"TR-P-59","district_id":"TR-D-59-010","name":"Namık Kemal","source_raw_name":"Namık Kemal Mah.","source":"Kullanıcı tarafından sağlanan KML","source_label":"Kullanıcı tarafından sağlanan KML","source_name":"Tekirdağ Mahalle KML"},"geometry":{"type":"Polygon","coordinates":[[[27.59489,40.99919],[27.5966,40.98809],[27.58959,40.98731],[27.57474,40.98869],[27.56753,40.99623],[27.56617,41.00031],[27.56921,40.99892],[27.5722,41.00001],[27.58209,41.00801],[27.59244,41.01257],[27.59542,41.007],[27.59489,40.99919]]]}},{"type":"Feature","properties":{"id":"TR-Y-59-010-M-0054","level":"yerlesim","type":"mahalle","parent_id":"TR-D-59-010","province_id":"TR-P-59","district_id":"TR-D-59-010","name":"Nusratfakı","source_raw_name":"Nusratfakı Mah.","source":"Kullanıcı tarafından sağlanan KML","source_label":"Kullanıcı tarafından sağlanan KML","source_name":"Tekirdağ Mahalle KML"},"geometry":{"type":"Polygon","coordinates":[[[27.30849,40.96705],[27.31465,40.96364],[27.32606,40.96628],[27.32681,40.96502],[27.33854,40.96295],[27.33688,40.96195],[27.34269,40.95727],[27.34798,40.95731],[27.34488,40.95629],[27.33993,40.94835],[27.33812,40.93444],[27.34179,40.93196],[27.3279,40.92883],[27.32501,40.9294],[27.3189,40.9237],[27.31708,40.92394],[27.31586,40.9214],[27.31679,40.91986],[27.31495,40.9181],[27.3092,40.91508],[27.30475,40.91611],[27.3106,40.91851],[27.30914,40.91934],[27.31273,40.92313],[27.30189,40.93201],[27.30149,40.93522],[27.30447,40.93676],[27.302,40.93802],[27.3034,40.94],[27.30008,40.93888],[27.29748,40.93993],[27.30246,40.94628],[27.30623,40.94628],[27.30624,40.94904],[27.30246,40.9491],[27.30409,40.95569],[27.29947,40.95671],[27.29114,40.95521],[27.29081,40.96196],[27.29936,40.96734],[27.29957,40.9697],[27.30512,40.97185],[27.30742,40.97224],[27.30849,40.96705]]]}},{"type":"Feature","properties":{"id":"TR-Y-59-010-M-0055","level":"yerlesim","type":"mahalle","parent_id":"TR-D-59-010","province_id":"TR-P-59","district_id":"TR-D-59-010","name":"Nusratlı","source_raw_name":"Nusratlı Mah.","source":"Kullanıcı tarafından sağlanan KML","source_label":"Kullanıcı tarafından sağlanan KML","source_name":"Tekirdağ Mahalle KML"},"geometry":{"type":"Polygon","coordinates":[[[27.40479,40.97782],[27.41114,40.97659],[27.42304,40.97729],[27.42543,40.97246],[27.42696,40.9723],[27.42714,40.97537],[27.433,40.97396],[27.4379,40.97013],[27.43706,40.96793],[27.43818,40.96678],[27.44733,40.96656],[27.45088,40.96796],[27.45623,40.96525],[27.4611,40.9657],[27.46184,40.96245],[27.45809,40.95798],[27.45681,40.95008],[27.43375,40.9437],[27.42614,40.94597],[27.42108,40.94967],[27.41631,40.95588],[27.41169,40.95779],[27.41369,40.95862],[27.39575,40.9634],[27.39596,40.96727],[27.40104,40.96907],[27.40244,40.96767],[27.40429,40.96921],[27.39803,40.97178],[27.39598,40.9742],[27.40479,40.97782]],[[27.41118,40.96703],[27.41774,40.9664],[27.41751,40.96836],[27.4152,40.96939],[27.41118,40.96703]]]}},{"type":"Feature","properties":{"id":"TR-Y-59-010-M-0056","level":"yerlesim","type":"mahalle","parent_id":"TR-D-59-010","province_id":"TR-P-59","district_id":"TR-D-59-010","name":"Oğuzlu","source_raw_name":"Oğuzlu Mah.","source":"Kullanıcı tarafından sağlanan KML","source_label":"Kullanıcı tarafından sağlanan KML","source_name":"Tekirdağ Mahalle KML"},"geometry":{"type":"Polygon","coordinates":[[[27.24277,40.908],[27.25173,40.90233],[27.26301,40.90607],[27.27241,40.90031],[27.27956,40.89955],[27.27757,40.89533],[27.26125,40.89198],[27.26045,40.89384],[27.25771,40.89035],[27.2539,40.88926],[27.24265,40.86326],[27.24338,40.8582],[27.23552,40.85547],[27.22845,40.85595],[27.22479,40.85451],[27.21785,40.85443],[27.21061,40.85746],[27.20969,40.8612],[27.21136,40.86268],[27.21049,40.86615],[27.21265,40.86866],[27.21294,40.87299],[27.21638,40.87382],[27.21523,40.87493],[27.22441,40.88551],[27.2321,40.88881],[27.23637,40.88891],[27.23932,40.89324],[27.23676,40.89777],[27.23956,40.90461],[27.24277,40.908]]]}},{"type":"Feature","properties":{"id":"TR-Y-59-010-M-0057","level":"yerlesim","type":"mahalle","parent_id":"TR-D-59-010","province_id":"TR-P-59","district_id":"TR-D-59-010","name":"Ormanlı","source_raw_name":"Ormanlı Mah.","source":"Kullanıcı tarafından sağlanan KML","source_label":"Kullanıcı tarafından sağlanan KML","source_name":"Tekirdağ Mahalle KML"},"geometry":{"type":"Polygon","coordinates":[[[27.20631,40.82263],[27.2091,40.82352],[27.21036,40.82125],[27.21313,40.82267],[27.21453,40.82005],[27.21754,40.82113],[27.21754,40.81872],[27.21935,40.81777],[27.21648,40.81802],[27.21673,40.81675],[27.22066,40.81429],[27.23253,40.81492],[27.23405,40.81331],[27.23544,40.81559],[27.23809,40.81549],[27.23258,40.82199],[27.23272,40.82592],[27.2378,40.82618],[27.23904,40.82478],[27.23752,40.8191],[27.24642,40.81059],[27.24563,40.80894],[27.2531,40.80804],[27.25186,40.80554],[27.254,40.80629],[27.25322,40.80291],[27.25753,40.79497],[27.25182,40.79229],[27.25148,40.7894],[27.24949,40.78855],[27.25321,40.7867],[27.25288,40.78427],[27.2562,40.78151],[27.24791,40.77343],[27.24335,40.77356],[27.24237,40.77138],[27.23229,40.76715],[27.22385,40.76552],[27.22122,40.76899],[27.22304,40.76937],[27.2194,40.77275],[27.21607,40.77302],[27.21427,40.77563],[27.21495,40.7775],[27.21207,40.77838],[27.2099,40.78394],[27.20745,40.78494],[27.21061,40.78938],[27.20647,40.79186],[27.20794,40.79432],[27.20459,40.79354],[27.19921,40.79531],[27.19977,40.79738],[27.19803,40.79989],[27.19989,40.80669],[27.19036,40.80976],[27.19166,40.81086],[27.18966,40.81362],[27.19122,40.81457],[27.19077,40.81846],[27.19214,40.8199],[27.19071,40.82308],[27.19305,40.82596],[27.1962,40.83594],[27.20045,40.83662],[27.2018,40.83516],[27.2052,40.83008],[27.20327,40.8254],[27.20631,40.82263]]]}},{"type":"Feature","properties":{"id":"TR-Y-59-010-M-0058","level":"yerlesim","type":"mahalle","parent_id":"TR-D-59-010","province_id":"TR-P-59","district_id":"TR-D-59-010","name":"Ortaca","source_raw_name":"Ortaca Mah.","source":"Kullanıcı tarafından sağlanan KML","source_label":"Kullanıcı tarafından sağlanan KML","source_name":"Tekirdağ Mahalle KML"},"geometry":{"type":"Polygon","coordinates":[[[27.24948,41.11245],[27.25774,41.10072],[27.25667,41.09955],[27.26021,41.0986],[27.26455,41.09481],[27.26099,41.0918],[27.26354,41.09109],[27.26217,41.089],[27.25617,41.08579],[27.26079,41.08502],[27.26759,41.08122],[27.26699,41.0789],[27.26941,41.07822],[27.26755,41.07759],[27.27304,41.07623],[27.27319,41.0738],[27.28085,41.07187],[27.28109,41.07429],[27.28352,41.07414],[27.28623,41.07245],[27.28623,41.0704],[27.27723,41.06553],[27.2674,41.07136],[27.26332,41.07065],[27.26306,41.06707],[27.26002,41.06917],[27.25689,41.06896],[27.25841,41.06822],[27.25012,41.06611],[27.24605,41.0601],[27.24079,41.05615],[27.23634,41.05566],[27.23827,41.05407],[27.23472,41.05356],[27.23272,41.04981],[27.23389,41.05343],[27.23189,41.05619],[27.22853,41.05892],[27.22298,41.05833],[27.21017,41.07183],[27.20566,41.07395],[27.19339,41.0849],[27.20989,41.09088],[27.21427,41.09543],[27.21588,41.09469],[27.21743,41.09769],[27.22474,41.09858],[27.22691,41.10384],[27.22615,41.10607],[27.22787,41.10484],[27.22887,41.10032],[27.2303,41.10034],[27.24948,41.11245]]]}},{"type":"Feature","properties":{"id":"TR-Y-59-010-M-0059","level":"yerlesim","type":"mahalle","parent_id":"TR-D-59-010","province_id":"TR-P-59","district_id":"TR-D-59-010","name":"Ortacami","source_raw_name":"Ortacami Mah.","source":"Kullanıcı tarafından sağlanan KML","source_label":"Kullanıcı tarafından sağlanan KML","source_name":"Tekirdağ Mahalle KML"},"geometry":{"type":"Polygon","coordinates":[[[27.51815,40.97843],[27.51109,40.97808],[27.51355,40.9877],[27.511,40.99619],[27.52167,41.00416],[27.52249,40.99835],[27.51761,40.98605],[27.51815,40.97843]]]}},{"type":"Feature","properties":{"id":"TR-Y-59-010-M-0060","level":"yerlesim","type":"mahalle","parent_id":"TR-D-59-010","province_id":"TR-P-59","district_id":"TR-D-59-010","name":"Oruçbeyli","source_raw_name":"Oruçbeyli Mah.","source":"Kullanıcı tarafından sağlanan KML","source_label":"Kullanıcı tarafından sağlanan KML","source_name":"Tekirdağ Mahalle KML"},"geometry":{"type":"Polygon","coordinates":[[[27.33733,40.89848],[27.3199,40.88712],[27.32814,40.88101],[27.33275,40.8621],[27.32496,40.8573],[27.32222,40.85944],[27.31213,40.85849],[27.31016,40.86037],[27.3083,40.85715],[27.30023,40.85916],[27.30055,40.86077],[27.29826,40.86081],[27.29761,40.86317],[27.29366,40.8641],[27.29523,40.86614],[27.29209,40.86676],[27.29176,40.86885],[27.29389,40.87258],[27.28689,40.88081],[27.28943,40.88216],[27.28933,40.88422],[27.29608,40.8865],[27.29353,40.88832],[27.29826,40.89265],[27.30612,40.89796],[27.31386,40.89682],[27.33262,40.89832],[27.3371,40.90134],[27.33733,40.89848]]]}},{"type":"Feature","properties":{"id":"TR-Y-59-010-M-0061","level":"yerlesim","type":"mahalle","parent_id":"TR-D-59-010","province_id":"TR-P-59","district_id":"TR-D-59-010","name":"Osmanlı","source_raw_name":"Osmanlı Mah.","source":"Kullanıcı tarafından sağlanan KML","source_label":"Kullanıcı tarafından sağlanan KML","source_name":"Tekirdağ Mahalle KML"},"geometry":{"type":"Polygon","coordinates":[[[27.4201,41.08092],[27.42581,41.07359],[27.42674,41.06977],[27.44086,41.07279],[27.44567,41.07113],[27.44827,41.07187],[27.44757,41.06457],[27.44621,41.06446],[27.44729,41.06385],[27.47018,41.06388],[27.47101,41.07402],[27.47652,41.07286],[27.47931,41.06882],[27.47589,41.06366],[27.47763,41.06143],[27.47708,41.05443],[27.4745,41.05045],[27.47712,41.04536],[27.47604,41.04078],[27.46911,41.03864],[27.46384,41.03487],[27.46222,41.03682],[27.45905,41.03249],[27.45786,41.02732],[27.45574,41.0321],[27.44994,41.03315],[27.44567,41.03644],[27.4376,41.0351],[27.43332,41.03632],[27.43401,41.03193],[27.43003,41.02944],[27.41692,41.02403],[27.40593,41.02285],[27.39959,41.0203],[27.3985,41.02165],[27.39531,41.02133],[27.39286,41.02537],[27.402,41.03011],[27.39342,41.03037],[27.37934,41.02596],[27.37884,41.02777],[27.37542,41.02821],[27.37428,41.03166],[27.37139,41.03364],[27.37286,41.03704],[27.37061,41.03666],[27.36889,41.04022],[27.35823,41.04521],[27.3661,41.05043],[27.36957,41.05447],[27.3682,41.05546],[27.3719,41.05895],[27.39155,41.07198],[27.39976,41.07922],[27.4201,41.08092]]]}},{"type":"Feature","properties":{"id":"TR-Y-59-010-M-0062","level":"yerlesim","type":"mahalle","parent_id":"TR-D-59-010","province_id":"TR-P-59","district_id":"TR-D-59-010","name":"Otmanlı","source_raw_name":"Otmanlı Mah.","source":"Kullanıcı tarafından sağlanan KML","source_label":"Kullanıcı tarafından sağlanan KML","source_name":"Tekirdağ Mahalle KML"},"geometry":{"type":"Polygon","coordinates":[[[27.26313,40.9812],[27.25777,40.97504],[27.25965,40.96798],[27.25083,40.9625],[27.24346,40.96132],[27.24615,40.95669],[27.24532,40.95464],[27.24946,40.95303],[27.23601,40.93952],[27.21175,40.94743],[27.20003,40.94967],[27.19809,40.9514],[27.19756,40.95476],[27.20671,40.96569],[27.2238,40.96744],[27.26313,40.9812]]]}},{"type":"Feature","properties":{"id":"TR-Y-59-010-M-0063","level":"yerlesim","type":"mahalle","parent_id":"TR-D-59-010","province_id":"TR-P-59","district_id":"TR-D-59-010","name":"Selçuk","source_raw_name":"Selçuk Mah.","source":"Kullanıcı tarafından sağlanan KML","source_label":"Kullanıcı tarafından sağlanan KML","source_name":"Tekirdağ Mahalle KML"},"geometry":{"type":"Polygon","coordinates":[[[27.23364,41.01577],[27.23973,41.016],[27.24378,41.01233],[27.24981,41.01528],[27.24996,41.01158],[27.25634,41.01625],[27.26198,41.01587],[27.26194,41.01241],[27.2636,41.01239],[27.26407,41.01067],[27.26338,41.00749],[27.26788,41.00388],[27.27114,41.0035],[27.27091,41.00132],[27.26263,40.99585],[27.26915,40.98953],[27.26866,40.98497],[27.26608,40.98051],[27.25786,40.98015],[27.2238,40.96744],[27.20801,40.96576],[27.20973,40.97108],[27.21434,40.97237],[27.21653,40.97694],[27.21756,40.9792],[27.21564,40.98197],[27.21684,40.98454],[27.21036,40.98884],[27.20705,40.98778],[27.20459,40.9897],[27.20146,40.9886],[27.1969,40.99059],[27.20225,40.99397],[27.20475,40.99971],[27.20875,41.00188],[27.21102,41.006],[27.21815,41.00995],[27.22091,41.01443],[27.22923,41.01526],[27.23126,41.01625],[27.22972,41.01825],[27.23364,41.01577]]]}},{"type":"Feature","properties":{"id":"TR-Y-59-010-M-0064","level":"yerlesim","type":"mahalle","parent_id":"TR-D-59-010","province_id":"TR-P-59","district_id":"TR-D-59-010","name":"Semetli","source_raw_name":"Semetli Mah.","source":"Kullanıcı tarafından sağlanan KML","source_label":"Kullanıcı tarafından sağlanan KML","source_name":"Tekirdağ Mahalle KML"},"geometry":{"type":"Polygon","coordinates":[[[27.27193,40.88319],[27.28,40.88036],[27.28689,40.88081],[27.29389,40.87258],[27.29176,40.86885],[27.29209,40.86676],[27.29523,40.86614],[27.29366,40.8641],[27.29761,40.86317],[27.29826,40.86081],[27.30055,40.86077],[27.30023,40.85916],[27.3083,40.85715],[27.30556,40.85166],[27.30873,40.84875],[27.30725,40.84639],[27.30887,40.84044],[27.32057,40.82608],[27.32247,40.8255],[27.32483,40.81627],[27.32854,40.8152],[27.31551,40.80614],[27.29832,40.81901],[27.29381,40.82056],[27.28919,40.82679],[27.2906,40.82847],[27.28818,40.8288],[27.28487,40.83211],[27.27377,40.83439],[27.27478,40.83766],[27.2697,40.8397],[27.26991,40.84138],[27.26762,40.84219],[27.26648,40.84471],[27.26893,40.84792],[27.26711,40.85365],[27.26569,40.85415],[27.26644,40.85738],[27.25292,40.86101],[27.24338,40.8582],[27.24265,40.86326],[27.24877,40.87907],[27.25085,40.88048],[27.25074,40.87829],[27.25709,40.87997],[27.26986,40.88696],[27.27193,40.88319]]]}},{"type":"Feature","properties":{"id":"TR-Y-59-010-M-0065","level":"yerlesim","type":"mahalle","parent_id":"TR-D-59-010","province_id":"TR-P-59","district_id":"TR-D-59-010","name":"Seymenli","source_raw_name":"Seymenli Mah.","source":"Kullanıcı tarafından sağlanan KML","source_label":"Kullanıcı tarafından sağlanan KML","source_name":"Tekirdağ Mahalle KML"},"geometry":{"type":"Polygon","coordinates":[[[27.39703,40.99975],[27.39926,41.00078],[27.39949,40.99878],[27.39674,40.99725],[27.39566,40.99409],[27.40145,40.99344],[27.39853,40.98797],[27.4002,40.98771],[27.39921,40.98438],[27.40159,40.97952],[27.39227,40.97091],[27.37802,40.967],[27.36758,40.9622],[27.362,40.96221],[27.36523,40.96587],[27.36659,40.97435],[27.3606,40.97324],[27.36104,40.97569],[27.35589,40.97423],[27.34639,40.98339],[27.34718,40.98571],[27.35207,40.98831],[27.34952,40.98954],[27.34947,40.99105],[27.3544,40.99332],[27.35847,40.99238],[27.35667,40.99441],[27.35888,40.99793],[27.36577,40.99597],[27.36445,40.99261],[27.37011,40.98998],[27.38248,40.9958],[27.38426,41.00117],[27.39112,41.00544],[27.39703,40.99975]]]}},{"type":"Feature","properties":{"id":"TR-Y-59-010-M-0066","level":"yerlesim","type":"mahalle","parent_id":"TR-D-59-010","province_id":"TR-P-59","district_id":"TR-D-59-010","name":"Taşumurca","source_raw_name":"Taşumurca Mah.","source":"Kullanıcı tarafından sağlanan KML","source_label":"Kullanıcı tarafından sağlanan KML","source_name":"Tekirdağ Mahalle KML"},"geometry":{"type":"Polygon","coordinates":[[[27.19343,41.01863],[27.19732,41.01467],[27.19646,41.01059],[27.20291,41.01215],[27.2018,41.01112],[27.20724,41.00709],[27.21165,41.00646],[27.20896,41.00421],[27.20875,41.00188],[27.20466,40.9996],[27.20225,40.99397],[27.1969,40.99059],[27.20146,40.9886],[27.20459,40.9897],[27.20705,40.98778],[27.21036,40.98884],[27.21667,40.98474],[27.21564,40.98197],[27.21756,40.9792],[27.21434,40.97237],[27.20524,40.97007],[27.20231,40.97573],[27.18202,40.9745],[27.16652,40.97814],[27.16748,40.98151],[27.16608,40.98362],[27.16934,40.98558],[27.16633,40.99011],[27.16856,40.99029],[27.17121,41.00106],[27.16916,41.0052],[27.17012,41.00656],[27.16743,41.00643],[27.16845,41.01195],[27.16745,41.01435],[27.17634,41.01603],[27.17837,41.01828],[27.18748,41.01653],[27.19343,41.01863]],[[27.17969,40.99757],[27.1804,41.00184],[27.17688,40.99616],[27.17969,40.99757]]]}},{"type":"Feature","properties":{"id":"TR-Y-59-010-M-0067","level":"yerlesim","type":"mahalle","parent_id":"TR-D-59-010","province_id":"TR-P-59","district_id":"TR-D-59-010","name":"Tatarlı","source_raw_name":"Tatarlı Mah.","source":"Kullanıcı tarafından sağlanan KML","source_label":"Kullanıcı tarafından sağlanan KML","source_name":"Tekirdağ Mahalle KML"},"geometry":{"type":"Polygon","coordinates":[[[27.21323,40.8538],[27.21579,40.8469],[27.22254,40.85086],[27.22545,40.8479],[27.22194,40.84736],[27.2229,40.84587],[27.22473,40.84661],[27.23316,40.84074],[27.23384,40.83473],[27.24001,40.83566],[27.23783,40.83177],[27.23402,40.83143],[27.23631,40.82951],[27.23404,40.82712],[27.2358,40.82707],[27.23272,40.82592],[27.23258,40.82199],[27.23743,40.81472],[27.23544,40.81559],[27.23405,40.81331],[27.23253,40.81492],[27.22066,40.81429],[27.21833,40.81543],[27.21651,40.81724],[27.21931,40.81757],[27.21672,40.82028],[27.21754,40.82113],[27.21453,40.82005],[27.21313,40.82267],[27.21036,40.82125],[27.2091,40.82352],[27.20631,40.82263],[27.20327,40.8254],[27.2052,40.83008],[27.2018,40.83516],[27.20045,40.83662],[27.1962,40.83594],[27.19685,40.84243],[27.19934,40.84614],[27.20434,40.84853],[27.2082,40.85311],[27.20944,40.85204],[27.21323,40.8538]]]}},{"type":"Feature","properties":{"id":"TR-Y-59-010-M-0068","level":"yerlesim","type":"mahalle","parent_id":"TR-D-59-010","province_id":"TR-P-59","district_id":"TR-D-59-010","name":"Topağaç","source_raw_name":"Topağaç Mah.","source":"Kullanıcı tarafından sağlanan KML","source_label":"Kullanıcı tarafından sağlanan KML","source_name":"Tekirdağ Mahalle KML"},"geometry":{"type":"Polygon","coordinates":[[[27.4594,40.94546],[27.45606,40.944],[27.47909,40.94016],[27.4825,40.93831],[27.48631,40.93874],[27.4795,40.92314],[27.47445,40.91966],[27.46999,40.91984],[27.46682,40.92185],[27.45964,40.92011],[27.45941,40.92336],[27.45479,40.93213],[27.44265,40.94612],[27.45728,40.95009],[27.46096,40.94911],[27.4594,40.94546]]]}},{"type":"Feature","properties":{"id":"TR-Y-59-010-M-0069","level":"yerlesim","type":"mahalle","parent_id":"TR-D-59-010","province_id":"TR-P-59","district_id":"TR-D-59-010","name":"Vatan","source_raw_name":"Vatan Mah.","source":"Kullanıcı tarafından sağlanan KML","source_label":"Kullanıcı tarafından sağlanan KML","source_name":"Tekirdağ Mahalle KML"},"geometry":{"type":"Polygon","coordinates":[[[27.48266,40.96057],[27.48498,40.95762],[27.50671,40.97165],[27.50589,40.96957],[27.50737,40.96908],[27.50528,40.96908],[27.50312,40.96544],[27.50349,40.96527],[27.50428,40.96622],[27.50751,40.96444],[27.5064,40.96308],[27.50752,40.96255],[27.51068,40.96426],[27.50776,40.962],[27.50257,40.96414],[27.5029,40.96517],[27.50165,40.96327],[27.50607,40.96098],[27.50121,40.96267],[27.49864,40.96055],[27.50526,40.95744],[27.49856,40.96032],[27.49191,40.95081],[27.48828,40.95274],[27.48517,40.95758],[27.46903,40.94722],[27.46495,40.94714],[27.45681,40.95008],[27.45809,40.95798],[27.46184,40.96245],[27.4611,40.9657],[27.48237,40.97324],[27.48437,40.9688],[27.48266,40.96057]]]}},{"type":"Feature","properties":{"id":"TR-Y-59-010-M-0070","level":"yerlesim","type":"mahalle","parent_id":"TR-D-59-010","province_id":"TR-P-59","district_id":"TR-D-59-010","name":"Yağcı","source_raw_name":"Yağcı Mah.","source":"Kullanıcı tarafından sağlanan KML","source_label":"Kullanıcı tarafından sağlanan KML","source_name":"Tekirdağ Mahalle KML"},"geometry":{"type":"Polygon","coordinates":[[[27.47751,41.04512],[27.48173,41.04243],[27.48327,41.03723],[27.48916,41.03007],[27.49021,41.02514],[27.48104,41.02281],[27.47962,41.02106],[27.4623,41.01952],[27.45567,41.01629],[27.45561,41.0138],[27.46014,41.01132],[27.45874,41.00181],[27.46491,40.9903],[27.45966,40.97741],[27.44862,40.98018],[27.44416,40.97588],[27.43761,40.97475],[27.4337,40.97236],[27.433,40.97396],[27.42714,40.97537],[27.42696,40.9723],[27.42543,40.97246],[27.42304,40.97729],[27.41114,40.97659],[27.4037,40.97786],[27.39872,40.97626],[27.40159,40.97952],[27.39921,40.98438],[27.4002,40.98771],[27.39853,40.98797],[27.40145,40.99344],[27.39566,40.99409],[27.39674,40.99725],[27.39949,40.99878],[27.39946,41.00133],[27.39573,41.00501],[27.396,41.00692],[27.39859,41.00822],[27.39513,41.00827],[27.39629,41.00972],[27.39222,41.01104],[27.40081,41.0131],[27.40066,41.02056],[27.40593,41.02285],[27.41692,41.02403],[27.43003,41.02944],[27.43401,41.03193],[27.43332,41.03632],[27.4376,41.0351],[27.44567,41.03644],[27.44994,41.03315],[27.45574,41.0321],[27.45786,41.02732],[27.45905,41.03249],[27.46222,41.03682],[27.46384,41.03487],[27.46911,41.03864],[27.47604,41.04078],[27.47751,41.04512]]]}},{"type":"Feature","properties":{"id":"TR-Y-59-010-M-0071","level":"yerlesim","type":"mahalle","parent_id":"TR-D-59-010","province_id":"TR-P-59","district_id":"TR-D-59-010","name":"Yavuz","source_raw_name":"Yavuz Mah.","source":"Kullanıcı tarafından sağlanan KML","source_label":"Kullanıcı tarafından sağlanan KML","source_name":"Tekirdağ Mahalle KML"},"geometry":{"type":"Polygon","coordinates":[[[27.51051,40.97714],[27.50665,40.97161],[27.50163,40.97264],[27.5019,40.97671],[27.51051,40.97714]]]}},{"type":"Feature","properties":{"id":"TR-Y-59-010-M-0072","level":"yerlesim","type":"mahalle","parent_id":"TR-D-59-010","province_id":"TR-P-59","district_id":"TR-D-59-010","name":"Yayabaşı","source_raw_name":"Yayabaşı Mah.","source":"Kullanıcı tarafından sağlanan KML","source_label":"Kullanıcı tarafından sağlanan KML","source_name":"Tekirdağ Mahalle KML"},"geometry":{"type":"Polygon","coordinates":[[[27.41564,40.95635],[27.42614,40.94597],[27.43708,40.94315],[27.43051,40.93665],[27.42306,40.9328],[27.40887,40.92856],[27.40584,40.92357],[27.40365,40.92831],[27.39609,40.93296],[27.40057,40.92523],[27.3998,40.92217],[27.39665,40.92106],[27.39791,40.9184],[27.39431,40.91536],[27.39092,40.91477],[27.39326,40.91438],[27.38687,40.91412],[27.3775,40.91926],[27.37499,40.92421],[27.37733,40.92394],[27.3824,40.92778],[27.38673,40.92792],[27.39446,40.93413],[27.39694,40.93443],[27.39766,40.93896],[27.4026,40.9429],[27.40929,40.95321],[27.41564,40.95635]]]}},{"type":"Feature","properties":{"id":"TR-Y-59-010-M-0073","level":"yerlesim","type":"mahalle","parent_id":"TR-D-59-010","province_id":"TR-P-59","district_id":"TR-D-59-010","name":"Yazır","source_raw_name":"Yazır Mah.","source":"Kullanıcı tarafından sağlanan KML","source_label":"Kullanıcı tarafından sağlanan KML","source_name":"Tekirdağ Mahalle KML"},"geometry":{"type":"Polygon","coordinates":[[[27.43902,40.93865],[27.44241,40.93791],[27.44542,40.93486],[27.4406,40.93391],[27.43781,40.93159],[27.43812,40.92918],[27.43992,40.93027],[27.44223,40.9286],[27.43844,40.92599],[27.44092,40.92141],[27.44124,40.91256],[27.43617,40.91023],[27.43265,40.9045],[27.4274,40.90043],[27.42521,40.9],[27.42197,40.90203],[27.42012,40.89989],[27.41371,40.89923],[27.40991,40.89434],[27.40888,40.89492],[27.41027,40.89701],[27.40463,40.89596],[27.40061,40.89388],[27.39687,40.88909],[27.39743,40.88711],[27.39631,40.88728],[27.39061,40.89457],[27.39227,40.9008],[27.3898,40.90076],[27.39028,40.90368],[27.39418,40.90905],[27.39356,40.91111],[27.39177,40.91137],[27.39326,40.91438],[27.391,40.91491],[27.39431,40.91536],[27.40137,40.92068],[27.40702,40.91569],[27.41121,40.91874],[27.41052,40.92091],[27.40768,40.92246],[27.40817,40.92435],[27.40637,40.92467],[27.40887,40.92856],[27.42291,40.93272],[27.43051,40.93665],[27.43631,40.94228],[27.43902,40.93865]]]}},{"type":"Feature","properties":{"id":"TR-Y-59-010-M-0074","level":"yerlesim","type":"mahalle","parent_id":"TR-D-59-010","province_id":"TR-P-59","district_id":"TR-D-59-010","name":"Yenice","source_raw_name":"Yenice Mah.","source":"Kullanıcı tarafından sağlanan KML","source_label":"Kullanıcı tarafından sağlanan KML","source_name":"Tekirdağ Mahalle KML"},"geometry":{"type":"Polygon","coordinates":[[[27.26935,40.84192],[27.2697,40.8397],[27.27478,40.83766],[27.27377,40.83439],[27.28487,40.83211],[27.28818,40.8288],[27.2906,40.82847],[27.28919,40.82679],[27.29381,40.82056],[27.29832,40.81901],[27.31551,40.80614],[27.31197,40.80463],[27.31138,40.80233],[27.31493,40.80148],[27.31831,40.79795],[27.31822,40.79511],[27.30204,40.79028],[27.29978,40.7865],[27.29017,40.78275],[27.28459,40.78213],[27.28148,40.78398],[27.28009,40.7822],[27.27234,40.78047],[27.25505,40.78063],[27.2562,40.78151],[27.25288,40.78427],[27.25321,40.7867],[27.24949,40.78855],[27.25148,40.7894],[27.25182,40.79229],[27.25753,40.79497],[27.25322,40.80291],[27.254,40.80629],[27.25186,40.80554],[27.2531,40.80804],[27.24563,40.80894],[27.24642,40.81059],[27.23752,40.8191],[27.239,40.82504],[27.23404,40.82712],[27.23631,40.82951],[27.23402,40.83143],[27.23783,40.83177],[27.24001,40.83566],[27.26045,40.84317],[27.26202,40.8419],[27.26647,40.84494],[27.26762,40.84219],[27.26935,40.84192]]]}},{"type":"Feature","properties":{"id":"TR-Y-59-010-M-0075","level":"yerlesim","type":"mahalle","parent_id":"TR-D-59-010","province_id":"TR-P-59","district_id":"TR-D-59-010","name":"Yeniköy","source_raw_name":"Yeniköy Mah.","source":"Kullanıcı tarafından sağlanan KML","source_label":"Kullanıcı tarafından sağlanan KML","source_name":"Tekirdağ Mahalle KML"},"geometry":{"type":"Polygon","coordinates":[[[27.3872,40.86929],[27.38218,40.86765],[27.38268,40.86641],[27.37811,40.8648],[27.37809,40.8633],[27.38311,40.86233],[27.39389,40.86585],[27.3959,40.85857],[27.39534,40.85358],[27.40121,40.85411],[27.40189,40.84901],[27.40458,40.84498],[27.41583,40.83912],[27.42656,40.8398],[27.43137,40.83721],[27.4313,40.83414],[27.43634,40.83121],[27.41937,40.81998],[27.40387,40.81242],[27.39613,40.81502],[27.393,40.81308],[27.38549,40.81636],[27.38333,40.819],[27.37574,40.82012],[27.3692,40.82861],[27.36867,40.83218],[27.36296,40.83758],[27.36196,40.84429],[27.36397,40.84836],[27.36307,40.8507],[27.36569,40.85311],[27.36692,40.85724],[27.37494,40.85991],[27.37601,40.86196],[27.37443,40.86563],[27.37098,40.8675],[27.37186,40.87323],[27.36796,40.87529],[27.37569,40.87581],[27.38254,40.87834],[27.3872,40.86929]]]}},{"type":"Feature","properties":{"id":"TR-Y-59-010-M-0076","level":"yerlesim","type":"mahalle","parent_id":"TR-D-59-010","province_id":"TR-P-59","district_id":"TR-D-59-010","name":"Yukarıkılıçlı","source_raw_name":"Yukarıkılıçlı Mah.","source":"Kullanıcı tarafından sağlanan KML","source_label":"Kullanıcı tarafından sağlanan KML","source_name":"Tekirdağ Mahalle KML"},"geometry":{"type":"Polygon","coordinates":[[[27.37057,40.92876],[27.37737,40.92045],[27.37762,40.91887],[27.37465,40.9177],[27.37615,40.91514],[27.35398,40.90259],[27.34443,40.90099],[27.34529,40.89997],[27.34158,40.899],[27.33911,40.89587],[27.33507,40.89617],[27.33733,40.89848],[27.3371,40.90134],[27.33262,40.89832],[27.31386,40.89682],[27.30612,40.89796],[27.30677,40.90308],[27.29522,40.91213],[27.29876,40.91284],[27.3022,40.91629],[27.3092,40.91508],[27.31495,40.9181],[27.31679,40.91986],[27.31586,40.9214],[27.31708,40.92394],[27.3189,40.9237],[27.32501,40.9294],[27.33551,40.93012],[27.3446,40.93277],[27.34755,40.92981],[27.34937,40.93141],[27.35897,40.92872],[27.36913,40.93332],[27.37057,40.92876]]]}},{"type":"Feature","properties":{"id":"TR-Y-59-010-M-0077","level":"yerlesim","type":"mahalle","parent_id":"TR-D-59-010","province_id":"TR-P-59","district_id":"TR-D-59-010","name":"Yuva","source_raw_name":"Yuva Mah.","source":"Kullanıcı tarafından sağlanan KML","source_label":"Kullanıcı tarafından sağlanan KML","source_name":"Tekirdağ Mahalle KML"},"geometry":{"type":"Polygon","coordinates":[[[27.17437,40.87414],[27.19957,40.86803],[27.21197,40.85658],[27.21785,40.85443],[27.22578,40.85406],[27.21579,40.8469],[27.21323,40.8538],[27.20944,40.85204],[27.2082,40.85311],[27.20413,40.84841],[27.19566,40.84886],[27.19116,40.85372],[27.1929,40.85532],[27.18273,40.85785],[27.17661,40.867],[27.17355,40.86745],[27.17437,40.87414]]]}},{"type":"Feature","properties":{"id":"TR-Y-59-010-M-0078","level":"yerlesim","type":"mahalle","parent_id":"TR-D-59-010","province_id":"TR-P-59","district_id":"TR-D-59-010","name":"Zafer","source_raw_name":"Zafer Mah.","source":"Kullanıcı tarafından sağlanan KML","source_label":"Kullanıcı tarafından sağlanan KML","source_name":"Tekirdağ Mahalle KML"},"geometry":{"type":"Polygon","coordinates":[[[27.51122,40.97868],[27.50197,40.98986],[27.511,40.99619],[27.51355,40.9877],[27.51122,40.97868]]]}},{"type":"Feature","properties":{"id":"TR-Y-59-010-M-SRC-DOGRUKARACAMURAT","level":"yerlesim","type":"mahalle","parent_id":"TR-D-59-010","province_id":"TR-P-59","district_id":"TR-D-59-010","name":"DOĞRUKARACAMURAT","source_raw_name":"Doğrukaracamurat Mah.","source":"Kullanıcı tarafından sağlanan KML","source_label":"Kullanıcı tarafından sağlanan KML","source_name":"Tekirdağ Mahalle KML","source_only":true},"geometry":{"type":"Polygon","coordinates":[[[27.26815,41.07077],[27.27748,41.06471],[27.2864,41.06297],[27.286,41.06193],[27.29269,41.05969],[27.29715,41.05607],[27.30051,41.05097],[27.29365,41.04487],[27.29302,41.04281],[27.29639,41.03985],[27.26508,41.03605],[27.2627,41.04031],[27.2612,41.03868],[27.25825,41.03907],[27.25549,41.04809],[27.24527,41.04662],[27.24141,41.04926],[27.23877,41.04569],[27.23272,41.04981],[27.23472,41.05356],[27.23827,41.05407],[27.23634,41.05566],[27.24178,41.05685],[27.25012,41.06611],[27.25911,41.06923],[27.26306,41.06707],[27.26332,41.07065],[27.26815,41.07077]]]}},{"type":"Feature","properties":{"id":"TR-Y-59-010-M-SRC-GUVECLI","level":"yerlesim","type":"mahalle","parent_id":"TR-D-59-010","province_id":"TR-P-59","district_id":"TR-D-59-010","name":"GÜVEÇLİ","source_raw_name":"Güveçli Mah.","source":"Kullanıcı tarafından sağlanan KML","source_label":"Kullanıcı tarafından sağlanan KML","source_name":"Tekirdağ Mahalle KML","source_only":true},"geometry":{"type":"Polygon","coordinates":[[[27.34635,40.98865],[27.34907,40.99018],[27.35207,40.98831],[27.34718,40.98571],[27.34639,40.98339],[27.35589,40.97423],[27.36104,40.97569],[27.3606,40.97324],[27.36659,40.97435],[27.36523,40.96587],[27.362,40.96221],[27.36698,40.96193],[27.35859,40.95916],[27.34269,40.95727],[27.33688,40.96195],[27.33854,40.96295],[27.33554,40.96282],[27.33479,40.96413],[27.32681,40.96502],[27.32606,40.96628],[27.32063,40.96409],[27.31582,40.97635],[27.31962,40.97476],[27.31978,40.97614],[27.33181,40.982],[27.33415,40.97965],[27.33714,40.9815],[27.33805,40.98596],[27.34209,40.98982],[27.344,40.99064],[27.34635,40.98865]]]}}]}