{"type":"FeatureCollection","name":"turkiye_map.dist.mahalle_geometrileri_by_district.TR-D-34-007","features":[{"type":"Feature","properties":{"id":"TR-Y-34-007-M-0001","level":"yerlesim","type":"mahalle","parent_id":"TR-D-34-007","province_id":"TR-P-34","district_id":"TR-D-34-007","name":"Ataköy 1. Kısım","source_raw_name":"ATAKÖY 1. KISIM","source":"Kullanıcı tarafından sağlanan KML","source_label":"Kullanıcı tarafından sağlanan KML","source_name":"Istanbul Mahalle KML"},"geometry":{"type":"Polygon","coordinates":[[[28.867574,40.97975],[28.867556,40.979375],[28.867555,40.979216],[28.867606,40.97905],[28.867726,40.978919],[28.868174,40.978475],[28.868755,40.97793],[28.869022,40.977903],[28.869653,40.977962],[28.87144,40.978106],[28.87249,40.978199],[28.872525,40.977974],[28.872479,40.97732],[28.872399,40.976537],[28.872313,40.975375],[28.873403,40.975014],[28.873544,40.974482],[28.87356,40.974322],[28.873501,40.973894],[28.873714,40.973796],[28.873784,40.97358],[28.873887,40.973355],[28.874117,40.973071],[28.87416,40.972885],[28.874183,40.972858],[28.874343,40.972671],[28.87435,40.972672],[28.874401,40.972654],[28.875727,40.972651],[28.876044,40.97265],[28.87622,40.972566],[28.876218,40.972566],[28.876072,40.972455],[28.87599,40.972393],[28.875722,40.972191],[28.876988,40.971214],[28.87696,40.971193],[28.875708,40.97218],[28.875426,40.971966],[28.875387,40.971937],[28.875312,40.97188],[28.876573,40.970914],[28.876552,40.970897],[28.875301,40.971867],[28.875298,40.971869],[28.875296,40.97187],[28.875155,40.971764],[28.875068,40.971698],[28.87498,40.971633],[28.874981,40.971632],[28.875001,40.971616],[28.876246,40.970656],[28.87621,40.97063],[28.875001,40.971563],[28.874947,40.971605],[28.874823,40.971512],[28.874655,40.971361],[28.874664,40.971366],[28.874863,40.971214],[28.875001,40.971109],[28.875914,40.970413],[28.87588,40.970387],[28.875001,40.971058],[28.874833,40.971186],[28.874635,40.971341],[28.874642,40.971347],[28.874625,40.971362],[28.874558,40.971313],[28.874491,40.971262],[28.874363,40.971165],[28.874302,40.971119],[28.874322,40.971103],[28.874328,40.971107],[28.874678,40.970846],[28.87486,40.97071],[28.875001,40.970607],[28.875602,40.970168],[28.875577,40.970144],[28.875001,40.970566],[28.874831,40.970691],[28.874549,40.970902],[28.874303,40.971086],[28.874309,40.971089],[28.874289,40.971108],[28.87415,40.971003],[28.874039,40.97092],[28.873961,40.970861],[28.873881,40.970801],[28.873905,40.970786],[28.873909,40.970789],[28.874119,40.970627],[28.874452,40.970374],[28.874821,40.970098],[28.875001,40.969965],[28.875172,40.969839],[28.875145,40.969821],[28.875001,40.969927],[28.874798,40.970079],[28.87453,40.970282],[28.874325,40.970437],[28.874062,40.970634],[28.873886,40.970767],[28.873888,40.970775],[28.873869,40.97079],[28.87346,40.970483],[28.873643,40.970357],[28.874138,40.970008],[28.874777,40.969555],[28.874758,40.969538],[28.874602,40.969645],[28.874203,40.969934],[28.873813,40.970208],[28.873447,40.970472],[28.873316,40.970372],[28.873202,40.970287],[28.873044,40.970168],[28.873082,40.97014],[28.873175,40.970069],[28.87327,40.969998],[28.873397,40.969901],[28.873561,40.969777],[28.873673,40.969693],[28.8738,40.969597],[28.873907,40.969515],[28.874044,40.969411],[28.87414,40.969339],[28.874243,40.969261],[28.874319,40.969204],[28.874367,40.96917],[28.874401,40.969149],[28.874452,40.969122],[28.874504,40.969099],[28.874557,40.96908],[28.874558,40.96908],[28.874782,40.969032],[28.875001,40.969056],[28.875008,40.969058],[28.875045,40.969064],[28.875087,40.969073],[28.875118,40.969083],[28.87515,40.969095],[28.875185,40.969112],[28.875219,40.969129],[28.875254,40.96915],[28.875285,40.969169],[28.875313,40.969187],[28.875359,40.969217],[28.875688,40.969461],[28.876229,40.969869],[28.877404,40.970755],[28.87752,40.970841],[28.877573,40.970883],[28.877657,40.970945],[28.87774,40.971007],[28.87838,40.971514],[28.878219,40.971643],[28.878243,40.971658],[28.878404,40.97153],[28.878399,40.971526],[28.878411,40.971516],[28.878412,40.971516],[28.878449,40.971551],[28.878508,40.971606],[28.878666,40.971755],[28.878798,40.971879],[28.878919,40.971994],[28.879013,40.972082],[28.87906,40.972126],[28.879199,40.972259],[28.879246,40.972301],[28.879235,40.972313],[28.879234,40.972319],[28.879238,40.972337],[28.879244,40.972359],[28.879252,40.972383],[28.879262,40.972406],[28.879272,40.972426],[28.879277,40.972449],[28.879285,40.97246],[28.879307,40.972481],[28.879322,40.972501],[28.879332,40.972521],[28.879346,40.972533],[28.879366,40.972545],[28.879379,40.972558],[28.879388,40.972564],[28.879397,40.97257],[28.879415,40.972572],[28.879439,40.972575],[28.879459,40.97258],[28.879472,40.972583],[28.879496,40.972584],[28.879519,40.972582],[28.87955,40.972581],[28.87956,40.972578],[28.879574,40.972571],[28.879583,40.972567],[28.879602,40.972562],[28.87962,40.972553],[28.879629,40.972551],[28.879641,40.972539],[28.879663,40.972524],[28.879668,40.972513],[28.879676,40.972486],[28.879685,40.972477],[28.879689,40.972463],[28.879703,40.972449],[28.879705,40.97244],[28.87971,40.972433],[28.8797,40.972419],[28.879696,40.972406],[28.879691,40.972386],[28.879685,40.972362],[28.87968,40.97234],[28.879675,40.972333],[28.879676,40.972316],[28.879675,40.97231],[28.879663,40.972306],[28.879651,40.972298],[28.879634,40.972272],[28.879618,40.972255],[28.879606,40.972253],[28.879591,40.972244],[28.879564,40.972227],[28.879547,40.972215],[28.879523,40.972195],[28.879496,40.972166],[28.879476,40.972135],[28.879466,40.972117],[28.879422,40.972072],[28.879396,40.972042],[28.879373,40.972016],[28.879356,40.972004],[28.879326,40.971973],[28.879294,40.971932],[28.879261,40.971894],[28.879236,40.971882],[28.879211,40.971864],[28.879194,40.971847],[28.879177,40.971819],[28.879162,40.971801],[28.87913,40.971778],[28.879111,40.97175],[28.879079,40.97173],[28.879025,40.97169],[28.878975,40.971649],[28.878922,40.971595],[28.878877,40.971551],[28.87882,40.971505],[28.878754,40.971455],[28.878742,40.971442],[28.878738,40.971426],[28.878728,40.971407],[28.878706,40.971383],[28.878681,40.971365],[28.878668,40.971356],[28.878651,40.971332],[28.878622,40.971308],[28.878609,40.97129],[28.878602,40.971283],[28.878579,40.971273],[28.878537,40.971253],[28.878525,40.971233],[28.878519,40.971222],[28.878479,40.971193],[28.878443,40.97117],[28.878412,40.971145],[28.878364,40.971103],[28.878328,40.971071],[28.878318,40.97105],[28.878305,40.971038],[28.878263,40.971019],[28.878238,40.970998],[28.878228,40.970984],[28.878194,40.970957],[28.878175,40.970951],[28.87815,40.970941],[28.878126,40.970926],[28.878113,40.970909],[28.878093,40.970898],[28.878057,40.970878],[28.878006,40.970846],[28.877937,40.970799],[28.877858,40.970742],[28.87778,40.970683],[28.877764,40.970661],[28.877742,40.970632],[28.877725,40.970611],[28.877707,40.970611],[28.877682,40.9706],[28.877642,40.970575],[28.877606,40.97055],[28.877582,40.970536],[28.877517,40.970485],[28.877492,40.97047],[28.877461,40.970446],[28.877191,40.970227],[28.87696,40.970059],[28.876687,40.96987],[28.876457,40.969704],[28.876192,40.969498],[28.875955,40.969307],[28.875735,40.969136],[28.875506,40.968944],[28.875311,40.96885],[28.875204,40.968803],[28.875135,40.968809],[28.874954,40.968714],[28.873323,40.968703],[28.873311,40.969046],[28.873188,40.969042],[28.873188,40.968706],[28.872936,40.968706],[28.872919,40.969721],[28.872766,40.969832],[28.868807,40.969803],[28.868806,40.969532],[28.866174,40.969503],[28.866199,40.968318],[28.866235,40.968153],[28.866313,40.967997],[28.866424,40.967862],[28.866597,40.967714],[28.866802,40.967607],[28.867,40.967539],[28.867191,40.967506],[28.875068,40.967584],[28.875107,40.967651],[28.875144,40.967687],[28.875209,40.967713],[28.875277,40.967711],[28.875348,40.967682],[28.875409,40.967648],[28.87544,40.967591],[28.875458,40.967547],[28.875449,40.967502],[28.875424,40.96745],[28.87538,40.967409],[28.875315,40.967371],[28.875212,40.967354],[28.875119,40.967363],[28.867244,40.967306],[28.867013,40.967325],[28.866828,40.96737],[28.866686,40.967422],[28.866538,40.967503],[28.866354,40.967627],[28.866233,40.967732],[28.866132,40.967827],[28.866031,40.967966],[28.865977,40.968105],[28.865946,40.968219],[28.865926,40.968601],[28.865966,40.968737],[28.865915,40.971305],[28.86591,40.973553],[28.865837,40.973704],[28.865836,40.973712],[28.865839,40.973731],[28.865859,40.973866],[28.865864,40.973903],[28.865873,40.973963],[28.865885,40.974046],[28.865965,40.974592],[28.866212,40.975577],[28.86633,40.976099],[28.866331,40.976405],[28.866294,40.976503],[28.86619,40.976648],[28.86593,40.976959],[28.865738,40.977202],[28.865358,40.977645],[28.865108,40.977925],[28.864478,40.978646],[28.863845,40.979352],[28.863376,40.979898],[28.86473,40.979849],[28.866432,40.979784],[28.867574,40.97975]]]}},{"type":"Feature","properties":{"id":"TR-Y-34-007-M-0002","level":"yerlesim","type":"mahalle","parent_id":"TR-D-34-007","province_id":"TR-P-34","district_id":"TR-D-34-007","name":"Ataköy 2. 5. 6. Kısım","source_raw_name":"ATAKÖY 2-5-6. KISIM","source":"Kullanıcı tarafından sağlanan KML","source_label":"Kullanıcı tarafından sağlanan KML","source_name":"Istanbul Mahalle KML"},"geometry":{"type":"Polygon","coordinates":[[[28.863376,40.979898],[28.863845,40.979352],[28.864478,40.978646],[28.865108,40.977925],[28.865358,40.977645],[28.865738,40.977202],[28.86593,40.976959],[28.86619,40.976648],[28.866294,40.976503],[28.866331,40.976405],[28.86633,40.976099],[28.866212,40.975577],[28.865965,40.974592],[28.865885,40.974046],[28.865873,40.973963],[28.865864,40.973903],[28.865859,40.973866],[28.865839,40.973731],[28.865836,40.973712],[28.865837,40.973704],[28.865833,40.973705],[28.865598,40.973752],[28.865587,40.973754],[28.865485,40.973772],[28.865357,40.973795],[28.865224,40.973811],[28.865008,40.973833],[28.864816,40.973848],[28.864668,40.973888],[28.864626,40.973828],[28.864277,40.973873],[28.864054,40.9739],[28.863805,40.973935],[28.863787,40.973895],[28.863749,40.973901],[28.863615,40.973918],[28.863626,40.973953],[28.863334,40.973998],[28.863189,40.974017],[28.86304,40.974036],[28.862679,40.974081],[28.862459,40.974108],[28.862427,40.974112],[28.862424,40.974108],[28.862154,40.974139],[28.862058,40.97415],[28.861997,40.974157],[28.861858,40.974175],[28.861806,40.974176],[28.861775,40.974036],[28.861761,40.973969],[28.861827,40.973961],[28.861815,40.973907],[28.861663,40.973926],[28.861672,40.97398],[28.861734,40.973972],[28.861747,40.974036],[28.861778,40.97418],[28.861696,40.974192],[28.861613,40.974201],[28.861539,40.974207],[28.861282,40.974237],[28.86125,40.974219],[28.86121,40.974203],[28.861199,40.974206],[28.861078,40.97422],[28.860939,40.974237],[28.860757,40.974257],[28.860679,40.974214],[28.86053,40.974216],[28.860533,40.974242],[28.860368,40.974251],[28.860269,40.974257],[28.860013,40.974243],[28.859896,40.974238],[28.8598,40.974224],[28.859655,40.974206],[28.859652,40.974134],[28.85962,40.974132],[28.859611,40.974125],[28.859605,40.974118],[28.859597,40.97411],[28.859567,40.974099],[28.859523,40.974104],[28.859479,40.974101],[28.859436,40.974087],[28.859405,40.974089],[28.859384,40.974096],[28.859357,40.974088],[28.859314,40.974089],[28.859253,40.974086],[28.85921,40.974092],[28.859153,40.974089],[28.859112,40.974086],[28.859041,40.974074],[28.859001,40.974058],[28.858943,40.974044],[28.858901,40.974037],[28.858897,40.974036],[28.858882,40.974031],[28.858872,40.974028],[28.858869,40.973945],[28.858865,40.973809],[28.858866,40.973802],[28.858871,40.973796],[28.858877,40.97379],[28.858927,40.973767],[28.858962,40.973753],[28.858968,40.973747],[28.858973,40.973735],[28.858975,40.973722],[28.858973,40.97371],[28.858964,40.973697],[28.858957,40.973691],[28.858936,40.973682],[28.858923,40.973677],[28.858889,40.973674],[28.858846,40.973674],[28.85882,40.973676],[28.858808,40.973699],[28.858832,40.973708],[28.85883,40.973712],[28.858817,40.973743],[28.858805,40.973742],[28.858803,40.97375],[28.85878,40.973753],[28.858768,40.973776],[28.858763,40.973801],[28.858763,40.973879],[28.858765,40.973946],[28.858768,40.974031],[28.858663,40.974047],[28.858584,40.974061],[28.858501,40.97407],[28.85841,40.97409],[28.858291,40.974117],[28.85809,40.974141],[28.857897,40.974154],[28.857733,40.974157],[28.857564,40.974166],[28.857286,40.974174],[28.857244,40.974194],[28.857235,40.974225],[28.857226,40.974338],[28.857056,40.974301],[28.857044,40.974143],[28.857038,40.974114],[28.857013,40.974101],[28.856963,40.974097],[28.856772,40.9741],[28.85652,40.974099],[28.8563,40.974091],[28.856023,40.974091],[28.855808,40.974078],[28.855792,40.974073],[28.855725,40.974076],[28.855645,40.974089],[28.855465,40.974113],[28.855315,40.974141],[28.855199,40.974161],[28.85509,40.974205],[28.854966,40.974265],[28.854597,40.974479],[28.854032,40.974438],[28.853999,40.974509],[28.853837,40.974536],[28.853728,40.974542],[28.853619,40.974545],[28.853495,40.974543],[28.853399,40.974539],[28.853293,40.974524],[28.853231,40.974513],[28.853101,40.974481],[28.852995,40.974459],[28.852918,40.974442],[28.85287,40.974443],[28.852834,40.974451],[28.852804,40.974474],[28.852771,40.974481],[28.852738,40.974481],[28.852596,40.97446],[28.852467,40.974431],[28.852418,40.974422],[28.852383,40.974428],[28.852355,40.974455],[28.852328,40.974485],[28.852281,40.974494],[28.8522,40.974485],[28.851918,40.974413],[28.85177,40.974366],[28.851501,40.974278],[28.851201,40.974179],[28.850876,40.974049],[28.850595,40.973906],[28.850368,40.973775],[28.850107,40.973616],[28.850001,40.97354],[28.849988,40.97353],[28.849886,40.973456],[28.849682,40.97327],[28.849485,40.973077],[28.849269,40.972833],[28.849213,40.972713],[28.849188,40.972652],[28.849185,40.972591],[28.849197,40.972534],[28.849277,40.972505],[28.849352,40.972471],[28.84938,40.972447],[28.849395,40.972425],[28.849395,40.97238],[28.849357,40.972337],[28.849351,40.972323],[28.849336,40.972288],[28.849281,40.972127],[28.84942,40.972007],[28.84953,40.971911],[28.84963,40.971841],[28.849725,40.971759],[28.849818,40.971703],[28.849867,40.971655],[28.849921,40.971607],[28.850001,40.97154],[28.850018,40.971526],[28.850257,40.971344],[28.850517,40.971134],[28.850686,40.971],[28.850897,40.970825],[28.851038,40.970717],[28.851254,40.970551],[28.851411,40.970421],[28.851575,40.970293],[28.85164,40.970247],[28.851655,40.970249],[28.851697,40.970258],[28.85177,40.970248],[28.851855,40.970212],[28.851888,40.970168],[28.851916,40.970106],[28.851884,40.970057],[28.851839,40.970012],[28.851792,40.969995],[28.851744,40.969974],[28.851669,40.97],[28.851623,40.970032],[28.851484,40.970142],[28.851138,40.970426],[28.850847,40.970638],[28.850436,40.970957],[28.850086,40.971223],[28.850001,40.971291],[28.849531,40.971666],[28.849061,40.972022],[28.847291,40.973424],[28.847253,40.973448],[28.847192,40.973487],[28.847083,40.97362],[28.846201,40.97477],[28.845859,40.975215],[28.84565,40.975467],[28.845163,40.975764],[28.843894,40.976415],[28.844472,40.976978],[28.845021,40.977422],[28.845782,40.977957],[28.846444,40.978344],[28.847183,40.978724],[28.848241,40.979196],[28.848946,40.979479],[28.849723,40.979708],[28.850546,40.979918],[28.850343,40.980467],[28.850356,40.980568],[28.850436,40.980669],[28.850784,40.980941],[28.852668,40.982379],[28.853634,40.983169],[28.854124,40.983103],[28.854377,40.983044],[28.85462,40.982945],[28.854862,40.982733],[28.855439,40.982205],[28.856186,40.981509],[28.856681,40.981044],[28.856772,40.980968],[28.857093,40.98087],[28.857855,40.980854],[28.857999,40.980705],[28.858245,40.980442],[28.858368,40.9803],[28.858438,40.980168],[28.858449,40.980092],[28.859705,40.980043],[28.86127,40.979985],[28.862247,40.979943],[28.863376,40.979898]]]}},{"type":"Feature","properties":{"id":"TR-Y-34-007-M-0003","level":"yerlesim","type":"mahalle","parent_id":"TR-D-34-007","province_id":"TR-P-34","district_id":"TR-D-34-007","name":"Ataköy 3-4-11. Kısım","source_raw_name":"ATAKÖY 3-4-11. KISIM","source":"Kullanıcı tarafından sağlanan KML","source_label":"Kullanıcı tarafından sağlanan KML","source_name":"Istanbul Mahalle KML"},"geometry":{"type":"Polygon","coordinates":[[[28.852797,40.986405],[28.853962,40.986207],[28.855663,40.985938],[28.855643,40.986134],[28.855657,40.986257],[28.855714,40.986372],[28.855826,40.986442],[28.855955,40.986497],[28.856115,40.986572],[28.856264,40.986688],[28.85638,40.986812],[28.857534,40.98668],[28.858427,40.986374],[28.859445,40.986069],[28.859833,40.986028],[28.860723,40.98564],[28.861974,40.985194],[28.863002,40.984852],[28.863976,40.9846],[28.865606,40.983998],[28.865905,40.983866],[28.86579,40.98366],[28.866191,40.983513],[28.867016,40.983083],[28.867597,40.982786],[28.867803,40.982706],[28.868289,40.982638],[28.868286,40.982466],[28.868156,40.982231],[28.867876,40.981881],[28.867738,40.981482],[28.867667,40.981195],[28.867627,40.980397],[28.867595,40.980012],[28.867574,40.97975],[28.866432,40.979784],[28.86473,40.979849],[28.863376,40.979898],[28.862247,40.979943],[28.86127,40.979985],[28.859705,40.980043],[28.858449,40.980092],[28.858438,40.980168],[28.858368,40.9803],[28.858245,40.980442],[28.857999,40.980705],[28.857855,40.980854],[28.857093,40.98087],[28.856772,40.980968],[28.856681,40.981044],[28.856186,40.981509],[28.855439,40.982205],[28.854862,40.982733],[28.85462,40.982945],[28.854377,40.983044],[28.854124,40.983103],[28.853634,40.983169],[28.853475,40.983816],[28.853132,40.985073],[28.852957,40.985727],[28.852797,40.986405]]]}},{"type":"Feature","properties":{"id":"TR-Y-34-007-M-0004","level":"yerlesim","type":"mahalle","parent_id":"TR-D-34-007","province_id":"TR-P-34","district_id":"TR-D-34-007","name":"Ataköy 7-8-9-10. Kısım","source_raw_name":"ATAKÖY 7-8-9-10. KISIM","source":"Kullanıcı tarafından sağlanan KML","source_label":"Kullanıcı tarafından sağlanan KML","source_name":"Istanbul Mahalle KML"},"geometry":{"type":"Polygon","coordinates":[[[28.826375,40.992837],[28.82914,40.992648],[28.835703,40.992288],[28.83871,40.99212],[28.843329,40.991854],[28.845654,40.991717],[28.847114,40.991664],[28.84829,40.991669],[28.848895,40.991694],[28.849484,40.99173],[28.850167,40.991773],[28.850546,40.991807],[28.851049,40.991862],[28.851443,40.990881],[28.851649,40.9902],[28.85184,40.989515],[28.852132,40.988536],[28.852506,40.987314],[28.852797,40.986405],[28.852957,40.985727],[28.853132,40.985073],[28.853475,40.983816],[28.853634,40.983169],[28.852668,40.982379],[28.850784,40.980941],[28.850436,40.980669],[28.850356,40.980568],[28.850343,40.980467],[28.850546,40.979918],[28.849723,40.979708],[28.848946,40.979479],[28.848241,40.979196],[28.847183,40.978724],[28.846444,40.978344],[28.845782,40.977957],[28.845021,40.977422],[28.844472,40.976978],[28.843894,40.976415],[28.843354,40.976839],[28.842959,40.977367],[28.842573,40.978154],[28.842281,40.978741],[28.841601,40.980144],[28.841195,40.98097],[28.840523,40.982358],[28.840184,40.983023],[28.839638,40.984145],[28.839333,40.984703],[28.83901,40.985149],[28.838676,40.98556],[28.838095,40.98611],[28.837639,40.986472],[28.83721,40.98675],[28.836749,40.987063],[28.836186,40.987316],[28.835391,40.98763],[28.83267,40.988685],[28.831204,40.989154],[28.830372,40.989394],[28.829765,40.989612],[28.828453,40.990106],[28.826094,40.99099],[28.823666,40.991775],[28.822769,40.99202],[28.822453,40.992138],[28.822245,40.992263],[28.822028,40.992544],[28.821828,40.99299],[28.826375,40.992837]]]}},{"type":"Feature","properties":{"id":"TR-Y-34-007-M-0005","level":"yerlesim","type":"mahalle","parent_id":"TR-D-34-007","province_id":"TR-P-34","district_id":"TR-D-34-007","name":"Basınköy","source_raw_name":"BASINKÖY","source":"Kullanıcı tarafından sağlanan KML","source_label":"Kullanıcı tarafından sağlanan KML","source_name":"Istanbul Mahalle KML"},"geometry":{"type":"Polygon","coordinates":[[[28.777292,40.985986],[28.777358,40.985675],[28.777381,40.985516],[28.777423,40.98526],[28.777454,40.985089],[28.777517,40.984701],[28.777565,40.984627],[28.777668,40.984554],[28.777764,40.9845],[28.778012,40.98436],[28.778243,40.984238],[28.778313,40.984216],[28.778412,40.984199],[28.77855,40.9842],[28.778681,40.984216],[28.779149,40.98432],[28.779473,40.984411],[28.779669,40.984341],[28.780259,40.984079],[28.780715,40.983868],[28.78164,40.983434],[28.781652,40.98322],[28.781646,40.983109],[28.782052,40.982901],[28.782974,40.98254],[28.783531,40.982352],[28.784432,40.98197],[28.785228,40.981682],[28.785572,40.981587],[28.785892,40.981561],[28.785894,40.981561],[28.785895,40.981561],[28.786014,40.981567],[28.786159,40.981634],[28.786309,40.981747],[28.78746,40.982604],[28.788148,40.982676],[28.788333,40.982638],[28.788622,40.9825],[28.789786,40.981874],[28.790191,40.981707],[28.790969,40.981386],[28.791249,40.98128],[28.791498,40.981208],[28.791771,40.981149],[28.792016,40.981137],[28.792019,40.981137],[28.792378,40.981141],[28.793629,40.981122],[28.793222,40.980455],[28.792859,40.979753],[28.792313,40.978731],[28.791797,40.977737],[28.791319,40.976828],[28.790776,40.975808],[28.790523,40.975338],[28.790102,40.974556],[28.789877,40.97412],[28.789785,40.973907],[28.789683,40.973475],[28.789552,40.9727],[28.789477,40.972465],[28.789232,40.972056],[28.789129,40.971872],[28.788876,40.97151],[28.788764,40.97135],[28.788723,40.971291],[28.788626,40.971153],[28.788584,40.971093],[28.788407,40.970843],[28.788405,40.970844],[28.788395,40.970849],[28.788344,40.970871],[28.788301,40.970883],[28.788233,40.970909],[28.788059,40.970967],[28.787909,40.971033],[28.787801,40.971096],[28.787707,40.971145],[28.78763,40.971185],[28.78753,40.971227],[28.787456,40.971267],[28.787397,40.971293],[28.78735,40.971325],[28.787325,40.971344],[28.787303,40.971356],[28.787222,40.971393],[28.787076,40.971473],[28.786921,40.97155],[28.786856,40.971602],[28.786772,40.971644],[28.786713,40.971679],[28.786632,40.971698],[28.786567,40.971721],[28.786489,40.971756],[28.786408,40.971784],[28.786352,40.971808],[28.786278,40.971843],[28.786216,40.971868],[28.786132,40.971915],[28.786066,40.971953],[28.785998,40.971988],[28.785948,40.972011],[28.78587,40.972053],[28.785774,40.972105],[28.785715,40.97214],[28.78565,40.972168],[28.785588,40.972192],[28.785519,40.972203],[28.78547,40.97222],[28.785327,40.972273],[28.785286,40.972301],[28.785184,40.972358],[28.785134,40.972379],[28.78509,40.972393],[28.785038,40.972419],[28.784985,40.972437],[28.784584,40.97258],[28.784522,40.972606],[28.784419,40.972634],[28.784351,40.972647],[28.784276,40.972676],[28.784252,40.972692],[28.784189,40.972718],[28.78413,40.972743],[28.784068,40.972774],[28.783975,40.972818],[28.78391,40.972861],[28.783872,40.972884],[28.783807,40.972921],[28.783739,40.972945],[28.783667,40.972978],[28.783624,40.972999],[28.783537,40.973031],[28.783481,40.973071],[28.783391,40.973092],[28.783322,40.973108],[28.78327,40.973137],[28.783226,40.97316],[28.783192,40.973179],[28.783154,40.973193],[28.783059,40.97323],[28.782959,40.973082],[28.78285,40.972922],[28.782779,40.972819],[28.782649,40.972632],[28.78281,40.972573],[28.782734,40.972462],[28.782678,40.972482],[28.782648,40.972434],[28.78269,40.972418],[28.782611,40.972297],[28.782569,40.972313],[28.782473,40.972169],[28.782517,40.972155],[28.782497,40.972124],[28.782365,40.972166],[28.782387,40.972198],[28.782428,40.972185],[28.78258,40.972411],[28.782607,40.972465],[28.782593,40.972458],[28.78258,40.972454],[28.782571,40.972452],[28.78256,40.972451],[28.782548,40.972452],[28.782536,40.972455],[28.782414,40.972507],[28.782388,40.972518],[28.782435,40.972585],[28.782206,40.972671],[28.782261,40.97276],[28.782537,40.972645],[28.782682,40.972857],[28.782736,40.972935],[28.782791,40.972915],[28.782862,40.973022],[28.783007,40.973233],[28.783026,40.97326],[28.782873,40.973318],[28.782737,40.973372],[28.782553,40.97347],[28.782398,40.973545],[28.782333,40.973583],[28.782277,40.973611],[28.782233,40.973639],[28.78219,40.973658],[28.782168,40.97367],[28.78213,40.973691],[28.782106,40.973702],[28.782075,40.973716],[28.782053,40.973726],[28.781988,40.973742],[28.781901,40.973754],[28.781867,40.973746],[28.781829,40.97372],[28.781786,40.973716],[28.781767,40.973716],[28.781733,40.973716],[28.781718,40.973711],[28.78169,40.973706],[28.781662,40.973699],[28.781653,40.973697],[28.781637,40.973694],[28.781553,40.97368],[28.781491,40.973694],[28.781479,40.973694],[28.781439,40.97371],[28.781345,40.973719],[28.781265,40.97375],[28.781212,40.973771],[28.78119,40.973778],[28.781134,40.973787],[28.781084,40.973799],[28.781035,40.973813],[28.780994,40.973841],[28.780935,40.973871],[28.780904,40.973885],[28.780861,40.973911],[28.780823,40.973923],[28.780761,40.973937],[28.780712,40.973956],[28.780646,40.973991],[28.780631,40.974005],[28.780587,40.974019],[28.780565,40.974023],[28.780482,40.974049],[28.780438,40.974073],[28.78041,40.974086],[28.780339,40.974122],[28.780211,40.974161],[28.780078,40.97422],[28.780015,40.97426],[28.779956,40.974269],[28.779941,40.974274],[28.779876,40.974281],[28.779832,40.974288],[28.779795,40.974304],[28.779758,40.974332],[28.779714,40.974367],[28.779689,40.974386],[28.779653,40.974406],[28.779628,40.974416],[28.779605,40.974427],[28.779584,40.974439],[28.779551,40.974459],[28.779518,40.974474],[28.779476,40.974493],[28.779456,40.974507],[28.779439,40.974516],[28.77941,40.974532],[28.779389,40.974543],[28.77935,40.97455],[28.779296,40.974584],[28.779271,40.9746],[28.77925,40.974614],[28.779221,40.974623],[28.779165,40.974655],[28.779144,40.974668],[28.77912,40.974683],[28.77908,40.974692],[28.77902,40.974723],[28.778968,40.974751],[28.778931,40.974765],[28.778902,40.974777],[28.778852,40.974796],[28.778811,40.974821],[28.778788,40.974833],[28.778757,40.974847],[28.778694,40.974886],[28.778667,40.974895],[28.778653,40.974904],[28.778614,40.974918],[28.778568,40.974943],[28.778524,40.974974],[28.778474,40.975],[28.778443,40.975015],[28.778315,40.975062],[28.778298,40.975074],[28.778255,40.975094],[28.778205,40.975116],[28.778134,40.975154],[28.778089,40.975178],[28.778035,40.975208],[28.778,40.975224],[28.777946,40.975244],[28.777902,40.975266],[28.777815,40.975295],[28.777767,40.975323],[28.777709,40.975343],[28.777654,40.975366],[28.777542,40.975412],[28.777496,40.975437],[28.777438,40.975482],[28.777398,40.975505],[28.777365,40.97552],[28.777328,40.975537],[28.777313,40.975547],[28.777286,40.975556],[28.777263,40.975565],[28.777232,40.975582],[28.777207,40.975599],[28.777172,40.975618],[28.777156,40.975629],[28.777122,40.975642],[28.777056,40.975675],[28.777008,40.975695],[28.776959,40.97571],[28.776921,40.975721],[28.776892,40.975738],[28.776832,40.97577],[28.776784,40.975802],[28.776681,40.975832],[28.776643,40.975852],[28.776606,40.975863],[28.776579,40.975878],[28.776536,40.975881],[28.776499,40.975898],[28.776467,40.975915],[28.776447,40.975926],[28.776401,40.975951],[28.776366,40.975973],[28.776343,40.976004],[28.776322,40.976021],[28.776291,40.976039],[28.77627,40.976052],[28.776231,40.976073],[28.776176,40.976109],[28.776125,40.976131],[28.776075,40.976158],[28.776044,40.976192],[28.776008,40.976228],[28.775965,40.976261],[28.775913,40.976285],[28.775867,40.976311],[28.775819,40.976343],[28.775771,40.976372],[28.775726,40.976404],[28.775684,40.976434],[28.775641,40.976465],[28.775601,40.976495],[28.775551,40.976521],[28.775512,40.976553],[28.775476,40.976587],[28.775439,40.976622],[28.775404,40.976659],[28.775366,40.976695],[28.775335,40.976733],[28.775275,40.976812],[28.775171,40.976852],[28.775071,40.976895],[28.775048,40.976931],[28.775096,40.977103],[28.775183,40.97736],[28.775156,40.977593],[28.775114,40.977774],[28.775019,40.978038],[28.774926,40.978865],[28.774917,40.978995],[28.774916,40.979215],[28.774928,40.979344],[28.774935,40.979475],[28.774962,40.979765],[28.77497,40.979863],[28.774998,40.980333],[28.775011,40.980488],[28.775025,40.980529],[28.775126,40.980705],[28.775244,40.980887],[28.775383,40.981094],[28.775638,40.981473],[28.775675,40.981528],[28.775748,40.981644],[28.775843,40.981836],[28.775846,40.981918],[28.775842,40.982044],[28.775817,40.982321],[28.775792,40.982579],[28.775778,40.982688],[28.775726,40.982845],[28.775676,40.982962],[28.775595,40.98314],[28.775502,40.983361],[28.775437,40.983537],[28.775423,40.983602],[28.775369,40.983789],[28.775311,40.983962],[28.775272,40.984046],[28.775244,40.9841],[28.775187,40.984172],[28.775061,40.984332],[28.774916,40.984496],[28.774742,40.984693],[28.774595,40.984856],[28.773911,40.985591],[28.773638,40.985908],[28.773604,40.986012],[28.773508,40.986407],[28.773478,40.986497],[28.773452,40.986551],[28.77349,40.98655],[28.774066,40.986538],[28.774514,40.98651],[28.77501,40.986462],[28.775394,40.986401],[28.775993,40.986289],[28.776556,40.986178],[28.777046,40.986051],[28.777292,40.985986]]]}},{"type":"Feature","properties":{"id":"TR-Y-34-007-M-0006","level":"yerlesim","type":"mahalle","parent_id":"TR-D-34-007","province_id":"TR-P-34","district_id":"TR-D-34-007","name":"Cevizlik","source_raw_name":"CEVİZLİK","source":"Kullanıcı tarafından sağlanan KML","source_label":"Kullanıcı tarafından sağlanan KML","source_name":"Istanbul Mahalle KML"},"geometry":{"type":"Polygon","coordinates":[[[28.877643,40.978603],[28.877717,40.977927],[28.877766,40.977487],[28.877811,40.977087],[28.877868,40.976588],[28.877915,40.976104],[28.877965,40.975612],[28.877979,40.975435],[28.878,40.975191],[28.878013,40.975063],[28.878021,40.974985],[28.878123,40.974756],[28.877971,40.974428],[28.877957,40.974468],[28.87792,40.974498],[28.877824,40.974527],[28.877185,40.974325],[28.87677,40.974193],[28.87663,40.97409],[28.876526,40.974097],[28.876516,40.974097],[28.876237,40.974115],[28.876156,40.97412],[28.875889,40.974137],[28.875619,40.974154],[28.875497,40.974508],[28.875223,40.975699],[28.875167,40.975984],[28.875112,40.976203],[28.874931,40.976744],[28.874801,40.977166],[28.874704,40.97752],[28.874483,40.978113],[28.874374,40.978551],[28.874151,40.979457],[28.873886,40.980482],[28.873876,40.980519],[28.874614,40.980635],[28.875427,40.980749],[28.876251,40.980886],[28.877379,40.981075],[28.877447,40.980458],[28.877538,40.979516],[28.877643,40.978603]]]}},{"type":"Feature","properties":{"id":"TR-Y-34-007-M-0007","level":"yerlesim","type":"mahalle","parent_id":"TR-D-34-007","province_id":"TR-P-34","district_id":"TR-D-34-007","name":"Kartaltepe","source_raw_name":"KARTALTEPE","source":"Kullanıcı tarafından sağlanan KML","source_label":"Kullanıcı tarafından sağlanan KML","source_name":"Istanbul Mahalle KML"},"geometry":{"type":"Polygon","coordinates":[[[28.884454,40.982272],[28.883334,40.982096],[28.882045,40.981872],[28.880969,40.981691],[28.879859,40.98151],[28.878343,40.981253],[28.877379,40.981075],[28.876251,40.980886],[28.875427,40.980749],[28.874614,40.980635],[28.873876,40.980519],[28.873808,40.980775],[28.873691,40.981429],[28.873547,40.981711],[28.873433,40.981899],[28.873074,40.982404],[28.872922,40.982655],[28.872775,40.982929],[28.872626,40.983319],[28.872535,40.98369],[28.872434,40.98421],[28.872362,40.984754],[28.872335,40.985046],[28.872299,40.985667],[28.872289,40.986421],[28.872292,40.986826],[28.872283,40.986989],[28.872198,40.987543],[28.87215,40.987758],[28.872079,40.988007],[28.871987,40.988237],[28.871846,40.988552],[28.871673,40.988877],[28.871497,40.989184],[28.871224,40.98965],[28.871023,40.989979],[28.870763,40.990411],[28.870529,40.990941],[28.870348,40.991393],[28.870123,40.991974],[28.869988,40.992303],[28.869961,40.992826],[28.869946,40.993515],[28.869933,40.994268],[28.86992,40.995194],[28.869912,40.995849],[28.869726,40.996375],[28.869617,40.996849],[28.869626,40.997094],[28.870029,40.997201],[28.871491,40.997614],[28.872302,40.997816],[28.874059,40.99828],[28.874096,40.997875],[28.874116,40.99696],[28.874141,40.995865],[28.874151,40.99547],[28.874156,40.994806],[28.874184,40.994146],[28.874197,40.99357],[28.874215,40.993318],[28.874896,40.993302],[28.875613,40.993284],[28.875624,40.992821],[28.875645,40.992542],[28.876252,40.992334],[28.876908,40.992109],[28.877125,40.992],[28.87725,40.991848],[28.877431,40.991361],[28.877639,40.991006],[28.877831,40.990781],[28.878099,40.9906],[28.87842,40.990419],[28.878844,40.990262],[28.879089,40.99026],[28.879688,40.990301],[28.880499,40.990296],[28.881023,40.990281],[28.881166,40.990229],[28.881415,40.98997],[28.881824,40.989526],[28.882208,40.989343],[28.882399,40.989219],[28.882903,40.988796],[28.883522,40.988578],[28.883847,40.988355],[28.884061,40.988246],[28.884282,40.988321],[28.884443,40.98827],[28.884367,40.988021],[28.884309,40.987737],[28.884274,40.987445],[28.884296,40.987162],[28.884367,40.986641],[28.884423,40.986062],[28.88446,40.985261],[28.884507,40.983829],[28.884481,40.98328],[28.884442,40.982407],[28.884454,40.982272]]]}},{"type":"Feature","properties":{"id":"TR-Y-34-007-M-0008","level":"yerlesim","type":"mahalle","parent_id":"TR-D-34-007","province_id":"TR-P-34","district_id":"TR-D-34-007","name":"Osmaniye","source_raw_name":"OSMANİYE","source":"Kullanıcı tarafından sağlanan KML","source_label":"Kullanıcı tarafından sağlanan KML","source_name":"Istanbul Mahalle KML"},"geometry":{"type":"Polygon","coordinates":[[[28.893046,41.002236],[28.892979,41.002044],[28.892903,41.001976],[28.892807,41.001969],[28.892742,41.001901],[28.892731,41.001845],[28.892809,41.001796],[28.892819,41.001702],[28.892758,41.001631],[28.891809,41.000074],[28.891873,40.998775],[28.891868,40.998604],[28.891722,40.998523],[28.891646,40.998455],[28.891621,40.998349],[28.891704,40.998235],[28.891928,40.998031],[28.892034,40.997946],[28.892064,40.997785],[28.892136,40.997653],[28.892324,40.997493],[28.89257,40.99733],[28.893081,40.996868],[28.893274,40.996691],[28.89337,40.996524],[28.893449,40.99643],[28.893601,40.996379],[28.893753,40.996289],[28.893852,40.996164],[28.893897,40.996023],[28.893984,40.995891],[28.894163,40.995828],[28.894254,40.99575],[28.894274,40.995703],[28.894244,40.995644],[28.893903,40.995196],[28.893913,40.995085],[28.893846,40.994911],[28.893436,40.994165],[28.892901,40.993336],[28.892827,40.993253],[28.892825,40.993252],[28.89254,40.99293],[28.892465,40.992794],[28.891648,40.990689],[28.891877,40.989973],[28.89194,40.989703],[28.891858,40.989249],[28.891861,40.989067],[28.892073,40.988695],[28.892086,40.988351],[28.891884,40.987693],[28.891887,40.987616],[28.891893,40.987402],[28.891768,40.987222],[28.891677,40.986891],[28.891675,40.986565],[28.89148,40.985925],[28.891443,40.985601],[28.891285,40.985367],[28.891307,40.984708],[28.891348,40.984567],[28.891349,40.984494],[28.891336,40.984385],[28.891257,40.984228],[28.89117,40.984127],[28.891097,40.983838],[28.891059,40.983579],[28.890958,40.983354],[28.890794,40.982773],[28.890764,40.982708],[28.890641,40.982637],[28.890545,40.98263],[28.889464,40.982666],[28.889459,40.982485],[28.887789,40.98249],[28.886608,40.982488],[28.885858,40.982471],[28.885496,40.982436],[28.885025,40.982365],[28.884454,40.982272],[28.884442,40.982407],[28.884481,40.98328],[28.884507,40.983829],[28.88446,40.985261],[28.884423,40.986062],[28.884367,40.986641],[28.884296,40.987162],[28.884274,40.987445],[28.884309,40.987737],[28.884367,40.988021],[28.884443,40.98827],[28.884282,40.988321],[28.884061,40.988246],[28.883847,40.988355],[28.883522,40.988578],[28.882903,40.988796],[28.882399,40.989219],[28.882208,40.989343],[28.881824,40.989526],[28.881415,40.98997],[28.881166,40.990229],[28.881023,40.990281],[28.880499,40.990296],[28.879688,40.990301],[28.879089,40.99026],[28.878844,40.990262],[28.87842,40.990419],[28.878099,40.9906],[28.877831,40.990781],[28.877639,40.991006],[28.877431,40.991361],[28.87725,40.991848],[28.877125,40.992],[28.876908,40.992109],[28.876252,40.992334],[28.875645,40.992542],[28.875624,40.992821],[28.875613,40.993284],[28.874896,40.993302],[28.874215,40.993318],[28.874197,40.99357],[28.874184,40.994146],[28.874156,40.994806],[28.874151,40.99547],[28.874141,40.995865],[28.874116,40.99696],[28.874096,40.997875],[28.874059,40.99828],[28.874063,40.998281],[28.874935,40.998512],[28.87562,40.998697],[28.876585,40.998984],[28.87765,40.999298],[28.87822,40.999466],[28.879382,40.999815],[28.880419,41.000122],[28.880738,41.000218],[28.881742,41.000517],[28.882983,41.000884],[28.884135,41.001219],[28.884772,41.001407],[28.88559,41.001666],[28.887142,41.002126],[28.888323,41.002477],[28.889033,41.002701],[28.889496,41.002852],[28.890237,41.003118],[28.890712,41.00334],[28.891124,41.003553],[28.891549,41.003773],[28.89206,41.004085],[28.892956,41.004707],[28.893749,41.005234],[28.895321,41.006301],[28.895954,41.006727],[28.896428,41.007052],[28.896503,41.006801],[28.896453,41.006688],[28.896365,41.00656],[28.896245,41.006461],[28.896325,41.006247],[28.896251,41.006085],[28.896182,41.005977],[28.895915,41.005808],[28.895723,41.005742],[28.895552,41.005545],[28.894859,41.004669],[28.894452,41.004015],[28.893405,41.002803],[28.893135,41.002414],[28.893046,41.002236]]]}},{"type":"Feature","properties":{"id":"TR-Y-34-007-M-0009","level":"yerlesim","type":"mahalle","parent_id":"TR-D-34-007","province_id":"TR-P-34","district_id":"TR-D-34-007","name":"Sakızağacı","source_raw_name":"SAKIZAĞACI","source":"Kullanıcı tarafından sağlanan KML","source_label":"Kullanıcı tarafından sağlanan KML","source_name":"Istanbul Mahalle KML"},"geometry":{"type":"Polygon","coordinates":[[[28.8908,40.980088],[28.890811,40.98003],[28.890818,40.980038],[28.890864,40.980017],[28.890878,40.979971],[28.890882,40.979958],[28.890885,40.979948],[28.890908,40.979875],[28.890955,40.97971],[28.890991,40.979589],[28.891008,40.979523],[28.891012,40.979487],[28.891023,40.979403],[28.891026,40.979244],[28.891026,40.979083],[28.891023,40.97894],[28.891027,40.978916],[28.891027,40.978821],[28.891025,40.978707],[28.891024,40.978623],[28.891023,40.978533],[28.891031,40.978407],[28.891034,40.978356],[28.891031,40.978258],[28.891031,40.978134],[28.891034,40.978024],[28.891024,40.977967],[28.890994,40.977921],[28.890956,40.977893],[28.890898,40.977863],[28.890856,40.977852],[28.890805,40.977846],[28.890746,40.977852],[28.890698,40.977865],[28.890652,40.977894],[28.890609,40.977928],[28.890578,40.977977],[28.890574,40.978039],[28.890599,40.978092],[28.890625,40.978121],[28.890655,40.978142],[28.890701,40.978162],[28.890757,40.978187],[28.89078,40.978198],[28.890789,40.97821],[28.8908,40.978229],[28.890795,40.978287],[28.890793,40.978454],[28.890796,40.978619],[28.890791,40.978777],[28.890789,40.978961],[28.890791,40.97914],[28.890789,40.979315],[28.890786,40.97943],[28.890777,40.979508],[28.890734,40.979659],[28.890669,40.979855],[28.890638,40.979934],[28.890633,40.979938],[28.890622,40.97994],[28.890574,40.979935],[28.890436,40.979913],[28.8903,40.9799],[28.890176,40.979886],[28.890017,40.979862],[28.889884,40.979844],[28.889744,40.979817],[28.889627,40.979795],[28.889493,40.979768],[28.889343,40.979734],[28.889307,40.979733],[28.889305,40.979714],[28.889277,40.979701],[28.88936,40.979586],[28.889299,40.979561],[28.88921,40.979682],[28.889153,40.979654],[28.889055,40.97959],[28.888955,40.979521],[28.888848,40.979461],[28.888682,40.979393],[28.888568,40.979337],[28.888437,40.979266],[28.888328,40.979209],[28.888229,40.979149],[28.888127,40.979102],[28.888035,40.979048],[28.88794,40.979002],[28.887867,40.978952],[28.887794,40.978908],[28.887706,40.978856],[28.887591,40.978796],[28.887512,40.978747],[28.887418,40.978692],[28.887328,40.978626],[28.887058,40.978453],[28.886997,40.978427],[28.886945,40.978407],[28.886862,40.978363],[28.886819,40.97833],[28.886782,40.978319],[28.886742,40.978294],[28.886682,40.978282],[28.886634,40.978244],[28.88658,40.978239],[28.886553,40.978211],[28.886519,40.97821],[28.886479,40.978188],[28.886435,40.978156],[28.886413,40.978107],[28.886386,40.978076],[28.88636,40.978057],[28.886343,40.97801],[28.886316,40.977924],[28.886269,40.977834],[28.886234,40.977775],[28.886189,40.977702],[28.886144,40.977647],[28.88609,40.977599],[28.886026,40.977543],[28.885932,40.977472],[28.885843,40.977405],[28.885773,40.977357],[28.885724,40.977314],[28.885681,40.977286],[28.885623,40.977248],[28.88553,40.977189],[28.885442,40.977142],[28.885319,40.977089],[28.885206,40.97704],[28.885125,40.977007],[28.885064,40.97698],[28.884953,40.976925],[28.884835,40.976863],[28.884739,40.97683],[28.884646,40.976809],[28.884553,40.976793],[28.884492,40.976785],[28.884463,40.976783],[28.884437,40.976769],[28.884342,40.976756],[28.884329,40.976755],[28.884315,40.976762],[28.884296,40.976763],[28.884299,40.976754],[28.884243,40.976743],[28.884161,40.976741],[28.884078,40.97674],[28.884017,40.976743],[28.883965,40.976742],[28.883915,40.976742],[28.883798,40.976746],[28.883643,40.976759],[28.883545,40.976777],[28.883446,40.97679],[28.883395,40.976791],[28.883332,40.976801],[28.883262,40.976776],[28.883221,40.976749],[28.883184,40.976739],[28.883148,40.976701],[28.883101,40.976669],[28.88304,40.976653],[28.882985,40.976611],[28.88293,40.976567],[28.882884,40.97656],[28.882867,40.976562],[28.882828,40.976523],[28.882752,40.976467],[28.882696,40.976429],[28.882662,40.97641],[28.882588,40.976362],[28.882555,40.976354],[28.882528,40.976322],[28.882493,40.976314],[28.882469,40.976291],[28.882417,40.976248],[28.882377,40.976234],[28.882356,40.976223],[28.882345,40.976204],[28.882338,40.976193],[28.882315,40.976186],[28.8823,40.976163],[28.882275,40.976148],[28.882248,40.976141],[28.882239,40.976136],[28.882228,40.976123],[28.8822,40.976109],[28.882174,40.976093],[28.882153,40.976074],[28.882132,40.976067],[28.88211,40.976064],[28.882099,40.976046],[28.882076,40.976022],[28.882055,40.976012],[28.882036,40.976002],[28.882017,40.975999],[28.882004,40.975985],[28.881991,40.975984],[28.881973,40.975968],[28.881949,40.975952],[28.881922,40.975936],[28.881883,40.97592],[28.881853,40.975898],[28.881827,40.975874],[28.88181,40.97586],[28.881774,40.975838],[28.881739,40.975815],[28.88172,40.975795],[28.881709,40.975785],[28.88168,40.975777],[28.881664,40.97577],[28.881652,40.975758],[28.881602,40.975727],[28.881563,40.975701],[28.881529,40.975682],[28.881498,40.975668],[28.88147,40.975664],[28.881447,40.975658],[28.881429,40.975638],[28.881407,40.975622],[28.881394,40.975609],[28.881377,40.975589],[28.881351,40.975577],[28.881312,40.975551],[28.881267,40.975522],[28.881227,40.975494],[28.881206,40.975485],[28.881184,40.975467],[28.881167,40.975453],[28.881133,40.975433],[28.881107,40.97542],[28.881071,40.975402],[28.881049,40.975389],[28.881016,40.975363],[28.880968,40.975335],[28.880874,40.975266],[28.880848,40.975248],[28.880826,40.975232],[28.880812,40.975222],[28.880809,40.97522],[28.880795,40.975211],[28.880753,40.97518],[28.880743,40.97517],[28.880731,40.975165],[28.880729,40.975163],[28.880702,40.975147],[28.880651,40.975109],[28.880624,40.975091],[28.880586,40.975066],[28.880565,40.975052],[28.880558,40.975045],[28.880546,40.975036],[28.880521,40.975022],[28.880498,40.975],[28.880492,40.974995],[28.880452,40.974966],[28.880342,40.974888],[28.880307,40.974861],[28.880307,40.974857],[28.880299,40.97485],[28.88028,40.97484],[28.88023,40.974809],[28.880176,40.974782],[28.880134,40.974762],[28.880084,40.974738],[28.880002,40.974699],[28.879935,40.974665],[28.879884,40.974642],[28.87985,40.974626],[28.87981,40.974613],[28.879776,40.974599],[28.879685,40.974564],[28.879594,40.97453],[28.879493,40.974488],[28.879451,40.974476],[28.879424,40.974468],[28.879389,40.974455],[28.879352,40.974442],[28.878874,40.974285],[28.878868,40.974279],[28.878833,40.974267],[28.878792,40.974258],[28.878317,40.974035],[28.878292,40.974014],[28.878284,40.974006],[28.878264,40.973979],[28.878248,40.97396],[28.878228,40.973938],[28.878196,40.973907],[28.878182,40.973896],[28.878162,40.97388],[28.878147,40.97386],[28.878124,40.973836],[28.878109,40.973812],[28.878088,40.973794],[28.878065,40.973778],[28.87804,40.973757],[28.878012,40.973737],[28.877971,40.973719],[28.877946,40.97371],[28.877927,40.973706],[28.877905,40.973704],[28.877884,40.973705],[28.877867,40.973706],[28.877857,40.973711],[28.877849,40.973721],[28.877838,40.973725],[28.877832,40.973738],[28.877826,40.973754],[28.878013,40.974035],[28.87806,40.974092],[28.878054,40.974207],[28.877971,40.974428],[28.878123,40.974756],[28.878021,40.974985],[28.878013,40.975063],[28.878,40.975191],[28.877979,40.975435],[28.877965,40.975612],[28.877915,40.976104],[28.877868,40.976588],[28.877811,40.977087],[28.877766,40.977487],[28.877717,40.977927],[28.877643,40.978603],[28.878544,40.978646],[28.879336,40.978703],[28.879967,40.978742],[28.881092,40.97881],[28.882027,40.978974],[28.882369,40.979053],[28.882784,40.979171],[28.883278,40.979342],[28.88378,40.979528],[28.884258,40.979733],[28.884847,40.979988],[28.885069,40.980086],[28.885276,40.980219],[28.885486,40.980648],[28.885623,40.980858],[28.885892,40.981015],[28.88623,40.981166],[28.886951,40.981438],[28.887645,40.981704],[28.888131,40.981893],[28.888396,40.981963],[28.888873,40.982059],[28.889754,40.982229],[28.8908,40.980088]]]}},{"type":"Feature","properties":{"id":"TR-Y-34-007-M-0010","level":"yerlesim","type":"mahalle","parent_id":"TR-D-34-007","province_id":"TR-P-34","district_id":"TR-D-34-007","name":"Şenlikköy","source_raw_name":"ŞENLİKKÖY","source":"Kullanıcı tarafından sağlanan KML","source_label":"Kullanıcı tarafından sağlanan KML","source_name":"Istanbul Mahalle KML"},"geometry":{"type":"Polygon","coordinates":[[[28.794442,40.988151],[28.79858,40.989111],[28.798356,40.988885],[28.798044,40.988493],[28.797145,40.987012],[28.798678,40.986422],[28.799544,40.985862],[28.80012,40.985221],[28.801055,40.983693],[28.801506,40.982809],[28.802213,40.981594],[28.803318,40.979612],[28.804177,40.978065],[28.804767,40.976794],[28.804929,40.976379],[28.805075,40.975887],[28.805113,40.975318],[28.805014,40.97372],[28.804901,40.97185],[28.804826,40.969974],[28.804791,40.969377],[28.804853,40.968981],[28.804922,40.96867],[28.805207,40.968061],[28.805757,40.966984],[28.806246,40.966176],[28.806387,40.965969],[28.806815,40.965522],[28.807371,40.96507],[28.807291,40.964994],[28.807092,40.965094],[28.806933,40.965167],[28.806747,40.965192],[28.806514,40.965163],[28.80633,40.965116],[28.806154,40.965021],[28.805787,40.964813],[28.805516,40.964721],[28.805284,40.964664],[28.804594,40.964636],[28.804107,40.964589],[28.803231,40.964456],[28.80313,40.964134],[28.803048,40.96387],[28.802986,40.96334],[28.802936,40.962914],[28.802888,40.962497],[28.802855,40.96233],[28.8028,40.962351],[28.802745,40.962368],[28.802686,40.962363],[28.802628,40.96237],[28.802572,40.962386],[28.802517,40.962405],[28.802463,40.962427],[28.802413,40.962453],[28.802359,40.962474],[28.802303,40.962493],[28.80199,40.962574],[28.801937,40.962596],[28.801883,40.962617],[28.801823,40.962636],[28.80177,40.962657],[28.801718,40.962678],[28.801665,40.962703],[28.801613,40.962725],[28.80156,40.962744],[28.801504,40.962758],[28.801452,40.962779],[28.8014,40.962805],[28.801347,40.962831],[28.801293,40.962853],[28.801234,40.962872],[28.801175,40.962882],[28.801115,40.962894],[28.801058,40.962908],[28.800999,40.962925],[28.80094,40.96294],[28.800878,40.962953],[28.800818,40.962963],[28.800759,40.962973],[28.800699,40.962983],[28.800643,40.962997],[28.80058,40.963012],[28.800517,40.963026],[28.800451,40.963035],[28.800389,40.963049],[28.800329,40.963064],[28.800269,40.963077],[28.800206,40.96309],[28.800147,40.963102],[28.800091,40.963118],[28.800032,40.963132],[28.800001,40.96314],[28.799766,40.963242],[28.79962,40.963303],[28.79951,40.963344],[28.79943,40.963373],[28.799331,40.963415],[28.799282,40.963436],[28.799247,40.96346],[28.799201,40.963468],[28.799135,40.963496],[28.799059,40.963532],[28.798968,40.963573],[28.798748,40.963671],[28.798649,40.963719],[28.798575,40.963761],[28.798515,40.963799],[28.798441,40.963848],[28.798398,40.963899],[28.798355,40.96394],[28.798324,40.963983],[28.798302,40.964025],[28.798279,40.964061],[28.798263,40.964086],[28.798242,40.964124],[28.79821,40.964199],[28.798181,40.964251],[28.798155,40.9643],[28.79813,40.964337],[28.798103,40.964369],[28.79806,40.964414],[28.798021,40.964449],[28.797976,40.964477],[28.797933,40.96451],[28.797908,40.964523],[28.797854,40.964559],[28.797828,40.96458],[28.797766,40.964627],[28.797708,40.964652],[28.797667,40.964673],[28.797638,40.964687],[28.797597,40.964714],[28.797529,40.964751],[28.797502,40.964769],[28.797465,40.964786],[28.797432,40.964803],[28.797387,40.964827],[28.797317,40.964865],[28.797288,40.964885],[28.797255,40.964901],[28.79722,40.964922],[28.797181,40.964944],[28.797148,40.964956],[28.797092,40.964985],[28.797078,40.965007],[28.797019,40.965068],[28.79699,40.965101],[28.796955,40.965139],[28.796924,40.96517],[28.796895,40.965205],[28.796856,40.965246],[28.796826,40.965274],[28.796793,40.965304],[28.796754,40.96534],[28.796719,40.965363],[28.796692,40.965385],[28.796641,40.965439],[28.796616,40.96548],[28.796489,40.965594],[28.796396,40.965672],[28.796343,40.965711],[28.796291,40.96575],[28.796232,40.965797],[28.796178,40.96584],[28.796053,40.965939],[28.795962,40.966011],[28.795892,40.966068],[28.795802,40.966131],[28.795728,40.966195],[28.795687,40.966238],[28.795526,40.966359],[28.795446,40.966433],[28.795352,40.96651],[28.795286,40.96657],[28.79523,40.966611],[28.795164,40.96665],[28.795105,40.966688],[28.795068,40.966735],[28.795033,40.966763],[28.79494,40.966839],[28.794854,40.966909],[28.79472,40.967021],[28.794632,40.967103],[28.79457,40.967152],[28.794523,40.967189],[28.794457,40.967252],[28.794367,40.967354],[28.794299,40.967442],[28.794262,40.967499],[28.794232,40.967554],[28.794199,40.967613],[28.794187,40.967645],[28.794162,40.967679],[28.794134,40.967728],[28.794115,40.967766],[28.794097,40.967799],[28.794074,40.967833],[28.794066,40.967853],[28.794044,40.967883],[28.794023,40.967921],[28.794003,40.967963],[28.793993,40.967974],[28.793943,40.968],[28.7939,40.968025],[28.793877,40.968039],[28.793834,40.968066],[28.793748,40.968119],[28.793708,40.968149],[28.793671,40.968177],[28.793577,40.968225],[28.793521,40.968256],[28.793465,40.968288],[28.793387,40.968315],[28.793327,40.968346],[28.793284,40.968373],[28.793222,40.968409],[28.793142,40.968435],[28.793105,40.968455],[28.793,40.968512],[28.792946,40.968537],[28.792874,40.968565],[28.792818,40.968594],[28.792781,40.968617],[28.79274,40.968643],[28.792687,40.968676],[28.79265,40.968701],[28.7926,40.968732],[28.792532,40.968764],[28.792497,40.968784],[28.792462,40.968802],[28.792431,40.968814],[28.792386,40.96883],[28.79233,40.968852],[28.792267,40.968904],[28.792242,40.968929],[28.792197,40.968962],[28.792168,40.968988],[28.792114,40.969018],[28.792086,40.969033],[28.792051,40.969052],[28.792015,40.96907],[28.791964,40.969096],[28.791954,40.969101],[28.791853,40.969139],[28.791799,40.969163],[28.791766,40.969177],[28.791739,40.969191],[28.791715,40.969202],[28.791686,40.969212],[28.791669,40.969216],[28.791632,40.969234],[28.791583,40.969253],[28.791541,40.969265],[28.791498,40.969281],[28.79142,40.969313],[28.791403,40.969325],[28.79137,40.969351],[28.791339,40.969365],[28.791304,40.969376],[28.791267,40.9694],[28.791232,40.969415],[28.791191,40.969442],[28.791158,40.969466],[28.791125,40.969485],[28.791086,40.969508],[28.79096,40.969548],[28.790886,40.969583],[28.790843,40.969606],[28.790791,40.969635],[28.790763,40.969657],[28.790719,40.969682],[28.790672,40.969718],[28.790639,40.969743],[28.790592,40.969773],[28.790522,40.969811],[28.790491,40.969836],[28.790452,40.969861],[28.7904,40.969897],[28.790347,40.969924],[28.790269,40.969957],[28.790205,40.969989],[28.790155,40.970011],[28.790106,40.97003],[28.79004,40.970055],[28.789988,40.970073],[28.789941,40.970084],[28.789893,40.970104],[28.789852,40.970119],[28.789745,40.970166],[28.789702,40.970186],[28.789644,40.970216],[28.789574,40.970246],[28.7895,40.970278],[28.789438,40.970302],[28.789378,40.97033],[28.789318,40.970357],[28.789238,40.970385],[28.789195,40.970401],[28.789141,40.970423],[28.789092,40.970448],[28.788986,40.970479],[28.788974,40.970491],[28.788935,40.970519],[28.788902,40.970549],[28.788851,40.970592],[28.788828,40.970615],[28.78874,40.970675],[28.788692,40.970699],[28.788641,40.970726],[28.788599,40.970748],[28.788544,40.970765],[28.788482,40.970776],[28.78847,40.970801],[28.788453,40.970817],[28.78842,40.970838],[28.788407,40.970843],[28.788584,40.971093],[28.788626,40.971153],[28.788723,40.971291],[28.788764,40.97135],[28.788876,40.97151],[28.789129,40.971872],[28.789232,40.972056],[28.789477,40.972465],[28.789552,40.9727],[28.789683,40.973475],[28.789785,40.973907],[28.789877,40.97412],[28.790102,40.974556],[28.790523,40.975338],[28.790776,40.975808],[28.791319,40.976828],[28.791797,40.977737],[28.792313,40.978731],[28.792859,40.979753],[28.793222,40.980455],[28.793629,40.981122],[28.792378,40.981141],[28.792019,40.981137],[28.792016,40.981137],[28.791771,40.981149],[28.791498,40.981208],[28.791249,40.98128],[28.790969,40.981386],[28.790191,40.981707],[28.789786,40.981874],[28.788622,40.9825],[28.788333,40.982638],[28.788148,40.982676],[28.78746,40.982604],[28.786309,40.981747],[28.786159,40.981634],[28.786014,40.981567],[28.785895,40.981561],[28.785894,40.981561],[28.785892,40.981561],[28.785572,40.981587],[28.785228,40.981682],[28.784432,40.98197],[28.783531,40.982352],[28.782974,40.98254],[28.782052,40.982901],[28.781646,40.983109],[28.781652,40.98322],[28.78164,40.983434],[28.780715,40.983868],[28.780259,40.984079],[28.779669,40.984341],[28.779473,40.984411],[28.779881,40.984489],[28.781014,40.984771],[28.781718,40.984983],[28.781663,40.98532],[28.782303,40.985325],[28.78269,40.985341],[28.78303,40.98537],[28.783404,40.985411],[28.783783,40.985467],[28.784152,40.985533],[28.784496,40.985596],[28.785988,40.985911],[28.786925,40.986155],[28.788425,40.986632],[28.789177,40.986939],[28.789817,40.98724],[28.790733,40.987788],[28.791732,40.98855],[28.792411,40.989205],[28.79271,40.988961],[28.793351,40.988596],[28.794442,40.988151]]]}},{"type":"Feature","properties":{"id":"TR-Y-34-007-M-0011","level":"yerlesim","type":"mahalle","parent_id":"TR-D-34-007","province_id":"TR-P-34","district_id":"TR-D-34-007","name":"Yenimahalle","source_raw_name":"YENİMAHALLE","source":"Kullanıcı tarafından sağlanan KML","source_label":"Kullanıcı tarafından sağlanan KML","source_name":"Istanbul Mahalle KML"},"geometry":{"type":"Polygon","coordinates":[[[28.877643,40.978603],[28.877538,40.979516],[28.877447,40.980458],[28.877379,40.981075],[28.878343,40.981253],[28.879859,40.98151],[28.880969,40.981691],[28.882045,40.981872],[28.883334,40.982096],[28.884454,40.982272],[28.885025,40.982365],[28.885496,40.982436],[28.885858,40.982471],[28.886608,40.982488],[28.887789,40.98249],[28.889459,40.982485],[28.889508,40.982372],[28.889638,40.982327],[28.889754,40.982229],[28.888873,40.982059],[28.888396,40.981963],[28.888131,40.981893],[28.887645,40.981704],[28.886951,40.981438],[28.88623,40.981166],[28.885892,40.981015],[28.885623,40.980858],[28.885486,40.980648],[28.885276,40.980219],[28.885069,40.980086],[28.884847,40.979988],[28.884258,40.979733],[28.88378,40.979528],[28.883278,40.979342],[28.882784,40.979171],[28.882369,40.979053],[28.882027,40.978974],[28.881092,40.97881],[28.879967,40.978742],[28.879336,40.978703],[28.878544,40.978646],[28.877643,40.978603]]]}},{"type":"Feature","properties":{"id":"TR-Y-34-007-M-0012","level":"yerlesim","type":"mahalle","parent_id":"TR-D-34-007","province_id":"TR-P-34","district_id":"TR-D-34-007","name":"Yeşilköy","source_raw_name":"YEŞİLKÖY","source":"Kullanıcı tarafından sağlanan KML","source_label":"Kullanıcı tarafından sağlanan KML","source_name":"Istanbul Mahalle KML"},"geometry":{"type":"Polygon","coordinates":[[[28.818896,40.993325],[28.819763,40.993121],[28.820575,40.993065],[28.821693,40.992998],[28.821828,40.99299],[28.822028,40.992544],[28.822245,40.992263],[28.822453,40.992138],[28.822769,40.99202],[28.823666,40.991775],[28.826094,40.99099],[28.828453,40.990106],[28.829765,40.989612],[28.830372,40.989394],[28.831204,40.989154],[28.83267,40.988685],[28.835391,40.98763],[28.836186,40.987316],[28.836749,40.987063],[28.83721,40.98675],[28.837639,40.986472],[28.838095,40.98611],[28.838676,40.98556],[28.83901,40.985149],[28.839333,40.984703],[28.839638,40.984145],[28.840184,40.983023],[28.840523,40.982358],[28.841195,40.98097],[28.841601,40.980144],[28.842281,40.978741],[28.841473,40.97849],[28.840319,40.978164],[28.838818,40.976641],[28.838433,40.976001],[28.838024,40.975146],[28.837781,40.974479],[28.83722,40.973652],[28.836709,40.973182],[28.83608,40.972472],[28.835479,40.971794],[28.835236,40.971434],[28.835127,40.971201],[28.834946,40.970741],[28.834473,40.969243],[28.834024,40.967952],[28.833937,40.967551],[28.833848,40.967242],[28.833779,40.965721],[28.833785,40.965132],[28.833715,40.964631],[28.834042,40.963977],[28.834223,40.963683],[28.834403,40.963452],[28.834464,40.96332],[28.83521,40.962529],[28.836197,40.961485],[28.83637,40.961302],[28.837185,40.960427],[28.837858,40.959719],[28.83825,40.959306],[28.838779,40.958772],[28.839087,40.958799],[28.839172,40.958503],[28.839366,40.958418],[28.839357,40.958417],[28.839345,40.958414],[28.839335,40.958408],[28.839324,40.958402],[28.839317,40.958394],[28.839314,40.958389],[28.839312,40.958386],[28.839305,40.958377],[28.8393,40.958369],[28.839296,40.95836],[28.83929,40.958353],[28.839273,40.958363],[28.83926,40.958304],[28.83922,40.958227],[28.839193,40.958159],[28.839185,40.958091],[28.839174,40.958033],[28.839161,40.957988],[28.839133,40.957961],[28.839119,40.95793],[28.839111,40.957881],[28.839092,40.957798],[28.839074,40.957722],[28.839061,40.95765],[28.839048,40.957589],[28.83904,40.957534],[28.839035,40.957456],[28.839029,40.957379],[28.839015,40.957338],[28.839007,40.957286],[28.838998,40.957229],[28.838983,40.957189],[28.83894,40.957119],[28.838875,40.957019],[28.838859,40.956993],[28.838824,40.956979],[28.838746,40.956955],[28.838586,40.956933],[28.838523,40.956911],[28.83845,40.956885],[28.838368,40.956852],[28.838306,40.956825],[28.838241,40.956811],[28.838177,40.956798],[28.838128,40.956788],[28.838086,40.956767],[28.838027,40.956735],[28.83801,40.956729],[28.837995,40.956722],[28.837978,40.956716],[28.837965,40.95671],[28.83795,40.956704],[28.837937,40.956701],[28.837925,40.956701],[28.837915,40.9567],[28.837897,40.956697],[28.83788,40.956693],[28.837869,40.95669],[28.837852,40.956686],[28.837846,40.956683],[28.837836,40.956678],[28.837823,40.956674],[28.83781,40.956671],[28.8378,40.956668],[28.837784,40.956668],[28.837769,40.956672],[28.837754,40.956675],[28.83774,40.956677],[28.837731,40.956676],[28.837719,40.956674],[28.837708,40.956676],[28.837698,40.956684],[28.83769,40.956689],[28.837677,40.956695],[28.83767,40.956698],[28.837658,40.956703],[28.83765,40.956704],[28.837642,40.956706],[28.837637,40.956712],[28.837636,40.956718],[28.837636,40.956725],[28.837634,40.956731],[28.837627,40.95674],[28.837621,40.956745],[28.83762,40.95675],[28.837619,40.956758],[28.837616,40.956765],[28.837612,40.956777],[28.837609,40.956788],[28.837608,40.9568],[28.837609,40.956812],[28.837611,40.956823],[28.837617,40.95683],[28.837623,40.956834],[28.837626,40.956843],[28.83763,40.956851],[28.837633,40.956859],[28.837635,40.956865],[28.837644,40.956875],[28.837653,40.956882],[28.837665,40.956889],[28.837682,40.956897],[28.837697,40.9569],[28.837712,40.956904],[28.837725,40.956907],[28.837735,40.956911],[28.837747,40.956915],[28.83776,40.956918],[28.837769,40.95692],[28.837781,40.956923],[28.837795,40.956924],[28.837811,40.956924],[28.83782,40.956925],[28.837839,40.956923],[28.837854,40.956921],[28.837867,40.956922],[28.837882,40.956921],[28.837899,40.956921],[28.837915,40.956923],[28.837925,40.956924],[28.837938,40.956925],[28.837954,40.956925],[28.837973,40.956931],[28.837993,40.956937],[28.838003,40.95694],[28.838019,40.956941],[28.838031,40.956944],[28.838039,40.956946],[28.838047,40.95695],[28.838057,40.956954],[28.838065,40.956956],[28.838076,40.956956],[28.838083,40.956958],[28.838093,40.956964],[28.8381,40.956966],[28.838114,40.95697],[28.838128,40.956975],[28.838139,40.956979],[28.838145,40.956981],[28.838157,40.956987],[28.838171,40.95699],[28.838187,40.956994],[28.838193,40.956998],[28.8382,40.957004],[28.838207,40.957011],[28.838212,40.957018],[28.838216,40.957023],[28.838235,40.957053],[28.838242,40.957084],[28.838233,40.957161],[28.838228,40.957219],[28.8382,40.957275],[28.838147,40.957356],[28.838103,40.957415],[28.837995,40.957519],[28.837963,40.957544],[28.837927,40.957555],[28.837908,40.95756],[28.83788,40.957576],[28.837779,40.957616],[28.837668,40.957651],[28.837589,40.957676],[28.837494,40.957693],[28.837264,40.957739],[28.837076,40.95777],[28.836925,40.95778],[28.83682,40.957786],[28.836724,40.957776],[28.836597,40.957765],[28.836435,40.957761],[28.836263,40.957747],[28.836145,40.957737],[28.836046,40.957721],[28.835992,40.957712],[28.835924,40.957695],[28.835808,40.957671],[28.835697,40.957644],[28.835564,40.957599],[28.835479,40.957566],[28.835374,40.957522],[28.835306,40.957476],[28.83525,40.957442],[28.835217,40.957422],[28.835178,40.957399],[28.835147,40.95736],[28.835089,40.957306],[28.835034,40.957259],[28.835001,40.957218],[28.834944,40.957147],[28.834935,40.957122],[28.834907,40.957074],[28.834875,40.957005],[28.834848,40.95696],[28.834816,40.956924],[28.834808,40.956905],[28.834804,40.9569],[28.834797,40.956882],[28.834789,40.95685],[28.834784,40.956819],[28.834789,40.956795],[28.835529,40.956354],[28.83559,40.956372],[28.835663,40.956355],[28.83572,40.956317],[28.835752,40.956281],[28.835756,40.956243],[28.835731,40.956198],[28.835672,40.956164],[28.835595,40.95615],[28.835518,40.956167],[28.835455,40.95624],[28.8346,40.956774],[28.830003,40.954675],[28.82971,40.954709],[28.829181,40.954848],[28.829114,40.954847],[28.829046,40.954863],[28.829017,40.954881],[28.82902,40.954914],[28.829039,40.954949],[28.829157,40.955038],[28.829204,40.955041],[28.829261,40.955019],[28.829352,40.95498],[28.829419,40.954966],[28.8295,40.954949],[28.829576,40.954969],[28.829679,40.955026],[28.829728,40.95511],[28.829741,40.955172],[28.829738,40.955319],[28.829699,40.955424],[28.829653,40.955511],[28.829576,40.955618],[28.829416,40.955753],[28.829231,40.955868],[28.829055,40.955953],[28.828873,40.956028],[28.828668,40.956064],[28.828441,40.956076],[28.828279,40.956071],[28.828139,40.956057],[28.82798,40.956017],[28.82774,40.955918],[28.827526,40.955707],[28.827595,40.955527],[28.827729,40.95548],[28.827817,40.955427],[28.827867,40.95543],[28.827918,40.955426],[28.82797,40.95542],[28.828008,40.955394],[28.827988,40.955291],[28.827968,40.95527],[28.827926,40.955255],[28.827861,40.955256],[28.827782,40.955271],[28.82715,40.955477],[28.826355,40.95579],[28.826333,40.955797],[28.826289,40.955787],[28.826244,40.955794],[28.826194,40.955809],[28.82611,40.955855],[28.826087,40.955876],[28.826081,40.955899],[28.826095,40.955924],[28.826112,40.95595],[28.826143,40.955987],[28.826171,40.956005],[28.826205,40.95602],[28.826248,40.956026],[28.826288,40.956021],[28.826343,40.955995],[28.826345,40.955986],[28.826352,40.955983],[28.82692,40.955762],[28.826948,40.955741],[28.827013,40.955833],[28.827194,40.956123],[28.827211,40.956291],[28.82716,40.956471],[28.827047,40.956632],[28.826906,40.956768],[28.82673,40.956915],[28.826418,40.957058],[28.826128,40.957128],[28.825775,40.957174],[28.825496,40.957184],[28.825237,40.957172],[28.825004,40.957141],[28.824811,40.957103],[28.824676,40.957062],[28.824548,40.957013],[28.824411,40.956943],[28.824351,40.956884],[28.824342,40.956842],[28.82436,40.956796],[28.824601,40.956342],[28.824602,40.956296],[28.824576,40.956265],[28.824517,40.956251],[28.824459,40.956256],[28.824439,40.956296],[28.824427,40.956292],[28.823951,40.957252],[28.823802,40.957212],[28.823754,40.95731],[28.822663,40.957008],[28.822655,40.956999],[28.82248,40.956405],[28.822148,40.95527],[28.822722,40.955179],[28.822677,40.955048],[28.822921,40.955001],[28.822899,40.954915],[28.823215,40.95485],[28.823261,40.954848],[28.823328,40.954821],[28.823375,40.954769],[28.823682,40.954733],[28.823854,40.954781],[28.824777,40.955125],[28.824784,40.955145],[28.824663,40.955329],[28.824703,40.955347],[28.824826,40.955184],[28.824851,40.955191],[28.824861,40.95522],[28.824875,40.955259],[28.824916,40.955296],[28.824965,40.955326],[28.825026,40.955344],[28.825095,40.955357],[28.825159,40.955354],[28.825222,40.955338],[28.82529,40.955309],[28.825344,40.955256],[28.825371,40.955206],[28.82538,40.955149],[28.825362,40.955085],[28.825342,40.955029],[28.825294,40.954988],[28.82522,40.954958],[28.825128,40.954952],[28.82505,40.954953],[28.824967,40.954964],[28.824921,40.954974],[28.823787,40.954536],[28.823731,40.954519],[28.823671,40.954521],[28.823271,40.954572],[28.8221,40.954747],[28.819019,40.955294],[28.818961,40.955304],[28.818901,40.955314],[28.818841,40.955323],[28.818776,40.955329],[28.818715,40.955331],[28.818654,40.955331],[28.818589,40.955328],[28.818528,40.955326],[28.818469,40.955333],[28.818407,40.955335],[28.818342,40.955332],[28.818285,40.955318],[28.818225,40.955312],[28.818165,40.955312],[28.818104,40.955307],[28.818039,40.9553],[28.817979,40.955286],[28.817922,40.95527],[28.817862,40.955261],[28.817802,40.955262],[28.817741,40.95526],[28.81767,40.95526],[28.817608,40.955259],[28.817543,40.955254],[28.817488,40.95526],[28.817431,40.955277],[28.817368,40.955282],[28.817307,40.955284],[28.817252,40.955302],[28.817194,40.955311],[28.817135,40.955325],[28.81708,40.955343],[28.817022,40.955352],[28.816963,40.955358],[28.8169,40.955358],[28.816844,40.955345],[28.816796,40.955316],[28.81675,40.955285],[28.816692,40.95527],[28.816665,40.955231],[28.816637,40.955188],[28.816606,40.955147],[28.816572,40.955109],[28.816535,40.95507],[28.8165,40.955032],[28.816456,40.955003],[28.8164,40.95499],[28.816338,40.954975],[28.81628,40.95499],[28.816222,40.954999],[28.816161,40.954998],[28.816107,40.954981],[28.816043,40.954982],[28.815984,40.954994],[28.815935,40.95502],[28.815888,40.955047],[28.815833,40.955065],[28.815775,40.955082],[28.815719,40.955098],[28.815658,40.955103],[28.815602,40.955121],[28.815561,40.955157],[28.81553,40.955198],[28.815518,40.955242],[28.815539,40.955284],[28.815567,40.955324],[28.815609,40.955352],[28.815667,40.955352],[28.815724,40.955334],[28.81578,40.955316],[28.81583,40.955291],[28.815879,40.955267],[28.815927,40.955291],[28.815967,40.955329],[28.815997,40.955369],[28.816016,40.955415],[28.816033,40.955457],[28.81604,40.955501],[28.816024,40.955547],[28.816015,40.955594],[28.815999,40.95564],[28.815985,40.955685],[28.815967,40.955729],[28.815932,40.955769],[28.815891,40.955806],[28.815854,40.955842],[28.815805,40.955874],[28.815758,40.955907],[28.815707,40.955938],[28.815659,40.955966],[28.815606,40.955992],[28.81555,40.956014],[28.815497,40.956037],[28.815447,40.956062],[28.815392,40.956087],[28.81534,40.956107],[28.815284,40.956127],[28.815227,40.95614],[28.815166,40.956142],[28.815162,40.95614],[28.815122,40.956141],[28.815063,40.95614],[28.815004,40.95614],[28.814943,40.956141],[28.814878,40.956142],[28.814812,40.956141],[28.814749,40.956137],[28.814689,40.956128],[28.814628,40.956113],[28.814574,40.956095],[28.814514,40.956076],[28.814462,40.956049],[28.814413,40.956023],[28.814368,40.955993],[28.814326,40.955957],[28.814287,40.955919],[28.814253,40.955879],[28.814218,40.955842],[28.814187,40.955804],[28.814165,40.95576],[28.814154,40.955716],[28.814148,40.955669],[28.81416,40.955625],[28.814203,40.955594],[28.814259,40.95558],[28.814321,40.955577],[28.814379,40.955585],[28.81444,40.955588],[28.814496,40.955575],[28.814536,40.955542],[28.814557,40.9555],[28.81457,40.955457],[28.814568,40.955411],[28.814536,40.955376],[28.814484,40.955353],[28.814424,40.955347],[28.814361,40.95535],[28.814304,40.955365],[28.814245,40.955377],[28.814187,40.95539],[28.814127,40.955399],[28.81407,40.955417],[28.814015,40.955438],[28.813958,40.955453],[28.813899,40.95546],[28.813846,40.955482],[28.813791,40.955502],[28.813737,40.955524],[28.813684,40.955543],[28.813626,40.955554],[28.813567,40.95556],[28.813504,40.955573],[28.813443,40.955575],[28.813411,40.95561],[28.813357,40.955625],[28.813295,40.95564],[28.813235,40.955652],[28.813175,40.955668],[28.813117,40.955684],[28.813053,40.955694],[28.812991,40.955707],[28.812935,40.955723],[28.812878,40.955734],[28.812816,40.95574],[28.812755,40.955746],[28.812704,40.955768],[28.812659,40.955796],[28.81262,40.955829],[28.812606,40.955873],[28.81261,40.955919],[28.81265,40.955954],[28.8127,40.955979],[28.812757,40.955995],[28.812811,40.955982],[28.812857,40.95595],[28.812901,40.955921],[28.812956,40.955906],[28.813009,40.955886],[28.813065,40.955873],[28.813125,40.955867],[28.813182,40.95588],[28.813239,40.955897],[28.813288,40.955925],[28.813323,40.955962],[28.813354,40.956001],[28.81338,40.956042],[28.813399,40.956088],[28.813411,40.956135],[28.813409,40.956183],[28.813407,40.95623],[28.813404,40.956276],[28.81339,40.956319],[28.813368,40.956362],[28.813344,40.956404],[28.813316,40.956444],[28.813294,40.956486],[28.813274,40.956528],[28.813246,40.956571],[28.813207,40.956605],[28.813165,40.956642],[28.813126,40.956678],[28.813083,40.956712],[28.813037,40.956742],[28.812986,40.956768],[28.812934,40.956792],[28.812876,40.956819],[28.812824,40.956847],[28.812775,40.956874],[28.812728,40.956902],[28.812675,40.956923],[28.81262,40.956943],[28.812566,40.956965],[28.812511,40.956985],[28.812454,40.957004],[28.8124,40.957021],[28.812345,40.957039],[28.812289,40.957057],[28.812232,40.957075],[28.812174,40.957093],[28.812116,40.957111],[28.812056,40.957131],[28.811997,40.957148],[28.811931,40.957154],[28.811863,40.95716],[28.811796,40.957161],[28.811729,40.957162],[28.81166,40.957162],[28.811598,40.957162],[28.811531,40.957162],[28.811469,40.957162],[28.811406,40.957163],[28.811345,40.957163],[28.811285,40.957163],[28.811223,40.957163],[28.811158,40.957164],[28.811094,40.957155],[28.811037,40.957142],[28.810982,40.957125],[28.810924,40.95711],[28.810861,40.957093],[28.810807,40.957073],[28.810748,40.957054],[28.810694,40.957029],[28.810643,40.957005],[28.810598,40.956976],[28.810549,40.956945],[28.810503,40.956913],[28.810455,40.956885],[28.810417,40.95685],[28.810385,40.956811],[28.810352,40.956772],[28.810326,40.95673],[28.810307,40.956684],[28.810304,40.956639],[28.810313,40.956593],[28.810338,40.956552],[28.81036,40.956509],[28.81039,40.956468],[28.810429,40.956433],[28.810472,40.9564],[28.810518,40.95637],[28.810566,40.956343],[28.81062,40.956319],[28.810675,40.9563],[28.810729,40.956276],[28.810779,40.956253],[28.81083,40.95623],[28.810876,40.956202],[28.81091,40.956165],[28.810927,40.956123],[28.810927,40.956078],[28.810901,40.956038],[28.810853,40.956013],[28.810795,40.956006],[28.810736,40.956012],[28.810683,40.95603],[28.810636,40.956061],[28.810594,40.956093],[28.810547,40.956121],[28.810492,40.956148],[28.810441,40.956174],[28.810396,40.956207],[28.810349,40.956237],[28.810304,40.956268],[28.810253,40.956299],[28.810197,40.956319],[28.810141,40.956337],[28.810091,40.956363],[28.810045,40.956396],[28.810002,40.956426],[28.809954,40.956455],[28.809903,40.956479],[28.809855,40.956506],[28.809808,40.956538],[28.809766,40.95657],[28.809722,40.9566],[28.809666,40.956627],[28.809612,40.95665],[28.809556,40.956673],[28.809503,40.956693],[28.809445,40.956717],[28.809398,40.956748],[28.809351,40.956776],[28.809309,40.956808],[28.809266,40.956841],[28.80923,40.956877],[28.809202,40.956919],[28.809185,40.956963],[28.809174,40.957009],[28.809162,40.957054],[28.809162,40.957101],[28.809169,40.95715],[28.809172,40.957196],[28.809173,40.957245],[28.80918,40.95729],[28.809184,40.957338],[28.809184,40.957383],[28.809187,40.957428],[28.809194,40.957474],[28.809202,40.957523],[28.809211,40.95757],[28.809212,40.957617],[28.809212,40.957663],[28.809206,40.957708],[28.809205,40.957804],[28.8092,40.958064],[28.80915,40.958228],[28.809057,40.958364],[28.808888,40.95855],[28.80853,40.95882],[28.808121,40.959048],[28.807618,40.959308],[28.807193,40.959538],[28.807138,40.959556],[28.807092,40.959584],[28.807046,40.959616],[28.807,40.959648],[28.806947,40.959673],[28.806894,40.959695],[28.806848,40.959725],[28.806811,40.959761],[28.806766,40.959793],[28.806718,40.959823],[28.80667,40.95985],[28.806623,40.95988],[28.80658,40.959912],[28.806549,40.959953],[28.806523,40.959994],[28.806483,40.960027],[28.806447,40.960064],[28.806412,40.960106],[28.806379,40.960143],[28.806347,40.960179],[28.806326,40.960224],[28.806302,40.960266],[28.80627,40.960305],[28.806234,40.960343],[28.806198,40.960379],[28.806162,40.960418],[28.806133,40.960458],[28.806105,40.9605],[28.806083,40.960542],[28.806053,40.960581],[28.806022,40.960619],[28.805992,40.960661],[28.805954,40.960701],[28.805924,40.96074],[28.805882,40.960775],[28.80584,40.960808],[28.8058,40.960843],[28.805764,40.960881],[28.805731,40.960919],[28.80569,40.960953],[28.805654,40.96099],[28.805627,40.961031],[28.805589,40.961071],[28.805552,40.961107],[28.805504,40.961136],[28.805451,40.961163],[28.805401,40.961192],[28.805353,40.961221],[28.805305,40.96125],[28.805255,40.961279],[28.805202,40.961306],[28.805156,40.961335],[28.805114,40.961366],[28.80507,40.961398],[28.805024,40.961431],[28.804978,40.961464],[28.804931,40.961494],[28.804879,40.96152],[28.804826,40.961543],[28.804783,40.961575],[28.804738,40.961607],[28.804687,40.961635],[28.804635,40.961657],[28.804578,40.961672],[28.80452,40.961682],[28.804464,40.9617],[28.804414,40.961723],[28.804366,40.96175],[28.804318,40.961781],[28.80427,40.961809],[28.804223,40.961836],[28.804168,40.961856],[28.804118,40.961881],[28.804071,40.961911],[28.804032,40.961943],[28.803984,40.961966],[28.803928,40.961981],[28.803893,40.962015],[28.80385,40.962045],[28.803806,40.962076],[28.803762,40.962107],[28.803729,40.962144],[28.803758,40.962183],[28.803756,40.96222],[28.803718,40.962186],[28.803692,40.962146],[28.803639,40.962126],[28.80358,40.962121],[28.803523,40.962133],[28.803472,40.962157],[28.80342,40.962178],[28.803364,40.962195],[28.803305,40.962206],[28.803248,40.962223],[28.803192,40.962242],[28.803133,40.962256],[28.803077,40.962268],[28.803025,40.962291],[28.802968,40.9623],[28.802909,40.962309],[28.802855,40.96233],[28.802888,40.962497],[28.802936,40.962914],[28.802986,40.96334],[28.803048,40.96387],[28.80313,40.964134],[28.803231,40.964456],[28.804107,40.964589],[28.804594,40.964636],[28.805284,40.964664],[28.805516,40.964721],[28.805787,40.964813],[28.806154,40.965021],[28.80633,40.965116],[28.806514,40.965163],[28.806747,40.965192],[28.806933,40.965167],[28.807092,40.965094],[28.807291,40.964994],[28.807371,40.96507],[28.806815,40.965522],[28.806387,40.965969],[28.806246,40.966176],[28.805757,40.966984],[28.805207,40.968061],[28.804922,40.96867],[28.804853,40.968981],[28.804791,40.969377],[28.804826,40.969974],[28.804901,40.97185],[28.805014,40.97372],[28.805113,40.975318],[28.805075,40.975887],[28.804929,40.976379],[28.804767,40.976794],[28.804177,40.978065],[28.803318,40.979612],[28.802213,40.981594],[28.801506,40.982809],[28.801055,40.983693],[28.80012,40.985221],[28.799544,40.985862],[28.798678,40.986422],[28.797145,40.987012],[28.798044,40.988493],[28.798356,40.988885],[28.79858,40.989111],[28.798645,40.989279],[28.798565,40.989668],[28.798457,40.990193],[28.79818,40.991291],[28.798174,40.991317],[28.798103,40.991692],[28.798066,40.991892],[28.797963,40.992382],[28.797907,40.992651],[28.797871,40.992824],[28.798224,40.992961],[28.797945,40.994175],[28.798013,40.994189],[28.797875,40.994741],[28.797799,40.99474],[28.797781,40.994816],[28.797246,40.997292],[28.796984,40.997545],[28.797568,40.998012],[28.799085,40.998935],[28.799829,40.999388],[28.800893,40.999877],[28.801893,41.00022],[28.802918,41.00046],[28.804093,41.000637],[28.805424,41.000707],[28.806851,41.000609],[28.808057,41.000401],[28.80962,40.99992],[28.81078,40.999387],[28.812165,40.998512],[28.813225,40.997514],[28.814699,40.995514],[28.815674,40.994601],[28.817043,40.993834],[28.818896,40.993325]],[[28.818865,40.989777],[28.818968,40.989367],[28.81988,40.989395],[28.822912,40.98945],[28.822968,40.988347],[28.820519,40.988335],[28.821768,40.98693],[28.822071,40.98708],[28.822103,40.986242],[28.822373,40.986257],[28.822416,40.985048],[28.821073,40.985012],[28.821245,40.984124],[28.821371,40.984138],[28.821771,40.984452],[28.822368,40.98473],[28.822861,40.984881],[28.824688,40.985401],[28.823525,40.987569],[28.823376,40.990403],[28.823438,40.991625],[28.823315,40.991729],[28.823268,40.991731],[28.82234,40.992],[28.82196,40.992372],[28.821145,40.992411],[28.820757,40.992166],[28.819761,40.991506],[28.819248,40.99109],[28.819047,40.990874],[28.81888,40.990546],[28.818799,40.990261],[28.818812,40.989942],[28.818865,40.989777]]]}},{"type":"Feature","properties":{"id":"TR-Y-34-007-M-0013","level":"yerlesim","type":"mahalle","parent_id":"TR-D-34-007","province_id":"TR-P-34","district_id":"TR-D-34-007","name":"Yeşilyurt","source_raw_name":"YEŞİLYURT","source":"Kullanıcı tarafından sağlanan KML","source_label":"Kullanıcı tarafından sağlanan KML","source_name":"Istanbul Mahalle KML"},"geometry":{"type":"Polygon","coordinates":[[[28.842959,40.977367],[28.843354,40.976839],[28.843894,40.976415],[28.845163,40.975764],[28.84565,40.975467],[28.845859,40.975215],[28.846201,40.97477],[28.847083,40.97362],[28.847192,40.973487],[28.847253,40.973448],[28.847291,40.973424],[28.847103,40.973243],[28.847178,40.973151],[28.851274,40.969859],[28.851352,40.969788],[28.851396,40.969759],[28.851433,40.969709],[28.851443,40.969658],[28.851435,40.969599],[28.851398,40.96956],[28.851336,40.969529],[28.851245,40.969533],[28.851152,40.969562],[28.851097,40.969621],[28.851054,40.96967],[28.851054,40.969787],[28.848867,40.971566],[28.848575,40.971528],[28.8478,40.971177],[28.846674,40.970547],[28.846551,40.97041],[28.846278,40.970011],[28.84604,40.969702],[28.845341,40.968987],[28.845194,40.968782],[28.845041,40.967705],[28.84534,40.967513],[28.845452,40.967228],[28.845674,40.967029],[28.845801,40.966834],[28.846236,40.966927],[28.846255,40.966872],[28.8454,40.96669],[28.845317,40.966541],[28.845202,40.966406],[28.844991,40.966252],[28.844719,40.966115],[28.844661,40.966035],[28.844353,40.965446],[28.844388,40.965432],[28.843689,40.964339],[28.843612,40.964233],[28.843706,40.964158],[28.84377,40.964006],[28.843659,40.96384],[28.8436,40.963814],[28.843411,40.963521],[28.843493,40.963484],[28.843168,40.96299],[28.843203,40.962974],[28.842389,40.9617],[28.842196,40.961397],[28.842173,40.961356],[28.842125,40.961304],[28.842033,40.961152],[28.841892,40.961164],[28.841806,40.961136],[28.841482,40.960961],[28.841431,40.960882],[28.841363,40.960779],[28.841311,40.9607],[28.841266,40.960629],[28.841219,40.960559],[28.841125,40.960415],[28.841068,40.960328],[28.841033,40.960272],[28.840993,40.960212],[28.840942,40.960133],[28.840882,40.960043],[28.840772,40.959873],[28.840674,40.959725],[28.840626,40.959652],[28.840538,40.959518],[28.840528,40.959521],[28.840422,40.959373],[28.840339,40.95926],[28.840302,40.959217],[28.840212,40.959119],[28.840114,40.959011],[28.840505,40.958806],[28.840592,40.958896],[28.840634,40.958874],[28.840375,40.95861],[28.840331,40.958635],[28.840365,40.958669],[28.840373,40.95867],[28.840479,40.958777],[28.840087,40.958982],[28.840085,40.958981],[28.839916,40.958828],[28.839745,40.958681],[28.839546,40.95851],[28.839513,40.958482],[28.839414,40.958396],[28.839384,40.958416],[28.839366,40.958418],[28.839172,40.958503],[28.839087,40.958799],[28.838779,40.958772],[28.83825,40.959306],[28.837858,40.959719],[28.837185,40.960427],[28.83637,40.961302],[28.836197,40.961485],[28.83521,40.962529],[28.834464,40.96332],[28.834403,40.963452],[28.834223,40.963683],[28.834042,40.963977],[28.833715,40.964631],[28.833785,40.965132],[28.833779,40.965721],[28.833848,40.967242],[28.833937,40.967551],[28.834024,40.967952],[28.834473,40.969243],[28.834946,40.970741],[28.835127,40.971201],[28.835236,40.971434],[28.835479,40.971794],[28.83608,40.972472],[28.836709,40.973182],[28.83722,40.973652],[28.837781,40.974479],[28.838024,40.975146],[28.838433,40.976001],[28.838818,40.976641],[28.840319,40.978164],[28.841473,40.97849],[28.842281,40.978741],[28.842573,40.978154],[28.842959,40.977367]]]}},{"type":"Feature","properties":{"id":"TR-Y-34-007-M-0014","level":"yerlesim","type":"mahalle","parent_id":"TR-D-34-007","province_id":"TR-P-34","district_id":"TR-D-34-007","name":"Zeytinlik","source_raw_name":"ZEYTİNLİK","source":"Kullanıcı tarafından sağlanan KML","source_label":"Kullanıcı tarafından sağlanan KML","source_name":"Istanbul Mahalle KML"},"geometry":{"type":"Polygon","coordinates":[[[28.873876,40.980519],[28.873886,40.980482],[28.874151,40.979457],[28.874374,40.978551],[28.874483,40.978113],[28.874704,40.97752],[28.874801,40.977166],[28.874931,40.976744],[28.875112,40.976203],[28.875167,40.975984],[28.875223,40.975699],[28.875497,40.974508],[28.875619,40.974154],[28.875889,40.974137],[28.876156,40.97412],[28.876237,40.974115],[28.876516,40.974097],[28.876526,40.974097],[28.87663,40.97409],[28.87663,40.97409],[28.876649,40.974035],[28.876695,40.973903],[28.876726,40.973811],[28.876793,40.973612],[28.876844,40.973462],[28.877142,40.973451],[28.877283,40.973448],[28.877364,40.973442],[28.87748,40.973393],[28.877483,40.973392],[28.87748,40.973383],[28.877512,40.973371],[28.877546,40.973354],[28.877586,40.973332],[28.877615,40.973313],[28.877667,40.973274],[28.877728,40.973227],[28.877784,40.973187],[28.87803,40.973098],[28.878054,40.973116],[28.878253,40.973267],[28.878278,40.973285],[28.878281,40.973283],[28.878343,40.97333],[28.87841,40.97328],[28.878302,40.9732],[28.878304,40.973196],[28.878286,40.973182],[28.878281,40.973185],[28.878217,40.973136],[28.87822,40.973133],[28.8782,40.973117],[28.878197,40.97312],[28.878128,40.973067],[28.87813,40.973065],[28.878105,40.973047],[28.878101,40.973049],[28.878031,40.972996],[28.878158,40.9729],[28.878117,40.972869],[28.878116,40.972868],[28.877954,40.972747],[28.878137,40.972608],[28.878476,40.972351],[28.878197,40.972137],[28.877841,40.971866],[28.877688,40.971749],[28.87749,40.971597],[28.877456,40.971623],[28.877592,40.971727],[28.877538,40.971767],[28.877401,40.971665],[28.8773,40.97174],[28.877101,40.971894],[28.876904,40.972044],[28.876675,40.972218],[28.876415,40.972416],[28.876332,40.972478],[28.876218,40.972566],[28.87622,40.972566],[28.876044,40.97265],[28.875727,40.972651],[28.874401,40.972654],[28.87435,40.972672],[28.874343,40.972671],[28.874183,40.972858],[28.87416,40.972885],[28.874117,40.973071],[28.873887,40.973355],[28.873784,40.97358],[28.873714,40.973796],[28.873501,40.973894],[28.87356,40.974322],[28.873544,40.974482],[28.873403,40.975014],[28.872313,40.975375],[28.872399,40.976537],[28.872479,40.97732],[28.872525,40.977974],[28.87249,40.978199],[28.87144,40.978106],[28.869653,40.977962],[28.869022,40.977903],[28.868755,40.97793],[28.868174,40.978475],[28.867726,40.978919],[28.867606,40.97905],[28.867555,40.979216],[28.867556,40.979375],[28.867574,40.97975],[28.867595,40.980012],[28.868068,40.97998],[28.871992,40.980627],[28.872264,40.980624],[28.873808,40.980775],[28.873876,40.980519]]]}},{"type":"Feature","properties":{"id":"TR-Y-34-007-M-0015","level":"yerlesim","type":"mahalle","parent_id":"TR-D-34-007","province_id":"TR-P-34","district_id":"TR-D-34-007","name":"Zuhuratbaba","source_raw_name":"ZUHURATBABA","source":"Kullanıcı tarafından sağlanan KML","source_label":"Kullanıcı tarafından sağlanan KML","source_name":"Istanbul Mahalle KML"},"geometry":{"type":"Polygon","coordinates":[[[28.873808,40.980775],[28.872264,40.980624],[28.871992,40.980627],[28.868068,40.97998],[28.867595,40.980012],[28.867627,40.980397],[28.867667,40.981195],[28.867738,40.981482],[28.867876,40.981881],[28.868156,40.982231],[28.868286,40.982466],[28.868289,40.982638],[28.867803,40.982706],[28.867597,40.982786],[28.867016,40.983083],[28.866191,40.983513],[28.86579,40.98366],[28.865905,40.983866],[28.865606,40.983998],[28.863976,40.9846],[28.863002,40.984852],[28.861974,40.985194],[28.860723,40.98564],[28.859833,40.986028],[28.859445,40.986069],[28.858427,40.986374],[28.857534,40.98668],[28.85638,40.986812],[28.856264,40.986688],[28.856115,40.986572],[28.855955,40.986497],[28.855826,40.986442],[28.855714,40.986372],[28.855657,40.986257],[28.855643,40.986134],[28.855663,40.985938],[28.853962,40.986207],[28.852797,40.986405],[28.852506,40.987314],[28.852132,40.988536],[28.85184,40.989515],[28.851649,40.9902],[28.851443,40.990881],[28.851049,40.991862],[28.852177,40.992036],[28.853549,40.992247],[28.854744,40.992518],[28.855706,40.992762],[28.857063,40.99317],[28.860223,40.994103],[28.863252,40.994997],[28.865117,40.995577],[28.866116,40.995894],[28.866755,40.996183],[28.86715,40.996355],[28.868074,40.996594],[28.869626,40.997094],[28.869617,40.996849],[28.869726,40.996375],[28.869912,40.995849],[28.86992,40.995194],[28.869933,40.994268],[28.869946,40.993515],[28.869961,40.992826],[28.869988,40.992303],[28.870123,40.991974],[28.870348,40.991393],[28.870529,40.990941],[28.870763,40.990411],[28.871023,40.989979],[28.871224,40.98965],[28.871497,40.989184],[28.871673,40.988877],[28.871846,40.988552],[28.871987,40.988237],[28.872079,40.988007],[28.87215,40.987758],[28.872198,40.987543],[28.872283,40.986989],[28.872292,40.986826],[28.872289,40.986421],[28.872299,40.985667],[28.872335,40.985046],[28.872362,40.984754],[28.872434,40.98421],[28.872535,40.98369],[28.872626,40.983319],[28.872775,40.982929],[28.872922,40.982655],[28.873074,40.982404],[28.873433,40.981899],[28.873547,40.981711],[28.873691,40.981429],[28.873808,40.980775]]]}},{"type":"Feature","properties":{"id":"TR-Y-34-007-OSB-YESILKOYSB","level":"yerlesim","type":"mahalle","parent_id":"TR-D-34-007","province_id":"TR-P-34","district_id":"TR-D-34-007","name":"Yeşilköy SB","source_raw_name":"Yeşilköy SB","source":"Kullanıcı tarafından sağlanan KML","source_label":"Kullanıcı tarafından sağlanan KML","source_name":"Istanbul Mahalle KML","source_only":true,"osb":true},"geometry":{"type":"Polygon","coordinates":[[[28.821145,40.992411],[28.82196,40.992372],[28.82234,40.992],[28.823268,40.991731],[28.823315,40.991729],[28.823438,40.991625],[28.823376,40.990403],[28.823525,40.987569],[28.824688,40.985401],[28.822861,40.984881],[28.822368,40.98473],[28.821771,40.984452],[28.821371,40.984138],[28.821245,40.984124],[28.821073,40.985012],[28.822416,40.985048],[28.822373,40.986257],[28.822103,40.986242],[28.822071,40.98708],[28.821768,40.98693],[28.820519,40.988335],[28.822968,40.988347],[28.822912,40.98945],[28.81988,40.989395],[28.818976,40.989367],[28.818968,40.989367],[28.818865,40.989777],[28.818812,40.989942],[28.818799,40.990261],[28.81888,40.990546],[28.819047,40.990874],[28.819248,40.99109],[28.819761,40.991506],[28.820757,40.992166],[28.821145,40.992411]]]}}]}