{"type":"FeatureCollection","name":"turkiye_map.dist.mahalle_geometrileri_by_district.TR-D-35-027","features":[{"type":"Feature","properties":{"id":"TR-Y-35-027-M-0001","level":"yerlesim","type":"mahalle","parent_id":"TR-D-35-027","province_id":"TR-P-35","district_id":"TR-D-35-027","name":"14 Mayıs","source_raw_name":"14 MAYIS","source":"Kullanıcı tarafından sağlanan KML","source_label":"Kullanıcı tarafından sağlanan KML","source_name":"Izmir Mahalle KML - kullanici tarafindan saglandi"},"geometry":{"type":"Polygon","coordinates":[[[27.387333,37.918217],[27.387387,37.918374],[27.387189,37.918532],[27.387157,37.918633],[27.386998,37.918883],[27.386973,37.918963],[27.386942,37.919004],[27.386635,37.919228],[27.386536,37.919259],[27.386331,37.919476],[27.38626,37.919438],[27.386092,37.919223],[27.385723,37.91927],[27.385774,37.919565],[27.385553,37.919807],[27.385143,37.920099],[27.384622,37.919794],[27.384211,37.919669],[27.383949,37.920269],[27.383096,37.921266],[27.382431,37.921501],[27.38247,37.922025],[27.382426,37.922458],[27.382109,37.92263],[27.3818,37.922587],[27.381606,37.922374],[27.381476,37.922394],[27.381216,37.922672],[27.380424,37.922438],[27.380166,37.922577],[27.380165,37.92269],[27.379679,37.922953],[27.379557,37.923108],[27.379328,37.923076],[27.379203,37.922772],[27.37852,37.92317],[27.378392,37.923249],[27.378084,37.923332],[27.377945,37.923334],[27.37727,37.92372],[27.376929,37.923734],[27.377033,37.923273],[27.376367,37.922938],[27.375773,37.922742],[27.374834,37.923075],[27.37424,37.922585],[27.373548,37.923038],[27.373328,37.923108],[27.372951,37.923108],[27.372346,37.923392],[27.371719,37.923488],[27.371212,37.923649],[27.37109,37.923652],[27.37101,37.923585],[27.371046,37.923187],[27.369989,37.923249],[27.369683,37.923959],[27.369318,37.923705],[27.369075,37.923266],[27.369482,37.923015],[27.369183,37.922375],[27.368984,37.922411],[27.36843,37.922393],[27.368315,37.922684],[27.368617,37.92314],[27.368768,37.92337],[27.369085,37.923744],[27.369532,37.92402],[27.369978,37.924212],[27.370531,37.924378],[27.371083,37.924452],[27.371581,37.924459],[27.372005,37.92439],[27.372768,37.92427],[27.37351,37.92415],[27.374199,37.923997],[27.374846,37.923919],[27.375599,37.923866],[27.376437,37.923939],[27.377127,37.92413],[27.37757,37.924424],[27.378181,37.924833],[27.378501,37.925168],[27.378769,37.92573],[27.378952,37.926309],[27.378907,37.927271],[27.37884,37.927784],[27.378522,37.928609],[27.378524,37.929953],[27.379241,37.931343],[27.380296,37.932193],[27.381769,37.933095],[27.382943,37.934247],[27.383825,37.935532],[27.383745,37.937528],[27.383225,37.938405],[27.382933,37.938728],[27.380517,37.940603],[27.379269,37.941564],[27.37888,37.941855],[27.378448,37.942182],[27.378311,37.942292],[27.377983,37.942551],[27.377756,37.942734],[27.377477,37.94295],[27.377204,37.943162],[27.376949,37.943368],[27.375955,37.944164],[27.375574,37.944451],[27.375328,37.944669],[27.374967,37.945013],[27.374518,37.945578],[27.37411,37.946308],[27.373893,37.946744],[27.373726,37.947142],[27.3736,37.94749],[27.373466,37.947996],[27.37341,37.948282],[27.37334,37.948673],[27.373094,37.949615],[27.373094,37.949615],[27.373084,37.950494],[27.373343,37.950419],[27.373661,37.950393],[27.37378,37.950381],[27.37396,37.950364],[27.374427,37.950319],[27.374486,37.950312],[27.374845,37.950279],[27.375442,37.950223],[27.375938,37.950178],[27.376418,37.950131],[27.376582,37.950116],[27.376749,37.950062],[27.376848,37.949982],[27.376893,37.949905],[27.377234,37.949835],[27.377456,37.949786],[27.377706,37.949733],[27.378058,37.949659],[27.378504,37.949548],[27.378724,37.94947],[27.379055,37.949277],[27.379378,37.948985],[27.379544,37.94918],[27.380202,37.949181],[27.380405,37.948992],[27.380634,37.948962],[27.381114,37.949395],[27.381542,37.949984],[27.382044,37.950119],[27.383861,37.950095],[27.384048,37.949967],[27.383946,37.94975],[27.384122,37.9496],[27.384414,37.949402],[27.385018,37.949111],[27.385503,37.949006],[27.385725,37.948897],[27.386203,37.948956],[27.38703,37.949537],[27.388539,37.949633],[27.389937,37.949256],[27.390463,37.949236],[27.391989,37.949732],[27.392469,37.949754],[27.392312,37.949388],[27.393016,37.949383],[27.393627,37.949616],[27.394188,37.949601],[27.394199,37.949529],[27.394374,37.948454],[27.394691,37.948406],[27.395985,37.948016],[27.396278,37.948018],[27.396603,37.947675],[27.396259,37.94764],[27.396571,37.947208],[27.396577,37.946337],[27.397583,37.945144],[27.398468,37.944465],[27.398966,37.944093],[27.399524,37.943503],[27.399372,37.942862],[27.398712,37.941368],[27.399691,37.940722],[27.399858,37.940026],[27.3997,37.93963],[27.400035,37.938987],[27.400225,37.93848],[27.399861,37.93716],[27.400408,37.9371],[27.400865,37.937005],[27.400719,37.936506],[27.401824,37.937355],[27.403759,37.938474],[27.404144,37.938249],[27.40338,37.937427],[27.403357,37.936993],[27.403742,37.936535],[27.403693,37.935451],[27.403488,37.935202],[27.403756,37.934859],[27.403853,37.934329],[27.40364,37.934172],[27.403456,37.934103],[27.403174,37.933227],[27.401658,37.931743],[27.404286,37.931791],[27.403688,37.930764],[27.404104,37.93026],[27.403771,37.930089],[27.403065,37.930252],[27.40302,37.930081],[27.402761,37.930059],[27.402584,37.92943],[27.402021,37.929352],[27.401832,37.929159],[27.401347,37.928342],[27.400664,37.927933],[27.401841,37.926969],[27.401945,37.926037],[27.402703,37.925816],[27.404838,37.926944],[27.411949,37.92686],[27.412497,37.927519],[27.413546,37.927844],[27.415384,37.92886],[27.415174,37.926856],[27.415962,37.925552],[27.41868,37.922633],[27.419496,37.922001],[27.42022,37.921601],[27.419853,37.920547],[27.417449,37.917519],[27.413681,37.913857],[27.411438,37.912788],[27.413809,37.909822],[27.413203,37.906212],[27.413573,37.904175],[27.416199,37.902645],[27.415606,37.902604],[27.415186,37.902628],[27.414887,37.902688],[27.4147,37.902756],[27.414597,37.902763],[27.41128,37.903561],[27.411315,37.904085],[27.410733,37.90396],[27.410729,37.903192],[27.410151,37.903119],[27.410046,37.903103],[27.409908,37.902995],[27.409576,37.902871],[27.409323,37.90276],[27.409175,37.902673],[27.409075,37.902673],[27.408976,37.902744],[27.408746,37.903033],[27.408726,37.903162],[27.408663,37.903291],[27.408601,37.90335],[27.408354,37.903547],[27.408287,37.903643],[27.408224,37.903685],[27.408124,37.903689],[27.408018,37.903652],[27.407865,37.90354],[27.407621,37.903413],[27.407408,37.903401],[27.407195,37.90348],[27.406933,37.903806],[27.406639,37.904081],[27.406772,37.904302],[27.406888,37.904445],[27.406822,37.90451],[27.406691,37.90451],[27.406395,37.904472],[27.405787,37.904435],[27.405573,37.904449],[27.405242,37.90406],[27.405076,37.903774],[27.404909,37.90328],[27.404645,37.903085],[27.404382,37.903047],[27.403987,37.902983],[27.403938,37.902905],[27.404034,37.902527],[27.404196,37.902097],[27.404062,37.901681],[27.403273,37.901621],[27.402339,37.901415],[27.402195,37.901358],[27.401856,37.901177],[27.401421,37.901025],[27.401336,37.900975],[27.401281,37.900881],[27.399572,37.90061],[27.398197,37.900104],[27.398134,37.900155],[27.397806,37.899966],[27.397483,37.899603],[27.397027,37.899259],[27.395552,37.898759],[27.394887,37.898736],[27.394598,37.898603],[27.394596,37.898592],[27.393476,37.898479],[27.393296,37.8984],[27.392731,37.898063],[27.392157,37.898091],[27.391865,37.897922],[27.389999,37.897443],[27.389175,37.897593],[27.388856,37.8977],[27.38843,37.897828],[27.388272,37.898039],[27.388326,37.898335],[27.388352,37.898925],[27.392539,37.901468],[27.393499,37.902442],[27.393235,37.903079],[27.392661,37.907524],[27.39175,37.910627],[27.391676,37.910718],[27.392285,37.910434],[27.392378,37.911275],[27.392753,37.911986],[27.39271,37.912248],[27.392906,37.912551],[27.393031,37.912853],[27.392671,37.913304],[27.392705,37.913886],[27.392584,37.914935],[27.390186,37.915778],[27.38994,37.916234],[27.389792,37.916336],[27.389388,37.916454],[27.389297,37.916587],[27.389255,37.916803],[27.389064,37.917179],[27.388624,37.917633],[27.388345,37.918191],[27.388196,37.918285],[27.387849,37.918207],[27.387333,37.918217]]]}},{"type":"Feature","properties":{"id":"TR-Y-35-027-M-0002","level":"yerlesim","type":"mahalle","parent_id":"TR-D-35-027","province_id":"TR-P-35","district_id":"TR-D-35-027","name":"Acarlar","source_raw_name":"ACARLAR","source":"Kullanıcı tarafından sağlanan KML","source_label":"Kullanıcı tarafından sağlanan KML","source_name":"Izmir Mahalle KML - kullanici tarafindan saglandi"},"geometry":{"type":"Polygon","coordinates":[[[27.369306,37.893733],[27.368565,37.893715],[27.368032,37.893412],[27.366267,37.893278],[27.365109,37.893185],[27.364831,37.893286],[27.362134,37.896569],[27.358277,37.896434],[27.357586,37.897807],[27.357498,37.898223],[27.356626,37.898459],[27.356008,37.898791],[27.355799,37.901701],[27.355192,37.903408],[27.353901,37.909451],[27.35537,37.91273],[27.353949,37.913022],[27.356322,37.91643],[27.357686,37.9177],[27.358192,37.917737],[27.358791,37.917378],[27.359241,37.917258],[27.359342,37.917614],[27.359811,37.91793],[27.361561,37.917555],[27.361948,37.918201],[27.362432,37.918054],[27.363043,37.918148],[27.363189,37.918349],[27.363936,37.918846],[27.363916,37.919454],[27.363986,37.919717],[27.364204,37.91987],[27.364468,37.920042],[27.364301,37.920968],[27.364393,37.921238],[27.364577,37.921736],[27.364884,37.921738],[27.364975,37.921887],[27.36693,37.922155],[27.36772,37.922174],[27.368055,37.922321],[27.368254,37.922591],[27.367959,37.923639],[27.367898,37.923854],[27.368067,37.923879],[27.368258,37.923819],[27.368768,37.92337],[27.368617,37.92314],[27.368315,37.922684],[27.36843,37.922393],[27.368984,37.922411],[27.369183,37.922375],[27.369482,37.923015],[27.369075,37.923266],[27.369318,37.923705],[27.369683,37.923959],[27.369989,37.923249],[27.371046,37.923187],[27.37101,37.923585],[27.37109,37.923652],[27.371212,37.923649],[27.371719,37.923488],[27.372346,37.923392],[27.372951,37.923108],[27.373328,37.923108],[27.373548,37.923038],[27.37424,37.922585],[27.374834,37.923075],[27.375773,37.922742],[27.376367,37.922938],[27.377033,37.923273],[27.376929,37.923734],[27.37727,37.92372],[27.377945,37.923334],[27.378084,37.923332],[27.378392,37.923249],[27.37852,37.92317],[27.379203,37.922772],[27.379328,37.923076],[27.379557,37.923108],[27.379679,37.922953],[27.380165,37.92269],[27.380166,37.922577],[27.380424,37.922438],[27.381216,37.922672],[27.381476,37.922394],[27.381606,37.922374],[27.3818,37.922587],[27.382109,37.92263],[27.382426,37.922458],[27.38247,37.922025],[27.382431,37.921501],[27.383096,37.921266],[27.383949,37.920269],[27.384211,37.919669],[27.384622,37.919794],[27.385143,37.920099],[27.385553,37.919807],[27.385774,37.919565],[27.385723,37.91927],[27.386092,37.919223],[27.38626,37.919438],[27.386331,37.919476],[27.386536,37.919259],[27.386635,37.919228],[27.386942,37.919004],[27.386973,37.918963],[27.386998,37.918883],[27.387157,37.918633],[27.387189,37.918532],[27.387387,37.918374],[27.387333,37.918217],[27.387849,37.918207],[27.388196,37.918285],[27.388345,37.918191],[27.388624,37.917633],[27.389064,37.917179],[27.389255,37.916803],[27.389297,37.916587],[27.389388,37.916454],[27.389792,37.916336],[27.38994,37.916234],[27.390186,37.915778],[27.392584,37.914935],[27.392705,37.913886],[27.392671,37.913304],[27.393031,37.912853],[27.392906,37.912551],[27.39271,37.912248],[27.392753,37.911986],[27.392378,37.911275],[27.392285,37.910434],[27.391676,37.910718],[27.39175,37.910627],[27.391851,37.910282],[27.392661,37.907524],[27.393235,37.903079],[27.393499,37.902442],[27.392539,37.901468],[27.388352,37.898925],[27.388326,37.898335],[27.388272,37.898039],[27.38843,37.897828],[27.387483,37.896953],[27.38567,37.89589],[27.384732,37.895722],[27.384225,37.895767],[27.383449,37.895778],[27.382866,37.895532],[27.382595,37.8952],[27.381609,37.894932],[27.380759,37.895088],[27.378202,37.89421],[27.370381,37.892761],[27.369306,37.893733]]]}},{"type":"Feature","properties":{"id":"TR-Y-35-027-M-0003","level":"yerlesim","type":"mahalle","parent_id":"TR-D-35-027","province_id":"TR-P-35","district_id":"TR-D-35-027","name":"Atatürk","source_raw_name":"ATATÜRK","source":"Kullanıcı tarafından sağlanan KML","source_label":"Kullanıcı tarafından sağlanan KML","source_name":"Izmir Mahalle KML - kullanici tarafindan saglandi"},"geometry":{"type":"Polygon","coordinates":[[[27.269524,37.919922],[27.269634,37.922408],[27.270046,37.922466],[27.270765,37.922312],[27.271089,37.922159],[27.271558,37.92207],[27.27304,37.922103],[27.275193,37.922006],[27.275988,37.92292],[27.276575,37.924097],[27.276869,37.925464],[27.27696,37.92636],[27.276862,37.927032],[27.276727,37.927872],[27.276743,37.928457],[27.276647,37.928942],[27.276709,37.929642],[27.276735,37.93056],[27.276721,37.930984],[27.276636,37.931164],[27.276601,37.931402],[27.276524,37.931717],[27.276441,37.93207],[27.276424,37.932313],[27.276347,37.93268],[27.276315,37.933161],[27.276085,37.934463],[27.275925,37.935164],[27.275872,37.935422],[27.27566,37.936638],[27.27527,37.938498],[27.275037,37.939128],[27.274895,37.939701],[27.274734,37.940216],[27.274555,37.940731],[27.27425,37.94119],[27.273818,37.941434],[27.273729,37.941806],[27.273784,37.942163],[27.273587,37.942578],[27.273498,37.942779],[27.273553,37.943008],[27.273427,37.943365],[27.273339,37.943766],[27.272857,37.945441],[27.27266,37.945942],[27.272643,37.946199],[27.272214,37.947258],[27.271802,37.948304],[27.271564,37.948862],[27.27107,37.949851],[27.270342,37.951084],[27.269918,37.951577],[27.269346,37.95231],[27.268741,37.953047],[27.266959,37.95453],[27.266024,37.955431],[27.264606,37.956959],[27.263581,37.958448],[27.263561,37.958942],[27.264262,37.960442],[27.26535,37.961491],[27.266589,37.962139],[27.269104,37.962724],[27.270594,37.963054],[27.271425,37.962436],[27.271481,37.961493],[27.27168,37.960751],[27.272524,37.960618],[27.273687,37.960854],[27.276245,37.961623],[27.277803,37.961788],[27.278271,37.961614],[27.278496,37.961255],[27.278418,37.960765],[27.277926,37.960384],[27.278031,37.960037],[27.278679,37.959967],[27.280111,37.960577],[27.28208,37.961845],[27.283863,37.962968],[27.285957,37.96358],[27.287986,37.964517],[27.29081,37.9656],[27.291386,37.965772],[27.293077,37.965942],[27.294482,37.96634],[27.295448,37.966887],[27.296688,37.968062],[27.297561,37.968874],[27.297795,37.97004],[27.298407,37.970989],[27.29917,37.971522],[27.30122,37.972267],[27.30347,37.972489],[27.309439,37.97299],[27.311916,37.973272],[27.315426,37.973504],[27.319126,37.973955],[27.323511,37.974301],[27.328071,37.974749],[27.331829,37.975073],[27.335136,37.97526],[27.340293,37.975752],[27.343017,37.975998],[27.344476,37.976253],[27.345745,37.976429],[27.34666,37.976387],[27.347528,37.976295],[27.348891,37.976446],[27.350636,37.976208],[27.35252,37.976471],[27.352965,37.976726],[27.353068,37.976592],[27.353501,37.976165],[27.355603,37.975342],[27.355792,37.975288],[27.355779,37.975172],[27.354948,37.974541],[27.354681,37.974397],[27.354056,37.974294],[27.353401,37.97428],[27.353352,37.974278],[27.352517,37.974211],[27.352582,37.974016],[27.352594,37.973372],[27.352357,37.972969],[27.352086,37.97259],[27.351464,37.972281],[27.350537,37.971885],[27.350494,37.971867],[27.350064,37.971683],[27.349733,37.97049],[27.349727,37.970469],[27.349117,37.9701],[27.348448,37.969695],[27.347199,37.9699],[27.347094,37.969917],[27.346159,37.969716],[27.345901,37.969132],[27.345267,37.968265],[27.343953,37.967641],[27.343116,37.967507],[27.341767,37.966322],[27.341197,37.966417],[27.341164,37.966322],[27.341156,37.9663],[27.341137,37.966243],[27.341111,37.966169],[27.341109,37.966162],[27.341078,37.966169],[27.340811,37.96623],[27.340785,37.96617],[27.340692,37.965958],[27.340672,37.965852],[27.340662,37.965797],[27.340633,37.965645],[27.340575,37.965334],[27.340575,37.965333],[27.340459,37.96472],[27.340414,37.964481],[27.34042,37.964072],[27.340421,37.963964],[27.340458,37.963883],[27.340561,37.963658],[27.340746,37.963546],[27.340847,37.963498],[27.340962,37.963477],[27.341143,37.963493],[27.341294,37.963496],[27.34156,37.963531],[27.341852,37.963531],[27.342063,37.963538],[27.342243,37.963498],[27.342455,37.963426],[27.342662,37.963318],[27.342937,37.96318],[27.343121,37.963135],[27.343396,37.963116],[27.343641,37.963103],[27.343799,37.963088],[27.344098,37.962425],[27.344093,37.96215],[27.344023,37.961882],[27.343853,37.96159],[27.342489,37.960347],[27.342247,37.960131],[27.342063,37.959443],[27.341797,37.958913],[27.341464,37.958452],[27.340666,37.957659],[27.340314,37.957517],[27.340383,37.957104],[27.341001,37.956757],[27.341677,37.956643],[27.342374,37.956584],[27.343801,37.956503],[27.344285,37.956633],[27.345054,37.957091],[27.345428,37.957553],[27.346199,37.957367],[27.349384,37.957065],[27.350078,37.957279],[27.350952,37.95729],[27.351907,37.957032],[27.353215,37.956569],[27.357226,37.954845],[27.359897,37.95436],[27.360523,37.954251],[27.360946,37.954188],[27.361032,37.954176],[27.361125,37.954162],[27.361713,37.95418],[27.362435,37.954121],[27.363252,37.953897],[27.363715,37.953635],[27.363853,37.953173],[27.364109,37.95265],[27.364429,37.952241],[27.364683,37.952105],[27.365412,37.952036],[27.365725,37.952019],[27.366675,37.952005],[27.367121,37.951774],[27.367685,37.95131],[27.368011,37.951182],[27.368583,37.951051],[27.368681,37.951028],[27.369095,37.950922],[27.369823,37.950744],[27.36984,37.95077],[27.369895,37.950888],[27.370292,37.950822],[27.370814,37.950797],[27.371465,37.950684],[27.371497,37.950679],[27.372158,37.950582],[27.372521,37.950559],[27.373084,37.950494],[27.373094,37.949615],[27.373094,37.949615],[27.37334,37.948673],[27.37341,37.948282],[27.373466,37.947996],[27.3736,37.94749],[27.373726,37.947142],[27.373893,37.946744],[27.37411,37.946308],[27.374518,37.945578],[27.374967,37.945013],[27.375328,37.944669],[27.375574,37.944451],[27.375955,37.944164],[27.375817,37.944023],[27.37565,37.943957],[27.375272,37.943802],[27.375093,37.94376],[27.374567,37.943642],[27.374503,37.943587],[27.373835,37.943504],[27.373123,37.94353],[27.37272,37.943558],[27.372412,37.943584],[27.372175,37.943604],[27.372041,37.943631],[27.371543,37.943731],[27.370662,37.943907],[27.370368,37.943882],[27.369654,37.943701],[27.368773,37.943843],[27.368754,37.943795],[27.368568,37.943294],[27.367784,37.943442],[27.36647,37.943832],[27.366093,37.943028],[27.365905,37.942627],[27.365818,37.94244],[27.365375,37.941497],[27.36523,37.941189],[27.365074,37.940866],[27.365029,37.940782],[27.364741,37.940187],[27.363358,37.937192],[27.36302,37.93646],[27.362278,37.934145],[27.362176,37.933504],[27.362,37.932406],[27.361824,37.931345],[27.36175,37.930731],[27.361684,37.929762],[27.361683,37.929287],[27.361661,37.928714],[27.361676,37.928114],[27.361698,37.927633],[27.361786,37.926632],[27.361999,37.925124],[27.36237,37.922613],[27.36241,37.922325],[27.363043,37.918148],[27.362432,37.918054],[27.361948,37.918201],[27.361561,37.917555],[27.359811,37.91793],[27.359342,37.917614],[27.359241,37.917258],[27.358791,37.917378],[27.358192,37.917737],[27.357686,37.9177],[27.356322,37.91643],[27.353949,37.913022],[27.35537,37.91273],[27.353901,37.909451],[27.355192,37.903408],[27.355799,37.901701],[27.356008,37.898791],[27.350133,37.899753],[27.33324,37.898096],[27.321318,37.892831],[27.319398,37.88917],[27.315694,37.881883],[27.314815,37.879629],[27.314658,37.878743],[27.313898,37.877478],[27.313697,37.877196],[27.312969,37.875555],[27.309355,37.880742],[27.306909,37.884195],[27.303368,37.88922],[27.294467,37.901848],[27.288265,37.910708],[27.277964,37.917384],[27.275937,37.91887],[27.27541,37.91927],[27.274882,37.919669],[27.274306,37.920054],[27.274118,37.920027],[27.273926,37.919926],[27.273798,37.919831],[27.273714,37.919718],[27.273703,37.919626],[27.27374,37.919432],[27.273818,37.919304],[27.273916,37.919175],[27.274439,37.918891],[27.274501,37.918802],[27.274497,37.918688],[27.274278,37.918415],[27.274008,37.918734],[27.273771,37.918785],[27.273102,37.91882],[27.271941,37.919135],[27.271719,37.9191],[27.271494,37.919207],[27.271046,37.919353],[27.270164,37.91939],[27.269524,37.919922]]]}},{"type":"Feature","properties":{"id":"TR-Y-35-027-M-0004","level":"yerlesim","type":"mahalle","parent_id":"TR-D-35-027","province_id":"TR-P-35","district_id":"TR-D-35-027","name":"Barutçu","source_raw_name":"BARUTÇU","source":"Kullanıcı tarafından sağlanan KML","source_label":"Kullanıcı tarafından sağlanan KML","source_name":"Izmir Mahalle KML - kullanici tarafindan saglandi"},"geometry":{"type":"Polygon","coordinates":[[[27.308068,37.976837],[27.308368,37.977315],[27.308371,37.978737],[27.307752,37.979443],[27.306308,37.978888],[27.306507,37.980435],[27.306299,37.980621],[27.306373,37.981008],[27.306635,37.982381],[27.307451,37.9829],[27.30725,37.983938],[27.307977,37.984643],[27.307804,37.985127],[27.307603,37.986296],[27.307369,37.987659],[27.306606,37.987725],[27.306581,37.987969],[27.307448,37.989002],[27.308156,37.989318],[27.309392,37.989432],[27.309552,37.991026],[27.310406,37.991939],[27.311482,37.993169],[27.311747,37.993002],[27.31208,37.993257],[27.312142,37.993304],[27.312141,37.993308],[27.312141,37.993308],[27.311803,37.998923],[27.312627,38.002783],[27.312706,38.002798],[27.312706,38.002798],[27.312555,38.002946],[27.312377,38.003302],[27.31214,38.003961],[27.312097,38.004127],[27.312024,38.00455],[27.312022,38.004828],[27.312072,38.004992],[27.312179,38.005262],[27.312257,38.005538],[27.312373,38.005805],[27.312436,38.00591],[27.312624,38.006497],[27.312609,38.006671],[27.312565,38.006817],[27.312519,38.00691],[27.312462,38.006996],[27.312272,38.007253],[27.312085,38.007481],[27.311743,38.007815],[27.311494,38.008122],[27.311193,38.00847],[27.310943,38.008747],[27.310858,38.008843],[27.310683,38.009056],[27.310467,38.009332],[27.310361,38.009479],[27.310314,38.009541],[27.310251,38.009663],[27.31025,38.009791],[27.310297,38.010022],[27.310389,38.010249],[27.310497,38.010415],[27.310529,38.01048],[27.310537,38.010519],[27.310592,38.010696],[27.310678,38.010896],[27.310723,38.010982],[27.310916,38.011481],[27.311099,38.011772],[27.311173,38.011878],[27.311443,38.012027],[27.311507,38.012063],[27.311564,38.012104],[27.311678,38.01219],[27.311757,38.012256],[27.311827,38.01233],[27.311938,38.012473],[27.312035,38.012629],[27.312114,38.012831],[27.312171,38.013029],[27.312184,38.013226],[27.312142,38.013415],[27.312088,38.01364],[27.31208,38.013777],[27.312087,38.013884],[27.312117,38.013988],[27.312255,38.014314],[27.312318,38.014517],[27.31237,38.014751],[27.312416,38.014895],[27.312436,38.014983],[27.31245,38.01511],[27.312442,38.015206],[27.312423,38.015294],[27.312357,38.015495],[27.312303,38.015904],[27.312253,38.016246],[27.312232,38.016331],[27.312143,38.01653],[27.312057,38.016733],[27.311933,38.017105],[27.311923,38.017178],[27.311948,38.017295],[27.312006,38.017399],[27.312054,38.017451],[27.312243,38.017694],[27.312262,38.017746],[27.312285,38.017864],[27.312269,38.01792],[27.312206,38.018147],[27.312149,38.01826],[27.312118,38.018347],[27.312072,38.018502],[27.312018,38.018641],[27.311866,38.018949],[27.311818,38.019063],[27.311737,38.019247],[27.311598,38.019545],[27.311477,38.019766],[27.311344,38.019958],[27.311224,38.020115],[27.311098,38.020234],[27.310907,38.020376],[27.310769,38.020481],[27.310585,38.020639],[27.31038,38.020841],[27.310229,38.020975],[27.309964,38.021203],[27.309757,38.021398],[27.309548,38.021602],[27.309336,38.021782],[27.30902,38.022068],[27.308829,38.022275],[27.308718,38.022408],[27.308541,38.022697],[27.308245,38.02317],[27.308085,38.023388],[27.307934,38.023586],[27.307775,38.0238],[27.30764,38.023929],[27.307574,38.024153],[27.307497,38.024341],[27.307476,38.024597],[27.307478,38.02481],[27.307553,38.025043],[27.307812,38.0256],[27.307922,38.025899],[27.307959,38.026058],[27.307979,38.026137],[27.307974,38.026362],[27.307972,38.026379],[27.307948,38.02655],[27.307828,38.026962],[27.307714,38.027435],[27.307638,38.027842],[27.307584,38.028071],[27.307578,38.028211],[27.307577,38.028298],[27.307545,38.02877],[27.307576,38.029169],[27.307578,38.029475],[27.30764,38.02958],[27.307712,38.029682],[27.307802,38.029808],[27.308073,38.030111],[27.308383,38.030517],[27.308687,38.030991],[27.308714,38.031033],[27.308854,38.031314],[27.309059,38.031795],[27.309128,38.031956],[27.30914,38.032005],[27.309307,38.03267],[27.309279,38.032867],[27.30927,38.033014],[27.309297,38.033095],[27.309394,38.033223],[27.309676,38.033583],[27.30973,38.033709],[27.30973,38.03371],[27.309867,38.034098],[27.309902,38.034199],[27.309921,38.034253],[27.30994,38.034307],[27.309946,38.034472],[27.310082,38.038716],[27.311048,38.041976],[27.311447,38.047759],[27.3115,38.047726],[27.312951,38.046835],[27.31324,38.046775],[27.313256,38.04677],[27.3136,38.046655],[27.313881,38.046565],[27.314181,38.046465],[27.314411,38.046365],[27.314771,38.046075],[27.315051,38.045885],[27.315141,38.045835],[27.315361,38.045615],[27.315691,38.045505],[27.316331,38.045305],[27.316621,38.045205],[27.316971,38.044815],[27.317381,38.044405],[27.317501,38.044325],[27.318111,38.044435],[27.318801,38.044525],[27.319771,38.044685],[27.320601,38.044805],[27.321311,38.044895],[27.322201,38.045025],[27.323041,38.045195],[27.323881,38.045365],[27.324211,38.045435],[27.324461,38.045475],[27.324631,38.045535],[27.324781,38.045685],[27.324941,38.045745],[27.325051,38.045765],[27.325681,38.045545],[27.326181,38.045305],[27.326351,38.045235],[27.326751,38.045015],[27.327181,38.045025],[27.328031,38.045225],[27.328491,38.045295],[27.329221,38.045195],[27.329841,38.045025],[27.330291,38.044935],[27.330551,38.045075],[27.330591,38.045805],[27.330411,38.046795],[27.330071,38.047495],[27.329961,38.047695],[27.329781,38.047885],[27.329731,38.047965],[27.329681,38.048045],[27.329571,38.048105],[27.329231,38.048305],[27.329011,38.048455],[27.328781,38.048595],[27.328701,38.048625],[27.328581,38.048665],[27.328371,38.048705],[27.328101,38.048755],[27.327961,38.048805],[27.328241,38.048985],[27.328621,38.049265],[27.328891,38.049465],[27.329591,38.049955],[27.330371,38.050485],[27.330641,38.050685],[27.330961,38.050905],[27.331001,38.050915],[27.331721,38.050915],[27.332271,38.050905],[27.333421,38.050905],[27.334301,38.050905],[27.334831,38.050895],[27.335891,38.050905],[27.336471,38.050895],[27.336951,38.050895],[27.337091,38.050885],[27.337311,38.050475],[27.337621,38.050015],[27.337911,38.049635],[27.338251,38.049095],[27.338451,38.048775],[27.338601,38.048485],[27.338721,38.048255],[27.338801,38.048075],[27.338861,38.047555],[27.338871,38.047455],[27.339051,38.046505],[27.340051,38.045545],[27.340821,38.045205],[27.341651,38.045055],[27.342071,38.044985],[27.342371,38.044965],[27.343051,38.044385],[27.343681,38.043705],[27.343801,38.043555],[27.343471,38.043325],[27.343141,38.043095],[27.342751,38.042795],[27.342351,38.042505],[27.341721,38.042005],[27.341041,38.041495],[27.340781,38.041385],[27.340101,38.041105],[27.339301,38.040795],[27.338381,38.040405],[27.337991,38.040245],[27.338101,38.040175],[27.339281,38.039815],[27.340461,38.039475],[27.341591,38.039135],[27.342731,38.038795],[27.346152,38.037735],[27.347622,38.037255],[27.348922,38.036865],[27.350342,38.036425],[27.351932,38.035925],[27.353272,38.035495],[27.354702,38.035105],[27.354692,38.034595],[27.354692,38.034255],[27.354652,38.034005],[27.354692,38.033635],[27.354712,38.033245],[27.354742,38.032785],[27.354832,38.032155],[27.354862,38.031745],[27.354872,38.031355],[27.354832,38.030895],[27.354958,38.029523],[27.355551,38.023091],[27.353804,38.01033],[27.353868,38.003748],[27.353342,38.003636],[27.350886,37.99974],[27.350799,37.996961],[27.351156,37.9943],[27.352218,37.992432],[27.352517,37.99231],[27.353477,37.990848],[27.35297,37.990642],[27.352319,37.990551],[27.351992,37.990359],[27.351785,37.990353],[27.351458,37.990154],[27.351557,37.989576],[27.351478,37.989134],[27.351869,37.986554],[27.35138,37.986386],[27.349509,37.984481],[27.34918,37.983626],[27.34893,37.983417],[27.348787,37.983125],[27.348615,37.982979],[27.348471,37.98263],[27.348271,37.982462],[27.34834,37.982112],[27.34824,37.981943],[27.348239,37.981639],[27.348152,37.981437],[27.347895,37.981246],[27.347438,37.980864],[27.347209,37.980673],[27.346738,37.980415],[27.346566,37.980033],[27.346558,37.97841],[27.346342,37.977447],[27.347123,37.977417],[27.347407,37.977326],[27.347691,37.977111],[27.347633,37.97692],[27.347589,37.97665],[27.347528,37.976295],[27.34666,37.976387],[27.345745,37.976429],[27.344476,37.976253],[27.343017,37.975998],[27.340293,37.975752],[27.335136,37.97526],[27.331829,37.975073],[27.328071,37.974749],[27.323511,37.974301],[27.319126,37.973955],[27.315426,37.973504],[27.311916,37.973272],[27.309439,37.97299],[27.307682,37.972843],[27.30347,37.972489],[27.30122,37.972267],[27.29917,37.971522],[27.298407,37.970989],[27.29834,37.970884],[27.298233,37.97102],[27.297039,37.972533],[27.297136,37.972571],[27.304511,37.97469],[27.309112,37.976026],[27.308701,37.976821],[27.308068,37.976837]]]}},{"type":"Feature","properties":{"id":"TR-Y-35-027-M-0005","level":"yerlesim","type":"mahalle","parent_id":"TR-D-35-027","province_id":"TR-P-35","district_id":"TR-D-35-027","name":"Belevi","source_raw_name":"BELEVİ","source":"Kullanıcı tarafından sağlanan KML","source_label":"Kullanıcı tarafından sağlanan KML","source_name":"Izmir Mahalle KML - kullanici tarafindan saglandi"},"geometry":{"type":"Polygon","coordinates":[[[27.413205,37.992547],[27.413131,37.992559],[27.41299,37.992544],[27.412382,37.992926],[27.412183,37.992777],[27.41188,37.992549],[27.411426,37.992208],[27.411088,37.991954],[27.411069,37.991964],[27.40972,37.993157],[27.409059,37.992696],[27.408822,37.993085],[27.408116,37.992801],[27.407798,37.992644],[27.407684,37.993872],[27.407306,37.994637],[27.406899,37.99486],[27.406758,37.994937],[27.406176,37.995187],[27.405743,37.995372],[27.405692,37.995396],[27.405439,37.995453],[27.404404,37.994234],[27.403644,37.993205],[27.403625,37.993217],[27.403517,37.99327],[27.403457,37.993289],[27.403327,37.993367],[27.403155,37.99347],[27.402671,37.993757],[27.402436,37.993798],[27.40233,37.993816],[27.402147,37.993816],[27.402031,37.993816],[27.401861,37.993771],[27.400938,37.993946],[27.400933,37.993954],[27.400684,37.994004],[27.40037,37.993773],[27.399525,37.993669],[27.399484,37.993703],[27.399465,37.993702],[27.399209,37.993909],[27.398986,37.994062],[27.39842,37.994273],[27.397819,37.994436],[27.397617,37.994534],[27.39706,37.994784],[27.396336,37.995861],[27.396327,37.995873],[27.396308,37.995894],[27.396112,37.996007],[27.396041,37.996134],[27.395967,37.996297],[27.395769,37.996319],[27.395733,37.996305],[27.392358,37.99491],[27.39131,37.994336],[27.39077,37.993884],[27.389943,37.993574],[27.389644,37.993795],[27.390035,37.993986],[27.390208,37.994428],[27.391696,37.995117],[27.391699,37.995753],[27.393968,37.99665],[27.39451,37.997785],[27.393118,38.001662],[27.392423,38.003725],[27.390705,38.008378],[27.391107,38.009202],[27.391759,38.019849],[27.39321,38.021691],[27.38731,38.023832],[27.37649,38.028702],[27.368652,38.030605],[27.369352,38.031365],[27.370422,38.032555],[27.371502,38.033475],[27.372422,38.034195],[27.373492,38.035115],[27.374292,38.035745],[27.374632,38.036025],[27.375422,38.036255],[27.375642,38.036355],[27.376132,38.036665],[27.376732,38.037065],[27.377262,38.037415],[27.377682,38.037705],[27.378132,38.038105],[27.378792,38.038696],[27.379152,38.039135],[27.379462,38.039565],[27.379992,38.040346],[27.380602,38.041226],[27.382133,38.043256],[27.382633,38.043926],[27.383103,38.044416],[27.383953,38.044736],[27.384543,38.044946],[27.385933,38.045246],[27.386663,38.045446],[27.387013,38.045526],[27.387473,38.045576],[27.387973,38.045596],[27.388403,38.045596],[27.388913,38.045636],[27.389263,38.045666],[27.389603,38.045636],[27.390003,38.045596],[27.390463,38.045556],[27.390793,38.045566],[27.391333,38.045666],[27.391803,38.045746],[27.392103,38.045766],[27.393013,38.045616],[27.393593,38.045516],[27.394033,38.045426],[27.394073,38.045586],[27.394043,38.046136],[27.394003,38.046386],[27.393983,38.046646],[27.393933,38.046946],[27.394033,38.047246],[27.394083,38.047516],[27.394153,38.047686],[27.394333,38.047946],[27.394743,38.048646],[27.395193,38.049316],[27.395483,38.049786],[27.395683,38.050206],[27.395823,38.050516],[27.395873,38.050686],[27.395893,38.050976],[27.395963,38.051306],[27.396313,38.051956],[27.396573,38.052466],[27.396793,38.052746],[27.397063,38.053026],[27.397113,38.053086],[27.397113,38.053206],[27.397123,38.053436],[27.397123,38.053556],[27.396943,38.053976],[27.396843,38.054256],[27.396723,38.054526],[27.396553,38.054766],[27.396313,38.055106],[27.395653,38.056056],[27.395273,38.056576],[27.395063,38.056856],[27.395033,38.056946],[27.395063,38.057136],[27.395163,38.057606],[27.395283,38.058106],[27.395293,38.058486],[27.395253,38.058786],[27.395253,38.059266],[27.395133,38.059556],[27.394833,38.059696],[27.394453,38.059876],[27.394173,38.060066],[27.394043,38.060256],[27.393883,38.060546],[27.393733,38.060886],[27.393603,38.061096],[27.393363,38.061456],[27.393173,38.061786],[27.393113,38.062086],[27.393133,38.062576],[27.393163,38.062946],[27.393113,38.063156],[27.393093,38.063716],[27.393043,38.064406],[27.392983,38.065076],[27.392943,38.065506],[27.392873,38.066536],[27.392853,38.066696],[27.392823,38.066996],[27.392803,38.067486],[27.392763,38.067826],[27.392723,38.068026],[27.392693,38.068466],[27.392663,38.068866],[27.392623,38.069306],[27.392613,38.069806],[27.392603,38.070046],[27.392593,38.070296],[27.392523,38.070636],[27.392493,38.071246],[27.392453,38.071587],[27.392402,38.072226],[27.392383,38.072557],[27.392363,38.072876],[27.392352,38.072987],[27.392303,38.073507],[27.392273,38.073906],[27.392213,38.074297],[27.392172,38.074897],[27.392142,38.075197],[27.392103,38.075577],[27.392092,38.075977],[27.392042,38.076397],[27.392032,38.076607],[27.392022,38.076767],[27.392022,38.077037],[27.392032,38.077057],[27.392263,38.077457],[27.392612,38.078127],[27.392713,38.078307],[27.392782,38.078437],[27.392933,38.078707],[27.393252,38.079257],[27.393552,38.079787],[27.393683,38.080077],[27.393863,38.080397],[27.393872,38.080417],[27.393962,38.080587],[27.394102,38.080867],[27.394122,38.080917],[27.394133,38.080917],[27.394142,38.080927],[27.394153,38.080927],[27.394162,38.080927],[27.394182,38.080937],[27.394233,38.080927],[27.394333,38.080917],[27.394532,38.080907],[27.394703,38.080887],[27.394882,38.080867],[27.396233,38.080767],[27.396513,38.080747],[27.396803,38.080727],[27.398163,38.080597],[27.398683,38.080577],[27.39922,38.080667],[27.402048,38.081024],[27.402099,38.081033],[27.402749,38.081146],[27.402848,38.081163],[27.40324,38.080489],[27.403479,38.080728],[27.403516,38.080906],[27.40354,38.081083],[27.403673,38.081069],[27.403781,38.081052],[27.403933,38.08102],[27.40404,38.080995],[27.404097,38.080974],[27.404169,38.080929],[27.404207,38.080892],[27.404272,38.080817],[27.404316,38.080756],[27.404715,38.080163],[27.404692,38.080143],[27.404538,38.080049],[27.4044,38.079929],[27.404403,38.079875],[27.404537,38.079742],[27.404795,38.079612],[27.405018,38.079509],[27.405215,38.079379],[27.405328,38.079239],[27.40545,38.079144],[27.405987,38.079086],[27.406146,38.079165],[27.406459,38.079444],[27.406751,38.079734],[27.4113,38.076154],[27.412759,38.075345],[27.413481,38.074748],[27.413863,38.074357],[27.41458,38.073456],[27.415213,38.072217],[27.415403,38.071937],[27.416323,38.070977],[27.417023,38.070267],[27.417649,38.069702],[27.419046,38.068714],[27.42033,38.067857],[27.422249,38.066009],[27.422765,38.06531],[27.423957,38.064233],[27.425893,38.062677],[27.43097,38.059649],[27.431983,38.058918],[27.432634,38.057992],[27.433321,38.056994],[27.433565,38.056213],[27.433562,38.055706],[27.433798,38.054716],[27.433971,38.053518],[27.433856,38.053101],[27.433664,38.052826],[27.433664,38.051086],[27.434001,38.04965],[27.435134,38.046976],[27.435613,38.046011],[27.437397,38.041866],[27.437489,38.041122],[27.437846,38.040301],[27.438131,38.039518],[27.439085,38.036619],[27.439735,38.036788],[27.440087,38.036869],[27.440216,38.036612],[27.440671,38.0358],[27.441356,38.035809],[27.441908,38.036147],[27.442021,38.036371],[27.442152,38.036569],[27.442211,38.036657],[27.442206,38.036783],[27.442353,38.037554],[27.442609,38.037618],[27.44335,38.037723],[27.443666,38.037713],[27.444046,38.037587],[27.444255,38.03754],[27.444853,38.037289],[27.444853,38.036927],[27.44486,38.036614],[27.444925,38.03614],[27.445236,38.036077],[27.445409,38.036197],[27.446122,38.036526],[27.446258,38.036553],[27.447674,38.036417],[27.44834,38.036508],[27.448666,38.036073],[27.451068,38.035632],[27.454232,38.036322],[27.457757,38.036242],[27.463666,38.04029],[27.466803,38.040783],[27.470061,38.041132],[27.470902,38.041063],[27.470902,38.041063],[27.471455,38.040374],[27.471455,38.040374],[27.471281,38.040014],[27.470631,38.038671],[27.470368,38.037611],[27.470294,38.037315],[27.47,38.036131],[27.468655,38.033889],[27.470685,38.032702],[27.472371,38.029923],[27.471219,38.026808],[27.471219,38.026808],[27.470589,38.025629],[27.468803,38.022426],[27.469017,38.0215],[27.469384,38.021366],[27.47078,38.021079],[27.471024,38.021044],[27.471189,38.021014],[27.471315,38.020973],[27.47149,38.020935],[27.471576,38.020888],[27.47166,38.020831],[27.47173,38.020778],[27.471777,38.020707],[27.471826,38.020602],[27.472233,38.019897],[27.472449,38.01922],[27.472511,38.018842],[27.472512,38.018359],[27.472503,38.017852],[27.472565,38.017309],[27.472645,38.016946],[27.472671,38.016795],[27.472692,38.016625],[27.472698,38.01653],[27.472737,38.015829],[27.472748,38.015644],[27.472779,38.015045],[27.472896,38.014727],[27.472832,38.014585],[27.472804,38.014486],[27.472738,38.014442],[27.472618,38.014352],[27.472518,38.014437],[27.472445,38.014469],[27.471338,38.014039],[27.470913,38.01366],[27.470355,38.013344],[27.469384,38.012896],[27.468388,38.011866],[27.468202,38.011674],[27.468144,38.011495],[27.468028,38.011071],[27.468665,38.010611],[27.468862,38.010351],[27.469876,38.009647],[27.469886,38.009583],[27.469968,38.009061],[27.469803,38.008483],[27.469773,38.008269],[27.469876,38.006871],[27.468676,38.005272],[27.468687,38.003502],[27.469143,38.002897],[27.47105,38.000362],[27.472723,37.997994],[27.473202,37.997251],[27.473309,37.994511],[27.473563,37.987989],[27.473565,37.987958],[27.475016,37.984102],[27.476065,37.981147],[27.481974,37.979121],[27.482503,37.978939],[27.484768,37.978162],[27.484961,37.976267],[27.484974,37.975856],[27.484814,37.975294],[27.483722,37.974059],[27.482637,37.97207],[27.482201,37.971672],[27.481843,37.971447],[27.481669,37.971366],[27.481527,37.971109],[27.481145,37.970793],[27.480856,37.970619],[27.48043,37.970032],[27.48007,37.969819],[27.47969,37.96976],[27.479381,37.96971],[27.479278,37.96965],[27.479223,37.969539],[27.479151,37.969342],[27.479031,37.969248],[27.478645,37.969108],[27.478346,37.969045],[27.477889,37.96907],[27.477408,37.969],[27.476851,37.968912],[27.476412,37.968798],[27.476101,37.968633],[27.474505,37.967921],[27.473899,37.967354],[27.473603,37.966841],[27.473285,37.966532],[27.473512,37.9663],[27.473802,37.965956],[27.474084,37.965172],[27.472387,37.965093],[27.469764,37.965447],[27.468514,37.965795],[27.467166,37.96601],[27.466472,37.966718],[27.465438,37.966951],[27.46496,37.967678],[27.464192,37.9681],[27.463171,37.968504],[27.462175,37.969043],[27.459933,37.969438],[27.459247,37.969469],[27.45858,37.969729],[27.456828,37.969765],[27.45418,37.97099],[27.45218,37.971842],[27.451732,37.972444],[27.450052,37.972622],[27.448316,37.972329],[27.447481,37.972117],[27.446191,37.972267],[27.443828,37.97305],[27.442552,37.97339],[27.44177,37.9715],[27.436284,37.974454],[27.433757,37.980243],[27.430947,37.982135],[27.429348,37.983585],[27.428762,37.985375],[27.428204,37.985777],[27.427701,37.986294],[27.426177,37.989725],[27.424139,37.990691],[27.420841,37.99094],[27.420048,37.991556],[27.418621,37.996035],[27.417923,37.996786],[27.417882,37.996825],[27.416596,37.995752],[27.414829,37.99408],[27.413205,37.992547]]]}},{"type":"Feature","properties":{"id":"TR-Y-35-027-M-0006","level":"yerlesim","type":"mahalle","parent_id":"TR-D-35-027","province_id":"TR-P-35","district_id":"TR-D-35-027","name":"Çamlık","source_raw_name":"ÇAMLIK","source":"Kullanıcı tarafından sağlanan KML","source_label":"Kullanıcı tarafından sağlanan KML","source_name":"Izmir Mahalle KML - kullanici tarafindan saglandi"},"geometry":{"type":"Polygon","coordinates":[[[27.366267,37.893278],[27.368032,37.893412],[27.368565,37.893715],[27.369306,37.893733],[27.370381,37.892761],[27.378202,37.89421],[27.380759,37.895088],[27.381609,37.894932],[27.382595,37.8952],[27.382866,37.895532],[27.383449,37.895778],[27.384225,37.895767],[27.384732,37.895722],[27.38567,37.89589],[27.387483,37.896953],[27.38843,37.897828],[27.388856,37.8977],[27.389175,37.897593],[27.389999,37.897443],[27.391865,37.897922],[27.392157,37.898091],[27.392731,37.898063],[27.393296,37.8984],[27.393476,37.898479],[27.394596,37.898592],[27.394598,37.898603],[27.394887,37.898736],[27.395552,37.898759],[27.397027,37.899259],[27.397483,37.899603],[27.397806,37.899966],[27.398134,37.900155],[27.398197,37.900104],[27.399572,37.90061],[27.401281,37.900881],[27.401336,37.900975],[27.401421,37.901025],[27.401856,37.901177],[27.402195,37.901358],[27.402339,37.901415],[27.403273,37.901621],[27.404062,37.901681],[27.404196,37.902097],[27.404034,37.902527],[27.403938,37.902905],[27.403987,37.902983],[27.404382,37.903047],[27.404645,37.903085],[27.404909,37.90328],[27.405076,37.903774],[27.405242,37.90406],[27.405573,37.904449],[27.405787,37.904435],[27.406395,37.904472],[27.406691,37.90451],[27.406822,37.90451],[27.406888,37.904445],[27.406772,37.904302],[27.406639,37.904081],[27.406933,37.903806],[27.407195,37.90348],[27.407408,37.903401],[27.407621,37.903413],[27.407865,37.90354],[27.408018,37.903652],[27.408124,37.903689],[27.408224,37.903685],[27.408287,37.903643],[27.408354,37.903547],[27.408601,37.90335],[27.408663,37.903291],[27.408726,37.903162],[27.408746,37.903033],[27.408976,37.902744],[27.409075,37.902673],[27.409175,37.902673],[27.408884,37.902176],[27.408671,37.90164],[27.408637,37.901358],[27.40878,37.901],[27.408809,37.900322],[27.409195,37.900052],[27.409432,37.899182],[27.410108,37.898847],[27.410928,37.898333],[27.41159,37.898484],[27.411597,37.898092],[27.412116,37.897926],[27.412229,37.897778],[27.412041,37.897059],[27.411995,37.896689],[27.411804,37.896551],[27.411647,37.896221],[27.411694,37.895828],[27.412283,37.895579],[27.412486,37.895392],[27.411694,37.894847],[27.412272,37.894462],[27.412909,37.893745],[27.413354,37.893312],[27.41378,37.892853],[27.4131,37.89162],[27.411778,37.890096],[27.411084,37.889569],[27.408233,37.887771],[27.40565,37.886741],[27.405264,37.886688],[27.405018,37.886739],[27.404995,37.886569],[27.405244,37.886348],[27.405215,37.886324],[27.405213,37.886326],[27.40517,37.886294],[27.405116,37.88625],[27.404956,37.886123],[27.404797,37.885995],[27.404401,37.885919],[27.404227,37.885928],[27.4042,37.885929],[27.404143,37.885927],[27.403964,37.885922],[27.40345,37.885933],[27.403224,37.885937],[27.403153,37.885971],[27.403055,37.885667],[27.402986,37.885466],[27.402657,37.885531],[27.402454,37.885018],[27.402244,37.885064],[27.402226,37.885031],[27.402171,37.884865],[27.402143,37.884709],[27.401963,37.88471],[27.40184,37.884384],[27.401786,37.884115],[27.401771,37.88403],[27.401754,37.883928],[27.401727,37.883843],[27.401683,37.883701],[27.401591,37.883523],[27.401403,37.883196],[27.401382,37.882525],[27.400908,37.88247],[27.400432,37.882462],[27.400245,37.882386],[27.400029,37.882206],[27.399984,37.881857],[27.399881,37.881463],[27.399839,37.88117],[27.399797,37.881003],[27.399002,37.881082],[27.398827,37.880835],[27.39854,37.880358],[27.398409,37.880109],[27.398331,37.880034],[27.398322,37.879874],[27.398235,37.879696],[27.397779,37.879422],[27.39774,37.879115],[27.397845,37.878727],[27.397871,37.878491],[27.397823,37.878468],[27.397743,37.878243],[27.397651,37.87805],[27.397535,37.877912],[27.397395,37.877797],[27.39726,37.877654],[27.397152,37.877491],[27.397026,37.877196],[27.396978,37.877076],[27.396909,37.87692],[27.396871,37.876821],[27.39685,37.876759],[27.396726,37.87673],[27.396954,37.876457],[27.396637,37.876349],[27.396383,37.876277],[27.396272,37.876247],[27.396039,37.876185],[27.395556,37.876003],[27.39521,37.875965],[27.395033,37.8762],[27.394718,37.87611],[27.392755,37.875601],[27.391772,37.875255],[27.391384,37.874749],[27.391195,37.874702],[27.390949,37.874641],[27.390699,37.874538],[27.390309,37.874445],[27.390107,37.874429],[27.389174,37.874444],[27.388906,37.874384],[27.388804,37.874381],[27.388618,37.874338],[27.388103,37.874242],[27.38791,37.874224],[27.387384,37.874208],[27.387319,37.874199],[27.387285,37.874178],[27.387227,37.874167],[27.386866,37.874493],[27.386687,37.874502],[27.386608,37.87452],[27.386542,37.874527],[27.386379,37.874507],[27.386394,37.874463],[27.386361,37.874477],[27.386126,37.874529],[27.38595,37.874509],[27.385826,37.874647],[27.385427,37.874876],[27.38494,37.875102],[27.38487,37.875327],[27.384839,37.875369],[27.384838,37.875431],[27.384764,37.875735],[27.38442,37.876502],[27.384319,37.876726],[27.384141,37.876833],[27.383891,37.877283],[27.383615,37.877671],[27.383527,37.877971],[27.383204,37.878793],[27.382987,37.878109],[27.383023,37.87798],[27.38302,37.877979],[27.381374,37.877425],[27.38047,37.877154],[27.380306,37.876693],[27.379807,37.876503],[27.379673,37.876804],[27.378899,37.877726],[27.378685,37.878053],[27.378627,37.877877],[27.3785,37.877699],[27.378321,37.877434],[27.37822,37.877252],[27.377967,37.876588],[27.377763,37.876102],[27.377584,37.875687],[27.377329,37.875116],[27.377101,37.874468],[27.377045,37.874253],[27.376976,37.8741],[27.376804,37.874096],[27.376587,37.874174],[27.376328,37.874139],[27.376164,37.873813],[27.376101,37.87343],[27.375969,37.87315],[27.375903,37.872961],[27.375845,37.872846],[27.375621,37.872569],[27.37559,37.872494],[27.375455,37.87236],[27.375191,37.872375],[27.374955,37.872273],[27.374918,37.872232],[27.374457,37.872125],[27.37401,37.872455],[27.373493,37.872543],[27.373062,37.872614],[27.373034,37.87258],[27.372902,37.872422],[27.372793,37.872176],[27.372685,37.872054],[27.372583,37.871887],[27.372407,37.871799],[27.372313,37.871779],[27.37206,37.871713],[27.371985,37.871644],[27.371865,37.871626],[27.371574,37.871263],[27.371928,37.871153],[27.371832,37.870855],[27.370962,37.870786],[27.370109,37.870839],[27.36971,37.87086],[27.369293,37.871164],[27.368878,37.871322],[27.368711,37.871287],[27.368581,37.871261],[27.368078,37.871496],[27.367482,37.871725],[27.36723,37.871922],[27.366811,37.872117],[27.366536,37.87238],[27.366219,37.872844],[27.366185,37.873157],[27.365854,37.873387],[27.365603,37.8738],[27.3651,37.87421],[27.365315,37.874583],[27.365196,37.874727],[27.364865,37.874976],[27.364578,37.875196],[27.36416,37.875267],[27.363755,37.875429],[27.363644,37.875567],[27.363465,37.875765],[27.362864,37.87648],[27.363272,37.876847],[27.363901,37.877848],[27.36401,37.878905],[27.363733,37.880228],[27.363779,37.880373],[27.363927,37.882296],[27.362611,37.883714],[27.362834,37.883763],[27.363328,37.883998],[27.36355,37.88403],[27.363687,37.884033],[27.363841,37.883985],[27.364214,37.883942],[27.364416,37.88397],[27.364439,37.884303],[27.364302,37.884515],[27.364316,37.884769],[27.364404,37.884982],[27.364452,37.8853],[27.364559,37.885573],[27.364621,37.885733],[27.364656,37.885848],[27.364839,37.886185],[27.364998,37.886437],[27.365067,37.886666],[27.364902,37.886732],[27.364769,37.887518],[27.364779,37.887654],[27.364805,37.887993],[27.364929,37.888331],[27.365023,37.888403],[27.365289,37.888608],[27.365339,37.888655],[27.365379,37.888692],[27.365489,37.888715],[27.365996,37.88892],[27.366219,37.888814],[27.366383,37.889168],[27.366284,37.889322],[27.366293,37.889558],[27.366295,37.889604],[27.366394,37.889694],[27.366639,37.889914],[27.366633,37.890042],[27.366606,37.890569],[27.366381,37.890537],[27.365945,37.891043],[27.366471,37.891445],[27.366656,37.891495],[27.366697,37.891613],[27.366666,37.892227],[27.366267,37.893278]]]}},{"type":"Feature","properties":{"id":"TR-Y-35-027-M-0007","level":"yerlesim","type":"mahalle","parent_id":"TR-D-35-027","province_id":"TR-P-35","district_id":"TR-D-35-027","name":"Cumhuriyet","source_raw_name":"CUMHURİYET","source":"Kullanıcı tarafından sağlanan KML","source_label":"Kullanıcı tarafından sağlanan KML","source_name":"Izmir Mahalle KML - kullanici tarafindan saglandi"},"geometry":{"type":"Polygon","coordinates":[[[27.375955,37.944164],[27.376949,37.943368],[27.377204,37.943162],[27.377477,37.94295],[27.377756,37.942734],[27.377983,37.942551],[27.378311,37.942292],[27.378448,37.942182],[27.37888,37.941855],[27.379269,37.941564],[27.380517,37.940603],[27.382933,37.938728],[27.383225,37.938405],[27.383745,37.937528],[27.383825,37.935532],[27.382943,37.934247],[27.381769,37.933095],[27.380296,37.932193],[27.379241,37.931343],[27.378524,37.929953],[27.378522,37.928609],[27.37884,37.927784],[27.378907,37.927271],[27.378952,37.926309],[27.378769,37.92573],[27.378501,37.925168],[27.378181,37.924833],[27.37757,37.924424],[27.377127,37.92413],[27.376437,37.923939],[27.375599,37.923866],[27.374846,37.923919],[27.374199,37.923997],[27.37351,37.92415],[27.372768,37.92427],[27.372005,37.92439],[27.371581,37.924459],[27.371083,37.924452],[27.370531,37.924378],[27.369978,37.924212],[27.369532,37.92402],[27.369085,37.923744],[27.368768,37.92337],[27.368258,37.923819],[27.368067,37.923879],[27.367898,37.923854],[27.367959,37.923639],[27.368254,37.922591],[27.368055,37.922321],[27.36772,37.922174],[27.36693,37.922155],[27.364975,37.921887],[27.364884,37.921738],[27.364577,37.921736],[27.364393,37.921238],[27.364301,37.920968],[27.364468,37.920042],[27.364204,37.91987],[27.363986,37.919717],[27.363916,37.919454],[27.363936,37.918846],[27.363189,37.918349],[27.363043,37.918148],[27.36241,37.922325],[27.36237,37.922613],[27.361999,37.925124],[27.361786,37.926632],[27.361698,37.927633],[27.361676,37.928114],[27.361661,37.928714],[27.361683,37.929287],[27.361684,37.929762],[27.36175,37.930731],[27.361824,37.931345],[27.362,37.932406],[27.362176,37.933504],[27.362278,37.934145],[27.36302,37.93646],[27.363358,37.937192],[27.364741,37.940187],[27.365029,37.940782],[27.365074,37.940866],[27.36523,37.941189],[27.365375,37.941497],[27.365818,37.94244],[27.365905,37.942627],[27.366093,37.943028],[27.36647,37.943832],[27.367784,37.943442],[27.368568,37.943294],[27.368754,37.943795],[27.368773,37.943843],[27.369654,37.943701],[27.370368,37.943882],[27.370662,37.943907],[27.371543,37.943731],[27.372041,37.943631],[27.372175,37.943604],[27.372412,37.943584],[27.37272,37.943558],[27.373123,37.94353],[27.373835,37.943504],[27.374503,37.943587],[27.374567,37.943642],[27.375093,37.94376],[27.375272,37.943802],[27.37565,37.943957],[27.375817,37.944023],[27.375955,37.944164]]]}},{"type":"Feature","properties":{"id":"TR-Y-35-027-M-0008","level":"yerlesim","type":"mahalle","parent_id":"TR-D-35-027","province_id":"TR-P-35","district_id":"TR-D-35-027","name":"Gökçealan","source_raw_name":"GÖKÇEALAN","source":"Kullanıcı tarafından sağlanan KML","source_label":"Kullanıcı tarafından sağlanan KML","source_name":"Izmir Mahalle KML - kullanici tarafindan saglandi"},"geometry":{"type":"Polygon","coordinates":[[[27.437697,37.86633],[27.438014,37.865667],[27.437817,37.864939],[27.435693,37.862587],[27.435505,37.861223],[27.436121,37.860213],[27.436503,37.859754],[27.436587,37.859397],[27.438858,37.856132],[27.436262,37.854161],[27.435895,37.852415],[27.437369,37.848378],[27.441181,37.844344],[27.441036,37.84052],[27.440591,37.838658],[27.434081,37.837406],[27.429475,37.83565],[27.427549,37.83439],[27.427029,37.834042],[27.42301,37.831579],[27.419801,37.830024],[27.417051,37.828627],[27.414905,37.827834],[27.410093,37.82732],[27.407596,37.826376],[27.405192,37.824116],[27.400483,37.820944],[27.394756,37.819334],[27.393763,37.817121],[27.389742,37.815238],[27.389605,37.817819],[27.387144,37.816826],[27.383523,37.822511],[27.382221,37.824941],[27.380667,37.826321],[27.379952,37.828464],[27.379808,37.829627],[27.379751,37.830069],[27.379694,37.830361],[27.379686,37.830631],[27.379638,37.831045],[27.379423,37.831643],[27.379296,37.831803],[27.379177,37.831937],[27.379154,37.832175],[27.379345,37.832454],[27.379003,37.832648],[27.378855,37.832695],[27.378572,37.832914],[27.377883,37.833077],[27.377186,37.833465],[27.376872,37.833829],[27.376692,37.833873],[27.37648,37.83402],[27.376294,37.834076],[27.376143,37.834154],[27.375655,37.834426],[27.375428,37.834632],[27.375449,37.834692],[27.375504,37.834742],[27.375629,37.834852],[27.375528,37.834975],[27.375516,37.834997],[27.375624,37.835049],[27.375897,37.835187],[27.375998,37.835343],[27.376142,37.835443],[27.376392,37.835551],[27.376546,37.835624],[27.376533,37.835692],[27.376536,37.835754],[27.376406,37.835749],[27.376603,37.83594],[27.376603,37.835986],[27.376582,37.836001],[27.376541,37.836103],[27.376418,37.836241],[27.376374,37.836291],[27.375948,37.836705],[27.375893,37.836675],[27.375613,37.836622],[27.375435,37.8368],[27.375528,37.836862],[27.375744,37.836972],[27.375796,37.837003],[27.375552,37.837237],[27.375745,37.837326],[27.375653,37.837379],[27.375395,37.837524],[27.37533,37.837581],[27.375196,37.837462],[27.375085,37.837359],[27.374975,37.83728],[27.374949,37.837267],[27.374829,37.837381],[27.374695,37.837518],[27.374495,37.83771],[27.374443,37.837728],[27.374721,37.83799],[27.3749,37.838265],[27.375025,37.838459],[27.375076,37.838474],[27.375323,37.83836],[27.375457,37.838299],[27.375574,37.838261],[27.375671,37.838207],[27.37581,37.838119],[27.37594,37.838068],[27.37611,37.838018],[27.376213,37.838007],[27.376321,37.838022],[27.376399,37.838059],[27.376588,37.838127],[27.376779,37.838221],[27.377067,37.838376],[27.377276,37.838535],[27.377317,37.83852],[27.377352,37.838463],[27.377601,37.838226],[27.377664,37.838164],[27.377726,37.838089],[27.377768,37.838038],[27.37786,37.837991],[27.377931,37.837801],[27.378578,37.838205],[27.379123,37.838479],[27.3796,37.838538],[27.380328,37.838569],[27.380698,37.838666],[27.380873,37.838744],[27.380969,37.838768],[27.381047,37.838767],[27.381297,37.839249],[27.381619,37.839816],[27.381832,37.840142],[27.381955,37.840395],[27.382253,37.840919],[27.382628,37.841577],[27.382866,37.841982],[27.382884,37.842083],[27.382906,37.842399],[27.382945,37.843009],[27.382967,37.843023],[27.382993,37.843018],[27.383213,37.843063],[27.38346,37.843073],[27.383581,37.84302],[27.383635,37.843066],[27.383945,37.843195],[27.384015,37.843225],[27.384217,37.84328],[27.384254,37.84328],[27.384503,37.843387],[27.384665,37.843457],[27.384443,37.843732],[27.384651,37.843832],[27.385354,37.844083],[27.385481,37.844177],[27.38564,37.844266],[27.386132,37.844557],[27.386253,37.844495],[27.386438,37.844617],[27.386499,37.844727],[27.386735,37.84504],[27.386949,37.84531],[27.386964,37.845511],[27.387034,37.845591],[27.38747,37.84558],[27.387582,37.845291],[27.389681,37.844422],[27.390216,37.845411],[27.390765,37.846655],[27.390806,37.846885],[27.390785,37.847232],[27.390659,37.848109],[27.391224,37.849592],[27.391477,37.85028],[27.391652,37.850762],[27.391712,37.851041],[27.39169,37.851944],[27.39152,37.85246],[27.391116,37.853153],[27.390497,37.854778],[27.390518,37.855449],[27.389836,37.856835],[27.389136,37.858542],[27.389042,37.859451],[27.388777,37.860567],[27.388945,37.861661],[27.388947,37.861961],[27.388449,37.862472],[27.388142,37.862852],[27.387794,37.863315],[27.387445,37.863732],[27.387366,37.863862],[27.387322,37.863976],[27.387331,37.864191],[27.387372,37.864443],[27.387587,37.865081],[27.387703,37.86547],[27.387834,37.866139],[27.387796,37.866273],[27.387677,37.86642],[27.386745,37.867415],[27.386194,37.868054],[27.385102,37.869179],[27.384186,37.869943],[27.383513,37.87056],[27.382983,37.871058],[27.382696,37.871333],[27.382227,37.871927],[27.381755,37.872635],[27.381505,37.873042],[27.38142,37.87356],[27.381317,37.873814],[27.380838,37.874604],[27.380415,37.875239],[27.380208,37.875566],[27.380064,37.875924],[27.379807,37.876503],[27.380306,37.876693],[27.38047,37.877154],[27.381374,37.877425],[27.38302,37.877979],[27.383023,37.87798],[27.382987,37.878109],[27.383204,37.878793],[27.383527,37.877971],[27.383615,37.877671],[27.383891,37.877283],[27.384141,37.876833],[27.384319,37.876726],[27.384764,37.875735],[27.384838,37.875431],[27.384839,37.875369],[27.38487,37.875327],[27.38494,37.875102],[27.385427,37.874876],[27.385826,37.874647],[27.38595,37.874509],[27.386126,37.874529],[27.386361,37.874477],[27.386394,37.874463],[27.386379,37.874507],[27.386542,37.874527],[27.386608,37.87452],[27.386687,37.874502],[27.386866,37.874493],[27.387227,37.874167],[27.387285,37.874178],[27.387319,37.874199],[27.387384,37.874208],[27.38791,37.874224],[27.388103,37.874242],[27.388618,37.874338],[27.388804,37.874381],[27.388906,37.874384],[27.389174,37.874444],[27.390107,37.874429],[27.390309,37.874445],[27.390699,37.874538],[27.390949,37.874641],[27.391384,37.874749],[27.391772,37.875255],[27.392755,37.875601],[27.394718,37.87611],[27.395033,37.8762],[27.39521,37.875965],[27.396368,37.874943],[27.400961,37.870644],[27.403232,37.868551],[27.404902,37.86699],[27.405789,37.866433],[27.406432,37.866163],[27.407271,37.865998],[27.407813,37.865923],[27.40857,37.86592],[27.409369,37.86599],[27.410137,37.866126],[27.411192,37.8663],[27.411991,37.866444],[27.41279,37.866563],[27.413825,37.866721],[27.414419,37.866833],[27.414819,37.866929],[27.415301,37.86713],[27.415848,37.867418],[27.416636,37.867984],[27.417972,37.869645],[27.420431,37.871752],[27.421782,37.872582],[27.42294,37.873577],[27.423583,37.874438],[27.424304,37.875047],[27.425078,37.875634],[27.425375,37.876332],[27.425934,37.875762],[27.426259,37.875366],[27.426208,37.874713],[27.426159,37.874145],[27.425705,37.873814],[27.424692,37.873472],[27.424753,37.873262],[27.425172,37.87315],[27.425342,37.872865],[27.426403,37.873281],[27.426839,37.873427],[27.427585,37.873203],[27.42758,37.872401],[27.428309,37.871929],[27.429085,37.871532],[27.430173,37.871293],[27.430792,37.871183],[27.431433,37.871116],[27.432055,37.871101],[27.43246,37.871223],[27.432756,37.871259],[27.433145,37.871184],[27.433438,37.870825],[27.434463,37.870303],[27.435325,37.870374],[27.435496,37.869507],[27.436404,37.868268],[27.436821,37.867426],[27.437697,37.86633]]]}},{"type":"Feature","properties":{"id":"TR-Y-35-027-M-0009","level":"yerlesim","type":"mahalle","parent_id":"TR-D-35-027","province_id":"TR-P-35","district_id":"TR-D-35-027","name":"Havutçulu","source_raw_name":"HAVUTÇULU","source":"Kullanıcı tarafından sağlanan KML","source_label":"Kullanıcı tarafından sağlanan KML","source_name":"Izmir Mahalle KML - kullanici tarafindan saglandi"},"geometry":{"type":"Polygon","coordinates":[[[27.39521,37.875965],[27.395556,37.876003],[27.396039,37.876185],[27.396272,37.876247],[27.396383,37.876277],[27.396637,37.876349],[27.396954,37.876457],[27.396726,37.87673],[27.39685,37.876759],[27.396871,37.876821],[27.396909,37.87692],[27.396978,37.877076],[27.397026,37.877196],[27.397152,37.877491],[27.39726,37.877654],[27.397395,37.877797],[27.397535,37.877912],[27.397651,37.87805],[27.397743,37.878243],[27.397823,37.878468],[27.397871,37.878491],[27.397845,37.878727],[27.39774,37.879115],[27.397779,37.879422],[27.398235,37.879696],[27.398322,37.879874],[27.398331,37.880034],[27.398409,37.880109],[27.39854,37.880358],[27.398827,37.880835],[27.399002,37.881082],[27.399797,37.881003],[27.399839,37.88117],[27.399881,37.881463],[27.399984,37.881857],[27.400029,37.882206],[27.400245,37.882386],[27.400432,37.882462],[27.400908,37.88247],[27.401382,37.882525],[27.401403,37.883196],[27.401591,37.883523],[27.401683,37.883701],[27.401727,37.883843],[27.401754,37.883928],[27.401771,37.88403],[27.401786,37.884115],[27.40184,37.884384],[27.401963,37.88471],[27.402143,37.884709],[27.402171,37.884865],[27.402226,37.885031],[27.402244,37.885064],[27.402454,37.885018],[27.402657,37.885531],[27.402986,37.885466],[27.403055,37.885667],[27.403153,37.885971],[27.403224,37.885937],[27.40345,37.885933],[27.403964,37.885922],[27.404143,37.885927],[27.4042,37.885929],[27.404227,37.885928],[27.404401,37.885919],[27.404797,37.885995],[27.404956,37.886123],[27.405116,37.88625],[27.40517,37.886294],[27.405213,37.886326],[27.405215,37.886324],[27.405244,37.886348],[27.404995,37.886569],[27.405018,37.886739],[27.405264,37.886688],[27.40565,37.886741],[27.408233,37.887771],[27.411084,37.889569],[27.411778,37.890096],[27.4131,37.89162],[27.41378,37.892853],[27.413354,37.893312],[27.412909,37.893745],[27.412272,37.894462],[27.411694,37.894847],[27.412486,37.895392],[27.412283,37.895579],[27.411694,37.895828],[27.411647,37.896221],[27.411804,37.896551],[27.411995,37.896689],[27.412041,37.897059],[27.412229,37.897778],[27.412116,37.897926],[27.411597,37.898092],[27.41159,37.898484],[27.410928,37.898333],[27.410108,37.898847],[27.409432,37.899182],[27.409195,37.900052],[27.408809,37.900322],[27.40878,37.901],[27.408637,37.901358],[27.408671,37.90164],[27.408884,37.902176],[27.409175,37.902673],[27.409323,37.90276],[27.409576,37.902871],[27.409908,37.902995],[27.410046,37.903103],[27.410151,37.903119],[27.410729,37.903192],[27.410733,37.90396],[27.411315,37.904085],[27.41128,37.903561],[27.414597,37.902763],[27.4147,37.902756],[27.414887,37.902688],[27.415186,37.902628],[27.415606,37.902604],[27.416199,37.902645],[27.413573,37.904175],[27.413203,37.906212],[27.413809,37.909822],[27.411438,37.912788],[27.413681,37.913857],[27.417449,37.917519],[27.419853,37.920547],[27.42022,37.921601],[27.421815,37.920773],[27.423979,37.920957],[27.424856,37.921398],[27.425653,37.921571],[27.428251,37.92182],[27.42999,37.922496],[27.431678,37.923285],[27.432463,37.923644],[27.433337,37.92361],[27.434016,37.923804],[27.435281,37.923686],[27.436091,37.923776],[27.436562,37.924084],[27.437621,37.924328],[27.438537,37.924883],[27.440043,37.925683],[27.440968,37.925545],[27.442467,37.925261],[27.443117,37.924855],[27.443441,37.924565],[27.444552,37.924746],[27.44592,37.924504],[27.447003,37.924551],[27.448071,37.924196],[27.449609,37.923962],[27.450849,37.923896],[27.451798,37.923375],[27.453731,37.923761],[27.457589,37.924144],[27.456554,37.921003],[27.456023,37.920152],[27.454711,37.918045],[27.457452,37.914058],[27.458152,37.908371],[27.457657,37.898684],[27.45919,37.896293],[27.456255,37.893636],[27.455067,37.892804],[27.453572,37.891745],[27.453193,37.891535],[27.452487,37.891314],[27.451926,37.891237],[27.451131,37.891108],[27.450664,37.891008],[27.450252,37.890816],[27.449867,37.89051],[27.44957,37.890181],[27.449167,37.88961],[27.448708,37.889027],[27.44771,37.888278],[27.446941,37.88781],[27.446256,37.887553],[27.445115,37.887179],[27.44462,37.886987],[27.443757,37.886634],[27.443107,37.886132],[27.442145,37.885411],[27.439502,37.884242],[27.438083,37.88343],[27.433438,37.880073],[27.43196,37.879215],[27.430161,37.878953],[27.42807,37.878996],[27.42689,37.878598],[27.426289,37.878168],[27.425792,37.877317],[27.425375,37.876332],[27.425078,37.875634],[27.424304,37.875047],[27.423583,37.874438],[27.42294,37.873577],[27.421782,37.872582],[27.420431,37.871752],[27.417972,37.869645],[27.416636,37.867984],[27.415848,37.867418],[27.415301,37.86713],[27.414819,37.866929],[27.414419,37.866833],[27.413825,37.866721],[27.41279,37.866563],[27.411991,37.866444],[27.411192,37.8663],[27.410137,37.866126],[27.409369,37.86599],[27.40857,37.86592],[27.407813,37.865923],[27.407271,37.865998],[27.406432,37.866163],[27.405789,37.866433],[27.404902,37.86699],[27.403232,37.868551],[27.400961,37.870644],[27.396368,37.874943],[27.39521,37.875965]]]}},{"type":"Feature","properties":{"id":"TR-Y-35-027-M-0010","level":"yerlesim","type":"mahalle","parent_id":"TR-D-35-027","province_id":"TR-P-35","district_id":"TR-D-35-027","name":"İsabey","source_raw_name":"İSA BEY","source":"Kullanıcı tarafından sağlanan KML","source_label":"Kullanıcı tarafından sağlanan KML","source_name":"Izmir Mahalle KML - kullanici tarafindan saglandi"},"geometry":{"type":"Polygon","coordinates":[[[27.39131,37.994336],[27.392358,37.99491],[27.395733,37.996305],[27.395769,37.996319],[27.395967,37.996297],[27.396041,37.996134],[27.396112,37.996007],[27.396308,37.995894],[27.396327,37.995873],[27.396336,37.995861],[27.39706,37.994784],[27.397617,37.994534],[27.397819,37.994436],[27.39842,37.994273],[27.398986,37.994062],[27.399209,37.993909],[27.399465,37.993702],[27.399484,37.993703],[27.399525,37.993669],[27.40037,37.993773],[27.400684,37.994004],[27.400933,37.993954],[27.400938,37.993946],[27.401861,37.993771],[27.402031,37.993816],[27.402147,37.993816],[27.40233,37.993816],[27.402436,37.993798],[27.402671,37.993757],[27.403155,37.99347],[27.403327,37.993367],[27.403457,37.993289],[27.403517,37.99327],[27.403625,37.993217],[27.403644,37.993205],[27.404404,37.994234],[27.405439,37.995453],[27.405692,37.995396],[27.405743,37.995372],[27.406176,37.995187],[27.406758,37.994937],[27.406899,37.99486],[27.407306,37.994637],[27.407684,37.993872],[27.407798,37.992644],[27.408116,37.992801],[27.408822,37.993085],[27.409059,37.992696],[27.40972,37.993157],[27.411069,37.991964],[27.411088,37.991954],[27.411426,37.992208],[27.41188,37.992549],[27.412183,37.992777],[27.412382,37.992926],[27.41299,37.992544],[27.413131,37.992559],[27.413205,37.992547],[27.411169,37.990624],[27.40803,37.987656],[27.402324,37.982256],[27.401533,37.981471],[27.401021,37.980906],[27.399409,37.978558],[27.398131,37.97676],[27.397478,37.976198],[27.397348,37.976127],[27.397044,37.97596],[27.396618,37.975727],[27.396114,37.975586],[27.394626,37.975323],[27.392864,37.975043],[27.39151,37.974861],[27.39081,37.974826],[27.389837,37.974861],[27.386998,37.9753],[27.384775,37.97569],[27.383557,37.975862],[27.381984,37.976101],[27.381468,37.976177],[27.380851,37.976205],[27.380157,37.976214],[27.379522,37.976136],[27.379005,37.976004],[27.378878,37.975972],[27.378461,37.975367],[27.378115,37.975039],[27.377422,37.974502],[27.377127,37.974205],[27.376884,37.973915],[27.376328,37.972958],[27.375652,37.971447],[27.375286,37.969702],[27.374883,37.967658],[27.37456,37.966093],[27.374224,37.964572],[27.373513,37.960844],[27.373176,37.959072],[27.373065,37.958149],[27.372951,37.957697],[27.372914,37.957441],[27.372849,37.957181],[27.372703,37.956478],[27.372649,37.956245],[27.372563,37.955686],[27.372542,37.955291],[27.372552,37.954728],[27.372575,37.954518],[27.372544,37.953917],[27.372551,37.953461],[27.372703,37.952795],[27.372746,37.952179],[27.372861,37.951419],[27.373084,37.950494],[27.372521,37.950559],[27.372158,37.950582],[27.371497,37.950679],[27.371465,37.950684],[27.370814,37.950797],[27.370292,37.950822],[27.369895,37.950888],[27.36984,37.95077],[27.369823,37.950744],[27.369095,37.950922],[27.368681,37.951028],[27.368583,37.951051],[27.368011,37.951182],[27.367685,37.95131],[27.367121,37.951774],[27.366675,37.952005],[27.365725,37.952019],[27.365412,37.952036],[27.364683,37.952105],[27.364429,37.952241],[27.364109,37.95265],[27.363853,37.953173],[27.363715,37.953635],[27.363252,37.953897],[27.362435,37.954121],[27.361713,37.95418],[27.361125,37.954162],[27.361032,37.954176],[27.360523,37.954251],[27.359897,37.95436],[27.357226,37.954845],[27.353215,37.956569],[27.351907,37.957032],[27.350952,37.95729],[27.350078,37.957279],[27.349384,37.957065],[27.346199,37.957367],[27.345428,37.957553],[27.345054,37.957091],[27.344285,37.956633],[27.343801,37.956503],[27.342374,37.956584],[27.341677,37.956643],[27.341001,37.956757],[27.340383,37.957104],[27.340314,37.957517],[27.340666,37.957659],[27.341464,37.958452],[27.341797,37.958913],[27.342063,37.959443],[27.342247,37.960131],[27.342489,37.960347],[27.343853,37.96159],[27.344023,37.961882],[27.344093,37.96215],[27.344098,37.962425],[27.343799,37.963088],[27.343641,37.963103],[27.343396,37.963116],[27.343121,37.963135],[27.342937,37.96318],[27.342662,37.963318],[27.342455,37.963426],[27.342243,37.963498],[27.342063,37.963538],[27.341852,37.963531],[27.34156,37.963531],[27.341294,37.963496],[27.341143,37.963493],[27.340962,37.963477],[27.340847,37.963498],[27.340746,37.963546],[27.340561,37.963658],[27.340458,37.963883],[27.340421,37.963964],[27.34042,37.964072],[27.340414,37.964481],[27.340459,37.96472],[27.340575,37.965333],[27.340575,37.965334],[27.340633,37.965645],[27.340662,37.965797],[27.340672,37.965852],[27.340692,37.965958],[27.340785,37.96617],[27.340811,37.96623],[27.341078,37.966169],[27.341109,37.966162],[27.341111,37.966169],[27.341137,37.966243],[27.341156,37.9663],[27.341164,37.966322],[27.341197,37.966417],[27.341767,37.966322],[27.343116,37.967507],[27.343953,37.967641],[27.345267,37.968265],[27.345901,37.969132],[27.346159,37.969716],[27.347094,37.969917],[27.347199,37.9699],[27.348448,37.969695],[27.349117,37.9701],[27.349727,37.970469],[27.349733,37.97049],[27.350064,37.971683],[27.350494,37.971867],[27.350537,37.971885],[27.351464,37.972281],[27.352086,37.97259],[27.352357,37.972969],[27.352594,37.973372],[27.352582,37.974016],[27.352517,37.974211],[27.353352,37.974278],[27.353401,37.97428],[27.354056,37.974294],[27.354681,37.974397],[27.354948,37.974541],[27.355779,37.975172],[27.355792,37.975288],[27.355603,37.975342],[27.353501,37.976165],[27.353068,37.976592],[27.352965,37.976726],[27.35252,37.976471],[27.350636,37.976208],[27.348891,37.976446],[27.347528,37.976295],[27.347589,37.97665],[27.347633,37.97692],[27.347691,37.977111],[27.347407,37.977326],[27.347123,37.977417],[27.346342,37.977447],[27.346558,37.97841],[27.346566,37.980033],[27.346738,37.980415],[27.347209,37.980673],[27.347438,37.980864],[27.347895,37.981246],[27.348152,37.981437],[27.348239,37.981639],[27.34824,37.981943],[27.34834,37.982112],[27.348271,37.982462],[27.348471,37.98263],[27.348615,37.982979],[27.348787,37.983125],[27.34893,37.983417],[27.34918,37.983626],[27.349509,37.984481],[27.35138,37.986386],[27.351869,37.986554],[27.351478,37.989134],[27.351557,37.989576],[27.351458,37.990154],[27.351785,37.990353],[27.351992,37.990359],[27.352319,37.990551],[27.35297,37.990642],[27.353477,37.990848],[27.352517,37.99231],[27.352218,37.992432],[27.351156,37.9943],[27.350799,37.996961],[27.350886,37.99974],[27.353342,38.003636],[27.353868,38.003748],[27.353804,38.01033],[27.355551,38.023091],[27.354958,38.029523],[27.363936,38.029114],[27.36461,38.02998],[27.364982,38.030695],[27.366262,38.030675],[27.367432,38.030645],[27.368462,38.030625],[27.368652,38.030605],[27.37649,38.028702],[27.38731,38.023832],[27.39321,38.021691],[27.391759,38.019849],[27.391107,38.009202],[27.390705,38.008378],[27.392423,38.003725],[27.393118,38.001662],[27.39451,37.997785],[27.393968,37.99665],[27.391699,37.995753],[27.391696,37.995117],[27.390208,37.994428],[27.390035,37.993986],[27.389644,37.993795],[27.389943,37.993574],[27.39077,37.993884],[27.39131,37.994336]]]}},{"type":"Feature","properties":{"id":"TR-Y-35-027-M-0011","level":"yerlesim","type":"mahalle","parent_id":"TR-D-35-027","province_id":"TR-P-35","district_id":"TR-D-35-027","name":"Şirince","source_raw_name":"ŞİRİNCE","source":"Kullanıcı tarafından sağlanan KML","source_label":"Kullanıcı tarafından sağlanan KML","source_name":"Izmir Mahalle KML - kullanici tarafindan saglandi"},"geometry":{"type":"Polygon","coordinates":[[[27.42022,37.921601],[27.419496,37.922001],[27.41868,37.922633],[27.415962,37.925552],[27.415174,37.926856],[27.415384,37.92886],[27.413546,37.927844],[27.412497,37.927519],[27.411949,37.92686],[27.404838,37.926944],[27.402703,37.925816],[27.401945,37.926037],[27.401841,37.926969],[27.400664,37.927933],[27.401347,37.928342],[27.401832,37.929159],[27.402021,37.929352],[27.402584,37.92943],[27.402761,37.930059],[27.40302,37.930081],[27.403065,37.930252],[27.403771,37.930089],[27.404104,37.93026],[27.403688,37.930764],[27.404286,37.931791],[27.401658,37.931743],[27.403174,37.933227],[27.403456,37.934103],[27.40364,37.934172],[27.403853,37.934329],[27.403756,37.934859],[27.403488,37.935202],[27.403693,37.935451],[27.403742,37.936535],[27.403357,37.936993],[27.40338,37.937427],[27.404144,37.938249],[27.403759,37.938474],[27.401824,37.937355],[27.400719,37.936506],[27.400865,37.937005],[27.400408,37.9371],[27.399861,37.93716],[27.400225,37.93848],[27.400035,37.938987],[27.3997,37.93963],[27.399858,37.940026],[27.399691,37.940722],[27.398712,37.941368],[27.399372,37.942862],[27.399524,37.943503],[27.398966,37.944093],[27.398468,37.944465],[27.397583,37.945144],[27.396577,37.946337],[27.396571,37.947208],[27.396259,37.94764],[27.396603,37.947675],[27.396278,37.948018],[27.395985,37.948016],[27.394691,37.948406],[27.394374,37.948454],[27.394199,37.949529],[27.39418,37.949656],[27.393574,37.950046],[27.393729,37.950468],[27.393657,37.950624],[27.393748,37.951383],[27.393518,37.951835],[27.393448,37.952009],[27.393413,37.952138],[27.393436,37.952364],[27.393458,37.952497],[27.393486,37.952572],[27.393398,37.952687],[27.393341,37.952863],[27.393306,37.952959],[27.393203,37.953098],[27.393162,37.953267],[27.393045,37.953241],[27.393011,37.953241],[27.393001,37.953637],[27.394027,37.954084],[27.394347,37.954241],[27.394672,37.954279],[27.39473,37.954353],[27.394692,37.954524],[27.394516,37.954561],[27.394443,37.954785],[27.394221,37.954942],[27.394147,37.955323],[27.394259,37.955404],[27.394466,37.955592],[27.395229,37.956436],[27.394737,37.956994],[27.394553,37.957051],[27.394298,37.957201],[27.394754,37.957613],[27.395023,37.95776],[27.395457,37.958358],[27.395306,37.958475],[27.395359,37.958708],[27.395262,37.958764],[27.395067,37.958893],[27.395058,37.958958],[27.395297,37.958887],[27.395568,37.958881],[27.395772,37.958825],[27.396214,37.95884],[27.39624,37.95879],[27.396509,37.95852],[27.396694,37.958591],[27.396537,37.95904],[27.396818,37.959154],[27.396796,37.959245],[27.396708,37.959501],[27.396669,37.959566],[27.396662,37.959595],[27.396597,37.959713],[27.396519,37.959916],[27.396473,37.960058],[27.396431,37.96023],[27.396392,37.960489],[27.396212,37.960648],[27.39824,37.960552],[27.398179,37.961069],[27.397961,37.961699],[27.397671,37.962214],[27.397506,37.962293],[27.397614,37.962793],[27.398577,37.96273],[27.398957,37.964246],[27.398973,37.964389],[27.40017,37.964971],[27.400766,37.965447],[27.401093,37.965924],[27.401133,37.966412],[27.400669,37.966387],[27.400236,37.966579],[27.399947,37.966609],[27.399677,37.966805],[27.399607,37.967158],[27.399579,37.967492],[27.399172,37.967913],[27.398644,37.969226],[27.400061,37.969249],[27.402636,37.969347],[27.40832,37.969238],[27.416245,37.968288],[27.424966,37.968376],[27.430186,37.968744],[27.434012,37.969549],[27.437642,37.969302],[27.439284,37.969151],[27.441701,37.969128],[27.44177,37.9715],[27.442552,37.97339],[27.443828,37.97305],[27.446191,37.972267],[27.447481,37.972117],[27.448316,37.972329],[27.450052,37.972622],[27.451732,37.972444],[27.45218,37.971842],[27.45418,37.97099],[27.456828,37.969765],[27.45858,37.969729],[27.459247,37.969469],[27.459933,37.969438],[27.462175,37.969043],[27.463171,37.968504],[27.464192,37.9681],[27.46496,37.967678],[27.465438,37.966951],[27.466472,37.966718],[27.467166,37.96601],[27.468514,37.965795],[27.469764,37.965447],[27.472387,37.965093],[27.474084,37.965172],[27.474507,37.964624],[27.474617,37.964429],[27.47406,37.96332],[27.474046,37.962903],[27.474026,37.962607],[27.474142,37.962431],[27.474469,37.962221],[27.475488,37.961661],[27.475968,37.961594],[27.476407,37.961275],[27.476948,37.961063],[27.478765,37.960903],[27.480281,37.960573],[27.481895,37.96008],[27.482312,37.959793],[27.482445,37.959709],[27.482901,37.959625],[27.48365,37.959377],[27.484058,37.959414],[27.484173,37.959407],[27.484514,37.95943],[27.48482,37.959374],[27.485111,37.959376],[27.485441,37.959134],[27.48557,37.959174],[27.489775,37.958799],[27.492826,37.958984],[27.494382,37.953828],[27.495342,37.951259],[27.495914,37.950826],[27.495918,37.950294],[27.495627,37.950028],[27.495332,37.949743],[27.495304,37.948938],[27.495374,37.948652],[27.495605,37.948377],[27.49584,37.948034],[27.495995,37.947663],[27.49524,37.947573],[27.49504,37.947222],[27.495231,37.947118],[27.495405,37.947068],[27.496007,37.946892],[27.496078,37.946774],[27.496284,37.946538],[27.496493,37.946139],[27.496794,37.945757],[27.49661,37.944686],[27.496621,37.944425],[27.496478,37.943834],[27.496333,37.943103],[27.496242,37.942756],[27.495834,37.941902],[27.495186,37.940632],[27.494985,37.940209],[27.494783,37.939535],[27.494954,37.938545],[27.49483,37.937698],[27.496591,37.937282],[27.497962,37.937763],[27.499907,37.9381],[27.50195,37.938217],[27.502064,37.93751],[27.501052,37.937279],[27.49886,37.935593],[27.493728,37.933008],[27.492734,37.932651],[27.491544,37.93253],[27.49039,37.931876],[27.489496,37.931518],[27.486448,37.929286],[27.4804,37.928565],[27.475902,37.93074],[27.475119,37.932595],[27.473187,37.932468],[27.473025,37.931875],[27.472668,37.931532],[27.470907,37.930696],[27.469293,37.930282],[27.468092,37.92832],[27.464893,37.925939],[27.459891,37.927302],[27.456055,37.926445],[27.457589,37.924144],[27.453731,37.923761],[27.451798,37.923375],[27.450849,37.923896],[27.449609,37.923962],[27.448071,37.924196],[27.447003,37.924551],[27.44592,37.924504],[27.444552,37.924746],[27.443441,37.924565],[27.443117,37.924855],[27.442467,37.925261],[27.440968,37.925545],[27.440043,37.925683],[27.438537,37.924883],[27.437621,37.924328],[27.436562,37.924084],[27.436091,37.923776],[27.435281,37.923686],[27.434016,37.923804],[27.433337,37.92361],[27.432463,37.923644],[27.431678,37.923285],[27.42999,37.922496],[27.428251,37.92182],[27.425653,37.921571],[27.424856,37.921398],[27.423979,37.920957],[27.421815,37.920773],[27.42022,37.921601]]]}},{"type":"Feature","properties":{"id":"TR-Y-35-027-M-0012","level":"yerlesim","type":"mahalle","parent_id":"TR-D-35-027","province_id":"TR-P-35","district_id":"TR-D-35-027","name":"Sultaniye","source_raw_name":"SULTANİYE","source":"Kullanıcı tarafından sağlanan KML","source_label":"Kullanıcı tarafından sağlanan KML","source_name":"Izmir Mahalle KML - kullanici tarafindan saglandi"},"geometry":{"type":"Polygon","coordinates":[[[27.365109,37.893185],[27.366267,37.893278],[27.366666,37.892227],[27.366697,37.891613],[27.366656,37.891495],[27.366471,37.891445],[27.365945,37.891043],[27.366381,37.890537],[27.366606,37.890569],[27.366633,37.890042],[27.366639,37.889914],[27.366394,37.889694],[27.366295,37.889604],[27.366293,37.889558],[27.366284,37.889322],[27.366383,37.889168],[27.366219,37.888814],[27.365996,37.88892],[27.365489,37.888715],[27.365379,37.888692],[27.365339,37.888655],[27.365289,37.888608],[27.365023,37.888403],[27.364929,37.888331],[27.364805,37.887993],[27.364779,37.887654],[27.364769,37.887518],[27.364902,37.886732],[27.365067,37.886666],[27.364998,37.886437],[27.364839,37.886185],[27.364656,37.885848],[27.364621,37.885733],[27.364559,37.885573],[27.364452,37.8853],[27.364404,37.884982],[27.364316,37.884769],[27.364302,37.884515],[27.364439,37.884303],[27.364416,37.88397],[27.364214,37.883942],[27.363841,37.883985],[27.363687,37.884033],[27.36355,37.88403],[27.363328,37.883998],[27.362834,37.883763],[27.362611,37.883714],[27.363927,37.882296],[27.363779,37.880373],[27.363733,37.880228],[27.36401,37.878905],[27.363901,37.877848],[27.36357,37.877864],[27.363208,37.877928],[27.362868,37.877989],[27.362229,37.878012],[27.362034,37.878054],[27.361907,37.8789],[27.361353,37.878853],[27.360962,37.878864],[27.36085,37.87893],[27.360627,37.879316],[27.360585,37.879502],[27.360528,37.879739],[27.360338,37.87974],[27.359884,37.879896],[27.359839,37.880069],[27.359743,37.880234],[27.359621,37.880363],[27.359477,37.880433],[27.358989,37.880386],[27.358235,37.88085],[27.357111,37.880745],[27.356484,37.880117],[27.355528,37.879585],[27.354538,37.88026],[27.354091,37.880976],[27.349603,37.878244],[27.349144,37.878145],[27.335345,37.875115],[27.328205,37.8736],[27.32646,37.873405],[27.320625,37.872585],[27.316882,37.872203],[27.316152,37.872625],[27.315617,37.873075],[27.315717,37.873455],[27.315407,37.873951],[27.315553,37.874466],[27.31505,37.875001],[27.314282,37.875346],[27.31332,37.875425],[27.312969,37.875555],[27.313697,37.877196],[27.313898,37.877478],[27.314658,37.878743],[27.314815,37.879629],[27.315694,37.881883],[27.319398,37.88917],[27.321318,37.892831],[27.33324,37.898096],[27.350133,37.899753],[27.356008,37.898791],[27.356626,37.898459],[27.357498,37.898223],[27.357586,37.897807],[27.358277,37.896434],[27.362134,37.896569],[27.364831,37.893286],[27.365109,37.893185]]]}},{"type":"Feature","properties":{"id":"TR-Y-35-027-M-0013","level":"yerlesim","type":"mahalle","parent_id":"TR-D-35-027","province_id":"TR-P-35","district_id":"TR-D-35-027","name":"Zafer","source_raw_name":"ZAFER","source":"Kullanıcı tarafından sağlanan KML","source_label":"Kullanıcı tarafından sağlanan KML","source_name":"Izmir Mahalle KML - kullanici tarafindan saglandi"},"geometry":{"type":"Polygon","coordinates":[[[27.424139,37.990691],[27.426177,37.989725],[27.427701,37.986294],[27.428204,37.985777],[27.428762,37.985375],[27.429348,37.983585],[27.430947,37.982135],[27.433757,37.980243],[27.436284,37.974454],[27.44177,37.9715],[27.441701,37.969128],[27.439284,37.969151],[27.437642,37.969302],[27.434012,37.969549],[27.430186,37.968744],[27.424966,37.968376],[27.416245,37.968288],[27.40832,37.969238],[27.402636,37.969347],[27.400061,37.969249],[27.398644,37.969226],[27.399172,37.967913],[27.399579,37.967492],[27.399607,37.967158],[27.399677,37.966805],[27.399947,37.966609],[27.400236,37.966579],[27.400669,37.966387],[27.401133,37.966412],[27.401093,37.965924],[27.400766,37.965447],[27.40017,37.964971],[27.398973,37.964389],[27.398957,37.964246],[27.398577,37.96273],[27.397614,37.962793],[27.397506,37.962293],[27.397671,37.962214],[27.397961,37.961699],[27.398179,37.961069],[27.39824,37.960552],[27.396212,37.960648],[27.396392,37.960489],[27.396431,37.96023],[27.396473,37.960058],[27.396519,37.959916],[27.396597,37.959713],[27.396662,37.959595],[27.396669,37.959566],[27.396708,37.959501],[27.396796,37.959245],[27.396818,37.959154],[27.396537,37.95904],[27.396694,37.958591],[27.396509,37.95852],[27.39624,37.95879],[27.396214,37.95884],[27.395772,37.958825],[27.395568,37.958881],[27.395297,37.958887],[27.395058,37.958958],[27.395067,37.958893],[27.395262,37.958764],[27.395359,37.958708],[27.395306,37.958475],[27.395457,37.958358],[27.395023,37.95776],[27.394754,37.957613],[27.394298,37.957201],[27.394553,37.957051],[27.394737,37.956994],[27.395229,37.956436],[27.394466,37.955592],[27.394259,37.955404],[27.394147,37.955323],[27.394221,37.954942],[27.394443,37.954785],[27.394516,37.954561],[27.394692,37.954524],[27.39473,37.954353],[27.394672,37.954279],[27.394347,37.954241],[27.394027,37.954084],[27.393001,37.953637],[27.393011,37.953241],[27.393045,37.953241],[27.393162,37.953267],[27.393203,37.953098],[27.393306,37.952959],[27.393341,37.952863],[27.393398,37.952687],[27.393486,37.952572],[27.393458,37.952497],[27.393436,37.952364],[27.393413,37.952138],[27.393448,37.952009],[27.393518,37.951835],[27.393748,37.951383],[27.393657,37.950624],[27.393729,37.950468],[27.393574,37.950046],[27.39418,37.949656],[27.394188,37.949601],[27.393627,37.949616],[27.393016,37.949383],[27.392312,37.949388],[27.392469,37.949754],[27.391989,37.949732],[27.390463,37.949236],[27.389937,37.949256],[27.388539,37.949633],[27.38703,37.949537],[27.386203,37.948956],[27.385725,37.948897],[27.385503,37.949006],[27.385018,37.949111],[27.384414,37.949402],[27.384122,37.9496],[27.383946,37.94975],[27.384048,37.949967],[27.383861,37.950095],[27.382044,37.950119],[27.381542,37.949984],[27.381114,37.949395],[27.380634,37.948962],[27.380405,37.948992],[27.380202,37.949181],[27.379544,37.94918],[27.379378,37.948985],[27.379323,37.949036],[27.379055,37.949277],[27.378724,37.94947],[27.378504,37.949548],[27.378058,37.949659],[27.377706,37.949733],[27.377456,37.949786],[27.377234,37.949835],[27.376893,37.949905],[27.376848,37.949982],[27.376749,37.950062],[27.376582,37.950116],[27.376418,37.950131],[27.375938,37.950178],[27.375442,37.950223],[27.374845,37.950279],[27.374486,37.950312],[27.374427,37.950319],[27.37396,37.950364],[27.37378,37.950381],[27.373661,37.950393],[27.373343,37.950419],[27.373084,37.950494],[27.372861,37.951419],[27.372746,37.952179],[27.372703,37.952795],[27.372551,37.953461],[27.372544,37.953917],[27.372575,37.954518],[27.372552,37.954728],[27.372542,37.955291],[27.372563,37.955686],[27.372649,37.956245],[27.372703,37.956478],[27.372849,37.957181],[27.372914,37.957441],[27.372951,37.957697],[27.373065,37.958149],[27.373176,37.959072],[27.373513,37.960844],[27.374224,37.964572],[27.37456,37.966093],[27.374883,37.967658],[27.375286,37.969702],[27.375652,37.971447],[27.376328,37.972958],[27.376884,37.973915],[27.377127,37.974205],[27.377422,37.974502],[27.378115,37.975039],[27.378461,37.975367],[27.378878,37.975972],[27.379005,37.976004],[27.379522,37.976136],[27.380157,37.976214],[27.380851,37.976205],[27.381468,37.976177],[27.381984,37.976101],[27.383557,37.975862],[27.384775,37.97569],[27.386998,37.9753],[27.389837,37.974861],[27.39081,37.974826],[27.39151,37.974861],[27.392864,37.975043],[27.394626,37.975323],[27.396114,37.975586],[27.396618,37.975727],[27.397044,37.97596],[27.397348,37.976127],[27.397478,37.976198],[27.398131,37.97676],[27.399409,37.978558],[27.401021,37.980906],[27.401533,37.981471],[27.402324,37.982256],[27.40803,37.987656],[27.411169,37.990624],[27.413205,37.992547],[27.414829,37.99408],[27.416596,37.995752],[27.417882,37.996825],[27.417923,37.996786],[27.418621,37.996035],[27.420048,37.991556],[27.420841,37.99094],[27.424139,37.990691]]]}},{"type":"Feature","properties":{"id":"TR-Y-35-027-M-0014","level":"yerlesim","type":"mahalle","parent_id":"TR-D-35-027","province_id":"TR-P-35","district_id":"TR-D-35-027","name":"Zeytinköy","source_raw_name":"ZEYTİNKÖY","source":"Kullanıcı tarafından sağlanan KML","source_label":"Kullanıcı tarafından sağlanan KML","source_name":"Izmir Mahalle KML - kullanici tarafindan saglandi"},"geometry":{"type":"Polygon","coordinates":[[[27.308068,37.976837],[27.308701,37.976821],[27.309112,37.976026],[27.304511,37.97469],[27.297136,37.972571],[27.297039,37.972533],[27.298233,37.97102],[27.29834,37.970884],[27.297795,37.97004],[27.297561,37.968874],[27.296688,37.968062],[27.295448,37.966887],[27.294482,37.96634],[27.293077,37.965942],[27.291386,37.965772],[27.29081,37.9656],[27.290607,37.965522],[27.287986,37.964517],[27.285957,37.96358],[27.283863,37.962968],[27.28208,37.961845],[27.280111,37.960577],[27.278679,37.959967],[27.278031,37.960037],[27.277926,37.960384],[27.278418,37.960765],[27.278496,37.961255],[27.278271,37.961614],[27.277803,37.961788],[27.276245,37.961623],[27.273687,37.960854],[27.272524,37.960618],[27.27168,37.960751],[27.271481,37.961493],[27.271425,37.962436],[27.270594,37.963054],[27.269104,37.962724],[27.266589,37.962139],[27.26535,37.961491],[27.264262,37.960442],[27.263561,37.958942],[27.263581,37.958448],[27.262987,37.958751],[27.262417,37.959419],[27.262163,37.959861],[27.261729,37.960541],[27.260428,37.963071],[27.259538,37.965014],[27.259487,37.965396],[27.258784,37.966989],[27.257893,37.968558],[27.253858,37.974854],[27.251488,37.977868],[27.248418,37.980493],[27.247447,37.981147],[27.247281,37.981262],[27.247149,37.981331],[27.24699,37.981367],[27.246965,37.981372],[27.246883,37.981305],[27.246788,37.981273],[27.246752,37.981242],[27.246732,37.981224],[27.246769,37.981145],[27.246475,37.981391],[27.245268,37.984859],[27.245196,37.985741],[27.247403,37.989236],[27.248163,37.989717],[27.249428,37.990252],[27.249595,37.99054],[27.250743,37.991985],[27.255523,37.992192],[27.259014,37.99116],[27.260903,37.992673],[27.263006,37.994149],[27.263569,37.994545],[27.264699,37.997059],[27.26752,37.99842],[27.270673,38.001492],[27.271798,38.002895],[27.274118,38.005788],[27.276363,38.00951],[27.275062,38.011894],[27.276269,38.013325],[27.274224,38.014812],[27.274552,38.016371],[27.274654,38.017889],[27.274497,38.018673],[27.274369,38.018916],[27.273689,38.019524],[27.274177,38.019459],[27.274594,38.019021],[27.274796,38.018917],[27.274915,38.019015],[27.27484,38.019223],[27.275043,38.019407],[27.275393,38.019689],[27.275723,38.019931],[27.275831,38.019372],[27.276047,38.019217],[27.276576,38.018192],[27.281715,38.023081],[27.283798,38.025062],[27.28403,38.028532],[27.285593,38.031181],[27.286681,38.034495],[27.28775,38.035837],[27.289828,38.035128],[27.290101,38.034697],[27.288284,38.031468],[27.286711,38.031],[27.286346,38.029096],[27.287047,38.027203],[27.288542,38.02705],[27.288387,38.026738],[27.287042,38.025605],[27.285914,38.02422],[27.286305,38.02316],[27.28615,38.022137],[27.285788,38.021318],[27.285602,38.020011],[27.287904,38.020764],[27.289495,38.021854],[27.290039,38.021864],[27.290964,38.021734],[27.294962,38.024058],[27.298139,38.025262],[27.298507,38.027321],[27.299466,38.027676],[27.301691,38.027721],[27.303399,38.029083],[27.306617,38.032076],[27.30994,38.034307],[27.309921,38.034253],[27.309902,38.034199],[27.309867,38.034098],[27.30973,38.03371],[27.30973,38.033709],[27.309676,38.033583],[27.309394,38.033223],[27.309297,38.033095],[27.30927,38.033014],[27.309279,38.032867],[27.309307,38.03267],[27.30914,38.032005],[27.309128,38.031956],[27.309059,38.031795],[27.308854,38.031314],[27.308714,38.031033],[27.308687,38.030991],[27.308383,38.030517],[27.308073,38.030111],[27.307802,38.029808],[27.307712,38.029682],[27.30764,38.02958],[27.307578,38.029475],[27.307576,38.029169],[27.307545,38.02877],[27.307577,38.028298],[27.307578,38.028211],[27.307584,38.028071],[27.307638,38.027842],[27.307714,38.027435],[27.307828,38.026962],[27.307948,38.02655],[27.307972,38.026379],[27.307974,38.026362],[27.307979,38.026137],[27.307959,38.026058],[27.307922,38.025899],[27.307812,38.0256],[27.307553,38.025043],[27.307478,38.02481],[27.307476,38.024597],[27.307497,38.024341],[27.307574,38.024153],[27.30764,38.023929],[27.307775,38.0238],[27.307934,38.023586],[27.308085,38.023388],[27.308245,38.02317],[27.308541,38.022697],[27.308718,38.022408],[27.308829,38.022275],[27.30902,38.022068],[27.309336,38.021782],[27.309548,38.021602],[27.309757,38.021398],[27.309964,38.021203],[27.310229,38.020975],[27.31038,38.020841],[27.310585,38.020639],[27.310769,38.020481],[27.310907,38.020376],[27.311098,38.020234],[27.311224,38.020115],[27.311344,38.019958],[27.311477,38.019766],[27.311598,38.019545],[27.311737,38.019247],[27.311818,38.019063],[27.311866,38.018949],[27.312018,38.018641],[27.312072,38.018502],[27.312118,38.018347],[27.312149,38.01826],[27.312206,38.018147],[27.312269,38.01792],[27.312285,38.017864],[27.312262,38.017746],[27.312243,38.017694],[27.312054,38.017451],[27.312006,38.017399],[27.311948,38.017295],[27.311923,38.017178],[27.311933,38.017105],[27.312057,38.016733],[27.312143,38.01653],[27.312232,38.016331],[27.312253,38.016246],[27.312303,38.015904],[27.312357,38.015495],[27.312423,38.015294],[27.312442,38.015206],[27.31245,38.01511],[27.312436,38.014983],[27.312416,38.014895],[27.31237,38.014751],[27.312318,38.014517],[27.312255,38.014314],[27.312117,38.013988],[27.312087,38.013884],[27.31208,38.013777],[27.312088,38.01364],[27.312142,38.013415],[27.312184,38.013226],[27.312171,38.013029],[27.312114,38.012831],[27.312035,38.012629],[27.311938,38.012473],[27.311827,38.01233],[27.311757,38.012256],[27.311678,38.01219],[27.311564,38.012104],[27.311507,38.012063],[27.311443,38.012027],[27.311173,38.011878],[27.311099,38.011772],[27.310916,38.011481],[27.310723,38.010982],[27.310678,38.010896],[27.310592,38.010696],[27.310537,38.010519],[27.310529,38.01048],[27.310497,38.010415],[27.310389,38.010249],[27.310297,38.010022],[27.31025,38.009791],[27.310251,38.009663],[27.310314,38.009541],[27.310361,38.009479],[27.310467,38.009332],[27.310683,38.009056],[27.310858,38.008843],[27.310943,38.008747],[27.311193,38.00847],[27.311494,38.008122],[27.311743,38.007815],[27.312085,38.007481],[27.312272,38.007253],[27.312462,38.006996],[27.312519,38.00691],[27.312565,38.006817],[27.312609,38.006671],[27.312624,38.006497],[27.312436,38.00591],[27.312373,38.005805],[27.312257,38.005538],[27.312179,38.005262],[27.312072,38.004992],[27.312022,38.004828],[27.312024,38.00455],[27.312097,38.004127],[27.31214,38.003961],[27.312377,38.003302],[27.312555,38.002946],[27.312706,38.002798],[27.312706,38.002798],[27.312627,38.002783],[27.311803,37.998923],[27.312141,37.993308],[27.312141,37.993308],[27.312142,37.993304],[27.31208,37.993257],[27.311747,37.993002],[27.311482,37.993169],[27.310406,37.991939],[27.309552,37.991026],[27.309392,37.989432],[27.308156,37.989318],[27.307448,37.989002],[27.306581,37.987969],[27.306606,37.987725],[27.307369,37.987659],[27.307603,37.986296],[27.307804,37.985127],[27.307977,37.984643],[27.30725,37.983938],[27.307451,37.9829],[27.306635,37.982381],[27.306373,37.981008],[27.306299,37.980621],[27.306507,37.980435],[27.306308,37.978888],[27.307752,37.979443],[27.308371,37.978737],[27.308368,37.977315],[27.308068,37.976837]]]}}]}