{"type":"FeatureCollection","name":"turkiye_map.dist.mahalle_geometrileri_by_district.TR-D-34-021","features":[{"type":"Feature","properties":{"id":"TR-Y-34-021-M-0001","level":"yerlesim","type":"mahalle","parent_id":"TR-D-34-021","province_id":"TR-P-34","district_id":"TR-D-34-021","name":"Bağlarbaşı","source_raw_name":"BAĞLARBAŞI","source":"Kullanıcı tarafından sağlanan KML","source_label":"Kullanıcı tarafından sağlanan KML","source_name":"Istanbul Mahalle KML"},"geometry":{"type":"Polygon","coordinates":[[[28.916601,41.06909],[28.916683,41.06902],[28.916768,41.06894],[28.917062,41.06867],[28.917246,41.068511],[28.917338,41.068451],[28.917524,41.068376],[28.917677,41.068342],[28.917869,41.068315],[28.918463,41.068229],[28.918901,41.068168],[28.919525,41.06808],[28.919575,41.068076],[28.919676,41.068057],[28.919776,41.068016],[28.919924,41.067941],[28.919924,41.067941],[28.919979,41.067892],[28.920069,41.067807],[28.920435,41.067371],[28.920616,41.06719],[28.920834,41.06702],[28.921127,41.066854],[28.921323,41.066761],[28.921448,41.066726],[28.921547,41.066715],[28.921651,41.06671],[28.921612,41.066649],[28.921598,41.06655],[28.921533,41.066459],[28.921278,41.066299],[28.921238,41.066277],[28.920933,41.06611],[28.920587,41.065953],[28.920282,41.065842],[28.919834,41.065576],[28.919732,41.065445],[28.919604,41.065348],[28.919399,41.065173],[28.91892,41.064802],[28.918734,41.064655],[28.918536,41.064491],[28.91826,41.064273],[28.917611,41.063849],[28.917083,41.0635],[28.916803,41.063299],[28.916701,41.06323],[28.916484,41.063296],[28.916318,41.063424],[28.91626,41.063469],[28.9162,41.063502],[28.916115,41.063534],[28.91602,41.063553],[28.915899,41.063565],[28.915724,41.063554],[28.915604,41.063553],[28.915515,41.063542],[28.915444,41.063168],[28.91537,41.062613],[28.914857,41.062654],[28.914824,41.062372],[28.914759,41.061877],[28.914671,41.061066],[28.914639,41.060757],[28.914598,41.060372],[28.914562,41.060057],[28.914524,41.059741],[28.914485,41.059422],[28.914467,41.059305],[28.914451,41.05913],[28.914445,41.05894],[28.913832,41.0589],[28.913767,41.058896],[28.913615,41.058891],[28.913366,41.058858],[28.913341,41.058923],[28.913247,41.059173],[28.913117,41.059376],[28.912963,41.059587],[28.912864,41.059722],[28.912753,41.059851],[28.91259,41.06003],[28.912463,41.060155],[28.912229,41.060436],[28.912111,41.060584],[28.911934,41.060794],[28.911736,41.061033],[28.911629,41.061167],[28.911448,41.061388],[28.911224,41.061664],[28.910779,41.062151],[28.910695,41.062263],[28.910597,41.062388],[28.910431,41.062603],[28.910277,41.062785],[28.91004,41.063097],[28.909992,41.063157],[28.909921,41.063287],[28.90987,41.063403],[28.909842,41.063493],[28.90981,41.063814],[28.909775,41.0641],[28.909746,41.064313],[28.909608,41.064562],[28.909328,41.064933],[28.909221,41.065067],[28.909195,41.065125],[28.909087,41.065316],[28.908933,41.065587],[28.908865,41.065672],[28.908577,41.066218],[28.908437,41.066528],[28.908407,41.066598],[28.90888,41.066926],[28.909227,41.067149],[28.909538,41.067462],[28.90993,41.067669],[28.910085,41.067858],[28.910128,41.067914],[28.91018,41.067937],[28.910242,41.067968],[28.910568,41.067893],[28.910895,41.068631],[28.911053,41.068978],[28.911703,41.069012],[28.912313,41.069042],[28.912856,41.068996],[28.913085,41.069009],[28.913395,41.069059],[28.913667,41.069111],[28.914193,41.069217],[28.914816,41.069349],[28.915139,41.069428],[28.915342,41.069467],[28.915513,41.0695],[28.915526,41.069495],[28.915625,41.069494],[28.915725,41.069493],[28.915839,41.069467],[28.916008,41.069428],[28.916069,41.069414],[28.916157,41.06938],[28.916241,41.069332],[28.916271,41.069315],[28.916334,41.069272],[28.916427,41.069208],[28.916533,41.069136],[28.916601,41.06909]]]}},{"type":"Feature","properties":{"id":"TR-Y-34-021-M-0002","level":"yerlesim","type":"mahalle","parent_id":"TR-D-34-021","province_id":"TR-P-34","district_id":"TR-D-34-021","name":"Barbaros Hayrettin Paşa","source_raw_name":"BARBAROS HAYRETTİN PAŞA","source":"Kullanıcı tarafından sağlanan KML","source_label":"Kullanıcı tarafından sağlanan KML","source_name":"Istanbul Mahalle KML"},"geometry":{"type":"Polygon","coordinates":[[[28.895104,41.079423],[28.895211,41.079313],[28.895322,41.079198],[28.895347,41.079176],[28.89544,41.079101],[28.895556,41.079009],[28.895645,41.078953],[28.895739,41.078893],[28.89585,41.078843],[28.896036,41.078772],[28.896187,41.078728],[28.896427,41.078658],[28.896673,41.078582],[28.896935,41.078504],[28.897212,41.078425],[28.897511,41.078339],[28.897757,41.078269],[28.897979,41.078208],[28.898271,41.078124],[28.898413,41.078083],[28.898516,41.07805],[28.898717,41.077981],[28.898884,41.077903],[28.899098,41.07777],[28.899245,41.077663],[28.899409,41.077543],[28.899538,41.077449],[28.89975,41.077331],[28.899917,41.077238],[28.899764,41.077112],[28.899719,41.077074],[28.899704,41.077063],[28.899665,41.077037],[28.899527,41.076943],[28.899425,41.076877],[28.899283,41.076761],[28.899255,41.076735],[28.89917,41.076655],[28.899097,41.076585],[28.899025,41.076513],[28.898933,41.076422],[28.898913,41.076402],[28.89883,41.07632],[28.898769,41.076259],[28.898704,41.076194],[28.898645,41.07612],[28.898592,41.076054],[28.898565,41.076019],[28.898508,41.075942],[28.89848,41.075904],[28.898397,41.075792],[28.898329,41.0757],[28.898277,41.075639],[28.898224,41.075577],[28.898215,41.075566],[28.898209,41.075558],[28.898198,41.075546],[28.898184,41.07553],[28.898168,41.07551],[28.898139,41.075477],[28.898104,41.075435],[28.898074,41.0754],[28.89806,41.075384],[28.898048,41.075369],[28.89803,41.075341],[28.898007,41.075305],[28.897995,41.075288],[28.89798,41.075264],[28.897963,41.075238],[28.897946,41.075228],[28.897902,41.075204],[28.897836,41.075179],[28.897778,41.075156],[28.897733,41.075139],[28.897702,41.075127],[28.897563,41.075037],[28.897385,41.074921],[28.896928,41.074487],[28.896719,41.074236],[28.896597,41.074091],[28.896298,41.073724],[28.896021,41.073383],[28.895662,41.072939],[28.895396,41.072607],[28.895095,41.072235],[28.894821,41.071895],[28.894542,41.071528],[28.894212,41.071142],[28.893906,41.07077],[28.893619,41.07042],[28.893313,41.070057],[28.89327,41.070008],[28.892987,41.070129],[28.892816,41.070201],[28.892363,41.070399],[28.891692,41.070712],[28.891507,41.070792],[28.891136,41.070951],[28.890731,41.07112],[28.890304,41.071297],[28.890179,41.071349],[28.890101,41.071378],[28.890075,41.071389],[28.889959,41.07144],[28.889541,41.071612],[28.889343,41.071694],[28.889188,41.07176],[28.888899,41.071891],[28.888764,41.071956],[28.888668,41.072003],[28.888578,41.072049],[28.888442,41.072128],[28.888175,41.072296],[28.887139,41.073],[28.887085,41.073035],[28.886975,41.073114],[28.886863,41.07319],[28.886653,41.073329],[28.886479,41.073447],[28.886347,41.073537],[28.886161,41.073661],[28.886011,41.073762],[28.885885,41.073845],[28.885751,41.07393],[28.885647,41.073983],[28.885516,41.074045],[28.885365,41.074108],[28.885142,41.074195],[28.884912,41.074277],[28.884722,41.074345],[28.884334,41.074487],[28.884076,41.074584],[28.883893,41.074653],[28.883707,41.074723],[28.882732,41.075106],[28.882731,41.075106],[28.882731,41.075106],[28.882726,41.075107],[28.882765,41.07515],[28.882828,41.075226],[28.883153,41.075582],[28.883665,41.076177],[28.88423,41.076813],[28.884798,41.077408],[28.885024,41.077644],[28.885389,41.078026],[28.885503,41.077933],[28.885657,41.077781],[28.886004,41.078023],[28.886098,41.078083],[28.886591,41.078405],[28.886873,41.078589],[28.886994,41.078649],[28.887251,41.078832],[28.887585,41.079069],[28.887813,41.079225],[28.887957,41.079328],[28.888167,41.07948],[28.888408,41.079505],[28.889082,41.079501],[28.889412,41.079452],[28.889681,41.079346],[28.890518,41.079773],[28.891197,41.080108],[28.8919,41.080453],[28.892035,41.080503],[28.892449,41.080728],[28.892846,41.08093],[28.893353,41.081197],[28.89339,41.081157],[28.893406,41.08114],[28.89356,41.081],[28.893697,41.080877],[28.893835,41.080762],[28.894037,41.080593],[28.894232,41.08042],[28.894389,41.080282],[28.894509,41.080174],[28.894601,41.080072],[28.89465,41.080013],[28.894753,41.079882],[28.894836,41.079766],[28.894891,41.079692],[28.89496,41.079599],[28.89504,41.07949],[28.895104,41.079423]]]}},{"type":"Feature","properties":{"id":"TR-Y-34-021-M-0003","level":"yerlesim","type":"mahalle","parent_id":"TR-D-34-021","province_id":"TR-P-34","district_id":"TR-D-34-021","name":"Fevzi Çakmak","source_raw_name":"FEVZİ ÇAKMAK","source":"Kullanıcı tarafından sağlanan KML","source_label":"Kullanıcı tarafından sağlanan KML","source_name":"Istanbul Mahalle KML"},"geometry":{"type":"Polygon","coordinates":[[[28.91325,41.073634],[28.913316,41.07338],[28.91338,41.073127],[28.913445,41.072879],[28.913509,41.072647],[28.913533,41.072562],[28.913588,41.072374],[28.913646,41.072179],[28.913742,41.071982],[28.913877,41.071806],[28.913942,41.07173],[28.91409,41.071551],[28.914284,41.071318],[28.914506,41.071062],[28.914699,41.070834],[28.914867,41.070634],[28.915142,41.070235],[28.915307,41.069944],[28.915513,41.0695],[28.915342,41.069467],[28.915139,41.069428],[28.914816,41.069349],[28.914193,41.069217],[28.913667,41.069111],[28.913395,41.069059],[28.913085,41.069009],[28.912856,41.068996],[28.912313,41.069042],[28.911703,41.069012],[28.911053,41.068978],[28.910212,41.069171],[28.909621,41.069307],[28.909146,41.069417],[28.908587,41.069545],[28.908474,41.069554],[28.908064,41.069649],[28.907806,41.069741],[28.907611,41.069811],[28.907364,41.069901],[28.90731,41.069921],[28.907052,41.070041],[28.906942,41.070105],[28.906817,41.070177],[28.906647,41.07027],[28.906572,41.07031],[28.906409,41.070439],[28.905851,41.070245],[28.90519,41.070033],[28.904694,41.069866],[28.904218,41.069707],[28.903708,41.069535],[28.903341,41.069413],[28.903069,41.069322],[28.90306,41.069347],[28.903043,41.069398],[28.902993,41.069513],[28.902898,41.06973],[28.902807,41.069923],[28.902744,41.070057],[28.902695,41.07016],[28.90264,41.070324],[28.902609,41.070417],[28.902583,41.070495],[28.90255,41.070587],[28.90251,41.070696],[28.902415,41.070833],[28.902313,41.070949],[28.902085,41.071099],[28.902016,41.071138],[28.901962,41.07117],[28.901797,41.071274],[28.901701,41.07135],[28.901542,41.071395],[28.901297,41.07157],[28.901224,41.071713],[28.901199,41.071987],[28.901189,41.072103],[28.901162,41.072342],[28.901138,41.072552],[28.901155,41.072694],[28.90116,41.07273],[28.901253,41.072938],[28.90134,41.073132],[28.901418,41.073221],[28.901519,41.073296],[28.901643,41.073334],[28.902063,41.073445],[28.902345,41.073509],[28.902558,41.073558],[28.902613,41.073585],[28.902685,41.073596],[28.902978,41.073648],[28.90323,41.073553],[28.903488,41.073341],[28.903601,41.073297],[28.904157,41.073491],[28.90433,41.073551],[28.904793,41.073853],[28.905016,41.073999],[28.905361,41.074405],[28.905433,41.074625],[28.905499,41.074971],[28.905523,41.075136],[28.905536,41.075254],[28.905544,41.075289],[28.905566,41.075376],[28.905597,41.075503],[28.905613,41.075586],[28.905627,41.075664],[28.905648,41.075751],[28.905719,41.076038],[28.905788,41.076333],[28.905862,41.076669],[28.905916,41.076885],[28.905937,41.076967],[28.905974,41.077116],[28.90601,41.077259],[28.906046,41.077398],[28.906066,41.077477],[28.906129,41.07769],[28.906181,41.077834],[28.906181,41.077834],[28.906332,41.077769],[28.906395,41.077742],[28.906511,41.07769],[28.906607,41.077615],[28.906682,41.077527],[28.90685,41.07733],[28.907012,41.077141],[28.907089,41.077054],[28.907179,41.076949],[28.907207,41.076902],[28.907244,41.076812],[28.907335,41.076609],[28.907367,41.076534],[28.907412,41.076422],[28.907473,41.076264],[28.907529,41.076125],[28.907566,41.076036],[28.907613,41.075966],[28.907687,41.075857],[28.907807,41.075723],[28.90796,41.075553],[28.908066,41.075445],[28.908085,41.075427],[28.908186,41.075351],[28.90838,41.075253],[28.908504,41.075193],[28.908636,41.075149],[28.908792,41.075121],[28.908967,41.075102],[28.909093,41.075089],[28.9093,41.075051],[28.909425,41.07498],[28.909541,41.074915],[28.909599,41.074892],[28.90967,41.074874],[28.909839,41.074846],[28.909965,41.074824],[28.910008,41.074816],[28.910178,41.074785],[28.910305,41.074759],[28.910585,41.074707],[28.910759,41.074671],[28.910989,41.07464],[28.911246,41.074603],[28.911443,41.074575],[28.911612,41.074552],[28.911717,41.074534],[28.911841,41.074502],[28.911921,41.074482],[28.912144,41.074407],[28.912349,41.074343],[28.912429,41.07432],[28.912569,41.074276],[28.912871,41.074172],[28.912943,41.07415],[28.913039,41.074097],[28.913142,41.074015],[28.913174,41.073918],[28.913204,41.073816],[28.913213,41.073787],[28.91325,41.073634]]]}},{"type":"Feature","properties":{"id":"TR-Y-34-021-M-0004","level":"yerlesim","type":"mahalle","parent_id":"TR-D-34-021","province_id":"TR-P-34","district_id":"TR-D-34-021","name":"Hürriyet","source_raw_name":"HÜRRİYET","source":"Kullanıcı tarafından sağlanan KML","source_label":"Kullanıcı tarafından sağlanan KML","source_name":"Istanbul Mahalle KML"},"geometry":{"type":"Polygon","coordinates":[[[28.898539,41.069204],[28.898641,41.069091],[28.898737,41.069146],[28.89883,41.069198],[28.89892,41.06925],[28.898967,41.069276],[28.89904,41.069318],[28.899084,41.069343],[28.899112,41.069358],[28.899199,41.069407],[28.89926,41.06944],[28.899295,41.069459],[28.899364,41.069501],[28.899503,41.069583],[28.899581,41.069629],[28.899716,41.069708],[28.899807,41.069761],[28.899944,41.069841],[28.900008,41.069878],[28.900202,41.069991],[28.900268,41.07003],[28.900456,41.070139],[28.900598,41.070222],[28.900704,41.070284],[28.900906,41.070405],[28.901062,41.070496],[28.90127,41.070618],[28.901365,41.070675],[28.901502,41.070755],[28.901714,41.07088],[28.901919,41.071001],[28.902085,41.071099],[28.902313,41.070949],[28.902415,41.070833],[28.90251,41.070696],[28.90255,41.070587],[28.902583,41.070495],[28.902609,41.070417],[28.90264,41.070324],[28.902695,41.07016],[28.902744,41.070057],[28.902807,41.069923],[28.902898,41.06973],[28.902993,41.069513],[28.903043,41.069398],[28.90306,41.069347],[28.903069,41.069322],[28.903111,41.069106],[28.90303,41.06898],[28.902937,41.068835],[28.902781,41.068574],[28.902724,41.068482],[28.902674,41.0684],[28.902653,41.06831],[28.902716,41.068187],[28.902732,41.068156],[28.902813,41.068046],[28.902932,41.067937],[28.90303,41.067847],[28.90313,41.067836],[28.90318,41.067831],[28.903331,41.067839],[28.903467,41.067852],[28.903693,41.067907],[28.903783,41.067929],[28.903849,41.067934],[28.90392,41.067939],[28.904062,41.067936],[28.904287,41.06788],[28.904322,41.067871],[28.904443,41.067817],[28.904632,41.067732],[28.904723,41.06769],[28.904839,41.067637],[28.904946,41.06758],[28.905024,41.067495],[28.905079,41.067391],[28.905156,41.067249],[28.905305,41.066944],[28.905378,41.066796],[28.9054,41.06669],[28.905397,41.066608],[28.905352,41.066507],[28.905291,41.06638],[28.90526,41.066313],[28.905184,41.066222],[28.904929,41.066],[28.904907,41.065981],[28.904729,41.065862],[28.90433,41.065612],[28.904183,41.065521],[28.903961,41.065385],[28.903829,41.065304],[28.903609,41.065158],[28.903466,41.065047],[28.903434,41.065022],[28.903286,41.064921],[28.903132,41.064817],[28.903102,41.064798],[28.903052,41.064694],[28.902985,41.064523],[28.90296,41.064456],[28.902953,41.064436],[28.902919,41.064335],[28.902885,41.064235],[28.902851,41.064147],[28.902825,41.064079],[28.902744,41.06386],[28.902691,41.063691],[28.902641,41.063479],[28.902619,41.063208],[28.902612,41.06312],[28.902575,41.062807],[28.902555,41.062474],[28.902556,41.062315],[28.902557,41.062081],[28.902558,41.061921],[28.902561,41.061702],[28.902567,41.061246],[28.902578,41.061017],[28.902555,41.060838],[28.90254,41.06087],[28.902498,41.060959],[28.902432,41.061101],[28.902387,41.061196],[28.90235,41.061275],[28.902311,41.061359],[28.902261,41.061465],[28.902157,41.061681],[28.902053,41.061898],[28.901965,41.062078],[28.901841,41.062324],[28.900685,41.064559],[28.900582,41.064746],[28.900534,41.064837],[28.900458,41.06496],[28.900377,41.065057],[28.900242,41.06516],[28.899884,41.065409],[28.898388,41.066435],[28.897905,41.066754],[28.897589,41.066973],[28.897432,41.067084],[28.897259,41.067212],[28.896995,41.067407],[28.896631,41.067688],[28.896471,41.067821],[28.89621,41.068021],[28.89585,41.068302],[28.895532,41.068541],[28.89548,41.06858],[28.895079,41.068871],[28.894884,41.069013],[28.894653,41.06918],[28.894263,41.069453],[28.893876,41.069708],[28.893693,41.069812],[28.893571,41.069874],[28.893425,41.069943],[28.89327,41.070008],[28.893313,41.070057],[28.893619,41.07042],[28.893906,41.07077],[28.894212,41.071142],[28.894542,41.071528],[28.894821,41.071895],[28.895095,41.072235],[28.895396,41.072607],[28.895662,41.072939],[28.896021,41.073383],[28.896298,41.073724],[28.896597,41.074091],[28.896719,41.074236],[28.89672,41.074234],[28.896903,41.073923],[28.896995,41.073766],[28.89707,41.073621],[28.897184,41.073402],[28.8972,41.073316],[28.897209,41.07311],[28.8972,41.073048],[28.897168,41.072854],[28.897148,41.072687],[28.897153,41.072629],[28.897172,41.072368],[28.897184,41.072246],[28.897201,41.072114],[28.897219,41.071971],[28.89724,41.071806],[28.897246,41.071675],[28.897252,41.071554],[28.897255,41.071522],[28.897271,41.071359],[28.89728,41.071274],[28.897296,41.071117],[28.897307,41.071006],[28.897312,41.070959],[28.897331,41.070822],[28.897366,41.07057],[28.897402,41.070363],[28.897433,41.070181],[28.897498,41.070034],[28.897589,41.069914],[28.8977,41.069807],[28.897768,41.069763],[28.89815,41.069514],[28.898298,41.069421],[28.898421,41.06931],[28.898539,41.069204]]]}},{"type":"Feature","properties":{"id":"TR-Y-34-021-M-0005","level":"yerlesim","type":"mahalle","parent_id":"TR-D-34-021","province_id":"TR-P-34","district_id":"TR-D-34-021","name":"Karadeniz","source_raw_name":"KARADENİZ","source":"Kullanıcı tarafından sağlanan KML","source_label":"Kullanıcı tarafından sağlanan KML","source_name":"Istanbul Mahalle KML"},"geometry":{"type":"Polygon","coordinates":[[[28.891858,41.083821],[28.892008,41.083173],[28.892476,41.082344],[28.893326,41.081228],[28.893353,41.081197],[28.892846,41.08093],[28.892449,41.080728],[28.892035,41.080503],[28.8919,41.080453],[28.891197,41.080108],[28.890518,41.079773],[28.889681,41.079346],[28.889412,41.079452],[28.889082,41.079501],[28.888408,41.079505],[28.888167,41.07948],[28.887957,41.079328],[28.887813,41.079225],[28.887585,41.079069],[28.887251,41.078832],[28.886994,41.078649],[28.886873,41.078589],[28.886591,41.078405],[28.886098,41.078083],[28.886004,41.078023],[28.885657,41.077781],[28.885503,41.077933],[28.885389,41.078026],[28.885024,41.077644],[28.884798,41.077408],[28.88423,41.076813],[28.883665,41.076177],[28.883153,41.075582],[28.882828,41.075226],[28.882765,41.07515],[28.882726,41.075107],[28.882493,41.075199],[28.882369,41.075245],[28.882314,41.075266],[28.882249,41.0753],[28.882199,41.075322],[28.882089,41.075365],[28.882019,41.075392],[28.881943,41.075421],[28.881852,41.075456],[28.881755,41.075495],[28.881634,41.075541],[28.881509,41.075578],[28.881159,41.075721],[28.88095,41.075809],[28.880755,41.075887],[28.880615,41.075944],[28.880517,41.075984],[28.880387,41.076047],[28.880345,41.076069],[28.880317,41.076086],[28.880281,41.076107],[28.880167,41.07618],[28.880052,41.076263],[28.880015,41.076288],[28.879927,41.076355],[28.879792,41.07646],[28.879715,41.076519],[28.879681,41.076547],[28.879604,41.076605],[28.879446,41.07673],[28.879284,41.076862],[28.87917,41.076949],[28.879076,41.077027],[28.878982,41.077103],[28.87895,41.07713],[28.878858,41.077215],[28.878752,41.07731],[28.878621,41.077414],[28.878359,41.077622],[28.877262,41.078528],[28.876578,41.07919],[28.874371,41.081556],[28.874742,41.082004],[28.875166,41.082489],[28.875938,41.083294],[28.876522,41.083827],[28.877188,41.084419],[28.878508,41.085456],[28.878962,41.085776],[28.8794,41.086081],[28.880339,41.086692],[28.88101,41.087083],[28.881546,41.087381],[28.882298,41.087786],[28.882989,41.088116],[28.883561,41.088377],[28.884361,41.088725],[28.885029,41.088994],[28.886258,41.089439],[28.886323,41.089357],[28.886325,41.089357],[28.886828,41.088857],[28.887624,41.088085],[28.888368,41.087409],[28.889263,41.086653],[28.890033,41.086071],[28.890704,41.085471],[28.890815,41.085331],[28.890912,41.085178],[28.89132,41.084353],[28.891858,41.083821]]]}},{"type":"Feature","properties":{"id":"TR-Y-34-021-M-0006","level":"yerlesim","type":"mahalle","parent_id":"TR-D-34-021","province_id":"TR-P-34","district_id":"TR-D-34-021","name":"Karayolları","source_raw_name":"KARAYOLLARI","source":"Kullanıcı tarafından sağlanan KML","source_label":"Kullanıcı tarafından sağlanan KML","source_name":"Istanbul Mahalle KML"},"geometry":{"type":"Polygon","coordinates":[[[28.904617,41.090768],[28.905209,41.090754],[28.905811,41.090762],[28.906558,41.09078],[28.906629,41.090613],[28.906698,41.090438],[28.906856,41.090037],[28.906979,41.089723],[28.907126,41.089349],[28.907276,41.088966],[28.907444,41.088536],[28.907569,41.088216],[28.907718,41.087834],[28.907838,41.087526],[28.907935,41.087134],[28.908031,41.086748],[28.908106,41.086444],[28.908174,41.086167],[28.908265,41.085597],[28.908276,41.085531],[28.908339,41.085131],[28.908364,41.084975],[28.908424,41.084595],[28.908467,41.084309],[28.908498,41.084065],[28.908501,41.083761],[28.908484,41.083625],[28.908454,41.083392],[28.908435,41.083314],[28.908394,41.083158],[28.90836,41.083028],[28.908324,41.082921],[28.908223,41.082616],[28.908164,41.082438],[28.908104,41.082165],[28.908095,41.082081],[28.90807,41.081846],[28.908042,41.08172],[28.907995,41.08152],[28.907971,41.08146],[28.907876,41.081225],[28.907795,41.081094],[28.907553,41.080706],[28.907428,41.080503],[28.907159,41.080087],[28.907156,41.080082],[28.907153,41.08009],[28.907132,41.08013],[28.907001,41.080434],[28.906939,41.08051],[28.906506,41.080606],[28.906422,41.080643],[28.906346,41.080706],[28.906283,41.080726],[28.906089,41.080767],[28.906012,41.080772],[28.906012,41.080772],[28.904589,41.08064],[28.904587,41.08064],[28.904433,41.080751],[28.904234,41.080865],[28.904052,41.080899],[28.904052,41.080899],[28.903793,41.080877],[28.903719,41.080857],[28.903144,41.080709],[28.903144,41.080708],[28.903033,41.080703],[28.902909,41.08072],[28.90274,41.080816],[28.902628,41.08093],[28.902433,41.081201],[28.902401,41.081302],[28.902334,41.081652],[28.902302,41.08179],[28.902266,41.081875],[28.902098,41.082072],[28.901678,41.082244],[28.901525,41.082282],[28.90139,41.082299],[28.901261,41.082302],[28.90126,41.082302],[28.901093,41.082281],[28.90088,41.082229],[28.900471,41.082115],[28.900129,41.082009],[28.899677,41.081876],[28.899367,41.081785],[28.898638,41.081579],[28.898472,41.081566],[28.898472,41.081566],[28.89847,41.081566],[28.898271,41.081562],[28.898125,41.081585],[28.897695,41.081703],[28.896583,41.081918],[28.895563,41.082666],[28.894742,41.083164],[28.894741,41.083164],[28.894575,41.083081],[28.894574,41.08308],[28.894319,41.083129],[28.893945,41.083281],[28.893505,41.083463],[28.893406,41.08349],[28.893039,41.083543],[28.892943,41.083558],[28.892347,41.083696],[28.891909,41.083807],[28.891858,41.083821],[28.89132,41.084353],[28.890912,41.085178],[28.890815,41.085331],[28.890704,41.085471],[28.890033,41.086071],[28.889263,41.086653],[28.888368,41.087409],[28.887624,41.088085],[28.886828,41.088857],[28.886325,41.089357],[28.886323,41.089357],[28.886258,41.089439],[28.887262,41.089753],[28.887939,41.089956],[28.888722,41.090159],[28.88981,41.090414],[28.890224,41.090501],[28.89058,41.090576],[28.891587,41.090751],[28.892142,41.090835],[28.892492,41.090884],[28.892763,41.090921],[28.89335,41.090989],[28.893935,41.091045],[28.894527,41.091095],[28.895118,41.091143],[28.895711,41.091173],[28.896298,41.09119],[28.896899,41.091202],[28.897491,41.091199],[28.898088,41.09119],[28.898684,41.091171],[28.899276,41.09114],[28.899863,41.091105],[28.90046,41.091057],[28.902895,41.090854],[28.904017,41.090784],[28.904617,41.090768]]]}},{"type":"Feature","properties":{"id":"TR-Y-34-021-M-0007","level":"yerlesim","type":"mahalle","parent_id":"TR-D-34-021","province_id":"TR-P-34","district_id":"TR-D-34-021","name":"Karlıtepe","source_raw_name":"KARLITEPE","source":"Kullanıcı tarafından sağlanan KML","source_label":"Kullanıcı tarafından sağlanan KML","source_name":"Istanbul Mahalle KML"},"geometry":{"type":"Polygon","coordinates":[[[28.930539,41.061033],[28.930587,41.060606],[28.930604,41.060464],[28.930639,41.059902],[28.93068,41.059744],[28.930743,41.059601],[28.930795,41.059489],[28.93092,41.059259],[28.930985,41.059146],[28.931113,41.059061],[28.931169,41.058927],[28.931183,41.058864],[28.931289,41.05855],[28.931381,41.058274],[28.931449,41.058099],[28.931527,41.057879],[28.931719,41.057656],[28.931821,41.057559],[28.931893,41.057483],[28.932293,41.057064],[28.932322,41.056569],[28.932124,41.056531],[28.931998,41.056511],[28.931511,41.056168],[28.931357,41.056099],[28.931285,41.056099],[28.931287,41.056099],[28.931146,41.056098],[28.930774,41.056153],[28.930703,41.056156],[28.930625,41.056043],[28.930518,41.055713],[28.930383,41.055454],[28.930215,41.055223],[28.930147,41.055253],[28.93001,41.055404],[28.929874,41.055551],[28.929795,41.055638],[28.92973,41.055709],[28.929657,41.055789],[28.929606,41.055822],[28.929328,41.055883],[28.92902,41.05592],[28.928931,41.055939],[28.928874,41.055968],[28.928771,41.056002],[28.928228,41.056076],[28.92807,41.056127],[28.927924,41.056225],[28.927848,41.056283],[28.927777,41.056305],[28.927714,41.056319],[28.927593,41.056318],[28.927525,41.056321],[28.927475,41.056262],[28.927417,41.05613],[28.927373,41.056031],[28.927218,41.056178],[28.927231,41.056097],[28.927236,41.056049],[28.927259,41.055902],[28.927303,41.05564],[28.927358,41.055459],[28.927385,41.055334],[28.927356,41.055125],[28.927325,41.05491],[28.927256,41.054738],[28.927245,41.054688],[28.927239,41.054616],[28.927239,41.054541],[28.927239,41.054418],[28.927227,41.054398],[28.927183,41.054324],[28.92694,41.054402],[28.92671,41.054463],[28.926612,41.054466],[28.926531,41.05442],[28.926436,41.054406],[28.926314,41.054468],[28.926299,41.054485],[28.926208,41.054593],[28.925972,41.054515],[28.925809,41.054574],[28.925694,41.054705],[28.925555,41.055018],[28.925447,41.055346],[28.925349,41.055475],[28.925347,41.055479],[28.925335,41.055494],[28.925239,41.055421],[28.925079,41.055294],[28.924823,41.055041],[28.924605,41.054826],[28.924525,41.054737],[28.92433,41.054517],[28.924223,41.054388],[28.924125,41.054298],[28.924023,41.054274],[28.923994,41.05435],[28.923947,41.054473],[28.923941,41.05465],[28.923935,41.05479],[28.923928,41.055007],[28.923927,41.055059],[28.923931,41.055219],[28.923928,41.055553],[28.923866,41.055742],[28.923872,41.055877],[28.923603,41.055671],[28.923464,41.055557],[28.923423,41.05559],[28.923391,41.055624],[28.923364,41.055646],[28.923242,41.055737],[28.923213,41.055758],[28.923129,41.05584],[28.923026,41.05592],[28.922885,41.05603],[28.922852,41.056094],[28.922778,41.056238],[28.922735,41.056321],[28.922706,41.056465],[28.922638,41.056576],[28.922536,41.056745],[28.922425,41.056933],[28.922336,41.057077],[28.922305,41.057127],[28.922251,41.057186],[28.922148,41.057288],[28.922229,41.057292],[28.922367,41.057302],[28.923669,41.057399],[28.924312,41.057446],[28.925759,41.057537],[28.926065,41.057553],[28.926438,41.057606],[28.926197,41.058162],[28.926158,41.058247],[28.926387,41.058317],[28.926263,41.058549],[28.926074,41.058989],[28.926958,41.059263],[28.927095,41.059854],[28.92714,41.060003],[28.927194,41.060251],[28.927315,41.060847],[28.927066,41.061106],[28.926344,41.061878],[28.926483,41.061848],[28.926616,41.061818],[28.92687,41.061762],[28.927514,41.061575],[28.928142,41.0614],[28.928345,41.061339],[28.928454,41.061313],[28.929014,41.06124],[28.929207,41.061221],[28.929601,41.061163],[28.929989,41.061105],[28.930539,41.061033]]]}},{"type":"Feature","properties":{"id":"TR-Y-34-021-M-0008","level":"yerlesim","type":"mahalle","parent_id":"TR-D-34-021","province_id":"TR-P-34","district_id":"TR-D-34-021","name":"Kazım Karabekir","source_raw_name":"KAZIM KARABEKİR","source":"Kullanıcı tarafından sağlanan KML","source_label":"Kullanıcı tarafından sağlanan KML","source_name":"Istanbul Mahalle KML"},"geometry":{"type":"Polygon","coordinates":[[[28.915434,41.082237],[28.915913,41.082148],[28.915914,41.082148],[28.915931,41.08215],[28.916075,41.08216],[28.916071,41.082153],[28.916052,41.082117],[28.916081,41.082085],[28.916151,41.082016],[28.916154,41.081919],[28.916156,41.081786],[28.916094,41.081525],[28.916057,41.081367],[28.915961,41.080969],[28.91595,41.080543],[28.915962,41.080141],[28.915979,41.079908],[28.916004,41.079736],[28.916036,41.079475],[28.915723,41.079238],[28.915463,41.078961],[28.915588,41.078886],[28.915667,41.078767],[28.915771,41.078622],[28.915861,41.07842],[28.915923,41.07809],[28.915974,41.077989],[28.916122,41.077883],[28.916247,41.077794],[28.916257,41.077749],[28.916209,41.07735],[28.916216,41.077284],[28.916303,41.077158],[28.916431,41.077084],[28.916739,41.076902],[28.916802,41.076853],[28.916871,41.076769],[28.916936,41.076423],[28.91704,41.076317],[28.917084,41.076248],[28.91713,41.076124],[28.917143,41.075907],[28.917144,41.075886],[28.917164,41.075735],[28.917171,41.075654],[28.917329,41.075331],[28.917431,41.075103],[28.917443,41.075081],[28.917485,41.074951],[28.917492,41.074793],[28.91746,41.074606],[28.917406,41.074438],[28.917071,41.074006],[28.91702,41.073733],[28.916984,41.073542],[28.916911,41.073473],[28.916359,41.073207],[28.916212,41.072896],[28.91618,41.072735],[28.916192,41.072487],[28.916218,41.072136],[28.916306,41.071883],[28.916662,41.071398],[28.916747,41.071261],[28.916772,41.071182],[28.916773,41.071104],[28.916695,41.070842],[28.916653,41.070735],[28.916641,41.070663],[28.916645,41.070551],[28.916679,41.070328],[28.917013,41.06971],[28.91745,41.068957],[28.917505,41.06887],[28.91759,41.068783],[28.917718,41.068691],[28.917878,41.068615],[28.918066,41.068551],[28.918554,41.068449],[28.91908,41.068342],[28.919269,41.068298],[28.919687,41.068163],[28.919924,41.067941],[28.919924,41.067941],[28.919776,41.068016],[28.919676,41.068057],[28.919575,41.068076],[28.919525,41.06808],[28.918901,41.068168],[28.918463,41.068229],[28.917869,41.068315],[28.917677,41.068342],[28.917524,41.068376],[28.917338,41.068451],[28.917246,41.068511],[28.917062,41.06867],[28.916768,41.06894],[28.916683,41.06902],[28.916601,41.06909],[28.916533,41.069136],[28.916427,41.069208],[28.916334,41.069272],[28.916271,41.069315],[28.916241,41.069332],[28.916157,41.06938],[28.916069,41.069414],[28.916008,41.069428],[28.915839,41.069467],[28.915725,41.069493],[28.915625,41.069494],[28.915526,41.069495],[28.915513,41.0695],[28.915307,41.069944],[28.915142,41.070235],[28.914867,41.070634],[28.914699,41.070834],[28.914506,41.071062],[28.914284,41.071318],[28.91409,41.071551],[28.913942,41.07173],[28.913877,41.071806],[28.913742,41.071982],[28.913646,41.072179],[28.913588,41.072374],[28.913533,41.072562],[28.913509,41.072647],[28.913445,41.072879],[28.91338,41.073127],[28.913316,41.07338],[28.91325,41.073634],[28.913213,41.073787],[28.913204,41.073816],[28.913174,41.073918],[28.913142,41.074015],[28.913039,41.074097],[28.912943,41.07415],[28.912871,41.074172],[28.912569,41.074276],[28.912429,41.07432],[28.912349,41.074343],[28.912144,41.074407],[28.911921,41.074482],[28.911841,41.074502],[28.911717,41.074534],[28.911612,41.074552],[28.911443,41.074575],[28.911246,41.074603],[28.910989,41.07464],[28.910759,41.074671],[28.910585,41.074707],[28.910305,41.074759],[28.910178,41.074785],[28.910008,41.074816],[28.909965,41.074824],[28.909839,41.074846],[28.90967,41.074874],[28.909599,41.074892],[28.909541,41.074915],[28.909425,41.07498],[28.9093,41.075051],[28.909093,41.075089],[28.908967,41.075102],[28.908792,41.075121],[28.908636,41.075149],[28.908504,41.075193],[28.90838,41.075253],[28.908186,41.075351],[28.908085,41.075427],[28.908066,41.075445],[28.90796,41.075553],[28.907807,41.075723],[28.907687,41.075857],[28.907613,41.075966],[28.907566,41.076036],[28.907529,41.076125],[28.907473,41.076264],[28.907412,41.076422],[28.907367,41.076534],[28.907335,41.076609],[28.907244,41.076812],[28.907207,41.076902],[28.907179,41.076949],[28.907089,41.077054],[28.907012,41.077141],[28.90685,41.07733],[28.906682,41.077527],[28.906607,41.077615],[28.906511,41.07769],[28.906395,41.077742],[28.906332,41.077769],[28.906181,41.077834],[28.906275,41.078076],[28.906336,41.078231],[28.906415,41.078432],[28.906517,41.078687],[28.90661,41.078924],[28.906694,41.079138],[28.906768,41.079326],[28.90681,41.079417],[28.906947,41.079703],[28.907078,41.079944],[28.907136,41.08005],[28.907156,41.080082],[28.907159,41.080087],[28.907428,41.080503],[28.907553,41.080706],[28.907795,41.081094],[28.907876,41.081225],[28.907971,41.08146],[28.907995,41.08152],[28.908042,41.08172],[28.90807,41.081846],[28.908095,41.082081],[28.908104,41.082165],[28.908164,41.082438],[28.908223,41.082616],[28.908324,41.082921],[28.90836,41.083028],[28.908394,41.083158],[28.908435,41.083314],[28.908454,41.083392],[28.908484,41.083625],[28.908501,41.083761],[28.908498,41.084065],[28.908467,41.084309],[28.908424,41.084595],[28.908364,41.084975],[28.908339,41.085131],[28.908654,41.085048],[28.908729,41.085028],[28.909707,41.084793],[28.910866,41.084512],[28.911236,41.084383],[28.911542,41.084256],[28.911845,41.084123],[28.912236,41.083899],[28.912477,41.083732],[28.91268,41.083569],[28.91305,41.083188],[28.913148,41.083108],[28.913834,41.082743],[28.914269,41.08257],[28.914934,41.082378],[28.915434,41.082237]]]}},{"type":"Feature","properties":{"id":"TR-Y-34-021-M-0009","level":"yerlesim","type":"mahalle","parent_id":"TR-D-34-021","province_id":"TR-P-34","district_id":"TR-D-34-021","name":"Merkez","source_raw_name":"MERKEZ","source":"Kullanıcı tarafından sağlanan KML","source_label":"Kullanıcı tarafından sağlanan KML","source_name":"Istanbul Mahalle KML"},"geometry":{"type":"Polygon","coordinates":[[[28.908407,41.066598],[28.908437,41.066528],[28.908577,41.066218],[28.908865,41.065672],[28.908933,41.065587],[28.909087,41.065316],[28.909195,41.065125],[28.909221,41.065067],[28.909328,41.064933],[28.909608,41.064562],[28.909746,41.064313],[28.909775,41.0641],[28.90981,41.063814],[28.909842,41.063493],[28.90987,41.063403],[28.909921,41.063287],[28.909992,41.063157],[28.91004,41.063097],[28.910277,41.062785],[28.910431,41.062603],[28.910597,41.062388],[28.910695,41.062263],[28.910779,41.062151],[28.911224,41.061664],[28.911448,41.061388],[28.911629,41.061167],[28.911736,41.061033],[28.911934,41.060794],[28.912111,41.060584],[28.912229,41.060436],[28.912463,41.060155],[28.91259,41.06003],[28.912753,41.059851],[28.912864,41.059722],[28.912963,41.059587],[28.913117,41.059376],[28.913247,41.059173],[28.913341,41.058923],[28.913366,41.058858],[28.913455,41.058479],[28.913533,41.05835],[28.913599,41.058281],[28.913687,41.058222],[28.913834,41.05812],[28.913868,41.058094],[28.914202,41.058124],[28.914807,41.058172],[28.915394,41.058221],[28.915665,41.058243],[28.916064,41.058231],[28.916471,41.058198],[28.916746,41.058159],[28.917056,41.058128],[28.917393,41.058096],[28.91773,41.058069],[28.917718,41.057972],[28.91767,41.05745],[28.917665,41.05739],[28.917655,41.0573],[28.917614,41.056845],[28.917559,41.056754],[28.917492,41.056659],[28.917548,41.056519],[28.917598,41.05648],[28.918371,41.056465],[28.918884,41.056457],[28.919208,41.05645],[28.919392,41.05633],[28.919255,41.056158],[28.919209,41.056033],[28.919173,41.055554],[28.919108,41.055485],[28.919058,41.055436],[28.918906,41.055326],[28.918912,41.055156],[28.918928,41.05498],[28.918952,41.054894],[28.918932,41.054764],[28.918897,41.054669],[28.918783,41.054526],[28.918757,41.054502],[28.918732,41.054478],[28.918711,41.054458],[28.917821,41.054912],[28.917168,41.055104],[28.91653,41.055456],[28.915693,41.054634],[28.915757,41.054252],[28.915883,41.053911],[28.91483,41.052702],[28.914421,41.053252],[28.912479,41.052309],[28.91144,41.051805],[28.911115,41.051647],[28.910991,41.051591],[28.910943,41.051689],[28.91091,41.051769],[28.910879,41.051834],[28.910874,41.051846],[28.910818,41.051984],[28.910801,41.052047],[28.910781,41.052111],[28.910744,41.052275],[28.910713,41.052441],[28.910705,41.05251],[28.910685,41.052684],[28.91067,41.052782],[28.910653,41.053065],[28.910616,41.053233],[28.910501,41.05359],[28.910479,41.053632],[28.910442,41.053739],[28.910339,41.053926],[28.910275,41.054075],[28.910218,41.054202],[28.910136,41.054384],[28.910066,41.054542],[28.909974,41.054744],[28.909954,41.054779],[28.90991,41.054854],[28.909852,41.054949],[28.909808,41.055014],[28.909743,41.055098],[28.909653,41.055202],[28.909526,41.055345],[28.909374,41.055486],[28.909246,41.055593],[28.909111,41.055703],[28.909042,41.055758],[28.908242,41.056344],[28.908081,41.056458],[28.907842,41.056628],[28.907617,41.056784],[28.907456,41.056893],[28.907271,41.057019],[28.906995,41.057208],[28.906696,41.057414],[28.9066,41.05748],[28.90645,41.057584],[28.905938,41.057988],[28.905628,41.058194],[28.905459,41.058309],[28.905243,41.058432],[28.905141,41.058487],[28.905047,41.05855],[28.904819,41.058708],[28.904608,41.058859],[28.904494,41.058944],[28.90432,41.059073],[28.904104,41.059226],[28.903924,41.059355],[28.903637,41.059561],[28.903415,41.059719],[28.903331,41.059779],[28.903329,41.05978],[28.903297,41.059809],[28.903241,41.05986],[28.903375,41.059844],[28.903784,41.059791],[28.903961,41.059796],[28.904026,41.05981],[28.90409,41.059853],[28.905204,41.062303],[28.9059,41.063425],[28.906592,41.064464],[28.907612,41.066113],[28.908233,41.067116],[28.908282,41.066913],[28.908407,41.066598]]]}},{"type":"Feature","properties":{"id":"TR-Y-34-021-M-0010","level":"yerlesim","type":"mahalle","parent_id":"TR-D-34-021","province_id":"TR-P-34","district_id":"TR-D-34-021","name":"Mevlana","source_raw_name":"MEVLANA","source":"Kullanıcı tarafından sağlanan KML","source_label":"Kullanıcı tarafından sağlanan KML","source_name":"Istanbul Mahalle KML"},"geometry":{"type":"Polygon","coordinates":[[[28.922738,41.093033],[28.922622,41.093023],[28.922402,41.092964],[28.922112,41.092845],[28.922045,41.092771],[28.92189,41.092612],[28.921594,41.092297],[28.921199,41.091266],[28.921109,41.09103],[28.921074,41.09099],[28.920158,41.089987],[28.919432,41.08919],[28.919399,41.089122],[28.918747,41.086175],[28.917892,41.084371],[28.917684,41.083931],[28.91735,41.0836],[28.917151,41.083244],[28.917089,41.08237],[28.916242,41.082172],[28.916075,41.08216],[28.915931,41.08215],[28.915914,41.082148],[28.915913,41.082148],[28.915434,41.082237],[28.914934,41.082378],[28.914269,41.08257],[28.913834,41.082743],[28.913148,41.083108],[28.91305,41.083188],[28.91268,41.083569],[28.912477,41.083732],[28.912236,41.083899],[28.911845,41.084123],[28.911542,41.084256],[28.911236,41.084383],[28.910866,41.084512],[28.909707,41.084793],[28.908729,41.085028],[28.908654,41.085048],[28.908339,41.085131],[28.908276,41.085531],[28.908265,41.085597],[28.908174,41.086167],[28.908106,41.086444],[28.908031,41.086748],[28.907935,41.087134],[28.907838,41.087526],[28.907718,41.087834],[28.907569,41.088216],[28.907444,41.088536],[28.907276,41.088966],[28.907126,41.089349],[28.906979,41.089723],[28.906856,41.090037],[28.906698,41.090438],[28.906629,41.090613],[28.906558,41.09078],[28.907006,41.090804],[28.907593,41.090839],[28.908181,41.09089],[28.908762,41.090949],[28.909361,41.091027],[28.909937,41.091116],[28.910509,41.091226],[28.911085,41.091341],[28.911655,41.091468],[28.912224,41.091606],[28.912784,41.091755],[28.913339,41.091918],[28.913888,41.092092],[28.914427,41.092274],[28.914968,41.092471],[28.915768,41.092773],[28.916574,41.093081],[28.917595,41.093454],[28.918121,41.093629],[28.918657,41.093795],[28.919192,41.093947],[28.919703,41.094076],[28.920254,41.094199],[28.92079,41.094306],[28.921073,41.094357],[28.921616,41.09394],[28.921764,41.093782],[28.921898,41.093583],[28.922048,41.093452],[28.922149,41.09339],[28.922663,41.093084],[28.922738,41.093033]]]}},{"type":"Feature","properties":{"id":"TR-Y-34-021-M-0011","level":"yerlesim","type":"mahalle","parent_id":"TR-D-34-021","province_id":"TR-P-34","district_id":"TR-D-34-021","name":"Pazariçi","source_raw_name":"PAZARİÇİ","source":"Kullanıcı tarafından sağlanan KML","source_label":"Kullanıcı tarafından sağlanan KML","source_name":"Istanbul Mahalle KML"},"geometry":{"type":"Polygon","coordinates":[[[28.934182,41.062748],[28.934391,41.062718],[28.934971,41.062731],[28.935157,41.062616],[28.935241,41.062586],[28.93528,41.06254],[28.935388,41.062474],[28.935402,41.0624],[28.935408,41.062393],[28.935405,41.062367],[28.935428,41.062259],[28.935382,41.062189],[28.93538,41.06217],[28.935191,41.061887],[28.93519,41.061854],[28.935226,41.061624],[28.935268,41.061512],[28.935251,41.061467],[28.93527,41.06135],[28.935421,41.061369],[28.935598,41.061405],[28.935692,41.061402],[28.935884,41.061405],[28.935938,41.061395],[28.93603,41.061393],[28.936117,41.061363],[28.936254,41.061337],[28.936417,41.061259],[28.936568,41.061206],[28.936657,41.061142],[28.936703,41.06112],[28.936716,41.0611],[28.936826,41.061021],[28.93679,41.060957],[28.936648,41.060625],[28.936587,41.060341],[28.936582,41.060178],[28.936584,41.06016],[28.936591,41.059574],[28.936605,41.059456],[28.93663,41.059273],[28.938262,41.059394],[28.93851,41.059394],[28.938624,41.059403],[28.939046,41.059433],[28.939166,41.059442],[28.939209,41.059445],[28.939111,41.059275],[28.938962,41.059015],[28.938817,41.058795],[28.938704,41.058599],[28.938512,41.058285],[28.938449,41.058186],[28.938376,41.057985],[28.938275,41.057793],[28.937905,41.057776],[28.937787,41.057771],[28.937582,41.057701],[28.937359,41.057614],[28.937216,41.057567],[28.936757,41.05736],[28.936477,41.057191],[28.936419,41.057157],[28.936004,41.056908],[28.935875,41.056826],[28.93581,41.05678],[28.935706,41.056697],[28.93544,41.056633],[28.93528,41.056608],[28.935076,41.056585],[28.93486,41.0566],[28.934809,41.056628],[28.934791,41.056804],[28.934787,41.056814],[28.93478,41.05686],[28.934631,41.056853],[28.934439,41.056843],[28.934377,41.056839],[28.933894,41.056861],[28.933524,41.05684],[28.933475,41.057018],[28.933405,41.05723],[28.93339,41.05728],[28.933104,41.057812],[28.933045,41.057821],[28.932937,41.05782],[28.932756,41.057787],[28.932566,41.057745],[28.932375,41.057694],[28.932128,41.057587],[28.931893,41.057483],[28.931821,41.057559],[28.931719,41.057656],[28.931527,41.057879],[28.931449,41.058099],[28.931381,41.058274],[28.931289,41.05855],[28.931183,41.058864],[28.931169,41.058927],[28.931113,41.059061],[28.930985,41.059146],[28.93092,41.059259],[28.930795,41.059489],[28.930743,41.059601],[28.93068,41.059744],[28.930639,41.059902],[28.930604,41.060464],[28.930587,41.060606],[28.930539,41.061033],[28.930688,41.06133],[28.930749,41.061451],[28.930846,41.061664],[28.930933,41.061841],[28.931217,41.061922],[28.931709,41.062057],[28.932499,41.06226],[28.932577,41.062085],[28.933198,41.062208],[28.93326,41.062069],[28.933305,41.062052],[28.933532,41.062085],[28.933911,41.062146],[28.934358,41.062212],[28.934302,41.062258],[28.933806,41.062657],[28.933772,41.062704],[28.933784,41.062776],[28.933805,41.062819],[28.934072,41.062765],[28.934182,41.062748]]]}},{"type":"Feature","properties":{"id":"TR-Y-34-021-M-0012","level":"yerlesim","type":"mahalle","parent_id":"TR-D-34-021","province_id":"TR-P-34","district_id":"TR-D-34-021","name":"Sarıgöl","source_raw_name":"SARIGÖL","source":"Kullanıcı tarafından sağlanan KML","source_label":"Kullanıcı tarafından sağlanan KML","source_name":"Istanbul Mahalle KML"},"geometry":{"type":"Polygon","coordinates":[[[28.922267,41.063565],[28.922,41.063319],[28.921607,41.06296],[28.921533,41.06291],[28.921202,41.062682],[28.921079,41.062662],[28.92122,41.062497],[28.921285,41.062363],[28.921314,41.062075],[28.921299,41.061864],[28.921298,41.061647],[28.9213,41.061399],[28.921356,41.061103],[28.921346,41.060972],[28.921502,41.060789],[28.921635,41.060598],[28.921648,41.060579],[28.921847,41.060392],[28.921893,41.060374],[28.922095,41.060412],[28.922343,41.060351],[28.922203,41.060086],[28.922173,41.060003],[28.922096,41.059762],[28.922063,41.059651],[28.922036,41.059448],[28.92197,41.059412],[28.921704,41.059416],[28.921648,41.059377],[28.92162,41.059282],[28.921624,41.059007],[28.921637,41.058719],[28.92165,41.058576],[28.921668,41.058355],[28.921687,41.058138],[28.921701,41.057967],[28.92165,41.057873],[28.921642,41.057643],[28.921636,41.057373],[28.921633,41.057256],[28.921903,41.05727],[28.922148,41.057288],[28.922251,41.057186],[28.922305,41.057127],[28.922336,41.057077],[28.922425,41.056933],[28.922536,41.056745],[28.922638,41.056576],[28.922706,41.056465],[28.922735,41.056321],[28.922778,41.056238],[28.922852,41.056094],[28.922885,41.05603],[28.923026,41.05592],[28.923129,41.05584],[28.923213,41.055758],[28.923242,41.055737],[28.923364,41.055646],[28.923391,41.055624],[28.923423,41.05559],[28.923464,41.055557],[28.923387,41.05527],[28.923373,41.054981],[28.923353,41.054823],[28.923304,41.054751],[28.923249,41.054693],[28.923089,41.054595],[28.923036,41.054522],[28.922997,41.054313],[28.922986,41.054202],[28.922968,41.054153],[28.922925,41.053922],[28.922908,41.053763],[28.92289,41.053737],[28.922753,41.053624],[28.922682,41.053571],[28.922542,41.053492],[28.922382,41.053422],[28.921381,41.053538],[28.920881,41.053738],[28.920092,41.054199],[28.919254,41.054243],[28.918722,41.054453],[28.918711,41.054458],[28.918732,41.054478],[28.918757,41.054502],[28.918783,41.054526],[28.918897,41.054669],[28.918932,41.054764],[28.918952,41.054894],[28.918928,41.05498],[28.918912,41.055156],[28.918906,41.055326],[28.919058,41.055436],[28.919108,41.055485],[28.919173,41.055554],[28.919209,41.056033],[28.919255,41.056158],[28.919392,41.05633],[28.919208,41.05645],[28.918884,41.056457],[28.918371,41.056465],[28.917598,41.05648],[28.917548,41.056519],[28.917492,41.056659],[28.917559,41.056754],[28.917614,41.056845],[28.917655,41.0573],[28.917665,41.05739],[28.91767,41.05745],[28.917718,41.057972],[28.91773,41.058069],[28.917393,41.058096],[28.917056,41.058128],[28.916746,41.058159],[28.916471,41.058198],[28.916064,41.058231],[28.915665,41.058243],[28.915394,41.058221],[28.914807,41.058172],[28.914202,41.058124],[28.913868,41.058094],[28.913834,41.05812],[28.913687,41.058222],[28.913599,41.058281],[28.913533,41.05835],[28.913455,41.058479],[28.913366,41.058858],[28.913615,41.058891],[28.913767,41.058896],[28.913832,41.0589],[28.914445,41.05894],[28.914451,41.05913],[28.914467,41.059305],[28.914485,41.059422],[28.914524,41.059741],[28.914562,41.060057],[28.914598,41.060372],[28.914639,41.060757],[28.914671,41.061066],[28.914759,41.061877],[28.914824,41.062372],[28.914857,41.062654],[28.91537,41.062613],[28.915444,41.063168],[28.915515,41.063542],[28.915604,41.063553],[28.915724,41.063554],[28.915899,41.063565],[28.91602,41.063553],[28.916115,41.063534],[28.9162,41.063502],[28.91626,41.063469],[28.916318,41.063424],[28.916484,41.063296],[28.916701,41.06323],[28.916803,41.063299],[28.917083,41.0635],[28.917611,41.063849],[28.91826,41.064273],[28.918536,41.064491],[28.918734,41.064655],[28.91892,41.064802],[28.919399,41.065173],[28.919604,41.065348],[28.919732,41.065445],[28.919834,41.065576],[28.920282,41.065842],[28.920587,41.065953],[28.920933,41.06611],[28.921238,41.066277],[28.921278,41.066299],[28.921533,41.066459],[28.921598,41.06655],[28.921612,41.066649],[28.921651,41.06671],[28.921781,41.066719],[28.921983,41.066759],[28.922295,41.066867],[28.922657,41.067001],[28.922666,41.067003],[28.922666,41.067001],[28.922659,41.066875],[28.922538,41.066509],[28.922394,41.06626],[28.922308,41.066105],[28.922308,41.066104],[28.922307,41.066104],[28.922305,41.066102],[28.9223,41.066097],[28.922256,41.066057],[28.922046,41.065868],[28.922028,41.065855],[28.922011,41.06584],[28.921792,41.065577],[28.921634,41.065394],[28.921576,41.065297],[28.921532,41.065071],[28.921573,41.064919],[28.921622,41.064817],[28.921713,41.064726],[28.921828,41.06465],[28.92189,41.06457],[28.921932,41.064474],[28.922025,41.064265],[28.922089,41.064045],[28.922108,41.063892],[28.922161,41.063712],[28.922267,41.063565]]]}},{"type":"Feature","properties":{"id":"TR-Y-34-021-M-0013","level":"yerlesim","type":"mahalle","parent_id":"TR-D-34-021","province_id":"TR-P-34","district_id":"TR-D-34-021","name":"Şemsipaşa","source_raw_name":"ŞEMSİPAŞA","source":"Kullanıcı tarafından sağlanan KML","source_label":"Kullanıcı tarafından sağlanan KML","source_name":"Istanbul Mahalle KML"},"geometry":{"type":"Polygon","coordinates":[[[28.911053,41.068978],[28.910895,41.068631],[28.910568,41.067893],[28.910242,41.067968],[28.91018,41.067937],[28.910128,41.067914],[28.910085,41.067858],[28.90993,41.067669],[28.909538,41.067462],[28.909227,41.067149],[28.90888,41.066926],[28.908407,41.066598],[28.908282,41.066913],[28.908233,41.067116],[28.907612,41.066113],[28.906592,41.064464],[28.9059,41.063425],[28.905204,41.062303],[28.90409,41.059853],[28.904026,41.05981],[28.903961,41.059796],[28.903784,41.059791],[28.903375,41.059844],[28.903241,41.05986],[28.903169,41.059924],[28.903118,41.05997],[28.903049,41.060042],[28.90296,41.060141],[28.902909,41.060205],[28.902881,41.060243],[28.902825,41.060319],[28.902779,41.060391],[28.902747,41.060446],[28.902708,41.060515],[28.902616,41.060707],[28.902593,41.060758],[28.902575,41.060796],[28.902569,41.060809],[28.902555,41.060838],[28.902578,41.061017],[28.902567,41.061246],[28.902561,41.061702],[28.902558,41.061921],[28.902557,41.062081],[28.902556,41.062315],[28.902555,41.062474],[28.902575,41.062807],[28.902612,41.06312],[28.902619,41.063208],[28.902641,41.063479],[28.902691,41.063691],[28.902744,41.06386],[28.902825,41.064079],[28.902851,41.064147],[28.902885,41.064235],[28.902919,41.064335],[28.902953,41.064436],[28.90296,41.064456],[28.902985,41.064523],[28.903052,41.064694],[28.903102,41.064798],[28.903132,41.064817],[28.903286,41.064921],[28.903434,41.065022],[28.903466,41.065047],[28.903609,41.065158],[28.903829,41.065304],[28.903961,41.065385],[28.904183,41.065521],[28.90433,41.065612],[28.904729,41.065862],[28.904907,41.065981],[28.904929,41.066],[28.905184,41.066222],[28.90526,41.066313],[28.905291,41.06638],[28.905352,41.066507],[28.905397,41.066608],[28.9054,41.06669],[28.905378,41.066796],[28.905305,41.066944],[28.905156,41.067249],[28.905079,41.067391],[28.905024,41.067495],[28.904946,41.06758],[28.904839,41.067637],[28.904723,41.06769],[28.904632,41.067732],[28.904443,41.067817],[28.904322,41.067871],[28.904287,41.06788],[28.904062,41.067936],[28.90392,41.067939],[28.903849,41.067934],[28.903783,41.067929],[28.903693,41.067907],[28.903467,41.067852],[28.903331,41.067839],[28.90318,41.067831],[28.90313,41.067836],[28.90303,41.067847],[28.902932,41.067937],[28.902813,41.068046],[28.902732,41.068156],[28.902716,41.068187],[28.902653,41.06831],[28.902674,41.0684],[28.902724,41.068482],[28.902781,41.068574],[28.902937,41.068835],[28.90303,41.06898],[28.903111,41.069106],[28.903069,41.069322],[28.903341,41.069413],[28.903708,41.069535],[28.904218,41.069707],[28.904694,41.069866],[28.90519,41.070033],[28.905851,41.070245],[28.906409,41.070439],[28.906572,41.07031],[28.906647,41.07027],[28.906817,41.070177],[28.906942,41.070105],[28.907052,41.070041],[28.90731,41.069921],[28.907364,41.069901],[28.907611,41.069811],[28.907806,41.069741],[28.908064,41.069649],[28.908474,41.069554],[28.908587,41.069545],[28.909146,41.069417],[28.909621,41.069307],[28.910212,41.069171],[28.911053,41.068978]]]}},{"type":"Feature","properties":{"id":"TR-Y-34-021-M-0014","level":"yerlesim","type":"mahalle","parent_id":"TR-D-34-021","province_id":"TR-P-34","district_id":"TR-D-34-021","name":"Yeni Mahalle","source_raw_name":"YENİ MAHALLE","source":"Kullanıcı tarafından sağlanan KML","source_label":"Kullanıcı tarafından sağlanan KML","source_name":"Istanbul Mahalle KML"},"geometry":{"type":"Polygon","coordinates":[[[28.894319,41.083129],[28.894574,41.08308],[28.894575,41.083081],[28.894741,41.083164],[28.894742,41.083164],[28.895563,41.082666],[28.896583,41.081918],[28.897695,41.081703],[28.898125,41.081585],[28.898271,41.081562],[28.89847,41.081566],[28.898472,41.081566],[28.898472,41.081566],[28.898638,41.081579],[28.899367,41.081785],[28.899677,41.081876],[28.900129,41.082009],[28.900471,41.082115],[28.90088,41.082229],[28.901093,41.082281],[28.90126,41.082302],[28.901261,41.082302],[28.90139,41.082299],[28.901525,41.082282],[28.901678,41.082244],[28.902098,41.082072],[28.902266,41.081875],[28.902302,41.08179],[28.902334,41.081652],[28.902401,41.081302],[28.902433,41.081201],[28.902628,41.08093],[28.90274,41.080816],[28.902909,41.08072],[28.903033,41.080703],[28.903144,41.080708],[28.903144,41.080709],[28.903719,41.080857],[28.903793,41.080877],[28.904052,41.080899],[28.904052,41.080899],[28.904234,41.080865],[28.904433,41.080751],[28.904587,41.08064],[28.904589,41.08064],[28.906012,41.080772],[28.906012,41.080772],[28.906089,41.080767],[28.906283,41.080726],[28.906346,41.080706],[28.906422,41.080643],[28.906506,41.080606],[28.906939,41.08051],[28.907001,41.080434],[28.907132,41.08013],[28.907153,41.08009],[28.907156,41.080082],[28.907136,41.08005],[28.907078,41.079944],[28.906947,41.079703],[28.90681,41.079417],[28.906768,41.079326],[28.906694,41.079138],[28.90661,41.078924],[28.906517,41.078687],[28.906415,41.078432],[28.906336,41.078231],[28.906275,41.078076],[28.906181,41.077834],[28.906181,41.077834],[28.906129,41.07769],[28.906066,41.077477],[28.906046,41.077398],[28.90601,41.077259],[28.905974,41.077116],[28.905937,41.076967],[28.905916,41.076885],[28.905862,41.076669],[28.905788,41.076333],[28.905719,41.076038],[28.905648,41.075751],[28.905627,41.075664],[28.905613,41.075586],[28.905597,41.075503],[28.905566,41.075376],[28.905544,41.075289],[28.905536,41.075254],[28.905523,41.075136],[28.905499,41.074971],[28.905433,41.074625],[28.905361,41.074405],[28.905016,41.073999],[28.904793,41.073853],[28.90433,41.073551],[28.904157,41.073491],[28.903601,41.073297],[28.903488,41.073341],[28.90323,41.073553],[28.902978,41.073648],[28.902685,41.073596],[28.902613,41.073585],[28.902558,41.073558],[28.902345,41.073509],[28.902063,41.073445],[28.901643,41.073334],[28.901519,41.073296],[28.901418,41.073221],[28.90134,41.073132],[28.901253,41.072938],[28.90116,41.07273],[28.901155,41.072694],[28.901138,41.072552],[28.901162,41.072342],[28.901189,41.072103],[28.901199,41.071987],[28.901224,41.071713],[28.901297,41.07157],[28.901542,41.071395],[28.901701,41.07135],[28.901797,41.071274],[28.901962,41.07117],[28.902016,41.071138],[28.902085,41.071099],[28.901919,41.071001],[28.901714,41.07088],[28.901502,41.070755],[28.901365,41.070675],[28.90127,41.070618],[28.901062,41.070496],[28.900906,41.070405],[28.900704,41.070284],[28.900598,41.070222],[28.900456,41.070139],[28.900268,41.07003],[28.900202,41.069991],[28.900008,41.069878],[28.899944,41.069841],[28.899807,41.069761],[28.899716,41.069708],[28.899581,41.069629],[28.899503,41.069583],[28.899364,41.069501],[28.899295,41.069459],[28.89926,41.06944],[28.899199,41.069407],[28.899112,41.069358],[28.899084,41.069343],[28.89904,41.069318],[28.898967,41.069276],[28.89892,41.06925],[28.89883,41.069198],[28.898737,41.069146],[28.898641,41.069091],[28.898539,41.069204],[28.898421,41.06931],[28.898298,41.069421],[28.89815,41.069514],[28.897768,41.069763],[28.8977,41.069807],[28.897589,41.069914],[28.897498,41.070034],[28.897433,41.070181],[28.897402,41.070363],[28.897366,41.07057],[28.897331,41.070822],[28.897312,41.070959],[28.897307,41.071006],[28.897296,41.071117],[28.89728,41.071274],[28.897271,41.071359],[28.897255,41.071522],[28.897252,41.071554],[28.897246,41.071675],[28.89724,41.071806],[28.897219,41.071971],[28.897201,41.072114],[28.897184,41.072246],[28.897172,41.072368],[28.897153,41.072629],[28.897148,41.072687],[28.897168,41.072854],[28.8972,41.073048],[28.897209,41.07311],[28.8972,41.073316],[28.897184,41.073402],[28.89707,41.073621],[28.896995,41.073766],[28.896903,41.073923],[28.89672,41.074234],[28.896719,41.074236],[28.896928,41.074487],[28.897385,41.074921],[28.897563,41.075037],[28.897702,41.075127],[28.897733,41.075139],[28.897778,41.075156],[28.897836,41.075179],[28.897902,41.075204],[28.897946,41.075228],[28.897963,41.075238],[28.89798,41.075264],[28.897995,41.075288],[28.898007,41.075305],[28.89803,41.075341],[28.898048,41.075369],[28.89806,41.075384],[28.898074,41.0754],[28.898104,41.075435],[28.898139,41.075477],[28.898168,41.07551],[28.898184,41.07553],[28.898198,41.075546],[28.898209,41.075558],[28.898215,41.075566],[28.898224,41.075577],[28.898277,41.075639],[28.898329,41.0757],[28.898397,41.075792],[28.89848,41.075904],[28.898508,41.075942],[28.898565,41.076019],[28.898592,41.076054],[28.898645,41.07612],[28.898704,41.076194],[28.898769,41.076259],[28.89883,41.07632],[28.898913,41.076402],[28.898933,41.076422],[28.899025,41.076513],[28.899097,41.076585],[28.89917,41.076655],[28.899255,41.076735],[28.899283,41.076761],[28.899425,41.076877],[28.899527,41.076943],[28.899665,41.077037],[28.899704,41.077063],[28.899719,41.077074],[28.899764,41.077112],[28.899917,41.077238],[28.89975,41.077331],[28.899538,41.077449],[28.899409,41.077543],[28.899245,41.077663],[28.899098,41.07777],[28.898884,41.077903],[28.898717,41.077981],[28.898516,41.07805],[28.898413,41.078083],[28.898271,41.078124],[28.897979,41.078208],[28.897757,41.078269],[28.897511,41.078339],[28.897212,41.078425],[28.896935,41.078504],[28.896673,41.078582],[28.896427,41.078658],[28.896187,41.078728],[28.896036,41.078772],[28.89585,41.078843],[28.895739,41.078893],[28.895645,41.078953],[28.895556,41.079009],[28.89544,41.079101],[28.895347,41.079176],[28.895322,41.079198],[28.895211,41.079313],[28.895104,41.079423],[28.89504,41.07949],[28.89496,41.079599],[28.894891,41.079692],[28.894836,41.079766],[28.894753,41.079882],[28.89465,41.080013],[28.894601,41.080072],[28.894509,41.080174],[28.894389,41.080282],[28.894232,41.08042],[28.894037,41.080593],[28.893835,41.080762],[28.893697,41.080877],[28.89356,41.081],[28.893406,41.08114],[28.89339,41.081157],[28.893353,41.081197],[28.893326,41.081228],[28.892476,41.082344],[28.892008,41.083173],[28.891858,41.083821],[28.891909,41.083807],[28.892347,41.083696],[28.892943,41.083558],[28.893039,41.083543],[28.893406,41.08349],[28.893505,41.083463],[28.893945,41.083281],[28.894319,41.083129]]]}},{"type":"Feature","properties":{"id":"TR-Y-34-021-M-0015","level":"yerlesim","type":"mahalle","parent_id":"TR-D-34-021","province_id":"TR-P-34","district_id":"TR-D-34-021","name":"Yenidoğan","source_raw_name":"YENİDOĞAN","source":"Kullanıcı tarafından sağlanan KML","source_label":"Kullanıcı tarafından sağlanan KML","source_name":"Istanbul Mahalle KML"},"geometry":{"type":"Polygon","coordinates":[[[28.927315,41.060847],[28.927194,41.060251],[28.92714,41.060003],[28.927095,41.059854],[28.926958,41.059263],[28.926074,41.058989],[28.926263,41.058549],[28.926387,41.058317],[28.926158,41.058247],[28.926197,41.058162],[28.926438,41.057606],[28.926065,41.057553],[28.925759,41.057537],[28.924312,41.057446],[28.923669,41.057399],[28.922367,41.057302],[28.922229,41.057292],[28.922148,41.057288],[28.921903,41.05727],[28.921633,41.057256],[28.921636,41.057373],[28.921642,41.057643],[28.92165,41.057873],[28.921701,41.057967],[28.921687,41.058138],[28.921668,41.058355],[28.92165,41.058576],[28.921637,41.058719],[28.921624,41.059007],[28.92162,41.059282],[28.921648,41.059377],[28.921704,41.059416],[28.92197,41.059412],[28.922036,41.059448],[28.922063,41.059651],[28.922096,41.059762],[28.922173,41.060003],[28.922203,41.060086],[28.922343,41.060351],[28.922095,41.060412],[28.921893,41.060374],[28.921847,41.060392],[28.921648,41.060579],[28.921635,41.060598],[28.921502,41.060789],[28.921346,41.060972],[28.921356,41.061103],[28.9213,41.061399],[28.921298,41.061647],[28.921299,41.061864],[28.921314,41.062075],[28.921285,41.062363],[28.92122,41.062497],[28.921079,41.062662],[28.921202,41.062682],[28.921533,41.06291],[28.921607,41.06296],[28.922,41.063319],[28.922267,41.063565],[28.922161,41.063712],[28.922108,41.063892],[28.922089,41.064045],[28.922025,41.064265],[28.921932,41.064474],[28.92189,41.06457],[28.921828,41.06465],[28.921713,41.064726],[28.921622,41.064817],[28.921573,41.064919],[28.921532,41.065071],[28.921576,41.065297],[28.921634,41.065394],[28.921792,41.065577],[28.922011,41.06584],[28.922028,41.065855],[28.922046,41.065868],[28.922256,41.066057],[28.9223,41.066097],[28.922305,41.066102],[28.922307,41.066104],[28.922497,41.06623],[28.923001,41.06639],[28.923308,41.066442],[28.923693,41.066441],[28.923722,41.066243],[28.92372,41.066049],[28.923747,41.066013],[28.923821,41.065996],[28.923797,41.06596],[28.923786,41.065835],[28.923773,41.065558],[28.923788,41.065462],[28.923845,41.065249],[28.923928,41.065041],[28.924034,41.064773],[28.923801,41.064573],[28.923946,41.064167],[28.924026,41.063949],[28.924136,41.063721],[28.924324,41.063587],[28.924508,41.06345],[28.924923,41.063188],[28.925162,41.062958],[28.925454,41.062657],[28.925757,41.062345],[28.926051,41.062124],[28.926344,41.061878],[28.927066,41.061106],[28.927315,41.060847]]]}},{"type":"Feature","properties":{"id":"TR-Y-34-021-M-0016","level":"yerlesim","type":"mahalle","parent_id":"TR-D-34-021","province_id":"TR-P-34","district_id":"TR-D-34-021","name":"Yıldıztabya","source_raw_name":"YILDIZTABYA","source":"Kullanıcı tarafından sağlanan KML","source_label":"Kullanıcı tarafından sağlanan KML","source_name":"Istanbul Mahalle KML"},"geometry":{"type":"Polygon","coordinates":[[[28.922308,41.066104],[28.922308,41.066105],[28.922394,41.06626],[28.922538,41.066509],[28.922659,41.066875],[28.922666,41.067001],[28.922666,41.067003],[28.923344,41.067108],[28.923731,41.067188],[28.923983,41.067295],[28.924133,41.067379],[28.924265,41.067474],[28.924393,41.067595],[28.924489,41.067705],[28.925021,41.068525],[28.925149,41.068669],[28.925836,41.069192],[28.926266,41.069471],[28.92683,41.069765],[28.927154,41.069876],[28.927399,41.069914],[28.927694,41.069895],[28.927804,41.06987],[28.928882,41.069737],[28.930429,41.069228],[28.932065,41.069276],[28.93249,41.069226],[28.932565,41.068487],[28.932659,41.068101],[28.932744,41.067817],[28.93291,41.067517],[28.933161,41.067028],[28.933242,41.066784],[28.933368,41.066634],[28.933427,41.066596],[28.933583,41.066326],[28.933566,41.06626],[28.933884,41.065789],[28.936003,41.065792],[28.936025,41.06509],[28.935996,41.064713],[28.936088,41.064612],[28.936368,41.064151],[28.936302,41.06412],[28.936212,41.064225],[28.93578,41.064399],[28.935596,41.064445],[28.935252,41.064591],[28.935041,41.064513],[28.934848,41.063599],[28.934676,41.063264],[28.934525,41.06318],[28.93443,41.063083],[28.934362,41.062931],[28.934391,41.062718],[28.934182,41.062748],[28.934072,41.062765],[28.933805,41.062819],[28.933784,41.062776],[28.933772,41.062704],[28.933806,41.062657],[28.934302,41.062258],[28.934358,41.062212],[28.933911,41.062146],[28.933532,41.062085],[28.933305,41.062052],[28.93326,41.062069],[28.933198,41.062208],[28.932577,41.062085],[28.932499,41.06226],[28.931709,41.062057],[28.931217,41.061922],[28.930933,41.061841],[28.930846,41.061664],[28.930749,41.061451],[28.930688,41.06133],[28.930539,41.061033],[28.929989,41.061105],[28.929601,41.061163],[28.929207,41.061221],[28.929014,41.06124],[28.928454,41.061313],[28.928345,41.061339],[28.928142,41.0614],[28.927514,41.061575],[28.92687,41.061762],[28.926616,41.061818],[28.926483,41.061848],[28.926344,41.061878],[28.926051,41.062124],[28.925757,41.062345],[28.925454,41.062657],[28.925162,41.062958],[28.924923,41.063188],[28.924508,41.06345],[28.924324,41.063587],[28.924136,41.063721],[28.924026,41.063949],[28.923946,41.064167],[28.923801,41.064573],[28.924034,41.064773],[28.923928,41.065041],[28.923845,41.065249],[28.923788,41.065462],[28.923773,41.065558],[28.923786,41.065835],[28.923797,41.06596],[28.923821,41.065996],[28.923747,41.066013],[28.92372,41.066049],[28.923722,41.066243],[28.923693,41.066441],[28.923308,41.066442],[28.923001,41.06639],[28.922497,41.06623],[28.922308,41.066104]]]}}]}