{"type":"FeatureCollection","name":"turkiye_map.dist.mahalle_geometrileri_by_district.TR-D-59-001","features":[{"type":"Feature","properties":{"id":"TR-Y-59-001-M-0001","level":"yerlesim","type":"mahalle","parent_id":"TR-D-59-001","province_id":"TR-P-59","district_id":"TR-D-59-001","name":"Bağlık","source_raw_name":"Bağlık Mah.","source":"Kullanıcı tarafından sağlanan KML","source_label":"Kullanıcı tarafından sağlanan KML","source_name":"Tekirdağ Mahalle KML"},"geometry":{"type":"Polygon","coordinates":[[[28.07976,41.32639],[28.08051,41.32469],[28.07793,41.32057],[28.07813,41.31448],[28.06366,41.30581],[28.05812,41.29928],[28.03889,41.29013],[28.02513,41.28675],[28.01791,41.28289],[28.01347,41.28494],[28.01306,41.29],[28.01124,41.29205],[28.00714,41.29094],[28.00213,41.29305],[28.00743,41.31078],[28.00906,41.30952],[28.01842,41.32385],[28.02633,41.32873],[28.02897,41.32765],[28.02717,41.32233],[28.02969,41.31911],[28.0477,41.3236],[28.05707,41.32408],[28.06201,41.32925],[28.06427,41.32707],[28.07318,41.32625],[28.0829,41.33734],[28.08523,41.33821],[28.07976,41.32639]],[[28.03872,41.3085],[28.0405,41.31053],[28.03908,41.30978],[28.03994,41.31285],[28.03853,41.31171],[28.03872,41.3085]]]}},{"type":"Feature","properties":{"id":"TR-Y-59-001-M-0002","level":"yerlesim","type":"mahalle","parent_id":"TR-D-59-001","province_id":"TR-P-59","district_id":"TR-D-59-001","name":"Cumhuriyet","source_raw_name":"Cumhuriyet Mah.","source":"Kullanıcı tarafından sağlanan KML","source_label":"Kullanıcı tarafından sağlanan KML","source_name":"Tekirdağ Mahalle KML"},"geometry":{"type":"Polygon","coordinates":[[[27.9915,41.27109],[28.00181,41.26832],[28.00629,41.27348],[28.03272,41.26611],[28.04385,41.26548],[28.04401,41.26427],[28.03036,41.2561],[28.01589,41.2524],[28.00215,41.24313],[27.99735,41.2451],[27.99418,41.24931],[27.98385,41.25346],[27.98837,41.25721],[27.98808,41.25891],[27.9862,41.2575],[27.9834,41.25858],[27.98295,41.2637],[27.98449,41.26718],[27.97759,41.26944],[27.97729,41.27253],[27.98649,41.27535],[27.9915,41.27109]]]}},{"type":"Feature","properties":{"id":"TR-Y-59-001-M-0003","level":"yerlesim","type":"mahalle","parent_id":"TR-D-59-001","province_id":"TR-P-59","district_id":"TR-D-59-001","name":"Fatih","source_raw_name":"Fatih Mah.","source":"Kullanıcı tarafından sağlanan KML","source_label":"Kullanıcı tarafından sağlanan KML","source_name":"Tekirdağ Mahalle KML"},"geometry":{"type":"Polygon","coordinates":[[[28.07956,41.29701],[28.08087,41.29864],[28.07982,41.29654],[28.0769,41.29534],[28.07667,41.29688],[28.07236,41.29776],[28.06319,41.28965],[28.06373,41.28745],[28.06023,41.28344],[28.06035,41.28102],[28.05448,41.28101],[28.0508,41.28389],[28.0477,41.28383],[28.04534,41.28063],[28.04552,41.27446],[28.04326,41.27328],[28.0248,41.27646],[28.01893,41.28038],[28.01279,41.28013],[28.00888,41.28162],[28.00293,41.27994],[28.00426,41.28456],[28.00858,41.28936],[28.00801,41.29108],[28.01124,41.29205],[28.01306,41.29],[28.01347,41.28494],[28.01849,41.28296],[28.02513,41.28675],[28.03889,41.29013],[28.05812,41.29928],[28.06366,41.30581],[28.07749,41.3141],[28.07641,41.30224],[28.07842,41.30093],[28.07662,41.29959],[28.07956,41.29701]]]}},{"type":"Feature","properties":{"id":"TR-Y-59-001-M-0004","level":"yerlesim","type":"mahalle","parent_id":"TR-D-59-001","province_id":"TR-P-59","district_id":"TR-D-59-001","name":"Fevzi Paşa","source_raw_name":"Fevzi Paşa Mah.","source":"Kullanıcı tarafından sağlanan KML","source_label":"Kullanıcı tarafından sağlanan KML","source_name":"Tekirdağ Mahalle KML"},"geometry":{"type":"Polygon","coordinates":[[[27.99667,41.28185],[28.00063,41.28255],[28.00162,41.27931],[27.98649,41.27535],[27.98626,41.27849],[27.9814,41.28008],[27.99043,41.28799],[27.99212,41.28779],[27.99667,41.28185]]]}},{"type":"Feature","properties":{"id":"TR-Y-59-001-M-0005","level":"yerlesim","type":"mahalle","parent_id":"TR-D-59-001","province_id":"TR-P-59","district_id":"TR-D-59-001","name":"Gazi Mustafa Kemal Paşa","source_raw_name":"Gazi Mustafa Kemalpaşa Mah.","source":"Kullanıcı tarafından sağlanan KML","source_label":"Kullanıcı tarafından sağlanan KML","source_name":"Tekirdağ Mahalle KML"},"geometry":{"type":"Polygon","coordinates":[[[28.00743,41.31078],[28.00213,41.29305],[28.00868,41.28962],[28.0045,41.28496],[28.00255,41.27991],[28.00127,41.28028],[27.99731,41.29609],[27.99446,41.30133],[27.995,41.30595],[27.99743,41.30852],[27.9942,41.31023],[27.99501,41.31198],[27.99925,41.31164],[27.99989,41.31484],[28.00743,41.31078]]]}},{"type":"Feature","properties":{"id":"TR-Y-59-001-M-0006","level":"yerlesim","type":"mahalle","parent_id":"TR-D-59-001","province_id":"TR-P-59","district_id":"TR-D-59-001","name":"Gazi Osman Paşa","source_raw_name":"Gazi Osman Paşa Mah.","source":"Kullanıcı tarafından sağlanan KML","source_label":"Kullanıcı tarafından sağlanan KML","source_name":"Tekirdağ Mahalle KML"},"geometry":{"type":"MultiPolygon","coordinates":[[[[28.00058,41.28255],[27.99674,41.28176],[27.99212,41.28779],[27.99043,41.28799],[27.99731,41.29609],[28.00058,41.28255]]]]}},{"type":"Feature","properties":{"id":"TR-Y-59-001-M-0007","level":"yerlesim","type":"mahalle","parent_id":"TR-D-59-001","province_id":"TR-P-59","district_id":"TR-D-59-001","name":"İstasyon","source_raw_name":"İstasyon Mah.","source":"Kullanıcı tarafından sağlanan KML","source_label":"Kullanıcı tarafından sağlanan KML","source_name":"Tekirdağ Mahalle KML"},"geometry":{"type":"Polygon","coordinates":[[[28.07667,41.29688],[28.07539,41.29048],[28.07664,41.28764],[28.07216,41.28499],[28.07052,41.28128],[28.06267,41.27717],[28.05618,41.26694],[28.05141,41.26731],[28.0441,41.26422],[28.04385,41.26548],[28.03272,41.26611],[28.00629,41.27348],[28.00181,41.26832],[27.98965,41.27184],[27.98649,41.27535],[28.00942,41.28162],[28.01279,41.28013],[28.01939,41.28028],[28.0248,41.27646],[28.03075,41.2761],[28.0329,41.27445],[28.03505,41.27554],[28.04326,41.27328],[28.04552,41.27446],[28.04534,41.28063],[28.0477,41.28383],[28.0508,41.28389],[28.05448,41.28101],[28.06035,41.28102],[28.06023,41.28344],[28.06373,41.28745],[28.06319,41.28965],[28.07236,41.29776],[28.07667,41.29688]]]}},{"type":"Feature","properties":{"id":"TR-Y-59-001-M-0008","level":"yerlesim","type":"mahalle","parent_id":"TR-D-59-001","province_id":"TR-P-59","district_id":"TR-D-59-001","name":"Kızılpınar Atatürk","source_raw_name":"Kızılpınar Atatürk Mah.","source":"Kullanıcı tarafından sağlanan KML","source_label":"Kullanıcı tarafından sağlanan KML","source_name":"Tekirdağ Mahalle KML"},"geometry":{"type":"Polygon","coordinates":[[[27.97755,41.27474],[27.97761,41.27313],[27.96886,41.26422],[27.96173,41.26104],[27.9641,41.25238],[27.96811,41.24862],[27.96427,41.2377],[27.96879,41.23372],[27.98215,41.23142],[27.99407,41.22572],[27.9848,41.20662],[27.97433,41.19548],[27.97129,41.19664],[27.96602,41.19559],[27.96656,41.19715],[27.95979,41.19934],[27.94717,41.20117],[27.93964,41.21092],[27.93949,41.21464],[27.93679,41.21949],[27.9379,41.22241],[27.95714,41.24016],[27.94304,41.24371],[27.93996,41.24641],[27.93962,41.249],[27.94371,41.26001],[27.94196,41.26339],[27.9526,41.26566],[27.95434,41.2686],[27.95718,41.26841],[27.96156,41.27201],[27.97755,41.27474]],[[27.97181,41.19958],[27.97304,41.19928],[27.97529,41.20512],[27.97181,41.19958]]]}},{"type":"Feature","properties":{"id":"TR-Y-59-001-M-0009","level":"yerlesim","type":"mahalle","parent_id":"TR-D-59-001","province_id":"TR-P-59","district_id":"TR-D-59-001","name":"Kızılpınar Gültepe","source_raw_name":"Kızılpınar Gültepe Mah.","source":"Kullanıcı tarafından sağlanan KML","source_label":"Kullanıcı tarafından sağlanan KML","source_name":"Tekirdağ Mahalle KML"},"geometry":{"type":"Polygon","coordinates":[[[27.97759,41.26944],[27.98449,41.26718],[27.98295,41.2637],[27.98341,41.25798],[27.96886,41.26422],[27.97627,41.2731],[27.97761,41.27313],[27.97759,41.26944]]]}},{"type":"Feature","properties":{"id":"TR-Y-59-001-M-0010","level":"yerlesim","type":"mahalle","parent_id":"TR-D-59-001","province_id":"TR-P-59","district_id":"TR-D-59-001","name":"Kızılpınar Namık Kemal","source_raw_name":"Kızılpınar Namık Kemal Mah.","source":"Kullanıcı tarafından sağlanan KML","source_label":"Kullanıcı tarafından sağlanan KML","source_name":"Tekirdağ Mahalle KML"},"geometry":{"type":"Polygon","coordinates":[[[27.98341,41.25798],[27.98369,41.2591],[27.9862,41.2575],[27.98808,41.25891],[27.98837,41.25721],[27.98385,41.25346],[27.99418,41.24931],[27.99735,41.2451],[28.00247,41.24311],[27.99902,41.23924],[28.00082,41.23791],[27.99832,41.23415],[27.99907,41.2302],[27.99709,41.22937],[27.99993,41.22006],[27.99115,41.22817],[27.98215,41.23142],[27.97011,41.23326],[27.96508,41.23626],[27.96445,41.2396],[27.96811,41.24862],[27.9641,41.25238],[27.96173,41.26104],[27.96886,41.26422],[27.98341,41.25798]]]}},{"type":"Feature","properties":{"id":"TR-Y-59-001-M-0011","level":"yerlesim","type":"mahalle","parent_id":"TR-D-59-001","province_id":"TR-P-59","district_id":"TR-D-59-001","name":"Veliköy","source_raw_name":"Veliköy Mah.","source":"Kullanıcı tarafından sağlanan KML","source_label":"Kullanıcı tarafından sağlanan KML","source_name":"Tekirdağ Mahalle KML"},"geometry":{"type":"MultiPolygon","coordinates":[[[[27.92139,41.22849],[27.91904,41.23007],[27.92075,41.23185],[27.9223,41.23135],[27.92139,41.22849]]],[[[27.92258,41.23476],[27.92091,41.23241],[27.91913,41.23292],[27.9203,41.23584],[27.92258,41.23476]]],[[[27.9147,41.23627],[27.91512,41.23532],[27.91658,41.23527],[27.91365,41.2345],[27.9147,41.23627]]],[[[27.92028,41.23611],[27.91699,41.23766],[27.91943,41.23907],[27.92161,41.23758],[27.92028,41.23611]]],[[[27.92343,41.2394],[27.92171,41.23769],[27.91957,41.23916],[27.92231,41.23988],[27.92343,41.2394]]],[[[27.91821,41.23865],[27.91666,41.23776],[27.91629,41.23975],[27.91777,41.24062],[27.91821,41.23865]]],[[[27.94482,41.26731],[27.95278,41.26591],[27.9526,41.26566],[27.95055,41.26515],[27.94562,41.26483],[27.94192,41.26336],[27.94371,41.26001],[27.93962,41.249],[27.93996,41.24641],[27.94557,41.24264],[27.95714,41.24016],[27.95283,41.23487],[27.9404,41.22603],[27.93679,41.21949],[27.93949,41.21464],[27.93964,41.21092],[27.94717,41.20117],[27.96656,41.19715],[27.95814,41.18739],[27.92847,41.19561],[27.90738,41.22095],[27.91049,41.22229],[27.90735,41.22814],[27.91135,41.22988],[27.91241,41.22851],[27.91439,41.22938],[27.91467,41.2326],[27.91651,41.23307],[27.92048,41.23188],[27.91874,41.22997],[27.91651,41.23083],[27.91841,41.22961],[27.91535,41.22808],[27.91593,41.22705],[27.91702,41.22779],[27.91779,41.22629],[27.91355,41.2227],[27.92047,41.22053],[27.92372,41.22701],[27.92968,41.2249],[27.93404,41.23123],[27.93631,41.2373],[27.93535,41.23769],[27.93879,41.24282],[27.93613,41.24387],[27.93764,41.24593],[27.93298,41.246],[27.92869,41.24854],[27.93082,41.247],[27.92805,41.24627],[27.92666,41.24736],[27.92855,41.24872],[27.92718,41.24875],[27.91778,41.24411],[27.92259,41.24225],[27.91955,41.24024],[27.91877,41.24122],[27.92103,41.24256],[27.91819,41.24288],[27.91903,41.24224],[27.91656,41.24085],[27.91597,41.23969],[27.91636,41.23833],[27.91532,41.2393],[27.91172,41.2371],[27.91226,41.23496],[27.90416,41.23309],[27.90179,41.23868],[27.89268,41.25109],[27.90548,41.2572],[27.91337,41.25593],[27.90319,41.25974],[27.89215,41.25171],[27.89062,41.25356],[27.89682,41.25753],[27.89615,41.26122],[27.90474,41.26221],[27.91815,41.25477],[27.92319,41.25846],[27.92856,41.25671],[27.92987,41.26097],[27.93453,41.2653],[27.93767,41.26469],[27.94482,41.26731]]]]}},{"type":"Feature","properties":{"id":"TR-Y-59-001-M-0012","level":"yerlesim","type":"mahalle","parent_id":"TR-D-59-001","province_id":"TR-P-59","district_id":"TR-D-59-001","name":"Yıldırım Beyazıt","source_raw_name":"Yıldırım Beyazıt Mah.","source":"Kullanıcı tarafından sağlanan KML","source_label":"Kullanıcı tarafından sağlanan KML","source_name":"Tekirdağ Mahalle KML"},"geometry":{"type":"Polygon","coordinates":[[[27.97761,41.27313],[27.9779,41.27457],[27.97523,41.2747],[27.96156,41.27201],[27.95718,41.26841],[27.95434,41.2686],[27.9529,41.2658],[27.95048,41.2658],[27.95146,41.27288],[27.95631,41.27862],[27.95842,41.27856],[27.95733,41.27958],[27.96016,41.28404],[27.9654,41.28307],[27.95905,41.27778],[27.96162,41.27561],[27.96484,41.27673],[27.96405,41.27567],[27.96556,41.27378],[27.97595,41.27519],[27.98154,41.27759],[27.98037,41.27949],[27.97705,41.28027],[27.98851,41.29413],[27.99334,41.29138],[27.9814,41.28008],[27.98626,41.27849],[27.98649,41.27535],[27.97761,41.27313]]]}},{"type":"Feature","properties":{"id":"TR-Y-59-001-OSB-GAZIMUSTAFAKEMALPASAOSBMAH","level":"yerlesim","type":"mahalle","parent_id":"TR-D-59-001","province_id":"TR-P-59","district_id":"TR-D-59-001","name":"Gazi Mustafa Kemal Paşa Osb Mah.","source_raw_name":"Gazi Mustafa Kemal Paşa Osb Mah.","source":"Kullanıcı tarafından sağlanan KML","source_label":"Kullanıcı tarafından sağlanan KML","source_name":"Tekirdağ Mahalle KML","source_only":true,"osb":true},"geometry":{"type":"Polygon","coordinates":[[[27.99743,41.30852],[27.995,41.30595],[27.99446,41.30133],[27.98875,41.31192],[27.99743,41.30852]]]}},{"type":"Feature","properties":{"id":"TR-Y-59-001-OSB-GAZIOSMANPASAOSBMAH","level":"yerlesim","type":"mahalle","parent_id":"TR-D-59-001","province_id":"TR-P-59","district_id":"TR-D-59-001","name":"Gazi Osman Paşa Osb Mah.","source_raw_name":"Gazi Osman Paşa Osb Mah.","source":"Kullanıcı tarafından sağlanan KML","source_label":"Kullanıcı tarafından sağlanan KML","source_name":"Tekirdağ Mahalle KML","source_only":true,"osb":true},"geometry":{"type":"Polygon","coordinates":[[[27.98358,41.31953],[27.98905,41.31243],[27.99731,41.29609],[27.99331,41.2914],[27.98851,41.29413],[27.98427,41.28877],[27.96511,41.29309],[27.97376,41.30543],[27.97938,41.30925],[27.9809,41.31655],[27.98358,41.31953]],[[27.98571,41.31252],[27.98391,41.31369],[27.9843,41.31309],[27.98571,41.31252]],[[27.98457,41.3043],[27.98502,41.30462],[27.98446,41.30503],[27.98457,41.3043]],[[27.97521,41.296],[27.97593,41.29674],[27.97469,41.29724],[27.97521,41.296]]]}},{"type":"Feature","properties":{"id":"TR-Y-59-001-OSB-VELIKOYOSBMAH","level":"yerlesim","type":"mahalle","parent_id":"TR-D-59-001","province_id":"TR-P-59","district_id":"TR-D-59-001","name":"Veliköy Osb Mah.","source_raw_name":"Veliköy Osb Mah.","source":"Kullanıcı tarafından sağlanan KML","source_label":"Kullanıcı tarafından sağlanan KML","source_name":"Tekirdağ Mahalle KML","source_only":true,"osb":true},"geometry":{"type":"Polygon","coordinates":[[[27.92849,41.24867],[27.92666,41.24736],[27.92805,41.24627],[27.93082,41.247],[27.92869,41.24854],[27.93298,41.246],[27.93592,41.24659],[27.93764,41.24593],[27.93613,41.24387],[27.93879,41.24282],[27.93535,41.23769],[27.93631,41.2373],[27.93404,41.23123],[27.92968,41.2249],[27.92372,41.22701],[27.92047,41.22053],[27.91355,41.2227],[27.91779,41.22629],[27.91535,41.22808],[27.91841,41.22961],[27.91651,41.23083],[27.91874,41.22997],[27.92046,41.23193],[27.91467,41.2326],[27.91439,41.22938],[27.91241,41.22851],[27.91135,41.22988],[27.90735,41.22814],[27.90407,41.2331],[27.91226,41.23496],[27.91172,41.2371],[27.91532,41.2393],[27.91636,41.23833],[27.91597,41.23969],[27.91656,41.24085],[27.91903,41.24224],[27.91819,41.24288],[27.92103,41.24256],[27.91877,41.24122],[27.91955,41.24024],[27.92259,41.24225],[27.91778,41.24411],[27.92849,41.24867]],[[27.92679,41.24575],[27.92759,41.24618],[27.92654,41.24709],[27.92679,41.24575]],[[27.91802,41.24078],[27.9187,41.24],[27.91926,41.24033],[27.91802,41.24078]],[[27.91844,41.23984],[27.91629,41.23975],[27.91666,41.23776],[27.91821,41.23865],[27.91844,41.23984]],[[27.91957,41.23916],[27.92171,41.23769],[27.92343,41.2394],[27.92231,41.23988],[27.91957,41.23916]],[[27.91943,41.23907],[27.917,41.2376],[27.92028,41.23611],[27.92161,41.23758],[27.91943,41.23907]],[[27.9147,41.23627],[27.91365,41.2345],[27.91658,41.23527],[27.91512,41.23532],[27.9147,41.23627]],[[27.9203,41.23584],[27.91913,41.23292],[27.92091,41.23241],[27.92258,41.23476],[27.9203,41.23584]],[[27.9196,41.23457],[27.91665,41.23541],[27.91662,41.23422],[27.9196,41.23457]],[[27.91904,41.23007],[27.92138,41.22848],[27.9223,41.23135],[27.92066,41.23183],[27.91904,41.23007]]]}},{"type":"Feature","properties":{"id":"TR-Y-59-001-OSB-VELIKOYYALIBOYUOSBMAH","level":"yerlesim","type":"mahalle","parent_id":"TR-D-59-001","province_id":"TR-P-59","district_id":"TR-D-59-001","name":"Veliköy-Yalıboyu Osb Mah.","source_raw_name":"Veliköy-Yalıboyu Osb Mah.","source":"Kullanıcı tarafından sağlanan KML","source_label":"Kullanıcı tarafından sağlanan KML","source_name":"Tekirdağ Mahalle KML","source_only":true,"osb":true},"geometry":{"type":"Polygon","coordinates":[[[27.91325,41.25536],[27.90606,41.25732],[27.89211,41.25168],[27.90085,41.25917],[27.90498,41.25952],[27.91325,41.25536]]]}},{"type":"Feature","properties":{"id":"TR-Y-59-001-OSB-YILDIRIMBEYAZITOSBMAH","level":"yerlesim","type":"mahalle","parent_id":"TR-D-59-001","province_id":"TR-P-59","district_id":"TR-D-59-001","name":"Yıldırım Beyazıt Osb Mah.","source_raw_name":"Yıldırım Beyazıt Osb Mah.","source":"Kullanıcı tarafından sağlanan KML","source_label":"Kullanıcı tarafından sağlanan KML","source_name":"Tekirdağ Mahalle KML","source_only":true,"osb":true},"geometry":{"type":"Polygon","coordinates":[[[27.96556,41.27378],[27.96405,41.27567],[27.96484,41.27673],[27.96162,41.27561],[27.95905,41.27778],[27.9654,41.28307],[27.95782,41.28496],[27.96511,41.29309],[27.98427,41.28877],[27.97705,41.28027],[27.98102,41.27855],[27.98154,41.27759],[27.96556,41.27378]]]}}]}