{"type":"FeatureCollection","name":"turkiye_map.dist.mahalle_geometrileri_by_district.TR-D-34-010","features":[{"type":"Feature","properties":{"id":"TR-Y-34-010-M-0001","level":"yerlesim","type":"mahalle","parent_id":"TR-D-34-010","province_id":"TR-P-34","district_id":"TR-D-34-010","name":"Abbasağa","source_raw_name":"ABBASAĞA","source":"Kullanıcı tarafından sağlanan KML","source_label":"Kullanıcı tarafından sağlanan KML","source_name":"Istanbul Mahalle KML"},"geometry":{"type":"Polygon","coordinates":[[[29.008079,41.051157],[29.008005,41.051098],[29.007824,41.050956],[29.007439,41.050653],[29.007278,41.050537],[29.007204,41.050466],[29.006847,41.050067],[29.006642,41.049817],[29.006526,41.049652],[29.006472,41.049543],[29.006454,41.049491],[29.006367,41.049318],[29.00622,41.048989],[29.006182,41.048862],[29.006018,41.048217],[29.005932,41.047898],[29.005887,41.047769],[29.005787,41.047389],[29.005761,41.047299],[29.005738,41.047167],[29.005696,41.046721],[29.00533,41.046738],[29.005051,41.046759],[29.004788,41.046824],[29.004604,41.046864],[29.004418,41.046893],[29.004391,41.046917],[29.004361,41.046933],[29.004322,41.046942],[29.00428,41.046937],[29.00421,41.047151],[29.003703,41.047017],[29.003397,41.046907],[29.003338,41.046895],[29.003293,41.046974],[29.00328,41.047025],[29.003283,41.047136],[29.003233,41.047357],[29.003237,41.047422],[29.003232,41.047643],[29.003197,41.048008],[29.0032,41.048162],[29.003208,41.048313],[29.003233,41.048558],[29.003264,41.04873],[29.003281,41.048837],[29.003267,41.048998],[29.003247,41.049076],[29.003219,41.049209],[29.003213,41.049309],[29.003235,41.049414],[29.003273,41.049488],[29.00332,41.049555],[29.003351,41.049595],[29.003375,41.04963],[29.003418,41.0497],[29.00345,41.049748],[29.003494,41.049778],[29.003625,41.049848],[29.003818,41.049943],[29.003878,41.049958],[29.003926,41.049975],[29.003844,41.050219],[29.003728,41.05068],[29.003701,41.05082],[29.003657,41.050909],[29.003553,41.050963],[29.00372,41.051005],[29.003863,41.051089],[29.003937,41.051125],[29.004355,41.051292],[29.004528,41.05141],[29.004833,41.05162],[29.005086,41.051795],[29.005376,41.052016],[29.005609,41.052209],[29.005737,41.052314],[29.005805,41.052356],[29.005896,41.052393],[29.006112,41.052445],[29.006267,41.052459],[29.006404,41.052466],[29.006473,41.052279],[29.006509,41.052127],[29.006528,41.052025],[29.006586,41.051915],[29.006651,41.051816],[29.006752,41.051778],[29.006863,41.051747],[29.007022,41.051706],[29.007185,41.051652],[29.007231,41.051625],[29.007453,41.051474],[29.007744,41.051279],[29.007821,41.051236],[29.00792,41.051202],[29.008079,41.051157]]]}},{"type":"Feature","properties":{"id":"TR-Y-34-010-M-0002","level":"yerlesim","type":"mahalle","parent_id":"TR-D-34-010","province_id":"TR-P-34","district_id":"TR-D-34-010","name":"Akat","source_raw_name":"AKAT","source":"Kullanıcı tarafından sağlanan KML","source_label":"Kullanıcı tarafından sağlanan KML","source_name":"Istanbul Mahalle KML"},"geometry":{"type":"Polygon","coordinates":[[[29.031896,41.092019],[29.031821,41.091736],[29.031732,41.091481],[29.031672,41.091335],[29.031675,41.091208],[29.03169,41.091083],[29.03173,41.09091],[29.031796,41.090743],[29.031911,41.090571],[29.032049,41.090432],[29.03241,41.090191],[29.032777,41.089978],[29.032755,41.089859],[29.032611,41.089413],[29.032441,41.088896],[29.032404,41.088659],[29.032414,41.088452],[29.032464,41.088257],[29.032573,41.088042],[29.032851,41.087502],[29.03298,41.087224],[29.033016,41.087136],[29.033103,41.086882],[29.033139,41.086731],[29.033183,41.0864],[29.033179,41.086032],[29.033114,41.085769],[29.033083,41.085613],[29.033039,41.085446],[29.032958,41.085183],[29.03287,41.084958],[29.032778,41.084755],[29.032628,41.084471],[29.032429,41.084165],[29.032267,41.083959],[29.03213,41.083796],[29.031833,41.083538],[29.031736,41.083465],[29.031573,41.08338],[29.031336,41.083294],[29.03125,41.083254],[29.031117,41.083173],[29.030814,41.082934],[29.030687,41.082816],[29.030616,41.082722],[29.030537,41.082593],[29.030343,41.082237],[29.03031,41.082173],[29.030247,41.081975],[29.030214,41.081857],[29.030204,41.081677],[29.030211,41.081219],[29.030216,41.080748],[29.030215,41.080395],[29.030196,41.080065],[29.030173,41.079854],[29.030136,41.079624],[29.030098,41.079408],[29.030029,41.079083],[29.030013,41.078988],[29.03,41.078865],[29.029985,41.078671],[29.029974,41.078622],[29.029954,41.07856],[29.029937,41.078486],[29.02979,41.078381],[29.029676,41.078289],[29.02956,41.078193],[29.029355,41.07804],[29.029065,41.077833],[29.028987,41.077784],[29.028907,41.077741],[29.028819,41.077702],[29.028749,41.077678],[29.028687,41.07766],[29.028643,41.077649],[29.028564,41.077632],[29.028433,41.077615],[29.028291,41.077601],[29.02823,41.077594],[29.028119,41.077587],[29.027731,41.077556],[29.027452,41.077536],[29.027185,41.077521],[29.026744,41.077492],[29.026106,41.077448],[29.025524,41.07741],[29.025278,41.077396],[29.025083,41.077386],[29.024883,41.077377],[29.0247,41.077368],[29.02435,41.077348],[29.024074,41.07733],[29.023442,41.077278],[29.023027,41.077235],[29.022854,41.077207],[29.022635,41.07715],[29.022348,41.077075],[29.022386,41.077314],[29.022409,41.077542],[29.02252,41.07872],[29.022604,41.079518],[29.022637,41.079834],[29.022607,41.080275],[29.022574,41.080561],[29.022558,41.080649],[29.022508,41.080823],[29.022449,41.080939],[29.022365,41.081002],[29.022265,41.081078],[29.022124,41.081198],[29.021986,41.081349],[29.021785,41.081609],[29.021541,41.082001],[29.021485,41.082107],[29.021445,41.082219],[29.021364,41.082707],[29.021271,41.083033],[29.021053,41.083597],[29.020927,41.083896],[29.020857,41.084094],[29.020807,41.084276],[29.02075,41.08457],[29.020601,41.085409],[29.020589,41.085499],[29.020593,41.085593],[29.020618,41.08568],[29.020669,41.086061],[29.020674,41.086161],[29.020646,41.086291],[29.02057,41.086385],[29.020402,41.086568],[29.020347,41.086672],[29.020192,41.087866],[29.020164,41.088169],[29.020141,41.088481],[29.020115,41.088724],[29.02021,41.089379],[29.020231,41.090394],[29.020722,41.091103],[29.021143,41.091651],[29.021391,41.091947],[29.021755,41.092189],[29.022166,41.092386],[29.022477,41.093154],[29.022634,41.093538],[29.022751,41.093746],[29.022849,41.093964],[29.02326,41.094103],[29.023434,41.094158],[29.024293,41.093876],[29.027972,41.092864],[29.031896,41.092019]]]}},{"type":"Feature","properties":{"id":"TR-Y-34-010-M-0003","level":"yerlesim","type":"mahalle","parent_id":"TR-D-34-010","province_id":"TR-P-34","district_id":"TR-D-34-010","name":"Arnavutköy","source_raw_name":"ARNAVUTKÖY","source":"Kullanıcı tarafından sağlanan KML","source_label":"Kullanıcı tarafından sağlanan KML","source_name":"Istanbul Mahalle KML"},"geometry":{"type":"Polygon","coordinates":[[[29.045244,41.071232],[29.045245,41.071219],[29.045252,41.071194],[29.04526,41.071171],[29.045271,41.071149],[29.045297,41.071104],[29.045347,41.071021],[29.045353,41.071022],[29.045366,41.070998],[29.045375,41.071],[29.045412,41.070937],[29.045434,41.070897],[29.045483,41.070825],[29.045533,41.070756],[29.045544,41.070759],[29.045552,41.070749],[29.045565,41.070751],[29.045628,41.070647],[29.045743,41.070458],[29.045818,41.070335],[29.04591,41.070199],[29.045958,41.070131],[29.045967,41.07011],[29.045956,41.070108],[29.04608,41.069942],[29.046162,41.069831],[29.046188,41.069789],[29.046208,41.069751],[29.046222,41.06972],[29.04624,41.069677],[29.046238,41.069674],[29.046258,41.069637],[29.046255,41.069629],[29.046255,41.069626],[29.046264,41.069627],[29.046289,41.06958],[29.046283,41.069574],[29.046291,41.069568],[29.046294,41.069555],[29.046298,41.069553],[29.046314,41.069511],[29.046356,41.069469],[29.046356,41.069468],[29.046385,41.069381],[29.046404,41.069315],[29.046435,41.069195],[29.046446,41.069147],[29.046475,41.069009],[29.046473,41.068933],[29.04647,41.068854],[29.046472,41.068762],[29.046468,41.068661],[29.04646,41.068585],[29.046452,41.068506],[29.046448,41.068469],[29.046442,41.068441],[29.046425,41.068391],[29.046398,41.068315],[29.046363,41.068227],[29.04636,41.068165],[29.046364,41.068015],[29.046367,41.067928],[29.046368,41.067906],[29.046363,41.067889],[29.046355,41.067874],[29.046345,41.06786],[29.046329,41.067845],[29.046314,41.067834],[29.04626,41.06781],[29.046202,41.067787],[29.046152,41.067766],[29.046021,41.067717],[29.045904,41.067604],[29.04573,41.067474],[29.045529,41.067354],[29.045289,41.067248],[29.044997,41.067152],[29.044684,41.06709],[29.04441,41.067048],[29.044032,41.066991],[29.04368,41.066948],[29.043518,41.066917],[29.043549,41.066808],[29.043553,41.066792],[29.043545,41.066784],[29.043312,41.06675],[29.04331,41.06675],[29.043271,41.066876],[29.04297,41.066801],[29.042614,41.066664],[29.042309,41.066505],[29.042345,41.066471],[29.042243,41.066408],[29.042159,41.06635],[29.042179,41.066335],[29.04213,41.066299],[29.042031,41.066221],[29.0419,41.066102],[29.041878,41.066115],[29.041872,41.066109],[29.041867,41.066111],[29.041806,41.066051],[29.041765,41.066072],[29.041707,41.06601],[29.041629,41.06591],[29.041582,41.065847],[29.041501,41.065726],[29.041417,41.065596],[29.041347,41.065474],[29.041287,41.065351],[29.041244,41.065253],[29.041192,41.065096],[29.041172,41.065028],[29.041135,41.064877],[29.041114,41.064792],[29.041091,41.064681],[29.04106,41.064537],[29.041039,41.064435],[29.041017,41.06434],[29.041002,41.064274],[29.040983,41.064176],[29.040972,41.064103],[29.040772,41.064149],[29.040561,41.064184],[29.040291,41.06424],[29.040068,41.064292],[29.039834,41.064352],[29.039768,41.064356],[29.039703,41.064347],[29.039631,41.064325],[29.039402,41.064227],[29.0393,41.064191],[29.039204,41.064179],[29.039068,41.064184],[29.038929,41.064211],[29.038812,41.064245],[29.038681,41.064295],[29.038568,41.064341],[29.038454,41.064401],[29.038408,41.064434],[29.038362,41.064467],[29.038306,41.064515],[29.038264,41.064565],[29.038243,41.064612],[29.038241,41.064657],[29.038256,41.0647],[29.038276,41.064743],[29.0383,41.064776],[29.038341,41.064798],[29.038401,41.064812],[29.038463,41.064824],[29.038566,41.064839],[29.038655,41.064849],[29.038688,41.064865],[29.038695,41.064891],[29.038683,41.06492],[29.038636,41.064947],[29.038474,41.064982],[29.038318,41.065017],[29.038234,41.065049],[29.037706,41.065307],[29.037507,41.065421],[29.037393,41.065493],[29.037312,41.065555],[29.03723,41.065631],[29.037178,41.065687],[29.037122,41.065735],[29.03707,41.065766],[29.036893,41.06586],[29.036712,41.065953],[29.036661,41.065985],[29.036587,41.066052],[29.036556,41.066095],[29.036518,41.066174],[29.036498,41.066222],[29.036455,41.066237],[29.036006,41.066208],[29.035974,41.066878],[29.035972,41.066958],[29.035966,41.066998],[29.035954,41.067035],[29.035945,41.06708],[29.035924,41.067327],[29.035915,41.06746],[29.035914,41.067488],[29.035919,41.067527],[29.035927,41.067549],[29.035944,41.06757],[29.035991,41.067602],[29.036067,41.067627],[29.036212,41.067648],[29.036336,41.06766],[29.036441,41.06767],[29.03652,41.067674],[29.036608,41.067684],[29.036659,41.067695],[29.0367,41.067709],[29.036758,41.067742],[29.036859,41.067806],[29.037119,41.067973],[29.037285,41.068083],[29.037469,41.068194],[29.037666,41.068304],[29.037768,41.068357],[29.037796,41.068362],[29.037838,41.068358],[29.037913,41.068318],[29.038001,41.068265],[29.038164,41.068164],[29.038468,41.067991],[29.038511,41.067975],[29.038583,41.067956],[29.038659,41.067945],[29.038749,41.067925],[29.038812,41.067903],[29.038867,41.067872],[29.039178,41.067663],[29.039236,41.067624],[29.039279,41.067606],[29.039331,41.06762],[29.039402,41.067654],[29.039813,41.067864],[29.039867,41.06797],[29.039904,41.068073],[29.039994,41.068295],[29.040034,41.068425],[29.040073,41.06857],[29.040079,41.068623],[29.040082,41.068676],[29.04008,41.068721],[29.040072,41.068766],[29.04006,41.068808],[29.040044,41.068838],[29.040021,41.068868],[29.039964,41.068933],[29.039896,41.068994],[29.039804,41.06906],[29.039743,41.069097],[29.039672,41.069131],[29.039592,41.069158],[29.039479,41.06919],[29.039363,41.069212],[29.039273,41.069224],[29.039123,41.069228],[29.0389,41.069228],[29.038619,41.069221],[29.03845,41.069227],[29.0382,41.069267],[29.037851,41.069325],[29.037638,41.069364],[29.03739,41.069432],[29.03733,41.069455],[29.037251,41.069493],[29.037353,41.06952],[29.037423,41.069525],[29.037586,41.069528],[29.037633,41.069745],[29.037557,41.069804],[29.037383,41.069923],[29.037251,41.070042],[29.037819,41.0703],[29.037832,41.070319],[29.037796,41.070386],[29.037731,41.070525],[29.037675,41.07064],[29.037603,41.070797],[29.037554,41.07089],[29.03746,41.070961],[29.037347,41.071027],[29.037258,41.071099],[29.037162,41.071198],[29.037429,41.07118],[29.037782,41.071111],[29.037924,41.071072],[29.037962,41.071047],[29.038014,41.07099],[29.038078,41.070924],[29.038136,41.070865],[29.038183,41.070829],[29.038252,41.070796],[29.038298,41.07078],[29.038368,41.070768],[29.038437,41.070764],[29.038583,41.070944],[29.038646,41.070987],[29.038737,41.07108],[29.038843,41.071293],[29.038886,41.071378],[29.038978,41.071606],[29.039018,41.071689],[29.039216,41.071628],[29.039322,41.071629],[29.039502,41.07165],[29.039647,41.071713],[29.039743,41.071777],[29.039832,41.07185],[29.039897,41.07194],[29.039931,41.072019],[29.039948,41.072079],[29.039942,41.072118],[29.039929,41.072156],[29.039873,41.072234],[29.039803,41.072327],[29.039713,41.072441],[29.039602,41.072596],[29.039551,41.072655],[29.039575,41.072678],[29.039593,41.072713],[29.039606,41.072751],[29.039663,41.072883],[29.039789,41.073157],[29.039883,41.073328],[29.040055,41.07316],[29.04025,41.072941],[29.040511,41.072616],[29.040576,41.072532],[29.040678,41.072363],[29.040685,41.072338],[29.040729,41.072248],[29.040765,41.07219],[29.040822,41.07212],[29.040909,41.072017],[29.040971,41.071958],[29.041036,41.071903],[29.041073,41.071872],[29.041127,41.071809],[29.041165,41.07176],[29.041249,41.07164],[29.041303,41.071556],[29.041325,41.071517],[29.041351,41.071468],[29.041393,41.071368],[29.0414,41.071333],[29.041398,41.071276],[29.041396,41.07123],[29.041398,41.071188],[29.041401,41.071162],[29.041565,41.071274],[29.041622,41.071332],[29.041631,41.07135],[29.041629,41.07141],[29.04162,41.071456],[29.041584,41.071583],[29.041568,41.07166],[29.041579,41.071692],[29.041614,41.071718],[29.041666,41.071718],[29.04172,41.071707],[29.041761,41.071689],[29.041816,41.071745],[29.041875,41.071786],[29.041891,41.071797],[29.041958,41.071836],[29.041986,41.071852],[29.042002,41.071816],[29.042003,41.071783],[29.042006,41.071732],[29.042004,41.071657],[29.042009,41.071624],[29.042036,41.071623],[29.042082,41.071536],[29.042134,41.071425],[29.042143,41.071387],[29.042178,41.07131],[29.042221,41.071224],[29.042253,41.071144],[29.042281,41.071062],[29.042316,41.070936],[29.042352,41.070802],[29.042355,41.070757],[29.042411,41.070743],[29.042447,41.070736],[29.042523,41.07075],[29.042572,41.070771],[29.042604,41.070799],[29.042614,41.070827],[29.042563,41.07097],[29.042374,41.071456],[29.042356,41.071508],[29.042361,41.071534],[29.042379,41.071563],[29.042397,41.071579],[29.042429,41.071592],[29.042524,41.071437],[29.042575,41.071344],[29.042641,41.07123],[29.042728,41.071088],[29.042783,41.071027],[29.042881,41.070948],[29.043013,41.070865],[29.043091,41.070837],[29.043167,41.070827],[29.043225,41.070826],[29.043297,41.070835],[29.043365,41.070854],[29.043407,41.070873],[29.043459,41.070908],[29.043549,41.070962],[29.043615,41.071],[29.043658,41.071024],[29.043698,41.071037],[29.043781,41.071052],[29.043901,41.071064],[29.044312,41.071122],[29.044552,41.071162],[29.04502,41.071224],[29.045172,41.071229],[29.045244,41.071232]]]}},{"type":"Feature","properties":{"id":"TR-Y-34-010-M-0004","level":"yerlesim","type":"mahalle","parent_id":"TR-D-34-010","province_id":"TR-P-34","district_id":"TR-D-34-010","name":"Balmumcu","source_raw_name":"BALMUMCU","source":"Kullanıcı tarafından sağlanan KML","source_label":"Kullanıcı tarafından sağlanan KML","source_name":"Istanbul Mahalle KML"},"geometry":{"type":"Polygon","coordinates":[[[29.021639,41.056007],[29.021648,41.055914],[29.02161,41.055734],[29.021558,41.055585],[29.021545,41.055454],[29.021532,41.055303],[29.021519,41.055224],[29.021519,41.055153],[29.021525,41.055105],[29.021614,41.054795],[29.021651,41.054665],[29.021652,41.054566],[29.021517,41.054604],[29.021391,41.054625],[29.021322,41.054627],[29.021255,41.05462],[29.021149,41.054594],[29.020524,41.054395],[29.020575,41.054228],[29.020489,41.054039],[29.020098,41.053775],[29.019175,41.054297],[29.019103,41.054218],[29.017955,41.053313],[29.017729,41.053446],[29.017201,41.053762],[29.017081,41.053843],[29.01688,41.053959],[29.016678,41.05407],[29.016477,41.05418],[29.01613,41.054358],[29.015876,41.054533],[29.016247,41.054737],[29.016541,41.054875],[29.016964,41.055335],[29.017048,41.055444],[29.017133,41.055599],[29.01702,41.05565],[29.016765,41.05577],[29.016499,41.055858],[29.015916,41.056109],[29.015256,41.056303],[29.015121,41.056331],[29.013779,41.055693],[29.013282,41.055449],[29.012459,41.055052],[29.012123,41.054886],[29.011735,41.054683],[29.011403,41.054931],[29.011256,41.055052],[29.011128,41.05517],[29.011004,41.05531],[29.010821,41.055561],[29.010767,41.055635],[29.010709,41.055699],[29.010651,41.055754],[29.010586,41.055786],[29.010503,41.055818],[29.010394,41.055849],[29.010095,41.055879],[29.009646,41.055879],[29.009829,41.056664],[29.010054,41.057402],[29.010278,41.058116],[29.010434,41.05861],[29.010674,41.05937],[29.010804,41.059777],[29.010976,41.060322],[29.011115,41.060759],[29.011248,41.061177],[29.011438,41.06173],[29.011523,41.061989],[29.011614,41.062284],[29.011696,41.062555],[29.011785,41.062798],[29.01233,41.064339],[29.014171,41.068356],[29.014312,41.06866],[29.014311,41.068514],[29.014286,41.068084],[29.014287,41.067983],[29.014303,41.067899],[29.014335,41.067754],[29.014373,41.06764],[29.014654,41.067292],[29.014853,41.067026],[29.015018,41.066778],[29.015062,41.066691],[29.015094,41.066615],[29.015114,41.066567],[29.015127,41.066528],[29.01515,41.066331],[29.015142,41.066267],[29.015126,41.06621],[29.015099,41.066136],[29.015067,41.066056],[29.015011,41.06595],[29.01496,41.065862],[29.014923,41.065794],[29.014878,41.065689],[29.014837,41.065589],[29.01481,41.065497],[29.014798,41.065416],[29.014797,41.065367],[29.014815,41.065237],[29.014847,41.065048],[29.015194,41.063897],[29.015373,41.063351],[29.015441,41.063085],[29.015629,41.062316],[29.015817,41.061564],[29.015981,41.060945],[29.016119,41.060511],[29.016221,41.060244],[29.016317,41.060024],[29.016437,41.059797],[29.016585,41.059527],[29.016695,41.05937],[29.017133,41.058829],[29.017394,41.058582],[29.017615,41.058395],[29.018064,41.058064],[29.01844,41.057823],[29.019263,41.057348],[29.019621,41.057147],[29.020076,41.056887],[29.020537,41.056621],[29.021198,41.056256],[29.021639,41.056007]]]}},{"type":"Feature","properties":{"id":"TR-Y-34-010-M-0005","level":"yerlesim","type":"mahalle","parent_id":"TR-D-34-010","province_id":"TR-P-34","district_id":"TR-D-34-010","name":"Bebek","source_raw_name":"BEBEK","source":"Kullanıcı tarafından sağlanan KML","source_label":"Kullanıcı tarafından sağlanan KML","source_name":"Istanbul Mahalle KML"},"geometry":{"type":"Polygon","coordinates":[[[29.054704,41.08112],[29.054671,41.081105],[29.054588,41.081067],[29.054587,41.081066],[29.054467,41.08101],[29.054191,41.08088],[29.053948,41.080769],[29.053905,41.080749],[29.053672,41.080639],[29.053613,41.08061],[29.053554,41.080585],[29.053527,41.080573],[29.053391,41.080523],[29.053336,41.080498],[29.053267,41.080468],[29.053206,41.080448],[29.053158,41.08043],[29.052914,41.080338],[29.052848,41.080316],[29.052762,41.080288],[29.05276,41.080287],[29.052601,41.080233],[29.052385,41.080159],[29.052386,41.080156],[29.05232,41.080133],[29.05217,41.08008],[29.052133,41.080067],[29.052141,41.080048],[29.051972,41.08],[29.051957,41.079993],[29.051413,41.079982],[29.050888,41.079972],[29.050832,41.079959],[29.050689,41.079926],[29.050697,41.079909],[29.050654,41.079897],[29.050646,41.079914],[29.050015,41.079756],[29.049034,41.079507],[29.049043,41.079494],[29.048716,41.07941],[29.048454,41.079356],[29.048187,41.079312],[29.047194,41.079203],[29.046729,41.079152],[29.046595,41.079123],[29.046516,41.0791],[29.046458,41.079074],[29.046403,41.079046],[29.045771,41.078609],[29.045828,41.078564],[29.045802,41.078546],[29.04581,41.078532],[29.045814,41.07852],[29.045814,41.0785],[29.045811,41.078487],[29.045738,41.078399],[29.045659,41.078286],[29.045695,41.078235],[29.045713,41.078208],[29.045486,41.078148],[29.045495,41.078124],[29.04536,41.078082],[29.045311,41.078212],[29.045216,41.078188],[29.045176,41.078174],[29.045216,41.078113],[29.045094,41.078082],[29.045012,41.078174],[29.04494,41.078138],[29.044976,41.078101],[29.044956,41.07809],[29.04492,41.078127],[29.044855,41.078089],[29.044841,41.078104],[29.044788,41.078071],[29.044795,41.078061],[29.044692,41.077996],[29.044558,41.077917],[29.04453,41.077946],[29.044433,41.07786],[29.044523,41.077806],[29.044316,41.077615],[29.044321,41.077591],[29.044271,41.077518],[29.044318,41.0775],[29.044266,41.077434],[29.044249,41.077412],[29.044301,41.077397],[29.044268,41.077326],[29.044106,41.077361],[29.044085,41.077306],[29.044173,41.077295],[29.044166,41.077264],[29.044162,41.077206],[29.044189,41.077176],[29.044226,41.077095],[29.04425,41.0771],[29.044275,41.077059],[29.044302,41.077067],[29.044328,41.077023],[29.044363,41.076966],[29.044391,41.076973],[29.044486,41.076792],[29.044434,41.076796],[29.04441,41.076396],[29.04441,41.076378],[29.04458,41.076375],[29.044562,41.076251],[29.044404,41.076252],[29.044401,41.076236],[29.0443,41.076238],[29.044281,41.076091],[29.044281,41.075879],[29.044283,41.075631],[29.04429,41.075518],[29.044308,41.075373],[29.044193,41.075242],[29.044111,41.075151],[29.044095,41.075117],[29.044067,41.075005],[29.044068,41.074999],[29.044078,41.074953],[29.044156,41.074783],[29.044186,41.074791],[29.044222,41.074722],[29.044188,41.074712],[29.044286,41.074492],[29.044457,41.07414],[29.044502,41.074153],[29.044543,41.074067],[29.044519,41.074059],[29.044501,41.074053],[29.044509,41.074037],[29.04452,41.074037],[29.044552,41.073963],[29.044548,41.073962],[29.044571,41.073915],[29.044604,41.073846],[29.044682,41.073701],[29.044727,41.073614],[29.044786,41.073491],[29.044841,41.073381],[29.044875,41.073309],[29.044914,41.073219],[29.044925,41.073095],[29.044973,41.072978],[29.044972,41.07296],[29.044943,41.072945],[29.044802,41.072882],[29.044896,41.07271],[29.04493,41.072649],[29.044942,41.072651],[29.045001,41.072477],[29.045049,41.072336],[29.045092,41.072206],[29.04512,41.072092],[29.045173,41.071877],[29.04522,41.071686],[29.045265,41.071499],[29.04529,41.0714],[29.04527,41.071374],[29.045259,41.071331],[29.045249,41.071294],[29.045246,41.071252],[29.045244,41.071235],[29.045244,41.071232],[29.045172,41.071229],[29.04502,41.071224],[29.044552,41.071162],[29.044312,41.071122],[29.043901,41.071064],[29.043781,41.071052],[29.043698,41.071037],[29.043658,41.071024],[29.043615,41.071],[29.043549,41.070962],[29.043459,41.070908],[29.043407,41.070873],[29.043365,41.070854],[29.043297,41.070835],[29.043225,41.070826],[29.043167,41.070827],[29.043091,41.070837],[29.043013,41.070865],[29.042881,41.070948],[29.042783,41.071027],[29.042728,41.071088],[29.042641,41.07123],[29.042575,41.071344],[29.042524,41.071437],[29.042429,41.071592],[29.042397,41.071579],[29.042379,41.071563],[29.042361,41.071534],[29.042356,41.071508],[29.042374,41.071456],[29.042563,41.07097],[29.042614,41.070827],[29.042604,41.070799],[29.042572,41.070771],[29.042523,41.07075],[29.042447,41.070736],[29.042411,41.070743],[29.042355,41.070757],[29.042352,41.070802],[29.042316,41.070936],[29.042281,41.071062],[29.042253,41.071144],[29.042221,41.071224],[29.042178,41.07131],[29.042143,41.071387],[29.042134,41.071425],[29.042082,41.071536],[29.042036,41.071623],[29.042009,41.071624],[29.042004,41.071657],[29.042006,41.071732],[29.042003,41.071783],[29.042002,41.071816],[29.041986,41.071852],[29.041958,41.071836],[29.041891,41.071797],[29.041875,41.071786],[29.041816,41.071745],[29.041761,41.071689],[29.04172,41.071707],[29.041666,41.071718],[29.041614,41.071718],[29.041579,41.071692],[29.041568,41.07166],[29.041584,41.071583],[29.04162,41.071456],[29.041629,41.07141],[29.041631,41.07135],[29.041622,41.071332],[29.041565,41.071274],[29.041401,41.071162],[29.041398,41.071188],[29.041396,41.07123],[29.041398,41.071276],[29.0414,41.071333],[29.041393,41.071368],[29.041351,41.071468],[29.041325,41.071517],[29.041303,41.071556],[29.041249,41.07164],[29.041165,41.07176],[29.041127,41.071809],[29.041073,41.071872],[29.041036,41.071903],[29.040971,41.071958],[29.040909,41.072017],[29.040822,41.07212],[29.040765,41.07219],[29.040729,41.072248],[29.040685,41.072338],[29.040678,41.072363],[29.040576,41.072532],[29.040511,41.072616],[29.04025,41.072941],[29.040055,41.07316],[29.039883,41.073328],[29.039789,41.073157],[29.039663,41.072883],[29.039606,41.072751],[29.039593,41.072713],[29.039575,41.072678],[29.039551,41.072655],[29.039602,41.072596],[29.039713,41.072441],[29.039803,41.072327],[29.039873,41.072234],[29.039929,41.072156],[29.039942,41.072118],[29.039948,41.072079],[29.039931,41.072019],[29.039897,41.07194],[29.039832,41.07185],[29.039743,41.071777],[29.039647,41.071713],[29.039502,41.07165],[29.039322,41.071629],[29.039216,41.071628],[29.039018,41.071689],[29.038927,41.071709],[29.03866,41.071814],[29.038549,41.071868],[29.038199,41.072024],[29.037985,41.072107],[29.037926,41.072143],[29.037878,41.072216],[29.037866,41.072265],[29.037874,41.07239],[29.037987,41.072872],[29.038169,41.073499],[29.038332,41.074094],[29.038345,41.074202],[29.038341,41.074243],[29.038137,41.07461],[29.038002,41.074798],[29.037863,41.074948],[29.037765,41.075025],[29.037658,41.07507],[29.037528,41.075119],[29.037286,41.07517],[29.037102,41.07522],[29.037007,41.07523],[29.036925,41.075232],[29.036836,41.075232],[29.036772,41.075228],[29.036725,41.075217],[29.036863,41.075525],[29.036877,41.075597],[29.036889,41.07567],[29.03689,41.075743],[29.036886,41.075771],[29.036851,41.075884],[29.036814,41.075991],[29.0368,41.076024],[29.036776,41.076063],[29.036737,41.076118],[29.036704,41.076152],[29.036659,41.07619],[29.036613,41.076221],[29.036527,41.076269],[29.036405,41.076312],[29.036243,41.076362],[29.036034,41.076405],[29.035842,41.076462],[29.035676,41.076524],[29.035447,41.076614],[29.035375,41.076635],[29.035303,41.076655],[29.035068,41.07673],[29.034768,41.076824],[29.034625,41.076871],[29.034447,41.07693],[29.034379,41.076953],[29.034315,41.076976],[29.034269,41.076992],[29.034216,41.077011],[29.034189,41.077021],[29.034178,41.077037],[29.034177,41.077145],[29.034135,41.077511],[29.034061,41.077665],[29.033946,41.077781],[29.033877,41.077834],[29.033798,41.077881],[29.033444,41.078005],[29.033239,41.078049],[29.033085,41.078099],[29.032969,41.078162],[29.032934,41.078189],[29.032863,41.078243],[29.032762,41.078345],[29.032699,41.078426],[29.032964,41.0785],[29.033275,41.078577],[29.033866,41.078692],[29.034079,41.078678],[29.034964,41.078556],[29.035313,41.078589],[29.035324,41.078798],[29.035258,41.079184],[29.035231,41.079405],[29.03529,41.079417],[29.035342,41.07935],[29.035423,41.079215],[29.035503,41.079038],[29.03559,41.078896],[29.035664,41.078794],[29.035749,41.078711],[29.035866,41.078641],[29.036057,41.078647],[29.036257,41.078664],[29.036479,41.078696],[29.036732,41.078731],[29.036959,41.078752],[29.037136,41.07881],[29.037285,41.078873],[29.03745,41.07891],[29.037675,41.078924],[29.037803,41.078964],[29.037934,41.079109],[29.037971,41.079187],[29.03796,41.079502],[29.037977,41.079635],[29.037966,41.079737],[29.037954,41.079927],[29.037878,41.080646],[29.038199,41.080324],[29.038408,41.08014],[29.039068,41.080554],[29.039628,41.080217],[29.03996,41.080014],[29.040277,41.080027],[29.040847,41.079739],[29.041127,41.079603],[29.041361,41.079472],[29.04153,41.079424],[29.041671,41.07965],[29.041741,41.079799],[29.041813,41.079809],[29.04187,41.079831],[29.0419,41.079859],[29.041976,41.07998],[29.042013,41.08012],[29.042032,41.080364],[29.042028,41.080608],[29.042004,41.080747],[29.041947,41.080947],[29.041766,41.081266],[29.041641,41.081456],[29.041469,41.081673],[29.041405,41.081725],[29.041342,41.081758],[29.041192,41.081784],[29.041065,41.081802],[29.040982,41.081816],[29.040952,41.081827],[29.040938,41.081876],[29.040924,41.081964],[29.040912,41.082076],[29.040926,41.082121],[29.041111,41.082339],[29.041199,41.082403],[29.041305,41.082475],[29.04142,41.082581],[29.041442,41.082652],[29.041423,41.082885],[29.041401,41.08298],[29.041369,41.083084],[29.041319,41.083202],[29.041248,41.083339],[29.041181,41.083424],[29.041217,41.083526],[29.041328,41.083903],[29.041369,41.083999],[29.041482,41.084157],[29.041547,41.08423],[29.041636,41.084296],[29.041529,41.084369],[29.041361,41.084484],[29.041221,41.084589],[29.04117,41.084641],[29.041121,41.084695],[29.041073,41.084734],[29.040995,41.084774],[29.04105,41.084783],[29.041566,41.084782],[29.04189,41.084786],[29.042085,41.084801],[29.042177,41.084806],[29.043285,41.084897],[29.043683,41.084943],[29.044239,41.085008],[29.044657,41.085059],[29.045676,41.085323],[29.045777,41.085346],[29.045851,41.085351],[29.045949,41.08535],[29.046093,41.085338],[29.046199,41.08533],[29.046485,41.08521],[29.046685,41.085095],[29.046821,41.084988],[29.047161,41.084752],[29.047269,41.084708],[29.047534,41.084548],[29.048012,41.084237],[29.048227,41.084095],[29.04837,41.08403],[29.048521,41.084012],[29.048745,41.083991],[29.048976,41.084002],[29.049374,41.084017],[29.04953,41.08404],[29.049813,41.084112],[29.050091,41.084182],[29.050207,41.084206],[29.050428,41.084208],[29.050813,41.084089],[29.051019,41.084028],[29.051196,41.083998],[29.051522,41.083962],[29.051837,41.083949],[29.052116,41.083938],[29.052193,41.083988],[29.052484,41.084098],[29.052741,41.084186],[29.052842,41.084214],[29.053047,41.084215],[29.053212,41.084208],[29.053714,41.084156],[29.053834,41.084141],[29.054062,41.084057],[29.054283,41.084013],[29.054629,41.083967],[29.054782,41.083955],[29.054915,41.083976],[29.054965,41.083971],[29.055014,41.083953],[29.055112,41.083904],[29.055066,41.083345],[29.054936,41.083254],[29.054765,41.083176],[29.054667,41.083121],[29.054533,41.083008],[29.054467,41.082881],[29.054415,41.082566],[29.054419,41.082246],[29.054442,41.082188],[29.054514,41.082125],[29.054731,41.082001],[29.054783,41.081934],[29.054788,41.081871],[29.054689,41.081613],[29.054619,41.081505],[29.054592,41.081392],[29.054603,41.081302],[29.054703,41.081122],[29.054704,41.08112]]]}},{"type":"Feature","properties":{"id":"TR-Y-34-010-M-0006","level":"yerlesim","type":"mahalle","parent_id":"TR-D-34-010","province_id":"TR-P-34","district_id":"TR-D-34-010","name":"Cihannüma","source_raw_name":"CİHANNÜMA","source":"Kullanıcı tarafından sağlanan KML","source_label":"Kullanıcı tarafından sağlanan KML","source_name":"Istanbul Mahalle KML"},"geometry":{"type":"Polygon","coordinates":[[[29.005422,41.045592],[29.005468,41.04564],[29.00558,41.04586],[29.005646,41.0461],[29.005662,41.046229],[29.005696,41.046721],[29.005738,41.047167],[29.005761,41.047299],[29.005787,41.047389],[29.005887,41.047769],[29.005932,41.047898],[29.006018,41.048217],[29.006182,41.048862],[29.00622,41.048989],[29.006367,41.049318],[29.006454,41.049491],[29.006472,41.049543],[29.006526,41.049652],[29.006642,41.049817],[29.006847,41.050067],[29.007204,41.050466],[29.007278,41.050537],[29.007439,41.050653],[29.007824,41.050956],[29.008005,41.051098],[29.008079,41.051157],[29.008137,41.051236],[29.008308,41.051481],[29.00858,41.051993],[29.008654,41.052381],[29.008913,41.052364],[29.008446,41.050105],[29.008793,41.050079],[29.009132,41.050063],[29.009678,41.050058],[29.009862,41.05003],[29.010097,41.049987],[29.010412,41.049951],[29.010504,41.049891],[29.010515,41.049513],[29.010524,41.04918],[29.010521,41.048843],[29.010531,41.048807],[29.010587,41.04877],[29.010621,41.048757],[29.010736,41.048708],[29.010769,41.048619],[29.01077,41.048122],[29.010725,41.047812],[29.010536,41.047085],[29.010329,41.046435],[29.010205,41.04593],[29.010092,41.045621],[29.009732,41.045154],[29.009451,41.044812],[29.00898,41.044215],[29.008698,41.043766],[29.008642,41.043626],[29.008595,41.04356],[29.008226,41.04357],[29.007624,41.043563],[29.007679,41.043413],[29.007766,41.043249],[29.007975,41.042689],[29.00811,41.042402],[29.006828,41.042162],[29.006808,41.042326],[29.006888,41.042591],[29.006972,41.042989],[29.006679,41.043084],[29.006474,41.043165],[29.006256,41.043258],[29.006217,41.043293],[29.006168,41.043347],[29.006169,41.043411],[29.00618,41.043444],[29.006252,41.043779],[29.006275,41.043858],[29.006308,41.043945],[29.00642,41.04422],[29.006458,41.044377],[29.006468,41.044466],[29.006466,41.044686],[29.006456,41.044749],[29.006445,41.044786],[29.006417,41.044832],[29.006168,41.044984],[29.006112,41.044999],[29.005954,41.045026],[29.005605,41.044941],[29.005578,41.045108],[29.005522,41.045373],[29.005506,41.045499],[29.005503,41.045561],[29.005422,41.045592]]]}},{"type":"Feature","properties":{"id":"TR-Y-34-010-M-0007","level":"yerlesim","type":"mahalle","parent_id":"TR-D-34-010","province_id":"TR-P-34","district_id":"TR-D-34-010","name":"Dikilitaş","source_raw_name":"DİKİLİTAŞ","source":"Kullanıcı tarafından sağlanan KML","source_label":"Kullanıcı tarafından sağlanan KML","source_name":"Istanbul Mahalle KML"},"geometry":{"type":"Polygon","coordinates":[[[29.010054,41.057402],[29.009829,41.056664],[29.009646,41.055879],[29.009195,41.053686],[29.008913,41.052364],[29.008654,41.052381],[29.00858,41.051993],[29.008308,41.051481],[29.008137,41.051236],[29.008079,41.051157],[29.00792,41.051202],[29.007821,41.051236],[29.007744,41.051279],[29.007453,41.051474],[29.007231,41.051625],[29.007185,41.051652],[29.007022,41.051706],[29.006863,41.051747],[29.006752,41.051778],[29.006651,41.051816],[29.006586,41.051915],[29.006528,41.052025],[29.006509,41.052127],[29.006473,41.052279],[29.006404,41.052466],[29.006267,41.052459],[29.006112,41.052445],[29.005896,41.052393],[29.005805,41.052356],[29.005737,41.052314],[29.005609,41.052209],[29.005376,41.052016],[29.005086,41.051795],[29.004833,41.05162],[29.004528,41.05141],[29.004355,41.051292],[29.003937,41.051125],[29.003863,41.051089],[29.00372,41.051005],[29.003553,41.050963],[29.003275,41.051001],[29.003014,41.051026],[29.002658,41.051109],[29.002566,41.051148],[29.002355,41.051341],[29.002317,41.051374],[29.002245,41.051467],[29.001858,41.051863],[29.001644,41.052092],[29.001544,41.052159],[29.001512,41.052174],[28.999696,41.053666],[28.999352,41.054266],[28.999042,41.055144],[28.998744,41.055525],[29.001083,41.05783],[29.001115,41.057837],[29.001552,41.058071],[29.00168,41.05813],[29.001746,41.058148],[29.00191,41.05823],[29.002029,41.058275],[29.002129,41.058295],[29.002213,41.058292],[29.0023,41.058274],[29.002526,41.058222],[29.002701,41.05819],[29.002841,41.058179],[29.002979,41.058196],[29.003168,41.058237],[29.003392,41.058292],[29.003674,41.058381],[29.003771,41.058425],[29.003926,41.058522],[29.00413,41.058637],[29.004318,41.058747],[29.004522,41.058877],[29.004655,41.058951],[29.004717,41.058997],[29.004793,41.059055],[29.004894,41.059141],[29.00521,41.059458],[29.005581,41.059816],[29.005857,41.060088],[29.006268,41.060472],[29.006376,41.06059],[29.006702,41.060917],[29.006841,41.06103],[29.006903,41.060986],[29.007249,41.060678],[29.007434,41.06054],[29.007501,41.06046],[29.007548,41.060364],[29.007605,41.060207],[29.007851,41.059785],[29.007884,41.059705],[29.007915,41.059529],[29.00795,41.059364],[29.007971,41.059215],[29.007975,41.059186],[29.008061,41.059027],[29.008135,41.058911],[29.008213,41.058792],[29.008278,41.058708],[29.008345,41.058632],[29.008411,41.058594],[29.008495,41.058561],[29.008575,41.05854],[29.008653,41.058502],[29.008735,41.058441],[29.008935,41.058256],[29.009079,41.058131],[29.009177,41.058029],[29.009201,41.057961],[29.009213,41.057881],[29.009231,41.057784],[29.009274,41.05766],[29.009313,41.057565],[29.00946,41.05754],[29.010054,41.057402]]]}},{"type":"Feature","properties":{"id":"TR-Y-34-010-M-0008","level":"yerlesim","type":"mahalle","parent_id":"TR-D-34-010","province_id":"TR-P-34","district_id":"TR-D-34-010","name":"Etiler","source_raw_name":"ETİLER","source":"Kullanıcı tarafından sağlanan KML","source_label":"Kullanıcı tarafından sağlanan KML","source_name":"Istanbul Mahalle KML"},"geometry":{"type":"Polygon","coordinates":[[[29.04166,41.090825],[29.041707,41.090648],[29.041862,41.090039],[29.041981,41.089573],[29.042315,41.088733],[29.042496,41.088103],[29.042611,41.087856],[29.042341,41.087606],[29.041995,41.087309],[29.041901,41.087194],[29.041787,41.086546],[29.041808,41.085812],[29.04189,41.084786],[29.041566,41.084782],[29.04105,41.084783],[29.040995,41.084774],[29.041073,41.084734],[29.041121,41.084695],[29.04117,41.084641],[29.041221,41.084589],[29.041361,41.084484],[29.041529,41.084369],[29.041636,41.084296],[29.041547,41.08423],[29.041482,41.084157],[29.041369,41.083999],[29.041328,41.083903],[29.041217,41.083526],[29.041181,41.083424],[29.041248,41.083339],[29.041319,41.083202],[29.041369,41.083084],[29.041401,41.08298],[29.041423,41.082885],[29.041442,41.082652],[29.04142,41.082581],[29.041305,41.082475],[29.041199,41.082403],[29.041111,41.082339],[29.040926,41.082121],[29.040912,41.082076],[29.040924,41.081964],[29.040938,41.081876],[29.040952,41.081827],[29.040982,41.081816],[29.041065,41.081802],[29.041192,41.081784],[29.041342,41.081758],[29.041405,41.081725],[29.041469,41.081673],[29.041641,41.081456],[29.041766,41.081266],[29.041947,41.080947],[29.042004,41.080747],[29.042028,41.080608],[29.042032,41.080364],[29.042013,41.08012],[29.041976,41.07998],[29.0419,41.079859],[29.04187,41.079831],[29.041813,41.079809],[29.041741,41.079799],[29.041671,41.07965],[29.04153,41.079424],[29.041361,41.079472],[29.041127,41.079603],[29.040847,41.079739],[29.040277,41.080027],[29.03996,41.080014],[29.039628,41.080217],[29.039068,41.080554],[29.038408,41.08014],[29.038199,41.080324],[29.037878,41.080646],[29.037954,41.079927],[29.037966,41.079737],[29.037977,41.079635],[29.03796,41.079502],[29.037971,41.079187],[29.037934,41.079109],[29.037803,41.078964],[29.037675,41.078924],[29.03745,41.07891],[29.037285,41.078873],[29.037136,41.07881],[29.036959,41.078752],[29.036732,41.078731],[29.036479,41.078696],[29.036257,41.078664],[29.036057,41.078647],[29.035866,41.078641],[29.035749,41.078711],[29.035664,41.078794],[29.03559,41.078896],[29.035503,41.079038],[29.035423,41.079215],[29.035342,41.07935],[29.03529,41.079417],[29.035231,41.079405],[29.035258,41.079184],[29.035324,41.078798],[29.035313,41.078589],[29.034964,41.078556],[29.034079,41.078678],[29.033866,41.078692],[29.033275,41.078577],[29.032964,41.0785],[29.032699,41.078426],[29.032762,41.078345],[29.032863,41.078243],[29.032934,41.078189],[29.032969,41.078162],[29.033085,41.078099],[29.033239,41.078049],[29.033444,41.078005],[29.033798,41.077881],[29.033877,41.077834],[29.033946,41.077781],[29.034061,41.077665],[29.034135,41.077511],[29.034177,41.077145],[29.034178,41.077037],[29.034189,41.077021],[29.034028,41.076822],[29.033879,41.076652],[29.033503,41.076186],[29.033291,41.076301],[29.033067,41.076369],[29.032766,41.076417],[29.032351,41.076467],[29.031969,41.076521],[29.031452,41.076589],[29.0308,41.076674],[29.030541,41.076712],[29.030249,41.076775],[29.02982,41.076922],[29.029362,41.077058],[29.029228,41.077123],[29.029113,41.077195],[29.028972,41.077296],[29.0288,41.077354],[29.028605,41.077422],[29.028288,41.077527],[29.028252,41.077564],[29.02823,41.077594],[29.028291,41.077601],[29.028433,41.077615],[29.028564,41.077632],[29.028643,41.077649],[29.028687,41.07766],[29.028749,41.077678],[29.028819,41.077702],[29.028907,41.077741],[29.028987,41.077784],[29.029065,41.077833],[29.029355,41.07804],[29.02956,41.078193],[29.029676,41.078289],[29.02979,41.078381],[29.029937,41.078486],[29.029954,41.07856],[29.029974,41.078622],[29.029985,41.078671],[29.03,41.078865],[29.030013,41.078988],[29.030029,41.079083],[29.030098,41.079408],[29.030136,41.079624],[29.030173,41.079854],[29.030196,41.080065],[29.030215,41.080395],[29.030216,41.080748],[29.030211,41.081219],[29.030204,41.081677],[29.030214,41.081857],[29.030247,41.081975],[29.03031,41.082173],[29.030343,41.082237],[29.030537,41.082593],[29.030616,41.082722],[29.030687,41.082816],[29.030814,41.082934],[29.031117,41.083173],[29.03125,41.083254],[29.031336,41.083294],[29.031573,41.08338],[29.031736,41.083465],[29.031833,41.083538],[29.03213,41.083796],[29.032267,41.083959],[29.032429,41.084165],[29.032628,41.084471],[29.032778,41.084755],[29.03287,41.084958],[29.032958,41.085183],[29.033039,41.085446],[29.033083,41.085613],[29.033114,41.085769],[29.033179,41.086032],[29.033183,41.0864],[29.033139,41.086731],[29.033103,41.086882],[29.033016,41.087136],[29.03298,41.087224],[29.032851,41.087502],[29.032573,41.088042],[29.032464,41.088257],[29.032414,41.088452],[29.032404,41.088659],[29.032441,41.088896],[29.032611,41.089413],[29.032755,41.089859],[29.032777,41.089978],[29.03241,41.090191],[29.032049,41.090432],[29.031911,41.090571],[29.031796,41.090743],[29.03173,41.09091],[29.03169,41.091083],[29.031675,41.091208],[29.031672,41.091335],[29.031732,41.091481],[29.031821,41.091736],[29.031896,41.092019],[29.034417,41.091597],[29.036518,41.091307],[29.038719,41.091063],[29.039837,41.090972],[29.04166,41.090825]]]}},{"type":"Feature","properties":{"id":"TR-Y-34-010-M-0009","level":"yerlesim","type":"mahalle","parent_id":"TR-D-34-010","province_id":"TR-P-34","district_id":"TR-D-34-010","name":"Gayrettepe","source_raw_name":"GAYRETTEPE","source":"Kullanıcı tarafından sağlanan KML","source_label":"Kullanıcı tarafından sağlanan KML","source_name":"Istanbul Mahalle KML"},"geometry":{"type":"Polygon","coordinates":[[[29.011785,41.062798],[29.011696,41.062555],[29.011614,41.062284],[29.011523,41.061989],[29.011438,41.06173],[29.011248,41.061177],[29.011115,41.060759],[29.010976,41.060322],[29.010804,41.059777],[29.010674,41.05937],[29.010434,41.05861],[29.010278,41.058116],[29.010054,41.057402],[29.00946,41.05754],[29.009313,41.057565],[29.009274,41.05766],[29.009231,41.057784],[29.009213,41.057881],[29.009201,41.057961],[29.009177,41.058029],[29.009079,41.058131],[29.008935,41.058256],[29.008735,41.058441],[29.008653,41.058502],[29.008575,41.05854],[29.008495,41.058561],[29.008411,41.058594],[29.008345,41.058632],[29.008278,41.058708],[29.008213,41.058792],[29.008135,41.058911],[29.008061,41.059027],[29.007975,41.059186],[29.007971,41.059215],[29.00795,41.059364],[29.007915,41.059529],[29.007884,41.059705],[29.007851,41.059785],[29.007605,41.060207],[29.007548,41.060364],[29.007501,41.06046],[29.007434,41.06054],[29.007249,41.060678],[29.006903,41.060986],[29.006841,41.06103],[29.006702,41.060917],[29.006376,41.06059],[29.006268,41.060472],[29.005857,41.060088],[29.005581,41.059816],[29.00521,41.059458],[29.004894,41.059141],[29.004793,41.059055],[29.004717,41.058997],[29.004655,41.058951],[29.004522,41.058877],[29.004318,41.058747],[29.00413,41.058637],[29.003926,41.058522],[29.003771,41.058425],[29.003674,41.058381],[29.003392,41.058292],[29.003168,41.058237],[29.002979,41.058196],[29.002841,41.058179],[29.002701,41.05819],[29.002526,41.058222],[29.0023,41.058274],[29.002213,41.058292],[29.002129,41.058295],[29.002029,41.058275],[29.00191,41.05823],[29.001746,41.058148],[29.00168,41.05813],[29.001552,41.058071],[29.001115,41.057837],[29.001083,41.05783],[29.001222,41.05873],[29.00126,41.060077],[29.001398,41.06101],[29.001422,41.062031],[29.001625,41.062864],[29.001704,41.063191],[29.001962,41.063402],[29.002314,41.063525],[29.002531,41.064544],[29.003158,41.065794],[29.003195,41.066712],[29.003574,41.066761],[29.004745,41.066479],[29.005649,41.066375],[29.006686,41.06639],[29.007328,41.066273],[29.008199,41.065877],[29.009028,41.065323],[29.011063,41.063347],[29.011785,41.062798]]]}},{"type":"Feature","properties":{"id":"TR-Y-34-010-M-0010","level":"yerlesim","type":"mahalle","parent_id":"TR-D-34-010","province_id":"TR-P-34","district_id":"TR-D-34-010","name":"Konaklar","source_raw_name":"KONAKLAR","source":"Kullanıcı tarafından sağlanan KML","source_label":"Kullanıcı tarafından sağlanan KML","source_name":"Istanbul Mahalle KML"},"geometry":{"type":"Polygon","coordinates":[[[29.024894,41.098822],[29.025541,41.098697],[29.026067,41.098779],[29.026757,41.098978],[29.027268,41.099175],[29.027693,41.099604],[29.027965,41.099747],[29.028356,41.099735],[29.028955,41.099553],[29.029457,41.099385],[29.029636,41.09936],[29.029936,41.099467],[29.030726,41.099848],[29.031054,41.099955],[29.0313,41.099936],[29.031892,41.099742],[29.032654,41.099338],[29.032813,41.099238],[29.032967,41.099135],[29.033046,41.099065],[29.032797,41.098945],[29.032448,41.098523],[29.032065,41.098202],[29.031942,41.098159],[29.031682,41.098126],[29.031219,41.098207],[29.031047,41.09821],[29.030899,41.098188],[29.030744,41.098134],[29.03056,41.098001],[29.030487,41.097902],[29.03029,41.097323],[29.030243,41.097196],[29.030095,41.097053],[29.029219,41.096747],[29.028874,41.096605],[29.028774,41.096545],[29.028652,41.096433],[29.028558,41.096286],[29.028517,41.096168],[29.028438,41.095386],[29.028369,41.095365],[29.028292,41.095381],[29.02803,41.095355],[29.027811,41.095379],[29.027493,41.095403],[29.027284,41.095422],[29.02711,41.095458],[29.026721,41.095568],[29.02645,41.095656],[29.026326,41.095672],[29.02626,41.095672],[29.026067,41.095634],[29.025905,41.095543],[29.025702,41.095363],[29.025528,41.095178],[29.025426,41.095038],[29.025322,41.094925],[29.024866,41.094681],[29.024734,41.094578],[29.024685,41.094539],[29.024387,41.094544],[29.024208,41.094506],[29.023948,41.094393],[29.023816,41.094338],[29.023657,41.094228],[29.023609,41.094212],[29.023434,41.094158],[29.02326,41.094103],[29.022849,41.093964],[29.022751,41.093746],[29.022634,41.093538],[29.022477,41.093154],[29.022166,41.092386],[29.021755,41.092189],[29.021391,41.091947],[29.021143,41.091651],[29.020722,41.091103],[29.020231,41.090394],[29.020037,41.090222],[29.018173,41.088692],[29.017053,41.08791],[29.014565,41.086296],[29.013801,41.085823],[29.012825,41.085275],[29.012035,41.084855],[29.009629,41.08347],[29.009582,41.083449],[29.009428,41.083672],[29.009284,41.083826],[29.008666,41.084473],[29.0086,41.084543],[29.008489,41.084659],[29.008324,41.084832],[29.007791,41.085389],[29.007239,41.086376],[29.00655,41.088472],[29.006224,41.089532],[29.005787,41.090738],[29.005563,41.091505],[29.005407,41.092576],[29.005401,41.093831],[29.00541,41.094292],[29.005811,41.095536],[29.007601,41.09847],[29.008308,41.099455],[29.010998,41.103297],[29.01117,41.103585],[29.011181,41.103579],[29.011339,41.103496],[29.012264,41.103021],[29.0133,41.102496],[29.013719,41.102249],[29.013894,41.10202],[29.013987,41.101821],[29.01441,41.101652],[29.015605,41.101307],[29.015888,41.101179],[29.0179,41.100948],[29.017924,41.100899],[29.01809,41.100865],[29.018159,41.100788],[29.018176,41.100739],[29.0182,41.100708],[29.018278,41.100695],[29.01836,41.100693],[29.018472,41.100686],[29.018826,41.100627],[29.018917,41.100495],[29.0192,41.100556],[29.019335,41.100597],[29.019744,41.100644],[29.020045,41.100619],[29.020209,41.100559],[29.020434,41.100468],[29.020682,41.100417],[29.020999,41.100294],[29.021498,41.100151],[29.021899,41.099814],[29.022071,41.099749],[29.022547,41.099535],[29.022859,41.099273],[29.023059,41.099164],[29.023272,41.099115],[29.024047,41.09908],[29.024894,41.098822]]]}},{"type":"Feature","properties":{"id":"TR-Y-34-010-M-0011","level":"yerlesim","type":"mahalle","parent_id":"TR-D-34-010","province_id":"TR-P-34","district_id":"TR-D-34-010","name":"Kültür","source_raw_name":"KÜLTÜR","source":"Kullanıcı tarafından sağlanan KML","source_label":"Kullanıcı tarafından sağlanan KML","source_name":"Istanbul Mahalle KML"},"geometry":{"type":"Polygon","coordinates":[[[29.034189,41.077021],[29.034216,41.077011],[29.034269,41.076992],[29.034315,41.076976],[29.034379,41.076953],[29.034447,41.07693],[29.034625,41.076871],[29.034768,41.076824],[29.035068,41.07673],[29.035303,41.076655],[29.035375,41.076635],[29.035447,41.076614],[29.035676,41.076524],[29.035842,41.076462],[29.036034,41.076405],[29.036243,41.076362],[29.036405,41.076312],[29.036527,41.076269],[29.036613,41.076221],[29.036659,41.07619],[29.036704,41.076152],[29.036737,41.076118],[29.036776,41.076063],[29.0368,41.076024],[29.036814,41.075991],[29.036851,41.075884],[29.036886,41.075771],[29.03689,41.075743],[29.036889,41.07567],[29.036877,41.075597],[29.036863,41.075525],[29.036725,41.075217],[29.036772,41.075228],[29.036836,41.075232],[29.036925,41.075232],[29.037007,41.07523],[29.037102,41.07522],[29.037286,41.07517],[29.037528,41.075119],[29.037658,41.07507],[29.037765,41.075025],[29.037863,41.074948],[29.038002,41.074798],[29.038137,41.07461],[29.038341,41.074243],[29.038345,41.074202],[29.038332,41.074094],[29.038169,41.073499],[29.037987,41.072872],[29.037874,41.07239],[29.037866,41.072265],[29.037878,41.072216],[29.037926,41.072143],[29.037985,41.072107],[29.038199,41.072024],[29.038549,41.071868],[29.03866,41.071814],[29.038927,41.071709],[29.039018,41.071689],[29.038978,41.071606],[29.038886,41.071378],[29.038843,41.071293],[29.038737,41.07108],[29.038646,41.070987],[29.038583,41.070944],[29.038437,41.070764],[29.038368,41.070768],[29.038298,41.07078],[29.038252,41.070796],[29.038183,41.070829],[29.038136,41.070865],[29.038078,41.070924],[29.038014,41.07099],[29.037962,41.071047],[29.037924,41.071072],[29.037782,41.071111],[29.037429,41.07118],[29.037162,41.071198],[29.037258,41.071099],[29.037347,41.071027],[29.03746,41.070961],[29.037554,41.07089],[29.037603,41.070797],[29.037675,41.07064],[29.037731,41.070525],[29.037796,41.070386],[29.037832,41.070319],[29.037819,41.0703],[29.037251,41.070042],[29.037383,41.069923],[29.037557,41.069804],[29.037633,41.069745],[29.037586,41.069528],[29.037423,41.069525],[29.037353,41.06952],[29.037251,41.069493],[29.037139,41.069496],[29.036828,41.069511],[29.036493,41.069527],[29.036025,41.06953],[29.03575,41.069525],[29.035492,41.069526],[29.035416,41.069487],[29.03528,41.069452],[29.034974,41.069357],[29.034648,41.069231],[29.034522,41.069202],[29.034343,41.069174],[29.034096,41.069144],[29.034091,41.069205],[29.034058,41.069226],[29.033713,41.06922],[29.033563,41.069187],[29.033379,41.0691],[29.033431,41.069005],[29.033463,41.068954],[29.033405,41.068888],[29.033126,41.068745],[29.032498,41.06863],[29.032145,41.068496],[29.031879,41.068517],[29.030876,41.068288],[29.030909,41.068128],[29.030929,41.067923],[29.031071,41.06715],[29.031187,41.066337],[29.031208,41.066269],[29.031383,41.066027],[29.031563,41.065703],[29.031769,41.065328],[29.031836,41.065248],[29.031889,41.065192],[29.031587,41.06518],[29.031442,41.065172],[29.031325,41.065157],[29.03122,41.065138],[29.031059,41.065097],[29.030685,41.064998],[29.030486,41.065515],[29.030443,41.065711],[29.030388,41.066091],[29.030383,41.066208],[29.030339,41.066563],[29.030279,41.067168],[29.030108,41.067704],[29.030032,41.067958],[29.029999,41.068145],[29.029987,41.068269],[29.030007,41.068843],[29.030019,41.069204],[29.029948,41.069676],[29.029814,41.0701],[29.02963,41.070435],[29.029381,41.071077],[29.029196,41.071508],[29.028917,41.072046],[29.028622,41.072606],[29.028399,41.07303],[29.028306,41.073209],[29.028094,41.073621],[29.027664,41.074667],[29.027508,41.074981],[29.027295,41.075416],[29.027049,41.075766],[29.026807,41.076084],[29.026638,41.076251],[29.026163,41.076545],[29.025894,41.076665],[29.025775,41.07673],[29.02542,41.076938],[29.025133,41.077112],[29.024947,41.077224],[29.0247,41.077368],[29.024883,41.077377],[29.025083,41.077386],[29.025278,41.077396],[29.025524,41.07741],[29.026106,41.077448],[29.026744,41.077492],[29.027185,41.077521],[29.027452,41.077536],[29.027731,41.077556],[29.028119,41.077587],[29.02823,41.077594],[29.028252,41.077564],[29.028288,41.077527],[29.028605,41.077422],[29.0288,41.077354],[29.028972,41.077296],[29.029113,41.077195],[29.029228,41.077123],[29.029362,41.077058],[29.02982,41.076922],[29.030249,41.076775],[29.030541,41.076712],[29.0308,41.076674],[29.031452,41.076589],[29.031969,41.076521],[29.032351,41.076467],[29.032766,41.076417],[29.033067,41.076369],[29.033291,41.076301],[29.033503,41.076186],[29.033879,41.076652],[29.034028,41.076822],[29.034189,41.077021]]]}},{"type":"Feature","properties":{"id":"TR-Y-34-010-M-0012","level":"yerlesim","type":"mahalle","parent_id":"TR-D-34-010","province_id":"TR-P-34","district_id":"TR-D-34-010","name":"Kuruçeşme","source_raw_name":"KURUÇEŞME","source":"Kullanıcı tarafından sağlanan KML","source_label":"Kullanıcı tarafından sağlanan KML","source_name":"Istanbul Mahalle KML"},"geometry":{"type":"MultiPolygon","coordinates":[[[[29.036025,41.06953],[29.036493,41.069527],[29.036828,41.069511],[29.037139,41.069496],[29.037251,41.069493],[29.03733,41.069455],[29.03739,41.069432],[29.037638,41.069364],[29.037851,41.069325],[29.0382,41.069267],[29.03845,41.069227],[29.038619,41.069221],[29.0389,41.069228],[29.039123,41.069228],[29.039273,41.069224],[29.039363,41.069212],[29.039479,41.06919],[29.039592,41.069158],[29.039672,41.069131],[29.039743,41.069097],[29.039804,41.06906],[29.039896,41.068994],[29.039964,41.068933],[29.040021,41.068868],[29.040044,41.068838],[29.04006,41.068808],[29.040072,41.068766],[29.04008,41.068721],[29.040082,41.068676],[29.040079,41.068623],[29.040073,41.06857],[29.040034,41.068425],[29.039994,41.068295],[29.039904,41.068073],[29.039867,41.06797],[29.039813,41.067864],[29.039402,41.067654],[29.039331,41.06762],[29.039279,41.067606],[29.039236,41.067624],[29.039178,41.067663],[29.038867,41.067872],[29.038812,41.067903],[29.038749,41.067925],[29.038659,41.067945],[29.038583,41.067956],[29.038511,41.067975],[29.038468,41.067991],[29.038164,41.068164],[29.038001,41.068265],[29.037913,41.068318],[29.037838,41.068358],[29.037796,41.068362],[29.037768,41.068357],[29.037666,41.068304],[29.037469,41.068194],[29.037285,41.068083],[29.037119,41.067973],[29.036859,41.067806],[29.036758,41.067742],[29.0367,41.067709],[29.036659,41.067695],[29.036608,41.067684],[29.03652,41.067674],[29.036441,41.06767],[29.036336,41.06766],[29.036212,41.067648],[29.036067,41.067627],[29.035991,41.067602],[29.035944,41.06757],[29.035927,41.067549],[29.035919,41.067527],[29.035914,41.067488],[29.035915,41.06746],[29.035924,41.067327],[29.035945,41.06708],[29.035954,41.067035],[29.035966,41.066998],[29.035972,41.066958],[29.035974,41.066878],[29.036006,41.066208],[29.036455,41.066237],[29.036498,41.066222],[29.036518,41.066174],[29.036556,41.066095],[29.036587,41.066052],[29.036661,41.065985],[29.036712,41.065953],[29.036893,41.06586],[29.03707,41.065766],[29.037122,41.065735],[29.037178,41.065687],[29.03723,41.065631],[29.037312,41.065555],[29.037393,41.065493],[29.037507,41.065421],[29.037706,41.065307],[29.038234,41.065049],[29.038318,41.065017],[29.038474,41.064982],[29.038636,41.064947],[29.038683,41.06492],[29.038695,41.064891],[29.038688,41.064865],[29.038655,41.064849],[29.038566,41.064839],[29.038463,41.064824],[29.038401,41.064812],[29.038341,41.064798],[29.0383,41.064776],[29.038276,41.064743],[29.038256,41.0647],[29.038241,41.064657],[29.038243,41.064612],[29.038264,41.064565],[29.038306,41.064515],[29.038362,41.064467],[29.038408,41.064434],[29.038454,41.064401],[29.038568,41.064341],[29.038681,41.064295],[29.038812,41.064245],[29.038929,41.064211],[29.039068,41.064184],[29.039204,41.064179],[29.0393,41.064191],[29.039402,41.064227],[29.039631,41.064325],[29.039703,41.064347],[29.039768,41.064356],[29.039834,41.064352],[29.040068,41.064292],[29.040291,41.06424],[29.040561,41.064184],[29.040772,41.064149],[29.040972,41.064103],[29.040962,41.064041],[29.040944,41.063933],[29.040927,41.063827],[29.040898,41.063421],[29.040885,41.063196],[29.040865,41.06309],[29.040836,41.06301],[29.040776,41.062894],[29.040713,41.062802],[29.040643,41.062728],[29.040536,41.062635],[29.040372,41.062534],[29.040035,41.062403],[29.040012,41.062372],[29.040004,41.062365],[29.039955,41.062304],[29.039946,41.062299],[29.039864,41.062253],[29.039904,41.062217],[29.039823,41.062162],[29.03978,41.0622],[29.039647,41.062112],[29.039559,41.062057],[29.039458,41.061993],[29.039396,41.061956],[29.039379,41.061944],[29.039318,41.061888],[29.039292,41.061867],[29.03929,41.061865],[29.039262,41.061846],[29.039174,41.0618],[29.039092,41.061757],[29.038648,41.061537],[29.038549,41.061487],[29.038507,41.061468],[29.038389,41.061418],[29.03833,41.061393],[29.038289,41.06134],[29.038275,41.061325],[29.038249,41.061293],[29.03824,41.061285],[29.038097,41.061192],[29.037953,41.061105],[29.037974,41.061088],[29.037919,41.06105],[29.0379,41.061068],[29.037812,41.061013],[29.037771,41.061038],[29.03767,41.060912],[29.037584,41.060819],[29.03756,41.060776],[29.037484,41.060649],[29.037468,41.060613],[29.037437,41.060537],[29.037415,41.060485],[29.037388,41.060427],[29.037202,41.060211],[29.037194,41.060199],[29.037146,41.06012],[29.037153,41.060116],[29.037161,41.060112],[29.037172,41.060105],[29.037193,41.06006],[29.03718,41.060001],[29.037173,41.059972],[29.037155,41.0599],[29.037031,41.059784],[29.036984,41.059743],[29.036884,41.059686],[29.036828,41.059698],[29.036701,41.05962],[29.036561,41.059474],[29.036511,41.059159],[29.036517,41.059136],[29.036503,41.05902],[29.036484,41.058978],[29.036474,41.058959],[29.036422,41.058669],[29.036406,41.058604],[29.036387,41.058522],[29.036398,41.058508],[29.036285,41.058083],[29.036264,41.058009],[29.036192,41.057755],[29.03615,41.057755],[29.036144,41.057739],[29.036157,41.057736],[29.036039,41.057236],[29.035999,41.057062],[29.035989,41.056782],[29.035988,41.056743],[29.035982,41.056575],[29.035942,41.05614],[29.035975,41.056134],[29.035898,41.05589],[29.035829,41.055703],[29.035845,41.055687],[29.035668,41.055286],[29.0355,41.054899],[29.035395,41.054655],[29.035373,41.054604],[29.035347,41.054543],[29.035253,41.054326],[29.035058,41.054377],[29.034014,41.05468],[29.033785,41.054738],[29.033653,41.054695],[29.03321,41.054842],[29.032995,41.054956],[29.032937,41.054962],[29.032779,41.055037],[29.032528,41.055194],[29.032446,41.055236],[29.031916,41.055285],[29.031732,41.055324],[29.031582,41.055335],[29.031462,41.055377],[29.031359,41.055425],[29.031263,41.055523],[29.031138,41.055607],[29.030747,41.05582],[29.030519,41.056009],[29.03037,41.056141],[29.030184,41.05618],[29.030032,41.056314],[29.029846,41.056663],[29.029709,41.056716],[29.029779,41.056845],[29.029817,41.05703],[29.029848,41.05732],[29.029854,41.057485],[29.029869,41.05766],[29.029891,41.057828],[29.029916,41.057931],[29.029956,41.058035],[29.030011,41.058151],[29.030058,41.058224],[29.030132,41.058305],[29.030282,41.058418],[29.030448,41.058556],[29.030597,41.058688],[29.030903,41.058979],[29.031043,41.059123],[29.031108,41.059211],[29.031216,41.059405],[29.031326,41.059618],[29.031428,41.059831],[29.031439,41.059945],[29.03141,41.060061],[29.031162,41.060468],[29.030978,41.06095],[29.030869,41.061039],[29.030722,41.0616],[29.030695,41.062198],[29.030697,41.062288],[29.030706,41.062336],[29.030735,41.062371],[29.030765,41.062742],[29.030833,41.062925],[29.030929,41.063138],[29.031023,41.063582],[29.031032,41.063936],[29.030881,41.064519],[29.030853,41.064637],[29.030685,41.064998],[29.031059,41.065097],[29.03122,41.065138],[29.031325,41.065157],[29.031442,41.065172],[29.031587,41.06518],[29.031889,41.065192],[29.031836,41.065248],[29.031769,41.065328],[29.031563,41.065703],[29.031383,41.066027],[29.031208,41.066269],[29.031187,41.066337],[29.031071,41.06715],[29.030929,41.067923],[29.030909,41.068128],[29.030876,41.068288],[29.031879,41.068517],[29.032145,41.068496],[29.032498,41.06863],[29.033126,41.068745],[29.033405,41.068888],[29.033463,41.068954],[29.033431,41.069005],[29.033379,41.0691],[29.033563,41.069187],[29.033713,41.06922],[29.034058,41.069226],[29.034091,41.069205],[29.034096,41.069144],[29.034343,41.069174],[29.034522,41.069202],[29.034648,41.069231],[29.034974,41.069357],[29.03528,41.069452],[29.035416,41.069487],[29.035492,41.069526],[29.03575,41.069525],[29.036025,41.06953]]],[[[29.040284,41.060295],[29.03972,41.0596],[29.03969,41.059614],[29.039451,41.059279],[29.039335,41.059331],[29.03925,41.059193],[29.038929,41.059336],[29.039833,41.060495],[29.040284,41.060295]]]]}},{"type":"Feature","properties":{"id":"TR-Y-34-010-M-0013","level":"yerlesim","type":"mahalle","parent_id":"TR-D-34-010","province_id":"TR-P-34","district_id":"TR-D-34-010","name":"Levazım","source_raw_name":"LEVAZIM","source":"Kullanıcı tarafından sağlanan KML","source_label":"Kullanıcı tarafından sağlanan KML","source_name":"Istanbul Mahalle KML"},"geometry":{"type":"Polygon","coordinates":[[[29.022698,41.066138],[29.022724,41.065344],[29.022874,41.06472],[29.022559,41.063839],[29.022579,41.063554],[29.022678,41.063406],[29.022808,41.0632],[29.022948,41.062911],[29.022994,41.062739],[29.022997,41.062638],[29.022982,41.062497],[29.022943,41.06231],[29.022912,41.062084],[29.023061,41.061576],[29.023633,41.061081],[29.024061,41.060599],[29.024089,41.060558],[29.024184,41.060518],[29.024325,41.060534],[29.024487,41.06054],[29.024451,41.060269],[29.024342,41.059863],[29.024235,41.059322],[29.024191,41.059222],[29.024103,41.059091],[29.023953,41.058841],[29.023807,41.058569],[29.023581,41.058334],[29.02354,41.058233],[29.023466,41.057917],[29.023404,41.057609],[29.023329,41.057276],[29.023293,41.057143],[29.023206,41.056979],[29.023128,41.056858],[29.022932,41.05671],[29.022715,41.05668],[29.02217,41.056619],[29.02153,41.056549],[29.02164,41.056273],[29.02165,41.056219],[29.021649,41.056139],[29.021639,41.056007],[29.021198,41.056256],[29.020537,41.056621],[29.020076,41.056887],[29.019621,41.057147],[29.019263,41.057348],[29.01844,41.057823],[29.018064,41.058064],[29.017615,41.058395],[29.017394,41.058582],[29.017133,41.058829],[29.016695,41.05937],[29.016585,41.059527],[29.016437,41.059797],[29.016317,41.060024],[29.016221,41.060244],[29.016119,41.060511],[29.015981,41.060945],[29.015817,41.061564],[29.015629,41.062316],[29.015441,41.063085],[29.015373,41.063351],[29.015194,41.063897],[29.014847,41.065048],[29.014815,41.065237],[29.014797,41.065367],[29.014798,41.065416],[29.01481,41.065497],[29.014837,41.065589],[29.014878,41.065689],[29.014923,41.065794],[29.01496,41.065862],[29.015011,41.06595],[29.015067,41.066056],[29.015099,41.066136],[29.015126,41.06621],[29.015142,41.066267],[29.01515,41.066331],[29.015127,41.066528],[29.015114,41.066567],[29.015094,41.066615],[29.015062,41.066691],[29.015018,41.066778],[29.014853,41.067026],[29.014654,41.067292],[29.014373,41.06764],[29.014335,41.067754],[29.014303,41.067899],[29.014287,41.067983],[29.014286,41.068084],[29.014311,41.068514],[29.014312,41.06866],[29.014483,41.069023],[29.014569,41.068971],[29.015605,41.06806],[29.015762,41.06796],[29.01586,41.067932],[29.016012,41.067898],[29.017227,41.067924],[29.017729,41.067932],[29.017847,41.067955],[29.019645,41.06828],[29.021249,41.068016],[29.021423,41.068023],[29.021984,41.067274],[29.022183,41.066788],[29.022573,41.066372],[29.022698,41.066138]]]}},{"type":"Feature","properties":{"id":"TR-Y-34-010-M-0014","level":"yerlesim","type":"mahalle","parent_id":"TR-D-34-010","province_id":"TR-P-34","district_id":"TR-D-34-010","name":"Levent","source_raw_name":"LEVENT","source":"Kullanıcı tarafından sağlanan KML","source_label":"Kullanıcı tarafından sağlanan KML","source_name":"Istanbul Mahalle KML"},"geometry":{"type":"Polygon","coordinates":[[[29.022348,41.077075],[29.021891,41.076869],[29.021304,41.076627],[29.020607,41.076332],[29.020194,41.076173],[29.019478,41.075876],[29.01912,41.075729],[29.018756,41.075581],[29.018415,41.075429],[29.018075,41.075279],[29.017668,41.075071],[29.016869,41.074648],[29.016582,41.074511],[29.016458,41.074459],[29.015835,41.074234],[29.015557,41.074144],[29.015012,41.075379],[29.014758,41.075766],[29.011634,41.080462],[29.011201,41.081095],[29.010768,41.081725],[29.009582,41.083449],[29.009629,41.08347],[29.012035,41.084855],[29.012825,41.085275],[29.013801,41.085823],[29.014565,41.086296],[29.017053,41.08791],[29.018173,41.088692],[29.020037,41.090222],[29.020231,41.090394],[29.02021,41.089379],[29.020115,41.088724],[29.020141,41.088481],[29.020164,41.088169],[29.020192,41.087866],[29.020347,41.086672],[29.020402,41.086568],[29.02057,41.086385],[29.020646,41.086291],[29.020674,41.086161],[29.020669,41.086061],[29.020618,41.08568],[29.020593,41.085593],[29.020589,41.085499],[29.020601,41.085409],[29.02075,41.08457],[29.020807,41.084276],[29.020857,41.084094],[29.020927,41.083896],[29.021053,41.083597],[29.021271,41.083033],[29.021364,41.082707],[29.021445,41.082219],[29.021485,41.082107],[29.021541,41.082001],[29.021785,41.081609],[29.021986,41.081349],[29.022124,41.081198],[29.022265,41.081078],[29.022365,41.081002],[29.022449,41.080939],[29.022508,41.080823],[29.022558,41.080649],[29.022574,41.080561],[29.022607,41.080275],[29.022637,41.079834],[29.022604,41.079518],[29.02252,41.07872],[29.022409,41.077542],[29.022386,41.077314],[29.022348,41.077075]]]}},{"type":"Feature","properties":{"id":"TR-Y-34-010-M-0015","level":"yerlesim","type":"mahalle","parent_id":"TR-D-34-010","province_id":"TR-P-34","district_id":"TR-D-34-010","name":"Mecidiye","source_raw_name":"MECİDİYE","source":"Kullanıcı tarafından sağlanan KML","source_label":"Kullanıcı tarafından sağlanan KML","source_name":"Istanbul Mahalle KML"},"geometry":{"type":"Polygon","coordinates":[[[29.027285,41.047055],[29.027268,41.047053],[29.027151,41.047055],[29.027123,41.047064],[29.027033,41.047064],[29.026986,41.047041],[29.026887,41.046981],[29.02682,41.046982],[29.026538,41.047177],[29.026294,41.04735],[29.026157,41.047448],[29.025996,41.047441],[29.025846,41.047432],[29.025732,41.047414],[29.025739,41.047399],[29.025707,41.04739],[29.025699,41.047407],[29.025677,41.0474],[29.025615,41.047373],[29.025646,41.047311],[29.025625,41.047304],[29.025672,41.047257],[29.025675,41.047254],[29.025718,41.047211],[29.025574,41.047163],[29.02551,41.047305],[29.025494,41.047339],[29.025459,41.047395],[29.025526,41.047418],[29.02548,41.047478],[29.025442,41.047546],[29.025403,41.047599],[29.025304,41.047733],[29.025151,41.047914],[29.024877,41.04823],[29.024736,41.04816],[29.024496,41.048411],[29.02429,41.048604],[29.024134,41.048718],[29.023918,41.048639],[29.023753,41.048584],[29.023556,41.048573],[29.022906,41.048618],[29.022683,41.048619],[29.022186,41.048589],[29.021522,41.048522],[29.021052,41.048499],[29.020854,41.048495],[29.020722,41.048572],[29.020683,41.048628],[29.020649,41.048694],[29.020627,41.048777],[29.02057,41.04899],[29.020499,41.049215],[29.020407,41.049418],[29.020276,41.049611],[29.020132,41.049792],[29.020062,41.049858],[29.019967,41.049924],[29.019814,41.049974],[29.019664,41.050002],[29.019149,41.05008],[29.018634,41.050189],[29.018394,41.050264],[29.017851,41.050453],[29.017669,41.050567],[29.017512,41.050691],[29.017263,41.050917],[29.017113,41.051089],[29.016973,41.051287],[29.016754,41.051672],[29.016597,41.051851],[29.016383,41.052088],[29.016141,41.052386],[29.015234,41.053438],[29.01509,41.053548],[29.014958,41.053624],[29.014668,41.053755],[29.014224,41.053951],[29.013931,41.054057],[29.013784,41.05408],[29.013526,41.054104],[29.013021,41.054147],[29.012748,41.054177],[29.012562,41.05421],[29.012378,41.054277],[29.012243,41.054339],[29.012016,41.054473],[29.01185,41.054597],[29.011735,41.054683],[29.012123,41.054886],[29.012459,41.055052],[29.013282,41.055449],[29.013779,41.055693],[29.015121,41.056331],[29.015256,41.056303],[29.015916,41.056109],[29.016499,41.055858],[29.016765,41.05577],[29.01702,41.05565],[29.017133,41.055599],[29.017048,41.055444],[29.016964,41.055335],[29.016541,41.054875],[29.016247,41.054737],[29.015876,41.054533],[29.01613,41.054358],[29.016477,41.05418],[29.016678,41.05407],[29.01688,41.053959],[29.017081,41.053843],[29.017201,41.053762],[29.017729,41.053446],[29.017955,41.053313],[29.019103,41.054218],[29.019175,41.054297],[29.020098,41.053775],[29.020489,41.054039],[29.020575,41.054228],[29.020524,41.054395],[29.021149,41.054594],[29.021255,41.05462],[29.021322,41.054627],[29.021391,41.054625],[29.021517,41.054604],[29.021652,41.054566],[29.021651,41.054665],[29.021614,41.054795],[29.021525,41.055105],[29.021519,41.055153],[29.021519,41.055224],[29.021532,41.055303],[29.021545,41.055454],[29.021558,41.055585],[29.02161,41.055734],[29.021648,41.055914],[29.021639,41.056007],[29.021649,41.056139],[29.02165,41.056219],[29.02164,41.056273],[29.02153,41.056549],[29.02217,41.056619],[29.022715,41.05668],[29.022932,41.05671],[29.022925,41.056563],[29.022893,41.056362],[29.022888,41.056138],[29.022903,41.055618],[29.022918,41.055361],[29.022948,41.055203],[29.022952,41.055159],[29.022956,41.055096],[29.022958,41.055047],[29.022948,41.054379],[29.022967,41.054334],[29.023018,41.054183],[29.023017,41.053914],[29.023006,41.053851],[29.023017,41.05382],[29.023091,41.053672],[29.023277,41.053317],[29.0235,41.052991],[29.023639,41.052766],[29.023937,41.052337],[29.024096,41.052089],[29.024195,41.051898],[29.024298,41.051712],[29.024352,41.051626],[29.024467,41.051414],[29.024699,41.051076],[29.024767,41.050998],[29.024841,41.05089],[29.025027,41.050668],[29.025149,41.050533],[29.025235,41.050457],[29.025356,41.050306],[29.025471,41.050147],[29.0256,41.049985],[29.025704,41.049809],[29.025876,41.049576],[29.025953,41.049484],[29.025986,41.049422],[29.026142,41.049253],[29.026378,41.049039],[29.026488,41.048921],[29.026528,41.048858],[29.026602,41.048761],[29.026668,41.048623],[29.026738,41.048502],[29.026765,41.048415],[29.026781,41.048257],[29.026814,41.048168],[29.026871,41.048149],[29.026961,41.047637],[29.026971,41.04757],[29.027092,41.047379],[29.027237,41.047138],[29.02727,41.047079],[29.027285,41.047055]]]}},{"type":"Feature","properties":{"id":"TR-Y-34-010-M-0016","level":"yerlesim","type":"mahalle","parent_id":"TR-D-34-010","province_id":"TR-P-34","district_id":"TR-D-34-010","name":"Muradiye","source_raw_name":"MURADİYE","source":"Kullanıcı tarafından sağlanan KML","source_label":"Kullanıcı tarafından sağlanan KML","source_name":"Istanbul Mahalle KML"},"geometry":{"type":"Polygon","coordinates":[[[29.000777,41.049113],[29.000655,41.048878],[29.000367,41.048295],[29.000076,41.04776],[29.000094,41.047559],[29.000197,41.046988],[29.000267,41.046604],[29.000322,41.046243],[29.000326,41.046118],[29.000321,41.045948],[29.000299,41.045718],[29.000291,41.045639],[29.00022,41.045687],[29.000192,41.04571],[29.00007,41.045811],[28.999673,41.046262],[28.999457,41.046471],[28.999325,41.046566],[28.996888,41.047412],[28.998216,41.049729],[28.998161,41.049806],[28.99837,41.049884],[28.998561,41.049885],[28.998803,41.049847],[29.000007,41.049535],[29.000777,41.049113]]]}},{"type":"Feature","properties":{"id":"TR-Y-34-010-M-0017","level":"yerlesim","type":"mahalle","parent_id":"TR-D-34-010","province_id":"TR-P-34","district_id":"TR-D-34-010","name":"Nisbetiye","source_raw_name":"NİSBETİYE","source":"Kullanıcı tarafından sağlanan KML","source_label":"Kullanıcı tarafından sağlanan KML","source_name":"Istanbul Mahalle KML"},"geometry":{"type":"Polygon","coordinates":[[[29.029814,41.0701],[29.029635,41.070069],[29.028849,41.069898],[29.028185,41.069238],[29.027677,41.068657],[29.027008,41.068089],[29.026479,41.068101],[29.026017,41.068025],[29.025864,41.06805],[29.025787,41.068022],[29.025915,41.067812],[29.025886,41.067769],[29.025769,41.067717],[29.025603,41.067649],[29.025446,41.067653],[29.025275,41.067562],[29.02548,41.06708],[29.022698,41.066138],[29.022573,41.066372],[29.022183,41.066788],[29.021984,41.067274],[29.021423,41.068023],[29.021249,41.068016],[29.019645,41.06828],[29.017847,41.067955],[29.017729,41.067932],[29.017227,41.067924],[29.016012,41.067898],[29.01586,41.067932],[29.015762,41.06796],[29.015605,41.06806],[29.014569,41.068971],[29.014483,41.069023],[29.014751,41.06959],[29.014945,41.070002],[29.015893,41.072008],[29.016091,41.072899],[29.015557,41.074144],[29.015835,41.074234],[29.016458,41.074459],[29.016582,41.074511],[29.016869,41.074648],[29.017668,41.075071],[29.018075,41.075279],[29.018415,41.075429],[29.018756,41.075581],[29.01912,41.075729],[29.019478,41.075876],[29.020194,41.076173],[29.020607,41.076332],[29.021304,41.076627],[29.021891,41.076869],[29.022348,41.077075],[29.022635,41.07715],[29.022854,41.077207],[29.023027,41.077235],[29.023442,41.077278],[29.024074,41.07733],[29.02435,41.077348],[29.0247,41.077368],[29.024947,41.077224],[29.025133,41.077112],[29.02542,41.076938],[29.025775,41.07673],[29.025894,41.076665],[29.026163,41.076545],[29.026638,41.076251],[29.026807,41.076084],[29.027049,41.075766],[29.027295,41.075416],[29.027508,41.074981],[29.027664,41.074667],[29.028094,41.073621],[29.028306,41.073209],[29.028399,41.07303],[29.028622,41.072606],[29.028917,41.072046],[29.029196,41.071508],[29.029381,41.071077],[29.02963,41.070435],[29.029814,41.0701]]]}},{"type":"Feature","properties":{"id":"TR-Y-34-010-M-0018","level":"yerlesim","type":"mahalle","parent_id":"TR-D-34-010","province_id":"TR-P-34","district_id":"TR-D-34-010","name":"Ortaköy","source_raw_name":"ORTAKÖY","source":"Kullanıcı tarafından sağlanan KML","source_label":"Kullanıcı tarafından sağlanan KML","source_name":"Istanbul Mahalle KML"},"geometry":{"type":"Polygon","coordinates":[[[29.030978,41.06095],[29.031162,41.060468],[29.03141,41.060061],[29.031439,41.059945],[29.031428,41.059831],[29.031326,41.059618],[29.031216,41.059405],[29.031108,41.059211],[29.031043,41.059123],[29.030903,41.058979],[29.030597,41.058688],[29.030448,41.058556],[29.030282,41.058418],[29.030132,41.058305],[29.030058,41.058224],[29.030011,41.058151],[29.029956,41.058035],[29.029916,41.057931],[29.029891,41.057828],[29.029869,41.05766],[29.029854,41.057485],[29.029848,41.05732],[29.029817,41.05703],[29.029779,41.056845],[29.029709,41.056716],[29.029846,41.056663],[29.030032,41.056314],[29.030184,41.05618],[29.03037,41.056141],[29.030519,41.056009],[29.030747,41.05582],[29.031138,41.055607],[29.031263,41.055523],[29.031359,41.055425],[29.031462,41.055377],[29.031582,41.055335],[29.031732,41.055324],[29.031916,41.055285],[29.032446,41.055236],[29.032528,41.055194],[29.032779,41.055037],[29.032937,41.054962],[29.032995,41.054956],[29.03321,41.054842],[29.033653,41.054695],[29.033785,41.054738],[29.034014,41.05468],[29.035058,41.054377],[29.035253,41.054326],[29.035177,41.054152],[29.035091,41.054164],[29.034921,41.053735],[29.034985,41.053718],[29.034767,41.053221],[29.034747,41.053176],[29.034505,41.052619],[29.034503,41.052614],[29.034392,41.052633],[29.03438,41.052605],[29.034264,41.052409],[29.03426,41.052403],[29.034163,41.052239],[29.034126,41.052211],[29.034017,41.052017],[29.033999,41.052002],[29.033991,41.051939],[29.033862,41.051592],[29.033708,41.051323],[29.03375,41.051312],[29.033745,41.051296],[29.033745,41.051295],[29.033722,41.05122],[29.033702,41.051173],[29.033666,41.051109],[29.033594,41.051123],[29.033504,41.051004],[29.03357,41.050961],[29.033486,41.050841],[29.033448,41.050772],[29.03343,41.050745],[29.033407,41.050705],[29.033352,41.050602],[29.033336,41.050572],[29.033292,41.050488],[29.033258,41.050424],[29.033289,41.050414],[29.033125,41.050199],[29.033055,41.050104],[29.032987,41.050014],[29.032978,41.049999],[29.032942,41.049942],[29.032967,41.049928],[29.032845,41.049752],[29.032773,41.049721],[29.032673,41.049684],[29.03233,41.049522],[29.032253,41.04961],[29.032103,41.049586],[29.032006,41.04957],[29.031816,41.04954],[29.031805,41.049538],[29.031782,41.049534],[29.031741,41.049528],[29.03175,41.0495],[29.031772,41.049503],[29.031779,41.04948],[29.031707,41.049471],[29.0317,41.049493],[29.031714,41.049495],[29.031706,41.04952],[29.031339,41.049475],[29.031333,41.049461],[29.031036,41.049383],[29.031008,41.049319],[29.030736,41.049229],[29.030363,41.049106],[29.030226,41.049062],[29.030211,41.049056],[29.030156,41.049038],[29.030152,41.049036],[29.030148,41.049034],[29.03,41.048986],[29.029857,41.04894],[29.029828,41.048929],[29.029721,41.04888],[29.029728,41.048869],[29.029614,41.048818],[29.029605,41.048829],[29.029589,41.048823],[29.029598,41.048811],[29.029486,41.048762],[29.029478,41.048772],[29.029415,41.048745],[29.029295,41.048692],[29.029294,41.048692],[29.029107,41.048612],[29.028892,41.048515],[29.028651,41.048408],[29.02864,41.048402],[29.028621,41.048385],[29.028534,41.048288],[29.028424,41.048165],[29.028322,41.048039],[29.028324,41.048036],[29.028287,41.047979],[29.028236,41.047912],[29.028171,41.04783],[29.028148,41.047793],[29.028082,41.047735],[29.028046,41.047707],[29.027961,41.047642],[29.027795,41.047539],[29.027752,41.047517],[29.027895,41.047411],[29.027826,41.047305],[29.02781,41.047317],[29.027773,41.047288],[29.027619,41.047139],[29.027588,41.047112],[29.027548,41.047089],[29.027515,41.047077],[29.027401,41.047064],[29.027285,41.047055],[29.02727,41.047079],[29.027237,41.047138],[29.027092,41.047379],[29.026971,41.04757],[29.026961,41.047637],[29.026871,41.048149],[29.026814,41.048168],[29.026781,41.048257],[29.026765,41.048415],[29.026738,41.048502],[29.026668,41.048623],[29.026602,41.048761],[29.026528,41.048858],[29.026488,41.048921],[29.026378,41.049039],[29.026142,41.049253],[29.025986,41.049422],[29.025953,41.049484],[29.025876,41.049576],[29.025704,41.049809],[29.0256,41.049985],[29.025471,41.050147],[29.025356,41.050306],[29.025235,41.050457],[29.025149,41.050533],[29.025027,41.050668],[29.024841,41.05089],[29.024767,41.050998],[29.024699,41.051076],[29.024467,41.051414],[29.024352,41.051626],[29.024298,41.051712],[29.024195,41.051898],[29.024096,41.052089],[29.023937,41.052337],[29.023639,41.052766],[29.0235,41.052991],[29.023277,41.053317],[29.023091,41.053672],[29.023017,41.05382],[29.023006,41.053851],[29.023017,41.053914],[29.023018,41.054183],[29.022967,41.054334],[29.022948,41.054379],[29.022958,41.055047],[29.022956,41.055096],[29.022952,41.055159],[29.022948,41.055203],[29.022918,41.055361],[29.022903,41.055618],[29.022888,41.056138],[29.022893,41.056362],[29.022925,41.056563],[29.022932,41.05671],[29.023128,41.056858],[29.023206,41.056979],[29.023293,41.057143],[29.023329,41.057276],[29.023404,41.057609],[29.023466,41.057917],[29.02354,41.058233],[29.023581,41.058334],[29.023807,41.058569],[29.023953,41.058841],[29.024103,41.059091],[29.024191,41.059222],[29.024235,41.059322],[29.024342,41.059863],[29.024451,41.060269],[29.024487,41.06054],[29.024589,41.060534],[29.024694,41.060546],[29.024753,41.060576],[29.024847,41.060628],[29.024928,41.060687],[29.025043,41.060801],[29.025157,41.060892],[29.025272,41.060958],[29.025437,41.061033],[29.025704,41.061148],[29.026314,41.061447],[29.026726,41.061625],[29.027083,41.06177],[29.027385,41.061869],[29.027657,41.061949],[29.027812,41.062079],[29.028061,41.061996],[29.028523,41.061669],[29.028742,41.061614],[29.028746,41.06154],[29.028885,41.061331],[29.028904,41.061147],[29.028951,41.06093],[29.029036,41.060729],[29.029125,41.060559],[29.029996,41.060719],[29.03016,41.060744],[29.030438,41.060805],[29.03072,41.060879],[29.030978,41.06095]]]}},{"type":"Feature","properties":{"id":"TR-Y-34-010-M-0019","level":"yerlesim","type":"mahalle","parent_id":"TR-D-34-010","province_id":"TR-P-34","district_id":"TR-D-34-010","name":"Sinanpaşa","source_raw_name":"SİNANPAŞA","source":"Kullanıcı tarafından sağlanan KML","source_label":"Kullanıcı tarafından sağlanan KML","source_name":"Istanbul Mahalle KML"},"geometry":{"type":"Polygon","coordinates":[[[29.00811,41.042402],[29.008159,41.04226],[29.008177,41.04208],[29.008201,41.041551],[29.008211,41.041496],[29.008253,41.041261],[29.008239,41.041258],[29.008031,41.041219],[29.008013,41.041272],[29.00801,41.041272],[29.007982,41.04135],[29.00749,41.041245],[29.007606,41.040863],[29.007259,41.040802],[29.007212,41.040965],[29.00667,41.040862],[29.006606,41.040888],[29.00656,41.040841],[29.006423,41.040728],[29.006405,41.040741],[29.006412,41.040747],[29.006328,41.040809],[29.006309,41.040793],[29.006295,41.040807],[29.006231,41.040754],[29.006314,41.040695],[29.006147,41.040506],[29.006026,41.040567],[29.006006,41.040549],[29.005985,41.040564],[29.005747,41.040371],[29.005549,41.040218],[29.005722,41.040099],[29.005792,41.040051],[29.005589,41.039884],[29.005418,41.039994],[29.005278,41.039917],[29.005009,41.040333],[29.004891,41.040429],[29.004248,41.041451],[29.003987,41.041388],[29.003828,41.041445],[29.003737,41.041463],[29.003523,41.041556],[29.003456,41.041595],[29.003341,41.041696],[29.003015,41.041948],[29.002861,41.042096],[29.002817,41.042266],[29.002228,41.043326],[29.002108,41.043513],[29.002033,41.043621],[29.001815,41.043872],[29.001698,41.043962],[29.001483,41.044064],[29.001019,41.04423],[29.000538,41.044509],[29.000626,41.044542],[29.000751,41.044558],[29.000984,41.044564],[29.002,41.044576],[29.002095,41.044572],[29.002251,41.044549],[29.002378,41.044515],[29.002457,41.044512],[29.002545,41.044514],[29.002628,41.044519],[29.002707,41.04453],[29.002852,41.044565],[29.002903,41.044528],[29.003001,41.044436],[29.003145,41.044489],[29.00381,41.044695],[29.004239,41.044816],[29.004522,41.044899],[29.004555,41.044712],[29.004591,41.044613],[29.004663,41.044666],[29.004828,41.044872],[29.004982,41.045078],[29.005022,41.045127],[29.005115,41.04524],[29.00523,41.045377],[29.005344,41.045541],[29.005395,41.045571],[29.005422,41.045592],[29.005503,41.045561],[29.005506,41.045499],[29.005522,41.045373],[29.005578,41.045108],[29.005605,41.044941],[29.005954,41.045026],[29.006112,41.044999],[29.006168,41.044984],[29.006417,41.044832],[29.006445,41.044786],[29.006456,41.044749],[29.006466,41.044686],[29.006468,41.044466],[29.006458,41.044377],[29.00642,41.04422],[29.006308,41.043945],[29.006275,41.043858],[29.006252,41.043779],[29.00618,41.043444],[29.006169,41.043411],[29.006168,41.043347],[29.006217,41.043293],[29.006256,41.043258],[29.006474,41.043165],[29.006679,41.043084],[29.006972,41.042989],[29.006888,41.042591],[29.006808,41.042326],[29.006828,41.042162],[29.00811,41.042402]]]}},{"type":"Feature","properties":{"id":"TR-Y-34-010-M-0020","level":"yerlesim","type":"mahalle","parent_id":"TR-D-34-010","province_id":"TR-P-34","district_id":"TR-D-34-010","name":"Türkali","source_raw_name":"TÜRKALİ","source":"Kullanıcı tarafından sağlanan KML","source_label":"Kullanıcı tarafından sağlanan KML","source_name":"Istanbul Mahalle KML"},"geometry":{"type":"Polygon","coordinates":[[[29.003553,41.050963],[29.003657,41.050909],[29.003701,41.05082],[29.003728,41.05068],[29.003844,41.050219],[29.003926,41.049975],[29.003878,41.049958],[29.003818,41.049943],[29.003625,41.049848],[29.003494,41.049778],[29.00345,41.049748],[29.003418,41.0497],[29.003375,41.04963],[29.003351,41.049595],[29.00332,41.049555],[29.003273,41.049488],[29.003235,41.049414],[29.003213,41.049309],[29.003219,41.049209],[29.003247,41.049076],[29.003267,41.048998],[29.003281,41.048837],[29.003264,41.04873],[29.003233,41.048558],[29.003208,41.048313],[29.0032,41.048162],[29.003197,41.048008],[29.003232,41.047643],[29.003237,41.047422],[29.003233,41.047357],[29.003283,41.047136],[29.00328,41.047025],[29.003293,41.046974],[29.003338,41.046895],[29.003397,41.046907],[29.003703,41.047017],[29.00421,41.047151],[29.00428,41.046937],[29.004322,41.046942],[29.004361,41.046933],[29.004391,41.046917],[29.004418,41.046893],[29.004604,41.046864],[29.004788,41.046824],[29.005051,41.046759],[29.00533,41.046738],[29.005696,41.046721],[29.005662,41.046229],[29.005646,41.0461],[29.00558,41.04586],[29.005468,41.04564],[29.005422,41.045592],[29.005395,41.045571],[29.005344,41.045541],[29.00523,41.045377],[29.005115,41.04524],[29.005022,41.045127],[29.004982,41.045078],[29.004828,41.044872],[29.004663,41.044666],[29.004591,41.044613],[29.004555,41.044712],[29.004522,41.044899],[29.004239,41.044816],[29.00381,41.044695],[29.003145,41.044489],[29.003001,41.044436],[29.002903,41.044528],[29.002852,41.044565],[29.002707,41.04453],[29.002628,41.044519],[29.002545,41.044514],[29.002457,41.044512],[29.002378,41.044515],[29.002251,41.044549],[29.002095,41.044572],[29.002,41.044576],[29.000984,41.044564],[29.000751,41.044558],[29.000626,41.044542],[29.000538,41.044509],[29.000415,41.044664],[29.000278,41.044894],[29.000261,41.045024],[29.000281,41.045462],[29.000291,41.045639],[29.000299,41.045718],[29.000321,41.045948],[29.000326,41.046118],[29.000322,41.046243],[29.000267,41.046604],[29.000197,41.046988],[29.000094,41.047559],[29.000076,41.04776],[29.000367,41.048295],[29.000655,41.048878],[29.000777,41.049113],[29.000779,41.049117],[29.000803,41.049187],[29.00104,41.049894],[29.001012,41.0501],[29.001015,41.050115],[29.00088,41.050315],[29.000725,41.050743],[29.000179,41.052041],[29.00077,41.052051],[29.001544,41.052159],[29.001644,41.052092],[29.001858,41.051863],[29.002245,41.051467],[29.002317,41.051374],[29.002355,41.051341],[29.002566,41.051148],[29.002658,41.051109],[29.003014,41.051026],[29.003275,41.051001],[29.003553,41.050963]]]}},{"type":"Feature","properties":{"id":"TR-Y-34-010-M-0021","level":"yerlesim","type":"mahalle","parent_id":"TR-D-34-010","province_id":"TR-P-34","district_id":"TR-D-34-010","name":"Ulus","source_raw_name":"ULUS","source":"Kullanıcı tarafından sağlanan KML","source_label":"Kullanıcı tarafından sağlanan KML","source_name":"Istanbul Mahalle KML"},"geometry":{"type":"Polygon","coordinates":[[[29.022698,41.066138],[29.02548,41.06708],[29.025275,41.067562],[29.025446,41.067653],[29.025603,41.067649],[29.025769,41.067717],[29.025886,41.067769],[29.025915,41.067812],[29.025787,41.068022],[29.025864,41.06805],[29.026017,41.068025],[29.026479,41.068101],[29.027008,41.068089],[29.027677,41.068657],[29.028185,41.069238],[29.028849,41.069898],[29.029635,41.070069],[29.029814,41.0701],[29.029948,41.069676],[29.030019,41.069204],[29.030007,41.068843],[29.029987,41.068269],[29.029999,41.068145],[29.030032,41.067958],[29.030108,41.067704],[29.030279,41.067168],[29.030339,41.066563],[29.030383,41.066208],[29.030388,41.066091],[29.030443,41.065711],[29.030486,41.065515],[29.030685,41.064998],[29.030853,41.064637],[29.030881,41.064519],[29.031032,41.063936],[29.031023,41.063582],[29.030929,41.063138],[29.030833,41.062925],[29.030765,41.062742],[29.030735,41.062371],[29.030706,41.062336],[29.030697,41.062288],[29.030695,41.062198],[29.030722,41.0616],[29.030869,41.061039],[29.030978,41.06095],[29.03072,41.060879],[29.030438,41.060805],[29.03016,41.060744],[29.029996,41.060719],[29.029125,41.060559],[29.029036,41.060729],[29.028951,41.06093],[29.028904,41.061147],[29.028885,41.061331],[29.028746,41.06154],[29.028742,41.061614],[29.028523,41.061669],[29.028061,41.061996],[29.027812,41.062079],[29.027657,41.061949],[29.027385,41.061869],[29.027083,41.06177],[29.026726,41.061625],[29.026314,41.061447],[29.025704,41.061148],[29.025437,41.061033],[29.025272,41.060958],[29.025157,41.060892],[29.025043,41.060801],[29.024928,41.060687],[29.024847,41.060628],[29.024753,41.060576],[29.024694,41.060546],[29.024589,41.060534],[29.024487,41.06054],[29.024325,41.060534],[29.024184,41.060518],[29.024089,41.060558],[29.024061,41.060599],[29.023633,41.061081],[29.023061,41.061576],[29.022912,41.062084],[29.022943,41.06231],[29.022982,41.062497],[29.022997,41.062638],[29.022994,41.062739],[29.022948,41.062911],[29.022808,41.0632],[29.022678,41.063406],[29.022579,41.063554],[29.022559,41.063839],[29.022874,41.06472],[29.022724,41.065344],[29.022698,41.066138]]]}},{"type":"Feature","properties":{"id":"TR-Y-34-010-M-0022","level":"yerlesim","type":"mahalle","parent_id":"TR-D-34-010","province_id":"TR-P-34","district_id":"TR-D-34-010","name":"Vişnezade","source_raw_name":"VİŞNEZADE","source":"Kullanıcı tarafından sağlanan KML","source_label":"Kullanıcı tarafından sağlanan KML","source_name":"Istanbul Mahalle KML"},"geometry":{"type":"Polygon","coordinates":[[[29.000291,41.045639],[29.000281,41.045462],[29.000261,41.045024],[29.000278,41.044894],[29.000415,41.044664],[29.000538,41.044509],[29.001019,41.04423],[29.001483,41.044064],[29.001698,41.043962],[29.001815,41.043872],[29.002033,41.043621],[29.002108,41.043513],[29.002228,41.043326],[29.002817,41.042266],[29.002861,41.042096],[29.003015,41.041948],[29.003341,41.041696],[29.003456,41.041595],[29.003523,41.041556],[29.003737,41.041463],[29.003828,41.041445],[29.003987,41.041388],[29.004248,41.041451],[29.004891,41.040429],[29.005009,41.040333],[29.005278,41.039917],[29.005222,41.039886],[29.005177,41.039871],[29.005042,41.039834],[29.004393,41.039655],[29.003523,41.039412],[29.003025,41.03927],[29.002692,41.039178],[29.002239,41.039048],[29.001608,41.038868],[29.000688,41.038608],[29.000374,41.03852],[29.000173,41.038462],[29.00005,41.038427],[29.000001,41.038412],[28.999958,41.038399],[28.999665,41.038317],[28.999561,41.038287],[28.999354,41.038228],[28.999012,41.03813],[28.998947,41.038111],[28.998667,41.038032],[28.998368,41.037947],[28.997897,41.037813],[28.997729,41.037767],[28.997636,41.037741],[28.997281,41.037638],[28.996951,41.037543],[28.996802,41.037501],[28.996777,41.037491],[28.996745,41.037473],[28.996709,41.037442],[28.996694,41.03742],[28.99654,41.037141],[28.996479,41.037111],[28.996385,41.037066],[28.996194,41.036972],[28.996092,41.036922],[28.995848,41.036803],[28.995771,41.036765],[28.995771,41.036764],[28.995771,41.036765],[28.995708,41.036838],[28.995563,41.037003],[28.995424,41.037163],[28.995189,41.03728],[28.995343,41.037527],[28.995234,41.037616],[28.994932,41.037799],[28.994626,41.038028],[28.994156,41.03838],[28.993438,41.038926],[28.993235,41.039024],[28.993096,41.03908],[28.992928,41.039133],[28.99277,41.039167],[28.992574,41.039191],[28.991814,41.03921],[28.991612,41.039609],[28.992348,41.039777],[28.992924,41.040149],[28.993112,41.040596],[28.993122,41.040663],[28.993149,41.041117],[28.993112,41.041915],[28.99313,41.041977],[28.993182,41.042022],[28.99328,41.042071],[28.993355,41.04208],[28.99345,41.042071],[28.993539,41.042043],[28.993655,41.041979],[28.993902,41.04174],[28.993991,41.041679],[28.994094,41.04163],[28.994561,41.041893],[28.994457,41.042052],[28.994381,41.042174],[28.994207,41.042722],[28.994516,41.042775],[28.995212,41.043179],[28.995495,41.043227],[28.995416,41.043491],[28.995295,41.043712],[28.995162,41.043892],[28.996023,41.044259],[28.99575,41.044621],[28.995641,41.044769],[28.995507,41.044933],[28.995237,41.045314],[28.995128,41.045459],[28.99537,41.04553],[28.995604,41.045554],[28.995839,41.04558],[28.99594,41.045618],[28.995956,41.045713],[28.995974,41.045766],[28.996007,41.045822],[28.996057,41.045892],[28.996108,41.045967],[28.99613,41.04605],[28.99615,41.046183],[28.996175,41.046271],[28.996302,41.04655],[28.996379,41.046692],[28.996888,41.047412],[28.999325,41.046566],[28.999457,41.046471],[28.999673,41.046262],[29.00007,41.045811],[29.000192,41.04571],[29.00022,41.045687],[29.000291,41.045639]]]}},{"type":"Feature","properties":{"id":"TR-Y-34-010-M-0023","level":"yerlesim","type":"mahalle","parent_id":"TR-D-34-010","province_id":"TR-P-34","district_id":"TR-D-34-010","name":"Yıldız","source_raw_name":"YILDIZ","source":"Kullanıcı tarafından sağlanan KML","source_label":"Kullanıcı tarafından sağlanan KML","source_name":"Istanbul Mahalle KML"},"geometry":{"type":"Polygon","coordinates":[[[29.011735,41.054683],[29.01185,41.054597],[29.012016,41.054473],[29.012243,41.054339],[29.012378,41.054277],[29.012562,41.05421],[29.012748,41.054177],[29.013021,41.054147],[29.013526,41.054104],[29.013784,41.05408],[29.013931,41.054057],[29.014224,41.053951],[29.014668,41.053755],[29.014958,41.053624],[29.01509,41.053548],[29.015234,41.053438],[29.016141,41.052386],[29.016383,41.052088],[29.016597,41.051851],[29.016754,41.051672],[29.016973,41.051287],[29.017113,41.051089],[29.017263,41.050917],[29.017512,41.050691],[29.017669,41.050567],[29.017851,41.050453],[29.018394,41.050264],[29.018634,41.050189],[29.019149,41.05008],[29.019664,41.050002],[29.019814,41.049974],[29.019967,41.049924],[29.020062,41.049858],[29.020132,41.049792],[29.020276,41.049611],[29.020407,41.049418],[29.020499,41.049215],[29.02057,41.04899],[29.020627,41.048777],[29.020649,41.048694],[29.020683,41.048628],[29.020722,41.048572],[29.020854,41.048495],[29.021052,41.048499],[29.021522,41.048522],[29.022186,41.048589],[29.022683,41.048619],[29.022906,41.048618],[29.023556,41.048573],[29.023753,41.048584],[29.023918,41.048639],[29.024134,41.048718],[29.02429,41.048604],[29.024496,41.048411],[29.024736,41.04816],[29.024877,41.04823],[29.025151,41.047914],[29.025304,41.047733],[29.025403,41.047599],[29.025442,41.047546],[29.02548,41.047478],[29.025526,41.047418],[29.025459,41.047395],[29.025494,41.047339],[29.02551,41.047305],[29.025451,41.047297],[29.025353,41.04728],[29.025292,41.047258],[29.025285,41.047254],[29.025251,41.04726],[29.025189,41.047238],[29.02519,41.047234],[29.025146,41.047232],[29.025134,41.047252],[29.025001,41.047247],[29.024868,41.047242],[29.02469,41.047176],[29.02392,41.046872],[29.023535,41.046694],[29.023522,41.046689],[29.023139,41.046538],[29.02274,41.04638],[29.022353,41.046226],[29.022016,41.046094],[29.021634,41.045943],[29.021345,41.045829],[29.021168,41.045758],[29.021151,41.045781],[29.020931,41.045697],[29.020904,41.045701],[29.020554,41.045555],[29.020346,41.04547],[29.020054,41.045353],[29.019794,41.04525],[29.019661,41.045196],[29.019599,41.045158],[29.019346,41.045017],[29.019274,41.044979],[29.018993,41.04483],[29.018815,41.04473],[29.018708,41.044673],[29.018642,41.044638],[29.018441,41.044535],[29.018477,41.044494],[29.018449,41.044479],[29.018417,41.044489],[29.018395,41.044509],[29.018312,41.044466],[29.018277,41.044448],[29.018123,41.044653],[29.017998,41.044597],[29.018129,41.044393],[29.018229,41.044446],[29.018246,41.044428],[29.018106,41.044355],[29.018047,41.044326],[29.018052,41.044306],[29.018046,41.044294],[29.018043,41.044283],[29.018043,41.044275],[29.018044,41.044267],[29.018054,41.044246],[29.018095,41.044168],[29.018137,41.0441],[29.018152,41.044073],[29.018154,41.044066],[29.018153,41.04406],[29.018149,41.044052],[29.018145,41.044044],[29.018137,41.044038],[29.018109,41.044026],[29.018048,41.044003],[29.017592,41.043855],[29.017406,41.043795],[29.017338,41.043773],[29.01722,41.043735],[29.016942,41.043646],[29.016873,41.043624],[29.016879,41.043616],[29.01686,41.043609],[29.016856,41.043598],[29.016869,41.043576],[29.016859,41.04357],[29.016885,41.043527],[29.016885,41.043518],[29.016882,41.043512],[29.016875,41.043501],[29.01687,41.043494],[29.016862,41.043489],[29.016637,41.043418],[29.016181,41.043269],[29.015977,41.043204],[29.015531,41.043061],[29.015414,41.043023],[29.01511,41.042925],[29.014853,41.042842],[29.014681,41.042787],[29.014431,41.042705],[29.0141,41.042599],[29.013824,41.04251],[29.013581,41.042433],[29.01355,41.042422],[29.013075,41.042281],[29.013,41.042289],[29.012998,41.042267],[29.012949,41.042271],[29.012951,41.042293],[29.01278,41.042309],[29.012764,41.04231],[29.012753,41.042309],[29.012817,41.042198],[29.010985,41.041608],[29.01087,41.041815],[29.01054,41.041721],[29.010544,41.041713],[29.010421,41.041676],[29.010481,41.041496],[29.010618,41.041523],[29.010634,41.041469],[29.01032,41.041376],[29.010079,41.041307],[29.009757,41.041237],[29.009664,41.041223],[29.00934,41.041187],[29.009073,41.041154],[29.009054,41.041212],[29.008921,41.041188],[29.008319,41.041063],[29.008253,41.041261],[29.008211,41.041496],[29.008201,41.041551],[29.008177,41.04208],[29.008159,41.04226],[29.00811,41.042402],[29.007975,41.042689],[29.007766,41.043249],[29.007679,41.043413],[29.007624,41.043563],[29.008226,41.04357],[29.008595,41.04356],[29.008642,41.043626],[29.008698,41.043766],[29.00898,41.044215],[29.009451,41.044812],[29.009732,41.045154],[29.010092,41.045621],[29.010205,41.04593],[29.010329,41.046435],[29.010536,41.047085],[29.010725,41.047812],[29.01077,41.048122],[29.010769,41.048619],[29.010736,41.048708],[29.010621,41.048757],[29.010587,41.04877],[29.010531,41.048807],[29.010521,41.048843],[29.010524,41.04918],[29.010515,41.049513],[29.010504,41.049891],[29.010412,41.049951],[29.010097,41.049987],[29.009862,41.05003],[29.009678,41.050058],[29.009132,41.050063],[29.008793,41.050079],[29.008446,41.050105],[29.008913,41.052364],[29.009195,41.053686],[29.009646,41.055879],[29.010095,41.055879],[29.010394,41.055849],[29.010503,41.055818],[29.010586,41.055786],[29.010651,41.055754],[29.010709,41.055699],[29.010767,41.055635],[29.010821,41.055561],[29.011004,41.05531],[29.011128,41.05517],[29.011256,41.055052],[29.011403,41.054931],[29.011735,41.054683]]]}}]}