{"type":"FeatureCollection","name":"turkiye_map.dist.mahalle_geometrileri_by_district.TR-D-35-024","features":[{"type":"Feature","properties":{"id":"TR-Y-35-024-M-0001","level":"yerlesim","type":"mahalle","parent_id":"TR-D-35-024","province_id":"TR-P-35","district_id":"TR-D-35-024","name":"2. İnönü","source_raw_name":"2. İNÖNÜ","source":"Kullanıcı tarafından sağlanan KML","source_label":"Kullanıcı tarafından sağlanan KML","source_name":"Izmir Mahalle KML - kullanici tarafindan saglandi"},"geometry":{"type":"Polygon","coordinates":[[[26.975953,38.347773],[26.975016,38.348601],[26.973814,38.349665],[26.972715,38.350638],[26.970548,38.352558],[26.970545,38.352559],[26.970546,38.352559],[26.970843,38.352575],[26.971253,38.35262],[26.971777,38.352687],[26.972173,38.352821],[26.972456,38.352866],[26.972753,38.352977],[26.973036,38.353323],[26.973277,38.353635],[26.973574,38.353757],[26.974055,38.353869],[26.974522,38.353992],[26.97472,38.354125],[26.974847,38.354371],[26.974918,38.35456],[26.975045,38.354805],[26.975144,38.35495],[26.975569,38.355084],[26.975811,38.355247],[26.976081,38.355376],[26.976261,38.355415],[26.976409,38.355363],[26.976548,38.355331],[26.976736,38.35537],[26.976941,38.355512],[26.977318,38.355654],[26.977776,38.355808],[26.978112,38.355912],[26.978374,38.355957],[26.978677,38.355944],[26.978931,38.355886],[26.979131,38.355846],[26.979553,38.355718],[26.979858,38.355678],[26.979988,38.355665],[26.980371,38.355746],[26.980498,38.355764],[26.98062,38.355795],[26.980849,38.355836],[26.981031,38.355842],[26.98126,38.355799],[26.981485,38.355718],[26.981702,38.355699],[26.981892,38.355761],[26.982058,38.355827],[26.982326,38.355846],[26.982441,38.355849],[26.98252,38.355895],[26.982694,38.355976],[26.983124,38.356076],[26.983302,38.356113],[26.983606,38.356113],[26.983855,38.356154],[26.984163,38.356163],[26.98438,38.356151],[26.984515,38.356141],[26.984661,38.356141],[26.984835,38.356222],[26.985147,38.356309],[26.985522,38.356316],[26.985826,38.356353],[26.986059,38.3564],[26.986162,38.356443],[26.986276,38.356456],[26.986395,38.356443],[26.986624,38.356323],[26.988688,38.355195],[26.989616,38.354949],[26.98984,38.354879],[26.990024,38.354783],[26.990337,38.354565],[26.990462,38.354487],[26.990554,38.354456],[26.990705,38.35443],[26.990876,38.35442],[26.990988,38.354418],[26.991097,38.354379],[26.991545,38.354138],[26.991765,38.354078],[26.991824,38.354055],[26.99191,38.353982],[26.992088,38.35378],[26.992325,38.353595],[26.992356,38.353573],[26.992561,38.353358],[26.992678,38.353212],[26.992714,38.353193],[26.992788,38.353209],[26.992911,38.353255],[26.993067,38.353312],[26.993137,38.353327],[26.993284,38.353325],[26.993532,38.353275],[26.993613,38.353272],[26.993657,38.353287],[26.993669,38.353312],[26.993591,38.353501],[26.993587,38.353536],[26.993618,38.353622],[26.993681,38.353678],[26.993994,38.353874],[26.99405,38.353899],[26.994362,38.354001],[26.994642,38.354154],[26.994749,38.354191],[26.994796,38.354191],[26.995148,38.354095],[26.995207,38.354079],[26.995251,38.354085],[26.99546,38.354347],[26.995551,38.354446],[26.995642,38.354505],[26.995827,38.354546],[26.996005,38.354558],[26.996143,38.354561],[26.996277,38.35463],[26.997142,38.355047],[26.997316,38.355124],[26.99751,38.355165],[26.997636,38.355168],[26.997735,38.355146],[26.99828,38.354835],[26.998331,38.354723],[26.998343,38.354561],[26.998383,38.354425],[26.998497,38.354241],[26.998588,38.354061],[26.998707,38.353915],[26.998888,38.353806],[26.999173,38.353709],[26.99941,38.353647],[26.999643,38.353544],[26.999789,38.353476],[26.999918,38.353467],[27.000035,38.353539],[27.000133,38.353587],[27.00022,38.353605],[27.000337,38.353598],[27.000435,38.353546],[27.000522,38.353474],[27.000629,38.353319],[27.000836,38.353011],[27.000866,38.352973],[27.000964,38.352763],[27.00108,38.352631],[27.001216,38.352492],[27.001335,38.352412],[27.001431,38.352376],[27.001472,38.352372],[27.001497,38.352376],[27.001552,38.352543],[27.001544,38.352735],[27.001569,38.352807],[27.001592,38.35284],[27.001683,38.352892],[27.001752,38.352922],[27.001834,38.352963],[27.001849,38.352984],[27.001849,38.353011],[27.001839,38.35303],[27.001767,38.353108],[27.001731,38.353155],[27.001698,38.353227],[27.001679,38.353265],[27.00159,38.353387],[27.001578,38.35341],[27.00157,38.353461],[27.001561,38.353545],[27.001573,38.353617],[27.001601,38.353689],[27.001688,38.353788],[27.001746,38.353847],[27.001747,38.353866],[27.00168,38.353936],[27.001607,38.354046],[27.001574,38.354122],[27.001546,38.354284],[27.001525,38.354307],[27.001416,38.354383],[27.00132,38.354459],[27.001283,38.354486],[27.001128,38.354535],[27.00091,38.354634],[27.000744,38.35472],[27.000707,38.354731],[27.00052,38.354715],[27.000453,38.354711],[27.000147,38.354767],[27.000078,38.354796],[27.000049,38.354846],[27.000065,38.355085],[26.999985,38.355602],[26.999974,38.355623],[26.999863,38.355714],[26.999747,38.355859],[26.999717,38.356032],[26.999754,38.356108],[26.999829,38.356164],[26.999994,38.356255],[27.000012,38.356284],[26.999994,38.356358],[26.999953,38.356426],[26.99981,38.356574],[26.999766,38.356614],[26.99968,38.356642],[26.99955,38.356667],[26.999415,38.356709],[26.999309,38.356767],[26.999201,38.356861],[26.99912,38.356972],[26.999072,38.357089],[26.999045,38.357279],[26.999014,38.35732],[26.998795,38.357489],[26.998528,38.357667],[26.998411,38.357809],[26.998368,38.357954],[26.99847,38.358153],[26.999035,38.358472],[26.999178,38.358564],[26.999222,38.358638],[26.999295,38.358839],[26.999384,38.358936],[26.999471,38.359027],[26.999892,38.359253],[27.000051,38.359401],[27.000173,38.359462],[27.000364,38.359445],[27.000554,38.359429],[27.000735,38.359375],[27.000884,38.359268],[27.001014,38.359169],[27.001144,38.359069],[27.001437,38.359023],[27.001638,38.35901],[27.001846,38.359029],[27.002006,38.359093],[27.00202,38.359152],[27.002034,38.359211],[27.001966,38.359283],[27.001355,38.35987],[27.001063,38.360321],[27.000835,38.360817],[27.000751,38.360934],[27.000593,38.361116],[27.000208,38.361513],[27.000109,38.361601],[26.999687,38.361855],[26.999676,38.361892],[26.999691,38.361918],[26.999736,38.361931],[27.00024,38.361894],[27.000723,38.361905],[27.001008,38.361964],[27.001376,38.362092],[27.001516,38.362153],[27.001638,38.362228],[27.001698,38.362267],[27.001746,38.36232],[27.001762,38.362351],[27.001775,38.362406],[27.001814,38.362586],[27.001859,38.362975],[27.00191,38.363103],[27.00205,38.363312],[27.002103,38.363382],[27.002118,38.363457],[27.002106,38.36353],[27.002123,38.363626],[27.00214,38.363723],[27.002196,38.363782],[27.0027,38.363894],[27.002721,38.363912],[27.002721,38.363949],[27.002697,38.363992],[27.00236,38.364388],[27.002375,38.364523],[27.002425,38.364657],[27.002501,38.364828],[27.002547,38.364899],[27.002609,38.36496],[27.002717,38.365039],[27.002845,38.365085],[27.002963,38.365096],[27.003115,38.365073],[27.003202,38.365073],[27.003263,38.36509],[27.003334,38.365149],[27.003344,38.365218],[27.003311,38.365279],[27.002981,38.365664],[27.00296,38.365747],[27.002974,38.365819],[27.003014,38.365924],[27.003161,38.366132],[27.003173,38.366231],[27.003101,38.366648],[27.003112,38.366764],[27.003227,38.366967],[27.003491,38.367556],[27.003745,38.367873],[27.003956,38.368171],[27.004192,38.368242],[27.004423,38.368344],[27.004448,38.368381],[27.004455,38.368414],[27.00445,38.368457],[27.004415,38.368501],[27.00423,38.368649],[27.004047,38.368885],[27.004018,38.368997],[27.004021,38.369091],[27.004023,38.369185],[27.004087,38.369334],[27.004184,38.369475],[27.004431,38.369773],[27.0045,38.369913],[27.004562,38.370089],[27.004617,38.3702],[27.004707,38.370289],[27.004757,38.370343],[27.004763,38.370355],[27.004764,38.370366],[27.004759,38.370378],[27.00469,38.370444],[27.004674,38.37049],[27.004689,38.370529],[27.004722,38.370576],[27.005162,38.370804],[27.005276,38.370859],[27.005361,38.370922],[27.005435,38.37104],[27.005454,38.371154],[27.005533,38.371586],[27.005541,38.371648],[27.005547,38.371735],[27.005539,38.371864],[27.005551,38.371943],[27.005871,38.372391],[27.005892,38.372492],[27.005879,38.372579],[27.005871,38.372702],[27.005831,38.372831],[27.005709,38.37302],[27.005528,38.373165],[27.005412,38.373278],[27.005269,38.373463],[27.005185,38.373621],[27.005166,38.373721],[27.005153,38.373831],[27.005178,38.373939],[27.0053,38.37415],[27.005435,38.37427],[27.005641,38.374363],[27.005894,38.374422],[27.006044,38.374398],[27.006202,38.37435],[27.006454,38.374219],[27.006606,38.374185],[27.006747,38.374245],[27.006818,38.374324],[27.00685,38.374429],[27.006865,38.374543],[27.006812,38.374768],[27.006801,38.374921],[27.006804,38.375071],[27.00674,38.375288],[27.006629,38.37551],[27.006578,38.375651],[27.00657,38.375834],[27.006585,38.375975],[27.006629,38.376065],[27.006707,38.376206],[27.006721,38.376345],[27.006702,38.376506],[27.006629,38.376788],[27.006587,38.377061],[27.006593,38.377442],[27.006601,38.377681],[27.006614,38.377856],[27.006624,38.377931],[27.006674,38.378143],[27.006694,38.378258],[27.006722,38.378597],[27.00676,38.378685],[27.006831,38.378837],[27.006943,38.379091],[27.007049,38.379452],[27.007146,38.379667],[27.007185,38.379748],[27.007243,38.379839],[27.007311,38.379908],[27.00742,38.379998],[27.007562,38.380118],[27.007655,38.380197],[27.007782,38.380251],[27.007841,38.380291],[27.00795,38.380469],[27.008019,38.380659],[27.008082,38.380784],[27.008086,38.380892],[27.008075,38.380975],[27.00807,38.381148],[27.008032,38.381293],[27.007981,38.381376],[27.007921,38.381449],[27.007774,38.381577],[27.007524,38.381864],[27.007492,38.381917],[27.007488,38.381979],[27.007497,38.38213],[27.007528,38.38225],[27.007561,38.382326],[27.007669,38.382471],[27.007901,38.382701],[27.008104,38.382931],[27.00819,38.383009],[27.008378,38.38312],[27.008458,38.383194],[27.008534,38.383348],[27.008619,38.383515],[27.008793,38.383768],[27.008925,38.383992],[27.008953,38.384083],[27.008965,38.384184],[27.00902,38.384568],[27.008994,38.384646],[27.008942,38.384739],[27.008831,38.384878],[27.00856,38.385034],[27.008509,38.385122],[27.008436,38.385342],[27.008403,38.385486],[27.008403,38.385566],[27.008447,38.385649],[27.008542,38.385777],[27.008645,38.385908],[27.008718,38.386053],[27.008798,38.386229],[27.00894,38.386458],[27.009181,38.386842],[27.009239,38.386978],[27.009338,38.387247],[27.009504,38.38746],[27.009841,38.387767],[27.01016,38.388036],[27.01038,38.388389],[27.010685,38.388902],[27.010728,38.389067],[27.010733,38.389086],[27.01076,38.389174],[27.010775,38.389222],[27.010887,38.38933],[27.011106,38.389526],[27.01138,38.389771],[27.01156,38.389945],[27.011811,38.390258],[27.012063,38.390658],[27.012179,38.390777],[27.01223,38.390828],[27.012324,38.390883],[27.012417,38.390939],[27.01252,38.391054],[27.012645,38.391271],[27.012661,38.391381],[27.012659,38.391497],[27.012658,38.391534],[27.012684,38.391704],[27.01271,38.391789],[27.012729,38.391825],[27.012781,38.39192],[27.012812,38.391961],[27.012964,38.392156],[27.012993,38.392192],[27.013039,38.392249],[27.013767,38.392469],[27.01368,38.392043],[27.013655,38.391818],[27.013758,38.391528],[27.01393,38.391525],[27.014093,38.391554],[27.014236,38.391575],[27.014426,38.391559],[27.014617,38.391546],[27.014911,38.391546],[27.015137,38.391534],[27.015251,38.391515],[27.015498,38.391329],[27.015736,38.391023],[27.015944,38.390584],[27.016079,38.390946],[27.016334,38.391547],[27.01641,38.391747],[27.016724,38.39163],[27.017092,38.391498],[27.015977,38.389842],[27.015606,38.389551],[27.015372,38.389351],[27.01531,38.389263],[27.015266,38.389127],[27.015102,38.388993],[27.015024,38.38874],[27.014925,38.388635],[27.014867,38.388582],[27.014762,38.388544],[27.014697,38.38839],[27.014788,38.388228],[27.01484,38.388056],[27.014964,38.387699],[27.015083,38.387652],[27.01519,38.387606],[27.015338,38.387594],[27.015449,38.387542],[27.015521,38.387503],[27.015536,38.387486],[27.015551,38.387455],[27.015623,38.387261],[27.015677,38.38708],[27.015719,38.386927],[27.015777,38.386754],[27.015777,38.386742],[27.015726,38.386603],[27.015707,38.386578],[27.015525,38.386375],[27.015492,38.386223],[27.015505,38.386073],[27.015479,38.385802],[27.015472,38.385635],[27.015496,38.385454],[27.015902,38.38403],[27.015957,38.383791],[27.015985,38.383423],[27.016778,38.382477],[27.016808,38.382422],[27.019506,38.377401],[27.018886,38.377076],[27.018405,38.376555],[27.018296,38.376426],[27.018204,38.376249],[27.017941,38.375832],[27.017701,38.375373],[27.017616,38.375091],[27.017593,38.37493],[27.017593,38.374665],[27.017684,38.374007],[27.017712,38.373899],[27.018292,38.373071],[27.018781,38.372269],[27.018759,38.372175],[27.018571,38.371835],[27.018457,38.371396],[27.01844,38.371176],[27.018434,38.370531],[27.018371,38.370227],[27.018229,38.369824],[27.018132,38.369519],[27.01799,38.369121],[27.017933,38.368826],[27.017917,38.368632],[27.017919,38.368457],[27.01795,38.368414],[27.018003,38.368397],[27.018099,38.368395],[27.018183,38.368404],[27.018723,38.368543],[27.018801,38.368553],[27.019018,38.368635],[27.019378,38.368765],[27.019458,38.368786],[27.019733,38.368813],[27.019787,38.368809],[27.020105,38.368723],[27.020162,38.368711],[27.020191,38.368714],[27.020214,38.368731],[27.020269,38.368935],[27.020329,38.369094],[27.020432,38.36926],[27.020568,38.369448],[27.021032,38.369945],[27.021262,38.370227],[27.021423,38.370351],[27.021562,38.370432],[27.021698,38.370483],[27.022232,38.370578],[27.022293,38.370593],[27.022326,38.370605],[27.022359,38.370617],[27.023141,38.371062],[27.023176,38.371079],[27.02327,38.371103],[27.023423,38.371138],[27.023551,38.371154],[27.023593,38.371164],[27.023633,38.371181],[27.02374,38.371256],[27.023978,38.37144],[27.024054,38.371526],[27.024264,38.371775],[27.024586,38.372084],[27.024918,38.372364],[27.025186,38.372563],[27.025359,38.37266],[27.025425,38.37268],[27.02548,38.372689],[27.025542,38.372684],[27.025589,38.372663],[27.025624,38.372625],[27.025678,38.372555],[27.024517,38.370327],[27.024032,38.369869],[27.023055,38.368676],[27.022829,38.366588],[27.022351,38.365473],[27.021677,38.365109],[27.021268,38.364821],[27.020655,38.364176],[27.020579,38.364144],[27.020094,38.364092],[27.019517,38.363998],[27.018438,38.363696],[27.017198,38.363229],[27.016979,38.363114],[27.016257,38.362373],[27.015713,38.361704],[27.015097,38.360785],[27.014725,38.360028],[27.015023,38.359397],[27.014867,38.358784],[27.014782,38.356927],[27.015584,38.356086],[27.015593,38.355593],[27.015518,38.355262],[27.015457,38.354949],[27.01529,38.354732],[27.014883,38.354256],[27.014888,38.353877],[27.014949,38.353516],[27.014866,38.353209],[27.014183,38.352375],[27.013509,38.351807],[27.012988,38.351163],[27.012542,38.350959],[27.012061,38.350808],[27.011828,38.350646],[27.01156,38.350447],[27.011271,38.350248],[27.011053,38.35003],[27.010851,38.349777],[27.010772,38.349592],[27.010782,38.349492],[27.010802,38.349347],[27.010802,38.349295],[27.010787,38.349251],[27.010673,38.349143],[27.010468,38.348982],[27.010321,38.348888],[27.010162,38.3488],[27.009969,38.348671],[27.009714,38.348411],[27.009324,38.347951],[27.009263,38.347756],[27.009336,38.347259],[27.009397,38.346776],[27.009369,38.346493],[27.009093,38.345542],[27.0091,38.345411],[27.009169,38.345201],[27.009321,38.34501],[27.009576,38.34482],[27.010129,38.344518],[27.010162,38.344492],[27.010161,38.344473],[27.010056,38.344378],[27.009767,38.344275],[27.009452,38.344262],[27.009258,38.34425],[27.008891,38.344048],[27.008444,38.343754],[27.008234,38.343465],[27.007888,38.343101],[27.007694,38.342977],[27.007447,38.342886],[27.007184,38.342865],[27.006936,38.342786],[27.006672,38.342619],[27.006354,38.342363],[27.006014,38.342131],[27.005751,38.341806],[27.005757,38.341638],[27.005772,38.341477],[27.005732,38.341349],[27.005548,38.341307],[27.00532,38.341209],[27.005031,38.341048],[27.004831,38.340969],[27.004597,38.340904],[27.004386,38.34087],[27.004225,38.340837],[27.004019,38.340743],[27.003957,38.340683],[27.003928,38.340626],[27.003951,38.340568],[27.00401,38.340525],[27.004118,38.340505],[27.00431,38.340495],[27.004377,38.340493],[27.004451,38.340462],[27.004679,38.340349],[27.004966,38.340204],[27.005036,38.340156],[27.005071,38.340089],[27.005078,38.340001],[27.004993,38.339706],[27.005063,38.339486],[27.005124,38.339103],[27.005255,38.338752],[27.005388,38.338433],[27.005413,38.338302],[27.005367,38.33817],[27.005305,38.338071],[27.005156,38.337906],[27.004552,38.337399],[27.004379,38.337077],[27.004234,38.336776],[27.004132,38.336456],[27.00413,38.335962],[27.004061,38.335673],[27.003687,38.335497],[27.003386,38.335402],[27.003236,38.335301],[27.003122,38.335165],[27.002999,38.334899],[27.002959,38.334781],[27.002907,38.334731],[27.002829,38.334674],[27.002506,38.334646],[27.002257,38.33456],[27.002175,38.33444],[27.002161,38.334302],[27.001542,38.334733],[27.001197,38.335024],[27.000646,38.334943],[27.000295,38.33511],[26.999944,38.335015],[26.999139,38.33501],[26.998431,38.336545],[26.998273,38.336626],[26.997668,38.336678],[26.997184,38.336774],[26.996857,38.336898],[26.995538,38.337269],[26.996064,38.337808],[26.992868,38.339005],[26.985074,38.339696],[26.975953,38.347773]]]}},{"type":"Feature","properties":{"id":"TR-Y-35-024-M-0002","level":"yerlesim","type":"mahalle","parent_id":"TR-D-35-024","province_id":"TR-P-35","district_id":"TR-D-35-024","name":"Altıevler","source_raw_name":"ALTIEVLER","source":"Kullanıcı tarafından sağlanan KML","source_label":"Kullanıcı tarafından sağlanan KML","source_name":"Izmir Mahalle KML - kullanici tarafindan saglandi"},"geometry":{"type":"Polygon","coordinates":[[[26.995272,38.406464],[26.996829,38.406626],[26.996884,38.406926],[26.997011,38.407079],[26.998441,38.407923],[26.998538,38.407918],[26.998538,38.407856],[26.997041,38.406941],[26.997047,38.40666],[26.997829,38.406593],[26.998374,38.406769],[26.998865,38.407155],[26.998489,38.407451],[26.998635,38.407532],[26.998816,38.407422],[26.999053,38.407689],[26.99921,38.407541],[26.999707,38.407708],[27.000537,38.408099],[27.000931,38.408233],[27.003244,38.408692],[27.003789,38.408954],[27.003849,38.408956],[27.003891,38.408931],[27.003964,38.408922],[27.004017,38.408929],[27.004019,38.40893],[27.004131,38.408376],[27.004193,38.407995],[27.004261,38.407815],[27.004311,38.407425],[27.004438,38.40697],[27.004497,38.406612],[27.004553,38.40636],[27.004615,38.406052],[27.004681,38.405604],[27.0047,38.40526],[27.004756,38.404979],[27.004811,38.404541],[27.004231,38.404043],[27.004036,38.403771],[27.003723,38.403546],[27.00356,38.403366],[27.003349,38.40317],[27.003201,38.402945],[27.002269,38.401891],[27.002145,38.401067],[27.002266,38.400722],[27.002785,38.400206],[27.003059,38.399752],[27.003205,38.399298],[27.003487,38.398879],[27.003536,38.398597],[27.003867,38.397759],[27.00324,38.397788],[27.002997,38.397796],[27.002261,38.397818],[27.001122,38.397829],[27.00063,38.397823],[27.000475,38.397821],[26.999543,38.39779],[26.998462,38.397722],[26.99716,38.397618],[26.996907,38.397588],[26.995545,38.397429],[26.994886,38.397349],[26.993591,38.397192],[26.993264,38.397152],[26.991717,38.396934],[26.987017,38.396352],[26.985634,38.396189],[26.984451,38.396085],[26.981527,38.395845],[26.981504,38.396075],[26.980716,38.396085],[26.980024,38.396048],[26.979764,38.396034],[26.976918,38.395704],[26.976837,38.396263],[26.976891,38.39646],[26.977026,38.396654],[26.977207,38.396776],[26.97738,38.396838],[26.978069,38.396927],[26.979263,38.397069],[26.97934,38.397022],[26.979325,38.396944],[26.979279,38.396884],[26.979185,38.396859],[26.978139,38.396738],[26.978172,38.396556],[26.977606,38.396491],[26.977657,38.396232],[26.97887,38.396374],[26.979035,38.39639],[26.979329,38.396425],[26.979339,38.39637],[26.979502,38.396389],[26.979491,38.396444],[26.979884,38.396489],[26.979869,38.396623],[26.979626,38.396592],[26.979624,38.396651],[26.979666,38.396699],[26.979726,38.396734],[26.979799,38.396739],[26.979857,38.396728],[26.979863,38.396747],[26.980219,38.396696],[26.980237,38.396722],[26.98025,38.396725],[26.980256,38.39679],[26.980281,38.396792],[26.980284,38.396716],[26.98031,38.396716],[26.980363,38.396503],[26.980677,38.396499],[26.981832,38.397122],[26.984236,38.398251],[26.984502,38.398443],[26.98532,38.398715],[26.98561,38.398901],[26.986077,38.399196],[26.986759,38.39964],[26.988767,38.400741],[26.989911,38.401642],[26.990893,38.402679],[26.991721,38.403827],[26.991714,38.403892],[26.99174,38.404003],[26.992429,38.403925],[26.992437,38.403976],[26.992551,38.403991],[26.9926,38.404357],[26.992994,38.40433],[26.993488,38.404813],[26.993332,38.404918],[26.99348,38.405038],[26.99351,38.405017],[26.993385,38.404916],[26.993518,38.404835],[26.993684,38.40482],[26.994101,38.405107],[26.99437,38.405315],[26.994309,38.405372],[26.994902,38.406283],[26.995072,38.406397],[26.995272,38.406464]]]}},{"type":"Feature","properties":{"id":"TR-Y-35-024-M-0003","level":"yerlesim","type":"mahalle","parent_id":"TR-D-35-024","province_id":"TR-P-35","district_id":"TR-D-35-024","name":"Atatürk","source_raw_name":"ATATÜRK","source":"Kullanıcı tarafından sağlanan KML","source_label":"Kullanıcı tarafından sağlanan KML","source_name":"Izmir Mahalle KML - kullanici tarafindan saglandi"},"geometry":{"type":"Polygon","coordinates":[[[27.020655,38.39157],[27.020783,38.391477],[27.020592,38.391373],[27.020446,38.391162],[27.020324,38.391001],[27.020178,38.390758],[27.020019,38.390613],[27.019945,38.390556],[27.019939,38.390349],[27.019961,38.390348],[27.020191,38.390285],[27.020323,38.390272],[27.020572,38.390294],[27.020743,38.390292],[27.020842,38.390293],[27.021076,38.390274],[27.021191,38.390236],[27.021192,38.390236],[27.021311,38.390067],[27.021182,38.390039],[27.021047,38.38997],[27.020919,38.389896],[27.020889,38.389879],[27.020702,38.389817],[27.020602,38.389763],[27.020522,38.389732],[27.020399,38.389708],[27.020368,38.38969],[27.020359,38.389672],[27.020362,38.389658],[27.020392,38.389644],[27.020551,38.389614],[27.021134,38.389594],[27.021143,38.389588],[27.02115,38.389576],[27.02115,38.38957],[27.021043,38.389518],[27.020714,38.389339],[27.020711,38.389324],[27.020697,38.3891],[27.020669,38.388842],[27.020617,38.388766],[27.020494,38.388688],[27.020361,38.388568],[27.020285,38.388456],[27.020231,38.388376],[27.020197,38.388351],[27.020107,38.388303],[27.020094,38.388287],[27.020045,38.388059],[27.020054,38.388006],[27.020087,38.387984],[27.020123,38.387964],[27.020381,38.387943],[27.020882,38.3875],[27.021506,38.387444],[27.022157,38.387451],[27.022369,38.38548],[27.022207,38.385434],[27.021586,38.383783],[27.021558,38.383512],[27.020135,38.382872],[27.016808,38.382422],[27.016778,38.382477],[27.015985,38.383423],[27.015957,38.383791],[27.015902,38.38403],[27.015496,38.385454],[27.015472,38.385635],[27.015479,38.385802],[27.015505,38.386073],[27.015492,38.386223],[27.015525,38.386375],[27.015707,38.386578],[27.015726,38.386603],[27.015777,38.386742],[27.015777,38.386754],[27.015719,38.386927],[27.015677,38.38708],[27.015623,38.387261],[27.015551,38.387455],[27.015536,38.387486],[27.015521,38.387503],[27.015449,38.387542],[27.015338,38.387594],[27.01519,38.387606],[27.015083,38.387652],[27.014964,38.387699],[27.01484,38.388056],[27.014788,38.388228],[27.014697,38.38839],[27.014762,38.388544],[27.014867,38.388582],[27.014925,38.388635],[27.015024,38.38874],[27.015102,38.388993],[27.015266,38.389127],[27.01531,38.389263],[27.015372,38.389351],[27.015606,38.389551],[27.015977,38.389842],[27.017092,38.391498],[27.017491,38.392035],[27.017638,38.392021],[27.017808,38.392356],[27.017831,38.392401],[27.018191,38.392572],[27.018518,38.392748],[27.018709,38.392869],[27.018769,38.3929],[27.018879,38.392392],[27.018909,38.392375],[27.018977,38.392347],[27.019191,38.391946],[27.019347,38.391967],[27.019455,38.391955],[27.019658,38.391918],[27.019838,38.391861],[27.020192,38.391779],[27.020437,38.391696],[27.020655,38.39157]]]}},{"type":"Feature","properties":{"id":"TR-Y-35-024-M-0004","level":"yerlesim","type":"mahalle","parent_id":"TR-D-35-024","province_id":"TR-P-35","district_id":"TR-D-35-024","name":"Çamtepe","source_raw_name":"ÇAMTEPE","source":"Kullanıcı tarafından sağlanan KML","source_label":"Kullanıcı tarafından sağlanan KML","source_name":"Izmir Mahalle KML - kullanici tarafindan saglandi"},"geometry":{"type":"Polygon","coordinates":[[[27.010685,38.388902],[27.01038,38.388389],[27.01016,38.388036],[27.009841,38.387767],[27.009504,38.38746],[27.009338,38.387247],[27.009239,38.386978],[27.009181,38.386842],[27.00894,38.386458],[27.008798,38.386229],[27.008718,38.386053],[27.008645,38.385908],[27.008542,38.385777],[27.008447,38.385649],[27.008403,38.385566],[27.008403,38.385486],[27.008436,38.385342],[27.008509,38.385122],[27.00856,38.385034],[27.008269,38.385169],[27.008137,38.385288],[27.008113,38.385348],[27.008117,38.385432],[27.008162,38.385574],[27.008272,38.385683],[27.008311,38.385795],[27.008294,38.386036],[27.008362,38.386311],[27.008524,38.386624],[27.008731,38.386863],[27.008821,38.387026],[27.008808,38.387484],[27.008812,38.387619],[27.00877,38.387832],[27.008644,38.388047],[27.008513,38.388315],[27.008505,38.388534],[27.008661,38.389081],[27.00869,38.38929],[27.008682,38.389396],[27.008605,38.389513],[27.008569,38.389694],[27.008579,38.390169],[27.008454,38.390733],[27.008431,38.390838],[27.008331,38.391042],[27.008129,38.391456],[27.007816,38.392153],[27.007474,38.392442],[27.007203,38.392672],[27.007122,38.392795],[27.007058,38.39315],[27.007139,38.393469],[27.007156,38.393729],[27.007146,38.393777],[27.0071,38.393837],[27.0071,38.393837],[27.007057,38.393893],[27.006902,38.394074],[27.006694,38.394381],[27.007128,38.39436],[27.007454,38.394343],[27.008067,38.394313],[27.00814,38.394309],[27.008446,38.394293],[27.009063,38.394263],[27.009444,38.394243],[27.009928,38.394219],[27.010336,38.394199],[27.010633,38.394184],[27.011555,38.394137],[27.012066,38.394112],[27.012262,38.394101],[27.013052,38.394057],[27.01392,38.394008],[27.014221,38.393991],[27.014934,38.393951],[27.015698,38.393896],[27.015889,38.393883],[27.016967,38.393805],[27.017167,38.393791],[27.0172,38.393786],[27.01787,38.393719],[27.018396,38.393657],[27.018279,38.393387],[27.018092,38.392954],[27.01785,38.392437],[27.017831,38.392401],[27.017808,38.392356],[27.017638,38.392021],[27.017491,38.392035],[27.017092,38.391498],[27.016724,38.39163],[27.01641,38.391747],[27.016334,38.391547],[27.016079,38.390946],[27.015944,38.390584],[27.015736,38.391023],[27.015498,38.391329],[27.015251,38.391515],[27.015137,38.391534],[27.014911,38.391546],[27.014617,38.391546],[27.014426,38.391559],[27.014236,38.391575],[27.014093,38.391554],[27.01393,38.391525],[27.013758,38.391528],[27.013655,38.391818],[27.01368,38.392043],[27.013767,38.392469],[27.013039,38.392249],[27.012993,38.392192],[27.012964,38.392156],[27.012812,38.391961],[27.012781,38.39192],[27.012729,38.391825],[27.01271,38.391789],[27.012684,38.391704],[27.012658,38.391534],[27.012659,38.391497],[27.012661,38.391381],[27.012645,38.391271],[27.01252,38.391054],[27.012417,38.390939],[27.012324,38.390883],[27.01223,38.390828],[27.012179,38.390777],[27.012063,38.390658],[27.011811,38.390258],[27.01156,38.389945],[27.01138,38.389771],[27.011106,38.389526],[27.010887,38.38933],[27.010775,38.389222],[27.01076,38.389174],[27.010733,38.389086],[27.010728,38.389067],[27.010685,38.388902]]]}},{"type":"Feature","properties":{"id":"TR-Y-35-024-M-0005","level":"yerlesim","type":"mahalle","parent_id":"TR-D-35-024","province_id":"TR-P-35","district_id":"TR-D-35-024","name":"Çatalkaya","source_raw_name":"ÇATALKAYA","source":"Kullanıcı tarafından sağlanan KML","source_label":"Kullanıcı tarafından sağlanan KML","source_name":"Izmir Mahalle KML - kullanici tarafindan saglandi"},"geometry":{"type":"Polygon","coordinates":[[[27.001807,38.388954],[27.00178,38.388951],[27.00139,38.388914],[27.001263,38.388895],[27.00109,38.388828],[27.000948,38.38876],[27.000709,38.388675],[27.000655,38.388652],[27.00056,38.38855],[27.000487,38.388367],[27.00042,38.388285],[27.000277,38.388193],[27.000086,38.387954],[27.000051,38.387832],[27.000025,38.387614],[26.999925,38.387386],[26.999893,38.386862],[27.000281,38.386301],[26.999857,38.385034],[26.999814,38.385047],[26.999782,38.385061],[26.999749,38.385091],[26.999711,38.385156],[26.99967,38.385262],[26.999642,38.385326],[26.999591,38.385417],[26.99953,38.385463],[26.999459,38.38548],[26.999401,38.385479],[26.999346,38.38547],[26.999285,38.385442],[26.99916,38.385368],[26.999088,38.385348],[26.999022,38.385339],[26.998963,38.385341],[26.998907,38.385358],[26.998839,38.385399],[26.99875,38.385461],[26.998668,38.385545],[26.998576,38.385636],[26.998498,38.385739],[26.998448,38.385853],[26.998419,38.385976],[26.99838,38.386163],[26.998356,38.386349],[26.998358,38.38657],[26.998356,38.386966],[26.998334,38.387034],[26.998283,38.387093],[26.998218,38.387138],[26.998159,38.387163],[26.998007,38.3872],[26.9978,38.387246],[26.997554,38.38733],[26.997473,38.38737],[26.997423,38.387436],[26.997396,38.387495],[26.997349,38.387732],[26.997309,38.387844],[26.997282,38.387884],[26.997235,38.387921],[26.996911,38.388091],[26.996832,38.388126],[26.99677,38.388139],[26.996515,38.388141],[26.996477,38.388145],[26.996438,38.388172],[26.99642,38.388213],[26.99642,38.38831],[26.996445,38.388371],[26.996484,38.388425],[26.996534,38.388483],[26.996593,38.388516],[26.996648,38.388526],[26.996735,38.388515],[26.997042,38.388367],[26.997126,38.388355],[26.997212,38.388366],[26.99728,38.388387],[26.997342,38.388411],[26.997406,38.388453],[26.997503,38.388523],[26.997641,38.388633],[26.997768,38.388705],[26.997839,38.388736],[26.997893,38.388747],[26.99795,38.388747],[26.998018,38.38874],[26.99807,38.388723],[26.998364,38.388566],[26.998428,38.388549],[26.998471,38.388569],[26.998482,38.388606],[26.998456,38.388641],[26.998028,38.388909],[26.998013,38.388939],[26.998022,38.388974],[26.998068,38.388991],[26.998144,38.388992],[26.998479,38.388867],[26.998615,38.388797],[26.99877,38.38867],[26.998825,38.388621],[26.998902,38.388601],[26.998951,38.388616],[26.998971,38.388644],[26.998969,38.388681],[26.99887,38.388785],[26.998682,38.388976],[26.998591,38.389083],[26.998516,38.389174],[26.998483,38.389208],[26.998414,38.389258],[26.998382,38.389283],[26.999128,38.390893],[26.999071,38.39091],[26.99883,38.39102],[26.998826,38.391024],[26.998744,38.39111],[26.998546,38.391407],[26.99842,38.391639],[26.998209,38.392032],[26.998064,38.392191],[26.997805,38.392312],[26.997435,38.392391],[26.997079,38.392583],[26.996964,38.392703],[26.996844,38.392933],[26.996836,38.393154],[26.996896,38.393321],[26.996948,38.393464],[26.997115,38.393943],[26.997193,38.394214],[26.997235,38.394364],[26.997305,38.39471],[26.997313,38.394842],[26.997324,38.395021],[26.997329,38.395096],[26.997245,38.395532],[26.997197,38.395783],[26.99701,38.39622],[26.997031,38.396519],[26.996989,38.397061],[26.996947,38.397331],[26.996942,38.397365],[26.996907,38.397588],[26.99716,38.397618],[26.998462,38.397722],[26.999543,38.39779],[27.000475,38.397821],[27.00063,38.397823],[27.001106,38.395371],[27.001206,38.395345],[27.001274,38.395326],[27.001736,38.395196],[27.001752,38.395009],[27.001858,38.394706],[27.001949,38.394555],[27.002109,38.39431],[27.002222,38.394122],[27.002269,38.393959],[27.002375,38.393762],[27.002545,38.393505],[27.002683,38.393274],[27.002717,38.393186],[27.002745,38.393113],[27.002864,38.392785],[27.002988,38.392619],[27.00322,38.392011],[27.003202,38.391584],[27.003192,38.39149],[27.00322,38.391435],[27.003267,38.391412],[27.003519,38.39125],[27.003751,38.390813],[27.003506,38.390139],[27.003083,38.389895],[27.002724,38.389739],[27.002391,38.389727],[27.002086,38.389304],[27.001854,38.388968],[27.001807,38.388954]]]}},{"type":"Feature","properties":{"id":"TR-Y-35-024-M-0006","level":"yerlesim","type":"mahalle","parent_id":"TR-D-35-024","province_id":"TR-P-35","district_id":"TR-D-35-024","name":"Huzur","source_raw_name":"HUZUR","source":"Kullanıcı tarafından sağlanan KML","source_label":"Kullanıcı tarafından sağlanan KML","source_name":"Izmir Mahalle KML - kullanici tarafindan saglandi"},"geometry":{"type":"Polygon","coordinates":[[[26.949427,38.381417],[26.949231,38.381904],[26.949203,38.382028],[26.949199,38.382161],[26.949093,38.382682],[26.948944,38.383012],[26.948603,38.383841],[26.947709,38.384697],[26.947081,38.384688],[26.946818,38.384642],[26.946494,38.384687],[26.945726,38.384737],[26.945397,38.384834],[26.945012,38.384999],[26.944848,38.385107],[26.945417,38.386259],[26.945945,38.387322],[26.94776,38.388258],[26.948905,38.388755],[26.951739,38.389848],[26.953419,38.390494],[26.954498,38.390899],[26.955901,38.391328],[26.960576,38.392436],[26.967884,38.394196],[26.969777,38.394599],[26.971675,38.394959],[26.975425,38.395537],[26.976918,38.395704],[26.979764,38.396034],[26.980024,38.396048],[26.980716,38.396085],[26.981504,38.396075],[26.981527,38.395845],[26.984451,38.396085],[26.985634,38.396189],[26.987017,38.396352],[26.991717,38.396934],[26.993264,38.397152],[26.993591,38.397192],[26.994886,38.397349],[26.995545,38.397429],[26.996907,38.397588],[26.996942,38.397365],[26.996947,38.397331],[26.996989,38.397061],[26.997031,38.396519],[26.99701,38.39622],[26.997197,38.395783],[26.997245,38.395532],[26.997329,38.395096],[26.997324,38.395021],[26.997313,38.394842],[26.997305,38.39471],[26.997235,38.394364],[26.997193,38.394214],[26.997115,38.393943],[26.996948,38.393464],[26.996896,38.393321],[26.996836,38.393154],[26.996844,38.392933],[26.996964,38.392703],[26.997079,38.392583],[26.997435,38.392391],[26.997805,38.392312],[26.998064,38.392191],[26.998209,38.392032],[26.99842,38.391639],[26.998546,38.391407],[26.998744,38.39111],[26.998826,38.391024],[26.99883,38.39102],[26.999071,38.39091],[26.999128,38.390893],[26.998382,38.389283],[26.998414,38.389258],[26.998483,38.389208],[26.998516,38.389174],[26.998591,38.389083],[26.998682,38.388976],[26.99887,38.388785],[26.998969,38.388681],[26.998971,38.388644],[26.998951,38.388616],[26.998902,38.388601],[26.998825,38.388621],[26.99877,38.38867],[26.998615,38.388797],[26.998479,38.388867],[26.998144,38.388992],[26.998068,38.388991],[26.998022,38.388974],[26.998013,38.388939],[26.998028,38.388909],[26.998456,38.388641],[26.998482,38.388606],[26.998471,38.388569],[26.998428,38.388549],[26.998364,38.388566],[26.99807,38.388723],[26.998018,38.38874],[26.99795,38.388747],[26.997893,38.388747],[26.997839,38.388736],[26.997768,38.388705],[26.997641,38.388633],[26.997503,38.388523],[26.997406,38.388453],[26.997342,38.388411],[26.99728,38.388387],[26.997212,38.388366],[26.997126,38.388355],[26.997042,38.388367],[26.996735,38.388515],[26.996648,38.388526],[26.996593,38.388516],[26.996534,38.388483],[26.996484,38.388425],[26.996445,38.388371],[26.99642,38.38831],[26.99642,38.388213],[26.996438,38.388172],[26.996477,38.388145],[26.996515,38.388141],[26.99677,38.388139],[26.996832,38.388126],[26.996911,38.388091],[26.997235,38.387921],[26.997282,38.387884],[26.997309,38.387844],[26.997349,38.387732],[26.997396,38.387495],[26.997423,38.387436],[26.997473,38.38737],[26.997554,38.38733],[26.9978,38.387246],[26.998007,38.3872],[26.998159,38.387163],[26.998218,38.387138],[26.998283,38.387093],[26.998334,38.387034],[26.998356,38.386966],[26.998358,38.38657],[26.998356,38.386349],[26.99838,38.386163],[26.998419,38.385976],[26.998448,38.385853],[26.998498,38.385739],[26.998576,38.385636],[26.998668,38.385545],[26.99875,38.385461],[26.998839,38.385399],[26.998907,38.385358],[26.998963,38.385341],[26.999022,38.385339],[26.999088,38.385348],[26.99916,38.385368],[26.999285,38.385442],[26.999346,38.38547],[26.999401,38.385479],[26.999459,38.38548],[26.99953,38.385463],[26.999591,38.385417],[26.999642,38.385326],[26.99967,38.385262],[26.999711,38.385156],[26.999749,38.385091],[26.999782,38.385061],[26.999814,38.385047],[26.999857,38.385034],[26.999896,38.385033],[26.999935,38.385046],[26.999992,38.385075],[27.000048,38.385114],[27.000179,38.385259],[27.000204,38.385281],[27.000256,38.385318],[27.000332,38.385359],[27.000419,38.385399],[27.000533,38.385443],[27.000639,38.38549],[27.000741,38.385523],[27.000847,38.385543],[27.00097,38.385548],[27.001056,38.385545],[27.001137,38.38553],[27.001278,38.385499],[27.001453,38.385452],[27.001566,38.38541],[27.001668,38.385355],[27.001763,38.385295],[27.001819,38.385252],[27.001899,38.385185],[27.001973,38.385119],[27.00203,38.385079],[27.002054,38.385063],[27.002109,38.385031],[27.002192,38.384988],[27.002275,38.384954],[27.002346,38.384928],[27.002428,38.384892],[27.002513,38.384849],[27.002573,38.384808],[27.002624,38.384765],[27.002668,38.384719],[27.002708,38.384674],[27.002752,38.384636],[27.002796,38.384603],[27.002843,38.384575],[27.002923,38.384529],[27.003016,38.384484],[27.003091,38.384459],[27.003209,38.384427],[27.003309,38.384402],[27.0034,38.384388],[27.003525,38.38437],[27.003628,38.384362],[27.003724,38.384361],[27.00382,38.384361],[27.004052,38.384356],[27.004117,38.384347],[27.004172,38.384335],[27.004232,38.384315],[27.004291,38.38428],[27.004347,38.384231],[27.00436,38.384204],[27.004366,38.384173],[27.004358,38.384152],[27.004336,38.384134],[27.004307,38.384114],[27.004259,38.384106],[27.00421,38.384111],[27.00416,38.38412],[27.004109,38.384133],[27.004068,38.384138],[27.004019,38.384143],[27.00397,38.384144],[27.003906,38.38414],[27.003732,38.384117],[27.00359,38.384105],[27.003509,38.384106],[27.003432,38.38411],[27.003337,38.384123],[27.002798,38.384152],[27.002641,38.384158],[27.002484,38.384146],[27.002357,38.384124],[27.002239,38.384095],[27.002156,38.384086],[27.002037,38.384088],[27.001918,38.384098],[27.001299,38.384155],[27.001253,38.384154],[27.001192,38.38414],[27.000779,38.383943],[27.000751,38.383909],[27.000742,38.38387],[27.000754,38.383844],[27.000778,38.383825],[27.000809,38.383811],[27.000845,38.383811],[27.001062,38.383825],[27.001153,38.383824],[27.001234,38.383815],[27.001286,38.383805],[27.00141,38.38378],[27.001552,38.383746],[27.001609,38.383723],[27.001642,38.383698],[27.001665,38.383675],[27.001666,38.383655],[27.001658,38.383629],[27.001648,38.383617],[27.001622,38.383603],[27.001566,38.383585],[27.001488,38.383571],[27.001358,38.383571],[27.001252,38.383578],[27.001207,38.383575],[27.000923,38.383533],[27.000902,38.383531],[27.000756,38.383492],[27.000669,38.383461],[27.000649,38.383444],[27.000645,38.383433],[27.000644,38.383416],[27.000648,38.3834],[27.00066,38.383384],[27.000677,38.383369],[27.000696,38.38336],[27.000725,38.383355],[27.000767,38.383351],[27.001429,38.383309],[27.001997,38.383304],[27.002216,38.383319],[27.002321,38.38332],[27.002377,38.383312],[27.002429,38.38329],[27.002462,38.383262],[27.00248,38.383223],[27.00248,38.383185],[27.002474,38.383145],[27.002455,38.383115],[27.002419,38.383088],[27.002359,38.38306],[27.002288,38.383045],[27.002212,38.38304],[27.001973,38.383028],[27.001658,38.382984],[27.001453,38.382937],[27.001213,38.382854],[27.000862,38.382703],[27.000646,38.382562],[27.000568,38.382515],[27.000483,38.382482],[27.000306,38.38245],[27.000152,38.382444],[26.999984,38.382457],[26.999724,38.382451],[26.999464,38.382373],[26.999273,38.382249],[26.999141,38.382158],[26.999053,38.382123],[26.999037,38.382124],[26.998998,38.382125],[26.998883,38.382164],[26.998743,38.382217],[26.998682,38.382221],[26.998599,38.382223],[26.998457,38.382214],[26.998367,38.382194],[26.99834,38.382188],[26.998242,38.382146],[26.99817,38.382095],[26.99811,38.38206],[26.998074,38.382013],[26.998049,38.38196],[26.998049,38.381914],[26.998062,38.381879],[26.998095,38.381855],[26.998152,38.381835],[26.998216,38.381824],[26.998423,38.381811],[26.998513,38.381796],[26.998848,38.381708],[26.999126,38.381607],[26.999393,38.381497],[26.999552,38.381414],[26.999659,38.381369],[26.999697,38.381343],[26.999705,38.381303],[26.999693,38.381285],[26.999654,38.381274],[26.999548,38.381265],[26.999407,38.381267],[26.999179,38.381285],[26.999028,38.381288],[26.998922,38.381282],[26.998736,38.381256],[26.998484,38.381237],[26.998365,38.381223],[26.998244,38.381192],[26.998171,38.38116],[26.997991,38.381093],[26.997766,38.380977],[26.997596,38.380915],[26.997429,38.380847],[26.997295,38.380805],[26.996957,38.38078],[26.996813,38.380767],[26.996742,38.380754],[26.996601,38.380717],[26.996559,38.380697],[26.996495,38.38066],[26.996436,38.380616],[26.996409,38.380583],[26.996383,38.380533],[26.996347,38.380347],[26.996351,38.380337],[26.996362,38.380333],[26.996377,38.380336],[26.99639,38.380343],[26.996509,38.380437],[26.996558,38.380461],[26.996615,38.380478],[26.996701,38.380487],[26.996782,38.380482],[26.997004,38.380475],[26.997139,38.380477],[26.997272,38.380488],[26.997423,38.380534],[26.997561,38.380549],[26.997664,38.380543],[26.997716,38.380486],[26.997749,38.380403],[26.997778,38.38034],[26.997793,38.380327],[26.997829,38.380304],[26.99791,38.380274],[26.997968,38.380273],[26.998022,38.380287],[26.998085,38.380319],[26.998157,38.380358],[26.998205,38.380369],[26.998241,38.380372],[26.998289,38.380372],[26.99834,38.380364],[26.998403,38.380353],[26.998446,38.380338],[26.998487,38.38032],[26.99852,38.380304],[26.998541,38.380283],[26.998542,38.380269],[26.99853,38.380256],[26.99849,38.380233],[26.998415,38.380207],[26.998341,38.380189],[26.998266,38.380159],[26.998182,38.380122],[26.998065,38.380058],[26.997927,38.379991],[26.997763,38.379919],[26.997649,38.379887],[26.997538,38.379865],[26.997347,38.379791],[26.997082,38.379653],[26.996954,38.37956],[26.996883,38.379489],[26.996792,38.37937],[26.996755,38.379265],[26.996745,38.379218],[26.996724,38.379182],[26.996684,38.379138],[26.996653,38.379119],[26.996591,38.379109],[26.996485,38.379085],[26.996449,38.379062],[26.996413,38.379033],[26.996338,38.378965],[26.996238,38.378871],[26.996158,38.378765],[26.996106,38.378708],[26.99608,38.378672],[26.996065,38.378634],[26.996049,38.378592],[26.996039,38.378555],[26.996023,38.378495],[26.996008,38.378458],[26.995987,38.378426],[26.995957,38.3784],[26.995927,38.378397],[26.995887,38.378402],[26.995696,38.378475],[26.995657,38.378481],[26.995591,38.378474],[26.995529,38.378451],[26.995452,38.378404],[26.995402,38.378341],[26.99538,38.378298],[26.995357,38.378227],[26.995264,38.378009],[26.995266,38.377972],[26.995326,38.377867],[26.995327,38.377848],[26.995325,38.377811],[26.995309,38.377767],[26.995279,38.377736],[26.995244,38.377713],[26.9952,38.377699],[26.99516,38.377704],[26.995,38.377748],[26.99494,38.377753],[26.994806,38.37775],[26.994705,38.377744],[26.994627,38.377734],[26.994561,38.377719],[26.99449,38.377691],[26.994427,38.377665],[26.99436,38.377624],[26.994298,38.377565],[26.994125,38.377406],[26.994108,38.377377],[26.994093,38.377342],[26.994098,38.37732],[26.994123,38.377306],[26.99416,38.377299],[26.994217,38.377303],[26.994282,38.377329],[26.994396,38.37739],[26.994497,38.377432],[26.994614,38.377461],[26.994709,38.377454],[26.994814,38.377423],[26.994998,38.377363],[26.995314,38.377249],[26.995378,38.377226],[26.995456,38.377231],[26.995535,38.377256],[26.995647,38.377296],[26.995723,38.377343],[26.995843,38.377421],[26.9959,38.377439],[26.996013,38.377438],[26.996724,38.377459],[26.996846,38.377483],[26.996915,38.377506],[26.996991,38.377526],[26.997067,38.377537],[26.997108,38.377521],[26.997124,38.377494],[26.997115,38.377468],[26.997076,38.377439],[26.996413,38.377059],[26.996255,38.376981],[26.995974,38.376744],[26.995919,38.376706],[26.995792,38.37661],[26.99568,38.37655],[26.995558,38.376498],[26.995413,38.376436],[26.995298,38.376407],[26.995206,38.376403],[26.995093,38.376369],[26.994939,38.376287],[26.994768,38.376177],[26.994595,38.376062],[26.994374,38.375917],[26.993996,38.375688],[26.99388,38.375623],[26.993731,38.375549],[26.99364,38.375521],[26.993529,38.375508],[26.993387,38.375493],[26.993316,38.375478],[26.993257,38.375457],[26.993184,38.3754],[26.993069,38.375335],[26.992998,38.375294],[26.99291,38.375267],[26.992789,38.375237],[26.992417,38.375152],[26.992285,38.375116],[26.99216,38.375066],[26.992003,38.374989],[26.991834,38.374906],[26.991656,38.374859],[26.991403,38.374809],[26.99119,38.374751],[26.991025,38.374702],[26.990885,38.37466],[26.990786,38.374609],[26.990742,38.374568],[26.990734,38.374526],[26.990763,38.3745],[26.990834,38.374493],[26.990993,38.374494],[26.991125,38.37449],[26.991209,38.374468],[26.991328,38.374419],[26.991441,38.374397],[26.991811,38.374322],[26.992141,38.374271],[26.99235,38.374245],[26.99253,38.374213],[26.992663,38.374173],[26.992735,38.374115],[26.992804,38.374011],[26.992852,38.373913],[26.992887,38.373815],[26.992902,38.373706],[26.992874,38.37366],[26.992824,38.373626],[26.99276,38.373607],[26.992665,38.373604],[26.992304,38.373619],[26.992001,38.373629],[26.991857,38.373626],[26.991762,38.373605],[26.990962,38.373352],[26.990956,38.37335],[26.99056,38.373226],[26.990091,38.373019],[26.989935,38.372972],[26.989776,38.372946],[26.989624,38.372891],[26.989435,38.372753],[26.989024,38.372411],[26.988777,38.372134],[26.988658,38.372018],[26.988495,38.371883],[26.988268,38.371724],[26.988074,38.371605],[26.987935,38.371539],[26.987803,38.371517],[26.987589,38.371473],[26.98743,38.371426],[26.987032,38.371226],[26.986595,38.37101],[26.986217,38.37081],[26.985824,38.370625],[26.98557,38.370487],[26.985387,38.370359],[26.985323,38.370274],[26.985132,38.370058],[26.984996,38.369927],[26.984897,38.36986],[26.9848,38.369806],[26.984696,38.369738],[26.984619,38.369695],[26.984528,38.369631],[26.984447,38.369566],[26.984349,38.369471],[26.984266,38.369382],[26.984145,38.36924],[26.984059,38.369128],[26.98397,38.369005],[26.983896,38.368859],[26.983876,38.368712],[26.983874,38.368538],[26.983871,38.368423],[26.983843,38.368325],[26.98378,38.368227],[26.98352,38.367905],[26.983453,38.367753],[26.983386,38.367648],[26.983279,38.367552],[26.983127,38.367436],[26.982973,38.36726],[26.982815,38.367093],[26.982715,38.366967],[26.982664,38.366875],[26.982593,38.36675],[26.98256,38.366635],[26.982517,38.366518],[26.982469,38.366444],[26.982397,38.366386],[26.982188,38.366179],[26.982141,38.366117],[26.982086,38.366072],[26.982007,38.366024],[26.981942,38.366004],[26.981876,38.365996],[26.981808,38.366004],[26.981614,38.366028],[26.981526,38.366024],[26.98144,38.365997],[26.980934,38.365773],[26.980787,38.36569],[26.980675,38.365628],[26.980578,38.365556],[26.980474,38.365483],[26.980424,38.365433],[26.980377,38.365377],[26.980064,38.364909],[26.980023,38.364872],[26.979614,38.364542],[26.979253,38.364279],[26.978889,38.363877],[26.978574,38.363719],[26.978102,38.363535],[26.977749,38.363261],[26.977358,38.36287],[26.976991,38.36239],[26.976734,38.361898],[26.976591,38.361676],[26.976376,38.361439],[26.976333,38.361346],[26.976252,38.360981],[26.9762,38.360914],[26.976114,38.36085],[26.975985,38.360778],[26.975589,38.360651],[26.975346,38.360572],[26.975241,38.3605],[26.974674,38.360035],[26.974431,38.359881],[26.974183,38.359757],[26.973849,38.359591],[26.973701,38.359535],[26.973639,38.359479],[26.973577,38.359381],[26.973534,38.359295],[26.973493,38.359238],[26.973359,38.359113],[26.97332,38.359049],[26.973288,38.358994],[26.973255,38.358935],[26.973218,38.358882],[26.973178,38.358842],[26.973113,38.358806],[26.973035,38.358766],[26.97295,38.358743],[26.972851,38.358731],[26.972738,38.358732],[26.972602,38.358737],[26.972516,38.358727],[26.972439,38.358712],[26.972381,38.358697],[26.972324,38.358668],[26.972231,38.358624],[26.971995,38.358495],[26.971794,38.358375],[26.971656,38.358318],[26.971524,38.358239],[26.971414,38.358172],[26.97126,38.358061],[26.971175,38.357988],[26.971129,38.357927],[26.971097,38.35784],[26.971072,38.357771],[26.971065,38.35767],[26.971083,38.35761],[26.971086,38.357575],[26.971069,38.357492],[26.970936,38.357114],[26.970925,38.357039],[26.970908,38.356971],[26.970896,38.356894],[26.9709,38.356832],[26.970913,38.356737],[26.970953,38.356564],[26.970952,38.356509],[26.970945,38.356453],[26.970928,38.35638],[26.970901,38.356064],[26.970833,38.355983],[26.970764,38.355884],[26.97073,38.35578],[26.970707,38.355627],[26.970707,38.355402],[26.970753,38.355101],[26.970887,38.354616],[26.970938,38.354323],[26.970978,38.353958],[26.970978,38.353504],[26.970906,38.353253],[26.970779,38.352974],[26.970649,38.352805],[26.970546,38.352559],[26.970545,38.352559],[26.969704,38.353305],[26.96755,38.355214],[26.967051,38.355214],[26.964584,38.355007],[26.96136,38.354714],[26.961273,38.354676],[26.960954,38.354867],[26.960856,38.354926],[26.960547,38.355175],[26.960276,38.355338],[26.96006,38.355414],[26.959806,38.35547],[26.959503,38.355552],[26.959338,38.355596],[26.959305,38.355605],[26.959162,38.355626],[26.958908,38.355706],[26.9588,38.355742],[26.958369,38.355801],[26.958089,38.355839],[26.957321,38.355933],[26.957219,38.355946],[26.956809,38.355979],[26.956437,38.356059],[26.956044,38.356079],[26.955763,38.356135],[26.955441,38.356289],[26.954986,38.356634],[26.954559,38.356966],[26.954303,38.357136],[26.953819,38.357425],[26.953395,38.357568],[26.95318,38.357628],[26.95266,38.357644],[26.952409,38.357637],[26.951853,38.357574],[26.951488,38.357496],[26.951198,38.357423],[26.951014,38.357289],[26.950885,38.357492],[26.950869,38.357666],[26.950884,38.357788],[26.951244,38.358039],[26.951496,38.358278],[26.951504,38.358289],[26.951493,38.358493],[26.951613,38.358891],[26.9517,38.359009],[26.951854,38.359104],[26.951935,38.359254],[26.951944,38.359284],[26.951905,38.359649],[26.951876,38.359726],[26.951892,38.359828],[26.951881,38.360017],[26.951716,38.360195],[26.951628,38.360387],[26.951657,38.360728],[26.951604,38.360987],[26.951566,38.361103],[26.951427,38.361304],[26.951351,38.36138],[26.951182,38.361556],[26.950871,38.361897],[26.950607,38.36221],[26.950536,38.362348],[26.950446,38.362684],[26.950327,38.362839],[26.950269,38.362889],[26.950218,38.362896],[26.949989,38.36287],[26.949759,38.362938],[26.949504,38.362957],[26.94932,38.362998],[26.949037,38.36315],[26.948959,38.363271],[26.948917,38.363479],[26.948805,38.363557],[26.948649,38.36361],[26.948554,38.363659],[26.948456,38.363708],[26.948386,38.363772],[26.948411,38.363859],[26.948378,38.364128],[26.948237,38.365272],[26.94804,38.36686],[26.948139,38.367899],[26.949281,38.379922],[26.949419,38.381383],[26.949427,38.381417]]]}},{"type":"Feature","properties":{"id":"TR-Y-35-024-M-0007","level":"yerlesim","type":"mahalle","parent_id":"TR-D-35-024","province_id":"TR-P-35","district_id":"TR-D-35-024","name":"Ilıca","source_raw_name":"ILICA","source":"Kullanıcı tarafından sağlanan KML","source_label":"Kullanıcı tarafından sağlanan KML","source_name":"Izmir Mahalle KML - kullanici tarafindan saglandi"},"geometry":{"type":"Polygon","coordinates":[[[27.029218,38.376307],[27.02882,38.376044],[27.028372,38.375601],[27.028008,38.375261],[27.027821,38.375147],[27.027479,38.374875],[27.027128,38.374639],[27.026647,38.374415],[27.026636,38.374395],[27.025678,38.372555],[27.025678,38.372555],[27.025624,38.372625],[27.025589,38.372663],[27.025542,38.372684],[27.02548,38.372689],[27.025425,38.37268],[27.025359,38.37266],[27.025186,38.372563],[27.024918,38.372364],[27.024586,38.372084],[27.024264,38.371775],[27.024054,38.371526],[27.023978,38.37144],[27.02374,38.371256],[27.023633,38.371181],[27.023593,38.371164],[27.023551,38.371154],[27.023423,38.371138],[27.02327,38.371103],[27.023176,38.371079],[27.023141,38.371062],[27.022359,38.370617],[27.022326,38.370605],[27.022293,38.370593],[27.022232,38.370578],[27.021698,38.370483],[27.021562,38.370432],[27.021423,38.370351],[27.021262,38.370227],[27.021032,38.369945],[27.020568,38.369448],[27.020432,38.36926],[27.020329,38.369094],[27.020269,38.368935],[27.020214,38.368731],[27.020191,38.368714],[27.020162,38.368711],[27.020105,38.368723],[27.019787,38.368809],[27.019733,38.368813],[27.019458,38.368786],[27.019378,38.368765],[27.019018,38.368635],[27.018801,38.368553],[27.018723,38.368543],[27.018183,38.368404],[27.018099,38.368395],[27.018003,38.368397],[27.01795,38.368414],[27.017919,38.368457],[27.017917,38.368632],[27.017933,38.368826],[27.01799,38.369121],[27.018132,38.369519],[27.018229,38.369824],[27.018371,38.370227],[27.018434,38.370531],[27.01844,38.371176],[27.018457,38.371396],[27.018571,38.371835],[27.018759,38.372175],[27.018781,38.372269],[27.018292,38.373071],[27.017712,38.373899],[27.017684,38.374007],[27.017593,38.374665],[27.017593,38.37493],[27.017616,38.375091],[27.017701,38.375373],[27.017941,38.375832],[27.018204,38.376249],[27.018296,38.376426],[27.018405,38.376555],[27.018886,38.377076],[27.019506,38.377401],[27.016808,38.382422],[27.020135,38.382872],[27.021558,38.383512],[27.021586,38.383783],[27.022207,38.385434],[27.022369,38.38548],[27.022157,38.387451],[27.021506,38.387444],[27.020882,38.3875],[27.020381,38.387943],[27.020123,38.387964],[27.020087,38.387984],[27.020054,38.388006],[27.020045,38.388059],[27.020094,38.388287],[27.020107,38.388303],[27.020197,38.388351],[27.020231,38.388376],[27.020285,38.388456],[27.020361,38.388568],[27.020494,38.388688],[27.020617,38.388766],[27.020669,38.388842],[27.020697,38.3891],[27.020711,38.389324],[27.020714,38.389339],[27.021043,38.389518],[27.02115,38.38957],[27.02115,38.389576],[27.021143,38.389588],[27.021134,38.389594],[27.020551,38.389614],[27.020392,38.389644],[27.020362,38.389658],[27.020359,38.389672],[27.020368,38.38969],[27.020399,38.389708],[27.020522,38.389732],[27.020602,38.389763],[27.020702,38.389817],[27.020889,38.389879],[27.020919,38.389896],[27.021047,38.38997],[27.021182,38.390039],[27.021311,38.390067],[27.021192,38.390236],[27.021191,38.390236],[27.021076,38.390274],[27.020842,38.390293],[27.020743,38.390292],[27.020572,38.390294],[27.020323,38.390272],[27.020191,38.390285],[27.019961,38.390348],[27.019939,38.390349],[27.019945,38.390556],[27.020019,38.390613],[27.020178,38.390758],[27.020324,38.391001],[27.020446,38.391162],[27.020592,38.391373],[27.020783,38.391477],[27.020655,38.39157],[27.020437,38.391696],[27.020192,38.391779],[27.019838,38.391861],[27.019658,38.391918],[27.019455,38.391955],[27.019347,38.391967],[27.019191,38.391946],[27.018977,38.392347],[27.018909,38.392375],[27.018879,38.392392],[27.018769,38.3929],[27.018709,38.392869],[27.018518,38.392748],[27.018191,38.392572],[27.017831,38.392401],[27.01785,38.392437],[27.018092,38.392954],[27.018279,38.393387],[27.018396,38.393657],[27.01846,38.393759],[27.018572,38.393919],[27.018725,38.394164],[27.018835,38.394434],[27.018867,38.39471],[27.019008,38.395844],[27.019053,38.396208],[27.021588,38.39594],[27.022168,38.3959],[27.02307,38.39586],[27.024005,38.39585],[27.023962,38.395521],[27.023962,38.39502],[27.023954,38.394837],[27.023912,38.39469],[27.02389,38.394637],[27.023627,38.394062],[27.023429,38.393566],[27.023388,38.393485],[27.023335,38.393259],[27.023179,38.392853],[27.024401,38.392677],[27.024944,38.392625],[27.025493,38.392574],[27.025507,38.392572],[27.026656,38.392628],[27.027954,38.392738],[27.028513,38.392763],[27.028654,38.39277],[27.029151,38.392246],[27.030014,38.391621],[27.030849,38.391018],[27.031186,38.390159],[27.031736,38.389189],[27.032688,38.388702],[27.033158,38.388317],[27.033764,38.387683],[27.034063,38.387434],[27.034103,38.387239],[27.033915,38.386207],[27.033818,38.385973],[27.033769,38.385677],[27.033667,38.385426],[27.033508,38.385108],[27.033409,38.385031],[27.033249,38.384821],[27.032888,38.384465],[27.032223,38.384157],[27.031998,38.383939],[27.031796,38.383546],[27.031688,38.383327],[27.031636,38.383143],[27.031615,38.382852],[27.031655,38.382728],[27.031772,38.382497],[27.0319,38.382351],[27.032274,38.382076],[27.03274,38.381997],[27.032924,38.38199],[27.033702,38.382037],[27.03393,38.382066],[27.034154,38.382183],[27.034388,38.382219],[27.034592,38.382217],[27.034656,38.382216],[27.035067,38.382117],[27.03511,38.382078],[27.035197,38.381999],[27.035311,38.381779],[27.035294,38.381593],[27.035292,38.381275],[27.035186,38.381089],[27.03501,38.380727],[27.034953,38.380465],[27.034934,38.380244],[27.034932,38.380211],[27.034887,38.380047],[27.034911,38.379968],[27.035052,38.379858],[27.034932,38.379803],[27.034445,38.379505],[27.034437,38.3795],[27.034367,38.379359],[27.034064,38.378752],[27.033701,38.378025],[27.0336,38.377822],[27.032963,38.377348],[27.032016,38.377044],[27.03046,38.376882],[27.029837,38.376643],[27.029218,38.376307]]]}},{"type":"Feature","properties":{"id":"TR-Y-35-024-M-0008","level":"yerlesim","type":"mahalle","parent_id":"TR-D-35-024","province_id":"TR-P-35","district_id":"TR-D-35-024","name":"Limanreis","source_raw_name":"LİMANREİS","source":"Kullanıcı tarafından sağlanan KML","source_label":"Kullanıcı tarafından sağlanan KML","source_name":"Izmir Mahalle KML - kullanici tarafindan saglandi"},"geometry":{"type":"Polygon","coordinates":[[[26.949231,38.381904],[26.949427,38.381417],[26.949419,38.381383],[26.949281,38.379922],[26.948139,38.367899],[26.94804,38.36686],[26.948411,38.363859],[26.948386,38.363772],[26.94835,38.363795],[26.948294,38.363718],[26.948236,38.363638],[26.947912,38.363463],[26.947713,38.363241],[26.947302,38.363037],[26.947079,38.362864],[26.946861,38.362844],[26.946633,38.363056],[26.94633,38.363247],[26.946173,38.363285],[26.945974,38.36326],[26.944953,38.363011],[26.944732,38.362998],[26.94435,38.363036],[26.944023,38.36295],[26.943468,38.362412],[26.943134,38.362353],[26.942684,38.362188],[26.942401,38.361942],[26.942222,38.361866],[26.941817,38.361858],[26.941437,38.361906],[26.941166,38.361865],[26.941007,38.361888],[26.940698,38.361932],[26.940446,38.361989],[26.940192,38.362117],[26.940049,38.362244],[26.939899,38.362448],[26.93984,38.362666],[26.940007,38.362915],[26.939225,38.363022],[26.93884,38.363222],[26.938275,38.363153],[26.937767,38.363191],[26.937488,38.363301],[26.937251,38.363534],[26.936928,38.363597],[26.936529,38.363545],[26.93613,38.363227],[26.935808,38.363055],[26.935214,38.363237],[26.934936,38.363157],[26.934483,38.362933],[26.934302,38.36292],[26.93398,38.363007],[26.933558,38.363141],[26.933466,38.363292],[26.933271,38.363458],[26.933097,38.363589],[26.932908,38.363727],[26.932638,38.363861],[26.932484,38.364073],[26.932256,38.364552],[26.932199,38.36459],[26.931987,38.364669],[26.931803,38.364788],[26.931571,38.365097],[26.931395,38.365271],[26.930522,38.365861],[26.930214,38.365895],[26.929777,38.366024],[26.929487,38.366262],[26.929291,38.366524],[26.929116,38.366705],[26.928659,38.367253],[26.928201,38.367482],[26.92785,38.367925],[26.927605,38.368211],[26.92747,38.368617],[26.927156,38.368921],[26.926484,38.368945],[26.925757,38.369439],[26.925909,38.369767],[26.925873,38.370074],[26.925575,38.370336],[26.925396,38.370517],[26.925332,38.370824],[26.925373,38.370988],[26.925271,38.371259],[26.92512,38.371435],[26.92507,38.371494],[26.925055,38.371658],[26.924816,38.372012],[26.924528,38.372328],[26.924448,38.372495],[26.924425,38.372739],[26.924349,38.372927],[26.924243,38.373061],[26.924046,38.373251],[26.923876,38.373397],[26.923656,38.373635],[26.9235,38.373927],[26.923485,38.374216],[26.923549,38.374473],[26.923613,38.374866],[26.923632,38.375143],[26.923722,38.375426],[26.923604,38.375965],[26.92346,38.376482],[26.923446,38.376866],[26.923324,38.377289],[26.923301,38.377441],[26.923299,38.377538],[26.923321,38.377837],[26.923259,38.378173],[26.923126,38.37841],[26.92304,38.378735],[26.923031,38.378789],[26.923046,38.378871],[26.92318,38.379064],[26.923434,38.379379],[26.923563,38.379579],[26.92376,38.379776],[26.923839,38.380076],[26.923834,38.380275],[26.923859,38.380518],[26.923974,38.380646],[26.924126,38.380873],[26.924148,38.38117],[26.924148,38.381174],[26.923959,38.381928],[26.923982,38.382034],[26.924037,38.382085],[26.924196,38.382178],[26.924348,38.38228],[26.924459,38.382444],[26.924574,38.382896],[26.924682,38.383372],[26.924863,38.383614],[26.92495,38.383764],[26.92504,38.383987],[26.925104,38.384129],[26.925161,38.384238],[26.925311,38.384569],[26.925339,38.38463],[26.925344,38.384641],[26.92542,38.384676],[26.925871,38.384486],[26.926398,38.384321],[26.926666,38.384226],[26.926852,38.384159],[26.927505,38.384056],[26.927719,38.383937],[26.928331,38.383769],[26.928372,38.383672],[26.92858,38.383593],[26.92885,38.38355],[26.929077,38.38343],[26.929446,38.383479],[26.929705,38.383423],[26.931277,38.383222],[26.931576,38.383208],[26.932389,38.383244],[26.932383,38.383306],[26.933194,38.383392],[26.933827,38.383483],[26.936411,38.384026],[26.939105,38.384712],[26.941477,38.385415],[26.943305,38.385991],[26.944229,38.386442],[26.94458,38.386659],[26.945109,38.386928],[26.945945,38.387322],[26.945417,38.386259],[26.944848,38.385107],[26.945012,38.384999],[26.945397,38.384834],[26.945726,38.384737],[26.946494,38.384687],[26.946818,38.384642],[26.947081,38.384688],[26.947709,38.384697],[26.948603,38.383841],[26.948944,38.383012],[26.949093,38.382682],[26.949199,38.382161],[26.949203,38.382028],[26.949231,38.381904]]]}},{"type":"Feature","properties":{"id":"TR-Y-35-024-M-0009","level":"yerlesim","type":"mahalle","parent_id":"TR-D-35-024","province_id":"TR-P-35","district_id":"TR-D-35-024","name":"Narlı","source_raw_name":"NARLI","source":"Kullanıcı tarafından sağlanan KML","source_label":"Kullanıcı tarafından sağlanan KML","source_name":"Izmir Mahalle KML - kullanici tarafindan saglandi"},"geometry":{"type":"Polygon","coordinates":[[[27.001807,38.388954],[27.001854,38.388968],[27.002086,38.389304],[27.002391,38.389727],[27.002724,38.389739],[27.003083,38.389895],[27.003506,38.390139],[27.003751,38.390813],[27.003519,38.39125],[27.003267,38.391412],[27.00322,38.391435],[27.003192,38.39149],[27.003202,38.391584],[27.00322,38.392011],[27.002988,38.392619],[27.002864,38.392785],[27.002745,38.393113],[27.002717,38.393186],[27.002683,38.393274],[27.002545,38.393505],[27.002375,38.393762],[27.002269,38.393959],[27.002222,38.394122],[27.002109,38.39431],[27.001949,38.394555],[27.001858,38.394706],[27.001752,38.395009],[27.001736,38.395196],[27.001274,38.395326],[27.001206,38.395345],[27.001106,38.395371],[27.00063,38.397823],[27.001122,38.397829],[27.002261,38.397818],[27.002997,38.397796],[27.00324,38.397788],[27.003867,38.397759],[27.004552,38.396998],[27.004926,38.396512],[27.005126,38.396144],[27.005313,38.395731],[27.005496,38.395559],[27.005837,38.39531],[27.006124,38.395086],[27.006339,38.394873],[27.006592,38.394559],[27.006694,38.394381],[27.006902,38.394074],[27.007057,38.393893],[27.0071,38.393837],[27.0071,38.393837],[27.007146,38.393777],[27.007156,38.393729],[27.007139,38.393469],[27.007058,38.39315],[27.007122,38.392795],[27.007203,38.392672],[27.007474,38.392442],[27.007816,38.392153],[27.008129,38.391456],[27.008331,38.391042],[27.008431,38.390838],[27.008454,38.390733],[27.008579,38.390169],[27.008569,38.389694],[27.008605,38.389513],[27.008682,38.389396],[27.00869,38.38929],[27.008661,38.389081],[27.008505,38.388534],[27.008513,38.388315],[27.008644,38.388047],[27.00877,38.387832],[27.008812,38.387619],[27.008808,38.387484],[27.008821,38.387026],[27.008731,38.386863],[27.008524,38.386624],[27.008362,38.386311],[27.008294,38.386036],[27.008311,38.385795],[27.008272,38.385683],[27.008162,38.385574],[27.008117,38.385432],[27.008113,38.385348],[27.008137,38.385288],[27.008269,38.385169],[27.00856,38.385034],[27.008831,38.384878],[27.008942,38.384739],[27.008994,38.384646],[27.00902,38.384568],[27.008965,38.384184],[27.008953,38.384083],[27.008925,38.383992],[27.008793,38.383768],[27.008619,38.383515],[27.008534,38.383348],[27.008458,38.383194],[27.008378,38.38312],[27.00819,38.383009],[27.008104,38.382931],[27.007901,38.382701],[27.007669,38.382471],[27.007561,38.382326],[27.007528,38.38225],[27.007497,38.38213],[27.007488,38.381979],[27.007492,38.381917],[27.007524,38.381864],[27.007774,38.381577],[27.007921,38.381449],[27.007981,38.381376],[27.008032,38.381293],[27.00807,38.381148],[27.008075,38.380975],[27.008086,38.380892],[27.008082,38.380784],[27.008019,38.380659],[27.00795,38.380469],[27.007841,38.380291],[27.007782,38.380251],[27.007655,38.380197],[27.007562,38.380118],[27.00742,38.379998],[27.007311,38.379908],[27.007243,38.379839],[27.007185,38.379748],[27.007146,38.379667],[27.007049,38.379452],[27.006943,38.379091],[27.006831,38.378837],[27.00676,38.378685],[27.006722,38.378597],[27.006694,38.378258],[27.006674,38.378143],[27.006624,38.377931],[27.006614,38.377856],[27.006601,38.377681],[27.006593,38.377442],[27.006587,38.377061],[27.006629,38.376788],[27.006702,38.376506],[27.006721,38.376345],[27.006707,38.376206],[27.006629,38.376065],[27.006585,38.375975],[27.00657,38.375834],[27.006578,38.375651],[27.006629,38.37551],[27.00674,38.375288],[27.006804,38.375071],[27.006801,38.374921],[27.006812,38.374768],[27.006865,38.374543],[27.00685,38.374429],[27.006818,38.374324],[27.006747,38.374245],[27.006606,38.374185],[27.006454,38.374219],[27.006202,38.37435],[27.006044,38.374398],[27.005894,38.374422],[27.005641,38.374363],[27.005435,38.37427],[27.0053,38.37415],[27.005178,38.373939],[27.005153,38.373831],[27.005166,38.373721],[27.005185,38.373621],[27.005269,38.373463],[27.005412,38.373278],[27.005528,38.373165],[27.005709,38.37302],[27.005831,38.372831],[27.005871,38.372702],[27.005879,38.372579],[27.005892,38.372492],[27.005871,38.372391],[27.005551,38.371943],[27.005539,38.371864],[27.005547,38.371735],[27.005541,38.371648],[27.005533,38.371586],[27.005454,38.371154],[27.005435,38.37104],[27.005361,38.370922],[27.005276,38.370859],[27.005162,38.370804],[27.004722,38.370576],[27.004689,38.370529],[27.004674,38.37049],[27.00469,38.370444],[27.004759,38.370378],[27.004764,38.370366],[27.004763,38.370355],[27.004757,38.370343],[27.004707,38.370289],[27.004617,38.3702],[27.004562,38.370089],[27.0045,38.369913],[27.004431,38.369773],[27.004184,38.369475],[27.004087,38.369334],[27.004023,38.369185],[27.004021,38.369091],[27.004018,38.368997],[27.004047,38.368885],[27.00423,38.368649],[27.004415,38.368501],[27.00445,38.368457],[27.004455,38.368414],[27.004448,38.368381],[27.004423,38.368344],[27.004192,38.368242],[27.003956,38.368171],[27.003745,38.367873],[27.003491,38.367556],[27.003227,38.366967],[27.003112,38.366764],[27.003101,38.366648],[27.003173,38.366231],[27.003161,38.366132],[27.003014,38.365924],[27.002974,38.365819],[27.00296,38.365747],[27.002981,38.365664],[27.003311,38.365279],[27.003344,38.365218],[27.003334,38.365149],[27.003263,38.36509],[27.003202,38.365073],[27.003115,38.365073],[27.002963,38.365096],[27.002845,38.365085],[27.002717,38.365039],[27.002609,38.36496],[27.002547,38.364899],[27.002501,38.364828],[27.002425,38.364657],[27.002375,38.364523],[27.00236,38.364388],[27.002697,38.363992],[27.002721,38.363949],[27.002721,38.363912],[27.0027,38.363894],[27.002196,38.363782],[27.00214,38.363723],[27.002123,38.363626],[27.002106,38.36353],[27.002118,38.363457],[27.002103,38.363382],[27.00205,38.363312],[27.00191,38.363103],[27.001859,38.362975],[27.001814,38.362586],[27.001775,38.362406],[27.001762,38.362351],[27.001746,38.36232],[27.001698,38.362267],[27.001638,38.362228],[27.001516,38.362153],[27.001376,38.362092],[27.001008,38.361964],[27.000723,38.361905],[27.00024,38.361894],[26.999736,38.361931],[26.999691,38.361918],[26.999676,38.361892],[26.999687,38.361855],[27.000109,38.361601],[27.000208,38.361513],[27.000593,38.361116],[27.000751,38.360934],[27.000835,38.360817],[27.001063,38.360321],[27.001355,38.35987],[27.001966,38.359283],[27.002034,38.359211],[27.00202,38.359152],[27.002006,38.359093],[27.001846,38.359029],[27.001638,38.35901],[27.001437,38.359023],[27.001144,38.359069],[27.001014,38.359169],[27.000884,38.359268],[27.000735,38.359375],[27.000554,38.359429],[27.000364,38.359445],[27.000173,38.359462],[27.000051,38.359401],[26.999892,38.359253],[26.999471,38.359027],[26.999384,38.358936],[26.999295,38.358839],[26.999222,38.358638],[26.999178,38.358564],[26.999035,38.358472],[26.99847,38.358153],[26.998368,38.357954],[26.998411,38.357809],[26.998528,38.357667],[26.998795,38.357489],[26.999014,38.35732],[26.999045,38.357279],[26.999072,38.357089],[26.99912,38.356972],[26.999201,38.356861],[26.999309,38.356767],[26.999415,38.356709],[26.99955,38.356667],[26.99968,38.356642],[26.999766,38.356614],[26.99981,38.356574],[26.999953,38.356426],[26.999994,38.356358],[27.000012,38.356284],[26.999994,38.356255],[26.999829,38.356164],[26.999754,38.356108],[26.999717,38.356032],[26.999747,38.355859],[26.999863,38.355714],[26.999974,38.355623],[26.999985,38.355602],[27.000065,38.355085],[27.000049,38.354846],[27.000078,38.354796],[27.000147,38.354767],[27.000453,38.354711],[27.00052,38.354715],[27.000707,38.354731],[27.000744,38.35472],[27.00091,38.354634],[27.001128,38.354535],[27.001283,38.354486],[27.00132,38.354459],[27.001416,38.354383],[27.001525,38.354307],[27.001546,38.354284],[27.001574,38.354122],[27.001607,38.354046],[27.00168,38.353936],[27.001747,38.353866],[27.001746,38.353847],[27.001688,38.353788],[27.001601,38.353689],[27.001573,38.353617],[27.001561,38.353545],[27.00157,38.353461],[27.001578,38.35341],[27.00159,38.353387],[27.001679,38.353265],[27.001698,38.353227],[27.001731,38.353155],[27.001767,38.353108],[27.001839,38.35303],[27.001849,38.353011],[27.001849,38.352984],[27.001834,38.352963],[27.001752,38.352922],[27.001683,38.352892],[27.001592,38.35284],[27.001569,38.352807],[27.001544,38.352735],[27.001552,38.352543],[27.001497,38.352376],[27.001472,38.352372],[27.001431,38.352376],[27.001335,38.352412],[27.001216,38.352492],[27.00108,38.352631],[27.000964,38.352763],[27.000866,38.352973],[27.000836,38.353011],[27.000629,38.353319],[27.000522,38.353474],[27.000435,38.353546],[27.000337,38.353598],[27.00022,38.353605],[27.000133,38.353587],[27.000035,38.353539],[26.999918,38.353467],[26.999789,38.353476],[26.999643,38.353544],[26.99941,38.353647],[26.999173,38.353709],[26.998888,38.353806],[26.998707,38.353915],[26.998588,38.354061],[26.998497,38.354241],[26.998383,38.354425],[26.998343,38.354561],[26.998331,38.354723],[26.99828,38.354835],[26.997735,38.355146],[26.997636,38.355168],[26.99751,38.355165],[26.997316,38.355124],[26.997142,38.355047],[26.996277,38.35463],[26.996143,38.354561],[26.996005,38.354558],[26.995827,38.354546],[26.995642,38.354505],[26.995551,38.354446],[26.99546,38.354347],[26.995251,38.354085],[26.995207,38.354079],[26.995148,38.354095],[26.994796,38.354191],[26.994749,38.354191],[26.994642,38.354154],[26.994362,38.354001],[26.99405,38.353899],[26.993994,38.353874],[26.993681,38.353678],[26.993618,38.353622],[26.993587,38.353536],[26.993591,38.353501],[26.993669,38.353312],[26.993657,38.353287],[26.993613,38.353272],[26.993532,38.353275],[26.993284,38.353325],[26.993137,38.353327],[26.993067,38.353312],[26.992911,38.353255],[26.992788,38.353209],[26.992714,38.353193],[26.992678,38.353212],[26.992561,38.353358],[26.992356,38.353573],[26.992325,38.353595],[26.992088,38.35378],[26.99191,38.353982],[26.991824,38.354055],[26.991765,38.354078],[26.991545,38.354138],[26.991097,38.354379],[26.990988,38.354418],[26.990876,38.35442],[26.990705,38.35443],[26.990554,38.354456],[26.990462,38.354487],[26.990337,38.354565],[26.990024,38.354783],[26.98984,38.354879],[26.989616,38.354949],[26.988688,38.355195],[26.986624,38.356323],[26.986395,38.356443],[26.986276,38.356456],[26.986162,38.356443],[26.986059,38.3564],[26.985826,38.356353],[26.985522,38.356316],[26.985147,38.356309],[26.984835,38.356222],[26.984661,38.356141],[26.984515,38.356141],[26.98438,38.356151],[26.984163,38.356163],[26.983855,38.356154],[26.983606,38.356113],[26.983302,38.356113],[26.983124,38.356076],[26.982694,38.355976],[26.98252,38.355895],[26.982441,38.355849],[26.982326,38.355846],[26.982058,38.355827],[26.981892,38.355761],[26.981702,38.355699],[26.981485,38.355718],[26.98126,38.355799],[26.981031,38.355842],[26.980849,38.355836],[26.98062,38.355795],[26.980498,38.355764],[26.980371,38.355746],[26.979988,38.355665],[26.979858,38.355678],[26.979553,38.355718],[26.979131,38.355846],[26.978931,38.355886],[26.978677,38.355944],[26.978374,38.355957],[26.978112,38.355912],[26.977776,38.355808],[26.977318,38.355654],[26.976941,38.355512],[26.976736,38.35537],[26.976548,38.355331],[26.976409,38.355363],[26.976261,38.355415],[26.976081,38.355376],[26.975811,38.355247],[26.975569,38.355084],[26.975144,38.35495],[26.975045,38.354805],[26.974918,38.35456],[26.974847,38.354371],[26.97472,38.354125],[26.974522,38.353992],[26.974055,38.353869],[26.973574,38.353757],[26.973277,38.353635],[26.973036,38.353323],[26.972753,38.352977],[26.972456,38.352866],[26.972173,38.352821],[26.971777,38.352687],[26.971253,38.35262],[26.970843,38.352575],[26.970546,38.352559],[26.970649,38.352805],[26.970779,38.352974],[26.970906,38.353253],[26.970978,38.353504],[26.970978,38.353958],[26.970938,38.354323],[26.970887,38.354616],[26.970753,38.355101],[26.970707,38.355402],[26.970707,38.355627],[26.97073,38.35578],[26.970764,38.355884],[26.970833,38.355983],[26.970901,38.356064],[26.970928,38.35638],[26.970945,38.356453],[26.970952,38.356509],[26.970953,38.356564],[26.970913,38.356737],[26.9709,38.356832],[26.970896,38.356894],[26.970908,38.356971],[26.970925,38.357039],[26.970936,38.357114],[26.971069,38.357492],[26.971086,38.357575],[26.971083,38.35761],[26.971065,38.35767],[26.971072,38.357771],[26.971097,38.35784],[26.971129,38.357927],[26.971175,38.357988],[26.97126,38.358061],[26.971414,38.358172],[26.971524,38.358239],[26.971656,38.358318],[26.971794,38.358375],[26.971995,38.358495],[26.972231,38.358624],[26.972324,38.358668],[26.972381,38.358697],[26.972439,38.358712],[26.972516,38.358727],[26.972602,38.358737],[26.972738,38.358732],[26.972851,38.358731],[26.97295,38.358743],[26.973035,38.358766],[26.973113,38.358806],[26.973178,38.358842],[26.973218,38.358882],[26.973255,38.358935],[26.973288,38.358994],[26.97332,38.359049],[26.973359,38.359113],[26.973493,38.359238],[26.973534,38.359295],[26.973577,38.359381],[26.973639,38.359479],[26.973701,38.359535],[26.973849,38.359591],[26.974183,38.359757],[26.974431,38.359881],[26.974674,38.360035],[26.975241,38.3605],[26.975346,38.360572],[26.975589,38.360651],[26.975985,38.360778],[26.976114,38.36085],[26.9762,38.360914],[26.976252,38.360981],[26.976333,38.361346],[26.976376,38.361439],[26.976591,38.361676],[26.976734,38.361898],[26.976991,38.36239],[26.977358,38.36287],[26.977749,38.363261],[26.978102,38.363535],[26.978574,38.363719],[26.978889,38.363877],[26.979253,38.364279],[26.979614,38.364542],[26.980023,38.364872],[26.980064,38.364909],[26.980377,38.365377],[26.980424,38.365433],[26.980474,38.365483],[26.980578,38.365556],[26.980675,38.365628],[26.980787,38.36569],[26.980934,38.365773],[26.98144,38.365997],[26.981526,38.366024],[26.981614,38.366028],[26.981808,38.366004],[26.981876,38.365996],[26.981942,38.366004],[26.982007,38.366024],[26.982086,38.366072],[26.982141,38.366117],[26.982188,38.366179],[26.982397,38.366386],[26.982469,38.366444],[26.982517,38.366518],[26.98256,38.366635],[26.982593,38.36675],[26.982664,38.366875],[26.982715,38.366967],[26.982815,38.367093],[26.982973,38.36726],[26.983127,38.367436],[26.983279,38.367552],[26.983386,38.367648],[26.983453,38.367753],[26.98352,38.367905],[26.98378,38.368227],[26.983843,38.368325],[26.983871,38.368423],[26.983874,38.368538],[26.983876,38.368712],[26.983896,38.368859],[26.98397,38.369005],[26.984059,38.369128],[26.984145,38.36924],[26.984266,38.369382],[26.984349,38.369471],[26.984447,38.369566],[26.984528,38.369631],[26.984619,38.369695],[26.984696,38.369738],[26.9848,38.369806],[26.984897,38.36986],[26.984996,38.369927],[26.985132,38.370058],[26.985323,38.370274],[26.985387,38.370359],[26.98557,38.370487],[26.985824,38.370625],[26.986217,38.37081],[26.986595,38.37101],[26.987032,38.371226],[26.98743,38.371426],[26.987589,38.371473],[26.987803,38.371517],[26.987935,38.371539],[26.988074,38.371605],[26.988268,38.371724],[26.988495,38.371883],[26.988658,38.372018],[26.988777,38.372134],[26.989024,38.372411],[26.989435,38.372753],[26.989624,38.372891],[26.989776,38.372946],[26.989935,38.372972],[26.990091,38.373019],[26.99056,38.373226],[26.990956,38.37335],[26.990962,38.373352],[26.991762,38.373605],[26.991857,38.373626],[26.992001,38.373629],[26.992304,38.373619],[26.992665,38.373604],[26.99276,38.373607],[26.992824,38.373626],[26.992874,38.37366],[26.992902,38.373706],[26.992887,38.373815],[26.992852,38.373913],[26.992804,38.374011],[26.992735,38.374115],[26.992663,38.374173],[26.99253,38.374213],[26.99235,38.374245],[26.992141,38.374271],[26.991811,38.374322],[26.991441,38.374397],[26.991328,38.374419],[26.991209,38.374468],[26.991125,38.37449],[26.990993,38.374494],[26.990834,38.374493],[26.990763,38.3745],[26.990734,38.374526],[26.990742,38.374568],[26.990786,38.374609],[26.990885,38.37466],[26.991025,38.374702],[26.99119,38.374751],[26.991403,38.374809],[26.991656,38.374859],[26.991834,38.374906],[26.992003,38.374989],[26.99216,38.375066],[26.992285,38.375116],[26.992417,38.375152],[26.992789,38.375237],[26.99291,38.375267],[26.992998,38.375294],[26.993069,38.375335],[26.993184,38.3754],[26.993257,38.375457],[26.993316,38.375478],[26.993387,38.375493],[26.993529,38.375508],[26.99364,38.375521],[26.993731,38.375549],[26.99388,38.375623],[26.993996,38.375688],[26.994374,38.375917],[26.994595,38.376062],[26.994768,38.376177],[26.994939,38.376287],[26.995093,38.376369],[26.995206,38.376403],[26.995298,38.376407],[26.995413,38.376436],[26.995558,38.376498],[26.99568,38.37655],[26.995792,38.37661],[26.995919,38.376706],[26.995974,38.376744],[26.996255,38.376981],[26.996413,38.377059],[26.997076,38.377439],[26.997115,38.377468],[26.997124,38.377494],[26.997108,38.377521],[26.997067,38.377537],[26.996991,38.377526],[26.996915,38.377506],[26.996846,38.377483],[26.996724,38.377459],[26.996013,38.377438],[26.9959,38.377439],[26.995843,38.377421],[26.995723,38.377343],[26.995647,38.377296],[26.995535,38.377256],[26.995456,38.377231],[26.995378,38.377226],[26.995314,38.377249],[26.994998,38.377363],[26.994814,38.377423],[26.994709,38.377454],[26.994614,38.377461],[26.994497,38.377432],[26.994396,38.37739],[26.994282,38.377329],[26.994217,38.377303],[26.99416,38.377299],[26.994123,38.377306],[26.994098,38.37732],[26.994093,38.377342],[26.994108,38.377377],[26.994125,38.377406],[26.994298,38.377565],[26.99436,38.377624],[26.994427,38.377665],[26.99449,38.377691],[26.994561,38.377719],[26.994627,38.377734],[26.994705,38.377744],[26.994806,38.37775],[26.99494,38.377753],[26.995,38.377748],[26.99516,38.377704],[26.9952,38.377699],[26.995244,38.377713],[26.995279,38.377736],[26.995309,38.377767],[26.995325,38.377811],[26.995327,38.377848],[26.995326,38.377867],[26.995266,38.377972],[26.995264,38.378009],[26.995357,38.378227],[26.99538,38.378298],[26.995402,38.378341],[26.995452,38.378404],[26.995529,38.378451],[26.995591,38.378474],[26.995657,38.378481],[26.995696,38.378475],[26.995887,38.378402],[26.995927,38.378397],[26.995957,38.3784],[26.995987,38.378426],[26.996008,38.378458],[26.996023,38.378495],[26.996039,38.378555],[26.996049,38.378592],[26.996065,38.378634],[26.99608,38.378672],[26.996106,38.378708],[26.996158,38.378765],[26.996238,38.378871],[26.996338,38.378965],[26.996413,38.379033],[26.996449,38.379062],[26.996485,38.379085],[26.996591,38.379109],[26.996653,38.379119],[26.996684,38.379138],[26.996724,38.379182],[26.996745,38.379218],[26.996755,38.379265],[26.996792,38.37937],[26.996883,38.379489],[26.996954,38.37956],[26.997082,38.379653],[26.997347,38.379791],[26.997538,38.379865],[26.997649,38.379887],[26.997763,38.379919],[26.997927,38.379991],[26.998065,38.380058],[26.998182,38.380122],[26.998266,38.380159],[26.998341,38.380189],[26.998415,38.380207],[26.99849,38.380233],[26.99853,38.380256],[26.998542,38.380269],[26.998541,38.380283],[26.99852,38.380304],[26.998487,38.38032],[26.998446,38.380338],[26.998403,38.380353],[26.99834,38.380364],[26.998289,38.380372],[26.998241,38.380372],[26.998205,38.380369],[26.998157,38.380358],[26.998085,38.380319],[26.998022,38.380287],[26.997968,38.380273],[26.99791,38.380274],[26.997829,38.380304],[26.997793,38.380327],[26.997778,38.38034],[26.997749,38.380403],[26.997716,38.380486],[26.997664,38.380543],[26.997561,38.380549],[26.997423,38.380534],[26.997272,38.380488],[26.997139,38.380477],[26.997004,38.380475],[26.996782,38.380482],[26.996701,38.380487],[26.996615,38.380478],[26.996558,38.380461],[26.996509,38.380437],[26.99639,38.380343],[26.996377,38.380336],[26.996362,38.380333],[26.996351,38.380337],[26.996347,38.380347],[26.996383,38.380533],[26.996409,38.380583],[26.996436,38.380616],[26.996495,38.38066],[26.996559,38.380697],[26.996601,38.380717],[26.996742,38.380754],[26.996813,38.380767],[26.996957,38.38078],[26.997295,38.380805],[26.997429,38.380847],[26.997596,38.380915],[26.997766,38.380977],[26.997991,38.381093],[26.998171,38.38116],[26.998244,38.381192],[26.998365,38.381223],[26.998484,38.381237],[26.998736,38.381256],[26.998922,38.381282],[26.999028,38.381288],[26.999179,38.381285],[26.999407,38.381267],[26.999548,38.381265],[26.999654,38.381274],[26.999693,38.381285],[26.999705,38.381303],[26.999697,38.381343],[26.999659,38.381369],[26.999552,38.381414],[26.999393,38.381497],[26.999126,38.381607],[26.998848,38.381708],[26.998513,38.381796],[26.998423,38.381811],[26.998216,38.381824],[26.998152,38.381835],[26.998095,38.381855],[26.998062,38.381879],[26.998049,38.381914],[26.998049,38.38196],[26.998074,38.382013],[26.99811,38.38206],[26.99817,38.382095],[26.998242,38.382146],[26.99834,38.382188],[26.998367,38.382194],[26.998457,38.382214],[26.998599,38.382223],[26.998682,38.382221],[26.998743,38.382217],[26.998883,38.382164],[26.998998,38.382125],[26.999037,38.382124],[26.999053,38.382123],[26.999141,38.382158],[26.999273,38.382249],[26.999464,38.382373],[26.999724,38.382451],[26.999984,38.382457],[27.000152,38.382444],[27.000306,38.38245],[27.000483,38.382482],[27.000568,38.382515],[27.000646,38.382562],[27.000862,38.382703],[27.001213,38.382854],[27.001453,38.382937],[27.001658,38.382984],[27.001973,38.383028],[27.002212,38.38304],[27.002288,38.383045],[27.002359,38.38306],[27.002419,38.383088],[27.002455,38.383115],[27.002474,38.383145],[27.00248,38.383185],[27.00248,38.383223],[27.002462,38.383262],[27.002429,38.38329],[27.002377,38.383312],[27.002321,38.38332],[27.002216,38.383319],[27.001997,38.383304],[27.001429,38.383309],[27.000767,38.383351],[27.000725,38.383355],[27.000696,38.38336],[27.000677,38.383369],[27.00066,38.383384],[27.000648,38.3834],[27.000644,38.383416],[27.000645,38.383433],[27.000649,38.383444],[27.000669,38.383461],[27.000756,38.383492],[27.000902,38.383531],[27.000923,38.383533],[27.001207,38.383575],[27.001252,38.383578],[27.001358,38.383571],[27.001488,38.383571],[27.001566,38.383585],[27.001622,38.383603],[27.001648,38.383617],[27.001658,38.383629],[27.001666,38.383655],[27.001665,38.383675],[27.001642,38.383698],[27.001609,38.383723],[27.001552,38.383746],[27.00141,38.38378],[27.001286,38.383805],[27.001234,38.383815],[27.001153,38.383824],[27.001062,38.383825],[27.000845,38.383811],[27.000809,38.383811],[27.000778,38.383825],[27.000754,38.383844],[27.000742,38.38387],[27.000751,38.383909],[27.000779,38.383943],[27.001192,38.38414],[27.001253,38.384154],[27.001299,38.384155],[27.001918,38.384098],[27.002037,38.384088],[27.002156,38.384086],[27.002239,38.384095],[27.002357,38.384124],[27.002484,38.384146],[27.002641,38.384158],[27.002798,38.384152],[27.003337,38.384123],[27.003432,38.38411],[27.003509,38.384106],[27.00359,38.384105],[27.003732,38.384117],[27.003906,38.38414],[27.00397,38.384144],[27.004019,38.384143],[27.004068,38.384138],[27.004109,38.384133],[27.00416,38.38412],[27.00421,38.384111],[27.004259,38.384106],[27.004307,38.384114],[27.004336,38.384134],[27.004358,38.384152],[27.004366,38.384173],[27.00436,38.384204],[27.004347,38.384231],[27.004291,38.38428],[27.004232,38.384315],[27.004172,38.384335],[27.004117,38.384347],[27.004052,38.384356],[27.00382,38.384361],[27.003724,38.384361],[27.003628,38.384362],[27.003525,38.38437],[27.0034,38.384388],[27.003309,38.384402],[27.003209,38.384427],[27.003091,38.384459],[27.003016,38.384484],[27.002923,38.384529],[27.002843,38.384575],[27.002796,38.384603],[27.002752,38.384636],[27.002708,38.384674],[27.002668,38.384719],[27.002624,38.384765],[27.002573,38.384808],[27.002513,38.384849],[27.002428,38.384892],[27.002346,38.384928],[27.002275,38.384954],[27.002192,38.384988],[27.002109,38.385031],[27.002054,38.385063],[27.00203,38.385079],[27.001973,38.385119],[27.001899,38.385185],[27.001819,38.385252],[27.001763,38.385295],[27.001668,38.385355],[27.001566,38.38541],[27.001453,38.385452],[27.001278,38.385499],[27.001137,38.38553],[27.001056,38.385545],[27.00097,38.385548],[27.000847,38.385543],[27.000741,38.385523],[27.000639,38.38549],[27.000533,38.385443],[27.000419,38.385399],[27.000332,38.385359],[27.000256,38.385318],[27.000204,38.385281],[27.000179,38.385259],[27.000048,38.385114],[26.999992,38.385075],[26.999935,38.385046],[26.999896,38.385033],[26.999857,38.385034],[27.000281,38.386301],[26.999893,38.386862],[26.999925,38.387386],[27.000025,38.387614],[27.000051,38.387832],[27.000086,38.387954],[27.000277,38.388193],[27.00042,38.388285],[27.000487,38.388367],[27.00056,38.38855],[27.000655,38.388652],[27.000709,38.388675],[27.000948,38.38876],[27.00109,38.388828],[27.001263,38.388895],[27.00139,38.388914],[27.00178,38.388951],[27.001807,38.388954]]]}},{"type":"Feature","properties":{"id":"TR-Y-35-024-M-0010","level":"yerlesim","type":"mahalle","parent_id":"TR-D-35-024","province_id":"TR-P-35","district_id":"TR-D-35-024","name":"Sahil Evleri","source_raw_name":"SAHİLEVLERİ","source":"Kullanıcı tarafından sağlanan KML","source_label":"Kullanıcı tarafından sağlanan KML","source_name":"Izmir Mahalle KML - kullanici tarafindan saglandi"},"geometry":{"type":"Polygon","coordinates":[[[27.024076,38.397301],[27.024062,38.397266],[27.02406,38.397254],[27.024008,38.396881],[27.023988,38.396628],[27.023976,38.396309],[27.023973,38.396224],[27.023986,38.396072],[27.024005,38.39585],[27.02307,38.39586],[27.022168,38.3959],[27.021588,38.39594],[27.019053,38.396208],[27.018275,38.39629],[27.016732,38.396465],[27.014235,38.396722],[27.012012,38.396951],[27.010289,38.397134],[27.007939,38.397385],[27.00723,38.39746],[27.005764,38.397606],[27.005069,38.397677],[27.004486,38.397717],[27.004243,38.397733],[27.003867,38.397759],[27.003536,38.398597],[27.003487,38.398879],[27.003205,38.399298],[27.003059,38.399752],[27.002785,38.400206],[27.002266,38.400722],[27.002145,38.401067],[27.002269,38.401891],[27.003201,38.402945],[27.003349,38.40317],[27.00356,38.403366],[27.003723,38.403546],[27.004036,38.403771],[27.004231,38.404043],[27.004811,38.404541],[27.004756,38.404979],[27.0047,38.40526],[27.004681,38.405604],[27.004615,38.406052],[27.004553,38.40636],[27.004497,38.406612],[27.004438,38.40697],[27.004311,38.407425],[27.004261,38.407815],[27.004193,38.407995],[27.004131,38.408376],[27.004019,38.40893],[27.004054,38.408934],[27.004206,38.409079],[27.004294,38.409104],[27.004371,38.409103],[27.004528,38.409058],[27.004937,38.408869],[27.007324,38.408412],[27.008015,38.408359],[27.008358,38.408337],[27.009014,38.408383],[27.00939,38.408483],[27.010341,38.408883],[27.011414,38.409651],[27.011735,38.409989],[27.013559,38.411615],[27.014098,38.412261],[27.014262,38.412505],[27.0144,38.4128],[27.014204,38.412871],[27.014189,38.412848],[27.014153,38.412863],[27.014175,38.412907],[27.0144,38.412833],[27.015614,38.413759],[27.017448,38.413278],[27.017444,38.413252],[27.017377,38.412983],[27.01732,38.412756],[27.017281,38.4126],[27.017264,38.412528],[27.017245,38.412364],[27.017251,38.412344],[27.017295,38.412191],[27.017429,38.411862],[27.017456,38.411795],[27.017556,38.41156],[27.01757,38.411528],[27.017599,38.411458],[27.017959,38.41073],[27.018277,38.410062],[27.01851,38.409715],[27.01891,38.409171],[27.018931,38.409142],[27.018932,38.40914],[27.018938,38.409125],[27.018977,38.409031],[27.019183,38.408413],[27.01942,38.407637],[27.01953,38.407308],[27.019552,38.407285],[27.019559,38.407277],[27.019656,38.407172],[27.019805,38.407063],[27.019959,38.407032],[27.019977,38.407029],[27.019984,38.407027],[27.020147,38.407037],[27.020844,38.40715],[27.021091,38.407193],[27.021102,38.407194],[27.021226,38.407196],[27.021287,38.407197],[27.021302,38.406889],[27.021297,38.406708],[27.021275,38.406487],[27.02126,38.406245],[27.021256,38.406115],[27.021293,38.405884],[27.021335,38.405694],[27.021387,38.405559],[27.021439,38.405439],[27.021558,38.405205],[27.021645,38.405015],[27.021776,38.404709],[27.021861,38.404491],[27.021879,38.40437],[27.021881,38.404202],[27.021883,38.403817],[27.021881,38.403499],[27.02192,38.403253],[27.021991,38.403053],[27.022088,38.402825],[27.022089,38.402709],[27.022069,38.402576],[27.022021,38.402464],[27.02197,38.402348],[27.021943,38.402262],[27.021944,38.402162],[27.022002,38.402091],[27.022211,38.402068],[27.022392,38.40204],[27.022507,38.401983],[27.022553,38.401964],[27.022587,38.401922],[27.022656,38.401741],[27.022714,38.401511],[27.022735,38.40135],[27.022782,38.401309],[27.022986,38.401178],[27.023206,38.401025],[27.023415,38.400867],[27.023552,38.400723],[27.023647,38.400602],[27.023794,38.400384],[27.023907,38.40028],[27.024061,38.400194],[27.024172,38.400095],[27.024229,38.400016],[27.024235,38.399977],[27.024242,38.399932],[27.024245,38.399917],[27.024216,38.39979],[27.024142,38.399611],[27.024038,38.39931],[27.024024,38.399181],[27.024025,38.398908],[27.024022,38.398782],[27.024072,38.398619],[27.024094,38.398572],[27.024168,38.39835],[27.024234,38.398149],[27.024268,38.398018],[27.02427,38.397846],[27.024261,38.397725],[27.02415,38.397492],[27.024076,38.397301]]]}},{"type":"Feature","properties":{"id":"TR-Y-35-024-M-0011","level":"yerlesim","type":"mahalle","parent_id":"TR-D-35-024","province_id":"TR-P-35","district_id":"TR-D-35-024","name":"Yenikale","source_raw_name":"YENİKALE","source":"Kullanıcı tarafından sağlanan KML","source_label":"Kullanıcı tarafından sağlanan KML","source_name":"Izmir Mahalle KML - kullanici tarafindan saglandi"},"geometry":{"type":"Polygon","coordinates":[[[27.003867,38.397759],[27.004243,38.397733],[27.004486,38.397717],[27.005069,38.397677],[27.005764,38.397606],[27.00723,38.39746],[27.007939,38.397385],[27.010289,38.397134],[27.012012,38.396951],[27.014235,38.396722],[27.016732,38.396465],[27.018275,38.39629],[27.019053,38.396208],[27.019008,38.395844],[27.018867,38.39471],[27.018835,38.394434],[27.018725,38.394164],[27.018572,38.393919],[27.01846,38.393759],[27.018396,38.393657],[27.01787,38.393719],[27.0172,38.393786],[27.017167,38.393791],[27.016967,38.393805],[27.015889,38.393883],[27.015698,38.393896],[27.014934,38.393951],[27.014221,38.393991],[27.01392,38.394008],[27.013052,38.394057],[27.012262,38.394101],[27.012066,38.394112],[27.011555,38.394137],[27.010633,38.394184],[27.010336,38.394199],[27.009928,38.394219],[27.009444,38.394243],[27.009063,38.394263],[27.008446,38.394293],[27.00814,38.394309],[27.008067,38.394313],[27.007454,38.394343],[27.007128,38.39436],[27.006694,38.394381],[27.006592,38.394559],[27.006339,38.394873],[27.006124,38.395086],[27.005837,38.39531],[27.005496,38.395559],[27.005313,38.395731],[27.005126,38.396144],[27.004926,38.396512],[27.004552,38.396998],[27.003867,38.397759]]]}}]}