{"type":"FeatureCollection","name":"turkiye_map.dist.mahalle_geometrileri_by_district.TR-D-16-004","features":[{"type":"Feature","properties":{"id":"TR-Y-16-004-M-0001","level":"yerlesim","type":"mahalle","parent_id":"TR-D-16-004","province_id":"TR-P-16","district_id":"TR-D-16-004","name":"Akpınar","source_raw_name":"AKPINAR","source":"Kamuya açık veri ve kent rehberi servisleri","source_label":"Kamuya açık veri ve kent rehberi servisleri","source_name":"Bursa Açık Yeşil Platformu - Mahalle Sınırları"},"geometry":{"type":"MultiPolygon","coordinates":[[[[29.108594,39.648947],[29.114076,39.646348],[29.11991,39.646842],[29.121701,39.646209],[29.115576,39.640423],[29.11682,39.6388],[29.116005,39.637516],[29.118568,39.636769],[29.120666,39.637731],[29.12206,39.636805],[29.122156,39.635704],[29.123577,39.635678],[29.127546,39.634406],[29.127993,39.632098],[29.126273,39.63083],[29.125394,39.627447],[29.122039,39.623409],[29.122098,39.621109],[29.126873,39.612424],[29.11969,39.605757],[29.11506,39.602425],[29.114832,39.602455],[29.11461,39.602439],[29.114444,39.602407],[29.114328,39.602359],[29.11427,39.602277],[29.114188,39.602184],[29.114085,39.602059],[29.113985,39.601927],[29.113879,39.601783],[29.113798,39.601616],[29.113741,39.601475],[29.113613,39.601328],[29.113486,39.601235],[29.113359,39.6012],[29.113111,39.601134],[29.112812,39.601082],[29.11251,39.603389],[29.110846,39.608471],[29.108065,39.618765],[29.100684,39.622598],[29.100218,39.624306],[29.101306,39.626086],[29.101898,39.629218],[29.101623,39.632278],[29.100665,39.634795],[29.099998,39.638406],[29.101117,39.641185],[29.097769,39.645944],[29.09897,39.651421],[29.103262,39.652243],[29.105673,39.6507],[29.107855,39.65016],[29.108594,39.648947]]]]}},{"type":"Feature","properties":{"id":"TR-Y-16-004-M-0002","level":"yerlesim","type":"mahalle","parent_id":"TR-D-16-004","province_id":"TR-P-16","district_id":"TR-D-16-004","name":"Alutça","source_raw_name":"ALUTCA","source":"Kamuya açık veri ve kent rehberi servisleri","source_label":"Kamuya açık veri ve kent rehberi servisleri","source_name":"Bursa Açık Yeşil Platformu - Mahalle Sınırları"},"geometry":{"type":"MultiPolygon","coordinates":[[[[28.997571,39.635336],[28.997718,39.633522],[28.998258,39.632996],[28.998725,39.630727],[28.995826,39.631599],[28.994609,39.6309],[28.994406,39.628767],[28.994228,39.626898],[28.992466,39.625695],[28.988055,39.624845],[28.981865,39.622176],[28.976908,39.620821],[28.977101,39.618248],[28.974663,39.616645],[28.975035,39.615714],[28.973926,39.614088],[28.973315,39.611414],[28.973207,39.611311],[28.973033,39.610959],[28.972811,39.610671],[28.972549,39.610563],[28.972364,39.610365],[28.972145,39.610138],[28.972022,39.609849],[28.971819,39.609595],[28.971429,39.609251],[28.971283,39.609144],[28.971007,39.609106],[28.970444,39.609008],[28.969823,39.608992],[28.968949,39.60904],[28.968569,39.609115],[28.968379,39.609221],[28.968158,39.609328],[28.967951,39.609441],[28.967801,39.609603],[28.96771,39.60971],[28.967665,39.609763],[28.967734,39.610275],[28.967311,39.610806],[28.966953,39.611209],[28.966546,39.611711],[28.965908,39.612404],[28.965506,39.613483],[28.964654,39.613847],[28.964511,39.613875],[28.964008,39.613956],[28.963492,39.614108],[28.963112,39.614233],[28.962808,39.614259],[28.96217,39.614411],[28.961801,39.614528],[28.961349,39.614729],[28.961063,39.61493],[28.960631,39.615195],[28.960297,39.615422],[28.960051,39.615617],[28.959469,39.615823],[28.958697,39.615831],[28.958133,39.615854],[28.957513,39.615885],[28.957133,39.616015],[28.957089,39.616031],[28.956941,39.616088],[28.956573,39.616425],[28.95602,39.616797],[28.955636,39.617378],[28.954877,39.617657],[28.954414,39.61766],[28.95395,39.617664],[28.953627,39.617632],[28.953098,39.617516],[28.952531,39.617345],[28.952154,39.617079],[28.951783,39.616827],[28.951623,39.616654],[28.950599,39.61588],[28.950095,39.61581],[28.949714,39.615882],[28.949714,39.615882],[28.949565,39.615909],[28.948969,39.616115],[28.947844,39.616396],[28.946908,39.616901],[28.946112,39.61688],[28.944875,39.616908],[28.944365,39.616988],[28.94466,39.617652],[28.945296,39.619368],[28.945042,39.619763],[28.945414,39.619687],[28.945782,39.620682],[28.94645,39.622276],[28.945877,39.624051],[28.947259,39.625231],[28.949119,39.62865],[28.951421,39.629334],[28.951969,39.630368],[28.950954,39.631187],[28.949188,39.631137],[28.950523,39.634324],[28.952183,39.634296],[28.95357,39.635637],[28.955236,39.635849],[28.95495,39.636737],[28.953824,39.637317],[28.956799,39.639755],[28.95815,39.639812],[28.958948,39.642366],[28.958362,39.64366],[28.959952,39.644837],[28.96062,39.64643],[28.961885,39.647131],[28.962147,39.649053],[28.96374,39.650309],[28.963487,39.6524],[28.964589,39.654628],[28.964757,39.654719],[28.964767,39.654781],[28.964875,39.654782],[28.966845,39.655843],[28.982023,39.661061],[28.986393,39.658429],[28.988823,39.656302],[28.99035,39.655232],[28.992049,39.649346],[28.992738,39.64805],[28.992383,39.646532],[28.994198,39.644655],[28.994352,39.642807],[28.99639,39.641488],[28.997298,39.638388],[28.997571,39.635336]]]]}},{"type":"Feature","properties":{"id":"TR-Y-16-004-M-0003","level":"yerlesim","type":"mahalle","parent_id":"TR-D-16-004","province_id":"TR-P-16","district_id":"TR-D-16-004","name":"Balatdanişment","source_raw_name":"BALATDANİŞMENT","source":"Kamuya açık veri ve kent rehberi servisleri","source_label":"Kamuya açık veri ve kent rehberi servisleri","source_name":"Bursa Açık Yeşil Platformu - Mahalle Sınırları"},"geometry":{"type":"MultiPolygon","coordinates":[[[[29.216977,39.649328],[29.22409,39.643151],[29.223699,39.641978],[29.221934,39.635424],[29.221663,39.634417],[29.220437,39.629734],[29.220267,39.629085],[29.218505,39.623334],[29.217392,39.618882],[29.216279,39.617305],[29.21294,39.611739],[29.211754,39.61017],[29.206525,39.613407],[29.202975,39.615604],[29.201166,39.615638],[29.200479,39.614352],[29.194219,39.61667],[29.193328,39.616599],[29.192994,39.616521],[29.192597,39.616375],[29.1921,39.616198],[29.191717,39.6161],[29.191435,39.616159],[29.191132,39.61634],[29.190762,39.616863],[29.19043,39.617418],[29.190124,39.61785],[29.189865,39.617951],[29.189596,39.617896],[29.189391,39.617731],[29.189146,39.61755],[29.188768,39.617448],[29.188555,39.617523],[29.187629,39.618271],[29.18723,39.61868],[29.187002,39.618835],[29.186789,39.618891],[29.186538,39.618893],[29.186281,39.618872],[29.185876,39.618938],[29.185746,39.619097],[29.185535,39.619446],[29.185128,39.619665],[29.184537,39.620103],[29.182562,39.621141],[29.180428,39.621685],[29.176813,39.622196],[29.174969,39.622104],[29.170986,39.621905],[29.169839,39.622426],[29.169139,39.624839],[29.170556,39.628811],[29.169695,39.630227],[29.168542,39.630548],[29.169392,39.632932],[29.167626,39.634364],[29.169034,39.638037],[29.167496,39.638465],[29.166576,39.637983],[29.163856,39.637834],[29.163238,39.638745],[29.166383,39.640086],[29.168457,39.640247],[29.168816,39.639341],[29.170247,39.639614],[29.17345,39.638654],[29.173884,39.640145],[29.175968,39.640606],[29.17587,39.641608],[29.176913,39.641888],[29.176418,39.642597],[29.180106,39.644728],[29.181389,39.644403],[29.184935,39.646136],[29.183923,39.646855],[29.18413,39.64935],[29.184131,39.64935],[29.19025,39.652402],[29.199287,39.6516],[29.201663,39.651384],[29.205767,39.650927],[29.20883,39.650511],[29.216977,39.649328]]]]}},{"type":"Feature","properties":{"id":"TR-Y-16-004-M-0004","level":"yerlesim","type":"mahalle","parent_id":"TR-D-16-004","province_id":"TR-P-16","district_id":"TR-D-16-004","name":"Ballısaray","source_raw_name":"BALLISARAY","source":"Kamuya açık veri ve kent rehberi servisleri","source_label":"Kamuya açık veri ve kent rehberi servisleri","source_name":"Bursa Açık Yeşil Platformu - Mahalle Sınırları"},"geometry":{"type":"MultiPolygon","coordinates":[[[[29.189906,39.687279],[29.189958,39.687468],[29.18998,39.687549],[29.190529,39.688652],[29.188678,39.688687],[29.18996,39.690173],[29.190891,39.690315],[29.190738,39.691988],[29.195392,39.692695],[29.20039,39.694508],[29.204892,39.695273],[29.205331,39.695347],[29.206288,39.69551],[29.207232,39.694949],[29.208914,39.693949],[29.215591,39.690323],[29.21832,39.68876],[29.222098,39.684633],[29.225046,39.680283],[29.227844,39.677685],[29.230173,39.67635],[29.236626,39.672427],[29.240395,39.671241],[29.240387,39.671182],[29.240097,39.669121],[29.239743,39.666601],[29.239744,39.666603],[29.239744,39.666601],[29.239367,39.66578],[29.238471,39.663834],[29.23789,39.66257],[29.233995,39.657283],[29.229914,39.653016],[29.226945,39.649491],[29.226441,39.648462],[29.224626,39.644761],[29.22409,39.643151],[29.216977,39.649328],[29.20883,39.650511],[29.205767,39.650927],[29.201663,39.651384],[29.202897,39.655815],[29.192256,39.662976],[29.191802,39.674824],[29.188516,39.676297],[29.188422,39.677321],[29.187825,39.677969],[29.188595,39.679544],[29.18854,39.681056],[29.190316,39.681897],[29.191344,39.681878],[29.190649,39.683781],[29.187176,39.684419],[29.186481,39.684356],[29.186187,39.685066],[29.186699,39.685204],[29.187162,39.685661],[29.188536,39.686479],[29.189209,39.687227],[29.189578,39.687043],[29.189906,39.687279]]]]}},{"type":"Feature","properties":{"id":"TR-Y-16-004-M-0005","level":"yerlesim","type":"mahalle","parent_id":"TR-D-16-004","province_id":"TR-P-16","district_id":"TR-D-16-004","name":"Bekdemirler","source_raw_name":"BEKDEMİRLER","source":"Kamuya açık veri ve kent rehberi servisleri","source_label":"Kamuya açık veri ve kent rehberi servisleri","source_name":"Bursa Açık Yeşil Platformu - Mahalle Sınırları"},"geometry":{"type":"MultiPolygon","coordinates":[[[[29.161947,39.666481],[29.163481,39.665546],[29.164829,39.665576],[29.165015,39.664908],[29.165187,39.664163],[29.165231,39.663892],[29.165166,39.663397],[29.165104,39.663068],[29.164932,39.662569],[29.164778,39.662126],[29.167804,39.659588],[29.16626,39.659194],[29.16589,39.657848],[29.168925,39.656946],[29.169969,39.655319],[29.17186,39.65605],[29.173372,39.65543],[29.174815,39.65608],[29.175391,39.653532],[29.177461,39.653239],[29.179749,39.650568],[29.181254,39.648601],[29.18247,39.649001],[29.183923,39.646855],[29.184935,39.646136],[29.181389,39.644403],[29.180106,39.644728],[29.176418,39.642597],[29.176913,39.641888],[29.17587,39.641608],[29.175968,39.640606],[29.173884,39.640145],[29.17345,39.638654],[29.170247,39.639614],[29.168816,39.639341],[29.168457,39.640247],[29.166383,39.640086],[29.163238,39.638745],[29.160955,39.640187],[29.159546,39.640613],[29.159448,39.641679],[29.157774,39.641846],[29.156334,39.641273],[29.156759,39.642464],[29.154845,39.6433],[29.153626,39.641523],[29.151583,39.64236],[29.150765,39.643672],[29.150325,39.644587],[29.149185,39.645635],[29.148384,39.644985],[29.147859,39.64572],[29.146701,39.646164],[29.147187,39.649236],[29.147851,39.650492],[29.147172,39.65129],[29.148037,39.653993],[29.147584,39.654484],[29.147158,39.655881],[29.145403,39.657243],[29.145423,39.657907],[29.146493,39.659639],[29.145345,39.660446],[29.145916,39.66122],[29.146448,39.660727],[29.148113,39.661482],[29.148608,39.662318],[29.149573,39.663207],[29.148729,39.663706],[29.148989,39.664547],[29.156989,39.665425],[29.161947,39.666481]]]]}},{"type":"Feature","properties":{"id":"TR-Y-16-004-M-0006","level":"yerlesim","type":"mahalle","parent_id":"TR-D-16-004","province_id":"TR-P-16","district_id":"TR-D-16-004","name":"Çakmak","source_raw_name":"ÇAKMAK","source":"Kamuya açık veri ve kent rehberi servisleri","source_label":"Kamuya açık veri ve kent rehberi servisleri","source_name":"Bursa Açık Yeşil Platformu - Mahalle Sınırları"},"geometry":{"type":"MultiPolygon","coordinates":[[[[29.141992,39.773554],[29.139689,39.77055],[29.134676,39.767245],[29.134764,39.76463],[29.136091,39.76256],[29.138376,39.758993],[29.141141,39.755236],[29.144855,39.751506],[29.144206,39.746944],[29.146284,39.742985],[29.146964,39.737615],[29.149675,39.72854],[29.152304,39.718136],[29.151814,39.7135],[29.150075,39.714537],[29.140224,39.720407],[29.137348,39.719191],[29.134809,39.719238],[29.132676,39.717892],[29.126837,39.722384],[29.125202,39.722573],[29.123263,39.722796],[29.11885,39.719842],[29.116551,39.718303],[29.114168,39.718577],[29.113098,39.717789],[29.109035,39.716824],[29.105916,39.717458],[29.101991,39.716144],[29.103553,39.713462],[29.103511,39.712078],[29.09972,39.715147],[29.095855,39.715793],[29.091499,39.715064],[29.089071,39.714983],[29.085106,39.716102],[29.084724,39.718302],[29.083268,39.718733],[29.082643,39.718425],[29.079987,39.717615],[29.079435,39.71632],[29.082567,39.716148],[29.081887,39.713391],[29.08181,39.713379],[29.078644,39.712904],[29.074285,39.712931],[29.073967,39.713155],[29.072261,39.714355],[29.072003,39.714537],[29.070474,39.715613],[29.069965,39.715888],[29.067976,39.716964],[29.064603,39.717285],[29.064601,39.717286],[29.064173,39.718732],[29.066048,39.720396],[29.067308,39.720719],[29.068901,39.721126],[29.07067,39.721579],[29.071342,39.721751],[29.07321,39.722229],[29.076648,39.723997],[29.079342,39.723556],[29.081381,39.724427],[29.081399,39.724434],[29.081396,39.724502],[29.081298,39.726643],[29.081297,39.726658],[29.078849,39.729036],[29.07883,39.729054],[29.073438,39.74062],[29.073424,39.740651],[29.073453,39.740696],[29.076412,39.74518],[29.077575,39.746942],[29.078761,39.74874],[29.079313,39.74963],[29.080146,39.750619],[29.082516,39.753432],[29.082961,39.75381],[29.085396,39.752959],[29.087061,39.752377],[29.089662,39.751468],[29.092478,39.752938],[29.092698,39.753052],[29.096304,39.754934],[29.097618,39.75562],[29.099445,39.756574],[29.101127,39.757452],[29.103894,39.758895],[29.103941,39.75892],[29.10391,39.758971],[29.102706,39.760926],[29.101541,39.762816],[29.101243,39.763301],[29.099801,39.765641],[29.099051,39.766858],[29.095672,39.772343],[29.094945,39.773522],[29.094904,39.773589],[29.09496,39.773598],[29.097116,39.773941],[29.099691,39.775071],[29.103194,39.773308],[29.106571,39.772986],[29.107389,39.773076],[29.110179,39.773383],[29.114731,39.774013],[29.117633,39.773559],[29.11822,39.773467],[29.119451,39.773274],[29.121671,39.773887],[29.125544,39.773162],[29.127422,39.773651],[29.12882,39.775062],[29.131009,39.77541],[29.131033,39.775414],[29.131025,39.775486],[29.130774,39.777709],[29.130767,39.777771],[29.130789,39.777784],[29.133527,39.779419],[29.135113,39.782327],[29.135503,39.783042],[29.137393,39.783922],[29.139805,39.78667],[29.140553,39.787523],[29.141248,39.787943],[29.141259,39.787949],[29.143488,39.789298],[29.145784,39.79173],[29.146641,39.792637],[29.148743,39.794279],[29.149982,39.795358],[29.150972,39.796327],[29.150992,39.796346],[29.152216,39.792142],[29.149691,39.787223],[29.147102,39.780214],[29.141992,39.773554]]]]}},{"type":"Feature","properties":{"id":"TR-Y-16-004-M-0007","level":"yerlesim","type":"mahalle","parent_id":"TR-D-16-004","province_id":"TR-P-16","district_id":"TR-D-16-004","name":"Çamoğlu","source_raw_name":"ÇAMOĞLU","source":"Kamuya açık veri ve kent rehberi servisleri","source_label":"Kamuya açık veri ve kent rehberi servisleri","source_name":"Bursa Açık Yeşil Platformu - Mahalle Sınırları"},"geometry":{"type":"MultiPolygon","coordinates":[[[[29.126837,39.722384],[29.132676,39.717892],[29.134809,39.719238],[29.137348,39.719191],[29.140224,39.720407],[29.150075,39.714537],[29.151814,39.7135],[29.151404,39.712958],[29.141109,39.699338],[29.140375,39.698368],[29.119542,39.697098],[29.119574,39.69747],[29.11971,39.697843],[29.119633,39.698077],[29.119342,39.698252],[29.118917,39.698512],[29.118632,39.698824],[29.118389,39.699274],[29.11815,39.699642],[29.118019,39.699843],[29.117643,39.700292],[29.117336,39.700553],[29.116986,39.70071],[29.116614,39.700896],[29.116246,39.701294],[29.115933,39.701428],[29.115032,39.701879],[29.114761,39.702164],[29.114533,39.702654],[29.114203,39.702972],[29.113993,39.703222],[29.1135,39.70355],[29.113167,39.704096],[29.112952,39.70469],[29.112831,39.704929],[29.112101,39.705278],[29.111191,39.70574],[29.110337,39.706511],[29.109287,39.70759],[29.108542,39.707961],[29.1083,39.708291],[29.107809,39.708528],[29.107271,39.708867],[29.105989,39.70952],[29.10518,39.710269],[29.105055,39.71076],[29.104725,39.711055],[29.103511,39.712078],[29.103553,39.713462],[29.101991,39.716144],[29.105916,39.717458],[29.109035,39.716824],[29.113098,39.717789],[29.114168,39.718577],[29.116551,39.718303],[29.11885,39.719842],[29.123263,39.722796],[29.125202,39.722573],[29.126837,39.722384]]]]}},{"type":"Feature","properties":{"id":"TR-Y-16-004-M-0008","level":"yerlesim","type":"mahalle","parent_id":"TR-D-16-004","province_id":"TR-P-16","district_id":"TR-D-16-004","name":"Çatalsöğüt","source_raw_name":"ÇATALSÖĞÜT","source":"Kamuya açık veri ve kent rehberi servisleri","source_label":"Kamuya açık veri ve kent rehberi servisleri","source_name":"Bursa Açık Yeşil Platformu - Mahalle Sınırları"},"geometry":{"type":"MultiPolygon","coordinates":[[[[29.152496,39.801565],[29.154062,39.800658],[29.15701,39.801206],[29.159001,39.802375],[29.159027,39.80233],[29.159828,39.800917],[29.159856,39.800868],[29.16008,39.800474],[29.16084,39.799133],[29.161594,39.797805],[29.161731,39.796008],[29.161871,39.794182],[29.1619,39.794156],[29.16354,39.792671],[29.165101,39.791258],[29.165099,39.791244],[29.163678,39.782037],[29.163503,39.781104],[29.163144,39.779185],[29.162928,39.778034],[29.162959,39.777994],[29.163867,39.776811],[29.163867,39.776811],[29.165476,39.778288],[29.165476,39.778288],[29.167511,39.778743],[29.169214,39.779123],[29.169225,39.779104],[29.169241,39.779079],[29.170276,39.777451],[29.170421,39.777224],[29.171861,39.774958],[29.171861,39.774957],[29.169398,39.773668],[29.168457,39.773176],[29.166816,39.772316],[29.166868,39.770752],[29.168957,39.769541],[29.169912,39.767726],[29.169933,39.761942],[29.1722,39.759946],[29.173222,39.757035],[29.173262,39.755759],[29.173423,39.750545],[29.172118,39.747678],[29.175958,39.744245],[29.179917,39.741358],[29.183021,39.740283],[29.181506,39.730777],[29.182078,39.727261],[29.183039,39.7215],[29.183038,39.7215],[29.168426,39.722337],[29.163097,39.719039],[29.159038,39.716527],[29.161107,39.710658],[29.161167,39.708185],[29.152003,39.713393],[29.151814,39.7135],[29.152304,39.718136],[29.149675,39.72854],[29.146964,39.737615],[29.146284,39.742985],[29.144206,39.746944],[29.144855,39.751506],[29.141141,39.755236],[29.138376,39.758993],[29.136091,39.76256],[29.134764,39.76463],[29.134676,39.767245],[29.139689,39.77055],[29.141992,39.773554],[29.147102,39.780214],[29.149691,39.787223],[29.152216,39.792142],[29.150992,39.796346],[29.150988,39.796403],[29.150936,39.797123],[29.150724,39.800094],[29.150723,39.800117],[29.145596,39.803653],[29.145575,39.803668],[29.145557,39.80368],[29.14559,39.803743],[29.146427,39.805345],[29.146778,39.806018],[29.146804,39.806068],[29.146804,39.806068],[29.147919,39.805006],[29.148429,39.80452],[29.149472,39.803527],[29.150031,39.802994],[29.150887,39.802498],[29.152261,39.801702],[29.152496,39.801565]]]]}},{"type":"Feature","properties":{"id":"TR-Y-16-004-M-0009","level":"yerlesim","type":"mahalle","parent_id":"TR-D-16-004","province_id":"TR-P-16","district_id":"TR-D-16-004","name":"Dedebalı","source_raw_name":"DEDEBALİ","source":"Kamuya açık veri ve kent rehberi servisleri","source_label":"Kamuya açık veri ve kent rehberi servisleri","source_name":"Bursa Açık Yeşil Platformu - Mahalle Sınırları"},"geometry":{"type":"MultiPolygon","coordinates":[[[[29.078064,39.670112],[29.083338,39.66949],[29.085663,39.668692],[29.085783,39.668607],[29.085913,39.668606],[29.089422,39.667401],[29.090688,39.664079],[29.090787,39.661702],[29.093247,39.658359],[29.094695,39.651198],[29.087971,39.646921],[29.085281,39.64347],[29.083068,39.64301],[29.078094,39.645298],[29.075695,39.647241],[29.073284,39.648783],[29.068959,39.646861],[29.062241,39.642665],[29.055547,39.638482],[29.052621,39.636654],[29.045314,39.634384],[29.040886,39.636858],[29.040754,39.63818],[29.042119,39.638156],[29.040847,39.641345],[29.035799,39.643809],[29.034434,39.643833],[29.0355,39.645266],[29.034678,39.646336],[29.035221,39.647382],[29.032693,39.648482],[29.032972,39.652172],[29.035585,39.653974],[29.033413,39.655595],[29.031855,39.654831],[29.030171,39.655652],[29.026887,39.654258],[29.02625,39.655234],[29.02558,39.65626],[29.026347,39.656883],[29.026391,39.656919],[29.027329,39.657681],[29.027701,39.65873],[29.02907,39.658838],[29.030659,39.660658],[29.034095,39.66139],[29.036345,39.662406],[29.039835,39.664984],[29.043427,39.665185],[29.046487,39.664735],[29.04765,39.663659],[29.049015,39.663635],[29.05152,39.661743],[29.051912,39.663451],[29.053638,39.664081],[29.056163,39.662848],[29.057397,39.664146],[29.056943,39.666134],[29.057999,39.66717],[29.059852,39.666346],[29.062404,39.666037],[29.064595,39.665074],[29.068195,39.665538],[29.06946,39.66789],[29.073274,39.669802],[29.075594,39.669585],[29.078064,39.670112]]]]}},{"type":"Feature","properties":{"id":"TR-Y-16-004-M-0010","level":"yerlesim","type":"mahalle","parent_id":"TR-D-16-004","province_id":"TR-P-16","district_id":"TR-D-16-004","name":"Delicegüney","source_raw_name":"DELİCEGÜNEY","source":"Kamuya açık veri ve kent rehberi servisleri","source_label":"Kamuya açık veri ve kent rehberi servisleri","source_name":"Bursa Açık Yeşil Platformu - Mahalle Sınırları"},"geometry":{"type":"MultiPolygon","coordinates":[[[[29.024145,39.659485],[29.026347,39.656883],[29.02558,39.65626],[29.02625,39.655234],[29.026887,39.654258],[29.024072,39.652078],[29.024547,39.650117],[29.023164,39.648291],[29.023533,39.647257],[29.022661,39.646339],[29.021612,39.645235],[29.021358,39.64488],[29.020227,39.643306],[29.017965,39.643242],[29.016848,39.641412],[29.013653,39.641261],[29.013351,39.640033],[29.010558,39.639979],[29.010231,39.639896],[29.008281,39.639401],[29.009172,39.63805],[29.009119,39.636201],[29.008041,39.635705],[29.006606,39.636655],[29.003266,39.636096],[29.001002,39.63593],[28.999623,39.634206],[28.998258,39.632996],[28.997718,39.633522],[28.997571,39.635336],[28.997298,39.638388],[28.99639,39.641488],[28.994352,39.642807],[28.994198,39.644655],[28.992383,39.646532],[28.992738,39.64805],[28.992049,39.649346],[28.990806,39.653651],[28.990799,39.653674],[28.990963,39.653815],[28.993689,39.656155],[28.998605,39.656654],[28.999225,39.656717],[29.003948,39.658522],[29.009159,39.662535],[29.015856,39.662829],[29.019758,39.66194],[29.022268,39.660666],[29.024145,39.659485]]]]}},{"type":"Feature","properties":{"id":"TR-Y-16-004-M-0011","level":"yerlesim","type":"mahalle","parent_id":"TR-D-16-004","province_id":"TR-P-16","district_id":"TR-D-16-004","name":"Dutluca","source_raw_name":"DUTLUCA","source":"Kamuya açık veri ve kent rehberi servisleri","source_label":"Kamuya açık veri ve kent rehberi servisleri","source_name":"Bursa Açık Yeşil Platformu - Mahalle Sınırları"},"geometry":{"type":"MultiPolygon","coordinates":[[[[29.069625,39.707739],[29.072238,39.705825],[29.076926,39.702391],[29.081995,39.698676],[29.08283,39.696967],[29.086583,39.689272],[29.087175,39.68806],[29.089074,39.684166],[29.090795,39.68173],[29.094477,39.676518],[29.097099,39.672805],[29.100583,39.669443],[29.097959,39.667379],[29.094002,39.666395],[29.090748,39.666058],[29.089422,39.667401],[29.085913,39.668606],[29.085783,39.668607],[29.085663,39.668692],[29.083338,39.66949],[29.078064,39.670112],[29.075594,39.669585],[29.073274,39.669802],[29.06946,39.66789],[29.068195,39.665538],[29.064595,39.665074],[29.062404,39.666037],[29.059852,39.666346],[29.057999,39.66717],[29.056943,39.666134],[29.057397,39.664146],[29.056163,39.662848],[29.053638,39.664081],[29.051912,39.663451],[29.05152,39.661743],[29.049015,39.663635],[29.04765,39.663659],[29.046487,39.664735],[29.043427,39.665185],[29.039835,39.664984],[29.040794,39.667792],[29.040736,39.667917],[29.040694,39.668103],[29.040705,39.668284],[29.040721,39.668499],[29.040608,39.668738],[29.040306,39.668925],[29.039727,39.669249],[29.039721,39.669339],[29.039593,39.669494],[29.039542,39.669608],[29.039189,39.669968],[29.038967,39.670277],[29.038524,39.67266],[29.038063,39.674384],[29.03897,39.676215],[29.037838,39.678347],[29.040266,39.681818],[29.042827,39.685385],[29.042571,39.688292],[29.038392,39.691401],[29.036767,39.6942],[29.033247,39.696505],[29.033305,39.698484],[29.030938,39.699317],[29.028072,39.699367],[29.028036,39.699368],[29.028036,39.699368],[29.030177,39.702497],[29.030178,39.702497],[29.032963,39.704296],[29.034472,39.70725],[29.03677,39.711751],[29.036771,39.711751],[29.037096,39.711928],[29.037963,39.712398],[29.039546,39.713275],[29.040264,39.713692],[29.044766,39.716361],[29.044766,39.716361],[29.046198,39.718579],[29.046198,39.718579],[29.046254,39.718573],[29.047902,39.718417],[29.050236,39.716037],[29.05238,39.713851],[29.054314,39.712884],[29.055572,39.712255],[29.05653,39.711776],[29.058399,39.710842],[29.058946,39.710568],[29.062475,39.709628],[29.062507,39.70962],[29.064796,39.70901],[29.069625,39.707739]]]]}},{"type":"Feature","properties":{"id":"TR-Y-16-004-M-0012","level":"yerlesim","type":"mahalle","parent_id":"TR-D-16-004","province_id":"TR-P-16","district_id":"TR-D-16-004","name":"Ece","source_raw_name":"ECE","source":"Kamuya açık veri ve kent rehberi servisleri","source_label":"Kamuya açık veri ve kent rehberi servisleri","source_name":"Bursa Açık Yeşil Platformu - Mahalle Sınırları"},"geometry":{"type":"MultiPolygon","coordinates":[[[[29.184123,39.695703],[29.185612,39.690829],[29.188172,39.691473],[29.186115,39.69255],[29.187917,39.692862],[29.190738,39.691988],[29.190891,39.690315],[29.18996,39.690173],[29.188678,39.688687],[29.190529,39.688652],[29.18998,39.687549],[29.189958,39.687468],[29.189906,39.687279],[29.189578,39.687043],[29.189209,39.687227],[29.188536,39.686479],[29.187162,39.685661],[29.186699,39.685204],[29.186187,39.685066],[29.186481,39.684356],[29.187176,39.684419],[29.190649,39.683781],[29.191344,39.681878],[29.190316,39.681897],[29.18854,39.681056],[29.188595,39.679544],[29.187825,39.677969],[29.188422,39.677321],[29.188516,39.676297],[29.188504,39.676302],[29.187515,39.676745],[29.186036,39.675813],[29.185206,39.675749],[29.184017,39.677451],[29.182377,39.677962],[29.18027,39.676801],[29.178927,39.676907],[29.177951,39.675485],[29.17411,39.675157],[29.174148,39.676356],[29.171672,39.676643],[29.170146,39.680978],[29.169931,39.681419],[29.169517,39.682266],[29.169411,39.682109],[29.169382,39.681945],[29.169338,39.681993],[29.169264,39.682033],[29.1692,39.682062],[29.169139,39.682086],[29.169062,39.682104],[29.16899,39.682108],[29.16892,39.682104],[29.168827,39.682085],[29.168713,39.682048],[29.168606,39.682007],[29.168484,39.681954],[29.168394,39.681905],[29.168337,39.681879],[29.16827,39.681856],[29.168224,39.681843],[29.168176,39.681836],[29.168128,39.681833],[29.168064,39.681835],[29.167505,39.681429],[29.167188,39.682113],[29.166814,39.683493],[29.167039,39.685239],[29.168128,39.686414],[29.168672,39.688767],[29.17208,39.690564],[29.177558,39.695437],[29.179386,39.697063],[29.18062,39.698309],[29.18212,39.698512],[29.182168,39.700011],[29.187302,39.697028],[29.184123,39.695703]]]]}},{"type":"Feature","properties":{"id":"TR-Y-16-004-M-0013","level":"yerlesim","type":"mahalle","parent_id":"TR-D-16-004","province_id":"TR-P-16","district_id":"TR-D-16-004","name":"Gedikören","source_raw_name":"GEDİKÖREN","source":"Kamuya açık veri ve kent rehberi servisleri","source_label":"Kamuya açık veri ve kent rehberi servisleri","source_name":"Bursa Açık Yeşil Platformu - Mahalle Sınırları"},"geometry":{"type":"MultiPolygon","coordinates":[[[[29.097769,39.645944],[29.101117,39.641185],[29.099998,39.638406],[29.100665,39.634795],[29.101623,39.632278],[29.101898,39.629218],[29.101306,39.626086],[29.100218,39.624306],[29.100684,39.622598],[29.108065,39.618765],[29.110846,39.608471],[29.11251,39.603389],[29.112812,39.601082],[29.112651,39.601078],[29.112499,39.601074],[29.112412,39.601071],[29.112337,39.601069],[29.11218,39.601051],[29.112066,39.601023],[29.111982,39.60098],[29.111923,39.600905],[29.111869,39.600822],[29.111817,39.600728],[29.111742,39.600627],[29.111666,39.600556],[29.111546,39.600478],[29.111457,39.600399],[29.111336,39.600292],[29.111334,39.600289],[29.111333,39.600289],[29.11128,39.600213],[29.111226,39.600128],[29.111156,39.600026],[29.111093,39.59989],[29.110999,39.59977],[29.110908,39.599657],[29.110866,39.5996],[29.110776,39.599519],[29.110637,39.599443],[29.110486,39.599384],[29.110313,39.599338],[29.110193,39.599287],[29.110105,39.599225],[29.110032,39.599136],[29.109968,39.599027],[29.109859,39.598912],[29.109748,39.598779],[29.109707,39.598666],[29.109693,39.598493],[29.109607,39.598251],[29.109479,39.598156],[29.109295,39.598074],[29.109119,39.598027],[29.108938,39.598],[29.108739,39.597964],[29.108595,39.597915],[29.108472,39.597843],[29.108338,39.597761],[29.108134,39.597642],[29.107865,39.597492],[29.107478,39.59729],[29.107378,39.597282],[29.107305,39.597297],[29.107186,39.597376],[29.106997,39.597504],[29.106774,39.597571],[29.106503,39.597592],[29.106257,39.597594],[29.10603,39.597607],[29.105828,39.59759],[29.105701,39.597521],[29.105643,39.597417],[29.105561,39.597249],[29.10548,39.597039],[29.105404,39.596854],[29.105383,39.596634],[29.10375,39.599676],[29.102099,39.605277],[29.101809,39.61278],[29.098694,39.616636],[29.096621,39.616473],[29.094331,39.617714],[29.086622,39.619253],[29.072845,39.623874],[29.061691,39.627868],[29.053046,39.629148],[29.04697,39.629156],[29.045695,39.629778],[29.046491,39.630464],[29.045123,39.632287],[29.045314,39.634384],[29.052621,39.636654],[29.055547,39.638482],[29.062241,39.642665],[29.068959,39.646861],[29.073284,39.648783],[29.075695,39.647241],[29.078094,39.645298],[29.083068,39.64301],[29.085281,39.64347],[29.087971,39.646921],[29.094695,39.651198],[29.096494,39.651292],[29.09897,39.651421],[29.097769,39.645944]]]]}},{"type":"Feature","properties":{"id":"TR-Y-16-004-M-0014","level":"yerlesim","type":"mahalle","parent_id":"TR-D-16-004","province_id":"TR-P-16","district_id":"TR-D-16-004","name":"Gökçeler","source_raw_name":"GÖKÇELER","source":"Kamuya açık veri ve kent rehberi servisleri","source_label":"Kamuya açık veri ve kent rehberi servisleri","source_name":"Bursa Açık Yeşil Platformu - Mahalle Sınırları"},"geometry":{"type":"MultiPolygon","coordinates":[[[[29.030171,39.655652],[29.031855,39.654831],[29.033413,39.655595],[29.035585,39.653974],[29.032972,39.652172],[29.032693,39.648482],[29.035221,39.647382],[29.034678,39.646336],[29.0355,39.645266],[29.034434,39.643833],[29.035799,39.643809],[29.040847,39.641345],[29.042119,39.638156],[29.040754,39.63818],[29.040886,39.636858],[29.045314,39.634384],[29.045123,39.632287],[29.046491,39.630464],[29.045695,39.629778],[29.04697,39.629156],[29.053046,39.629148],[29.061691,39.627868],[29.060136,39.627314],[29.0598,39.627153],[29.059526,39.627004],[29.059277,39.626837],[29.059141,39.626719],[29.059049,39.62657],[29.058921,39.626399],[29.058782,39.626259],[29.05872,39.626116],[29.058755,39.625821],[29.05868,39.625572],[29.058614,39.625493],[29.058532,39.625423],[29.058012,39.625194],[29.057943,39.625093],[29.057915,39.624984],[29.057842,39.62496],[29.057758,39.62491],[29.057731,39.624869],[29.05772,39.624789],[29.057689,39.624646],[29.057504,39.624453],[29.057263,39.624163],[29.057016,39.624042],[29.056741,39.623825],[29.056548,39.62366],[29.055561,39.622406],[29.052133,39.61602],[29.04511,39.59981],[29.042209,39.600384],[29.020104,39.603205],[29.01389,39.603669],[29.008047,39.604225],[29.004336,39.60404],[29.002388,39.604318],[28.998701,39.605008],[28.993223,39.606521],[28.991816,39.605827],[28.991164,39.605784],[28.991569,39.606014],[28.991928,39.606212],[28.992521,39.606523],[28.993296,39.606955],[28.993724,39.607397],[28.99418,39.607961],[28.994366,39.608356],[28.994496,39.60872],[28.994362,39.609053],[28.993747,39.609457],[28.993205,39.609648],[28.992455,39.609681],[28.992103,39.609658],[28.991689,39.609563],[28.990934,39.609244],[28.990291,39.608935],[28.98971,39.608567],[28.988829,39.608366],[28.988248,39.608259],[28.987429,39.608212],[28.986811,39.608246],[28.986271,39.608194],[28.985811,39.607972],[28.985344,39.607505],[28.984922,39.607189],[28.984609,39.606922],[28.984526,39.606573],[28.984487,39.606483],[28.984477,39.606453],[28.984459,39.60642],[28.984408,39.60641],[28.98421,39.606138],[28.984009,39.60595],[28.983731,39.605706],[28.983163,39.605568],[28.982413,39.605613],[28.981881,39.605746],[28.981435,39.605853],[28.980973,39.605944],[28.980727,39.605963],[28.980163,39.606221],[28.980107,39.606358],[28.979951,39.606735],[28.979863,39.606903],[28.979806,39.607113],[28.97967,39.607545],[28.979387,39.608069],[28.979255,39.608299],[28.979081,39.608499],[28.978971,39.608725],[28.978841,39.608944],[28.978719,39.609124],[28.978608,39.609245],[28.978519,39.609369],[28.978291,39.60965],[28.978154,39.609799],[28.977977,39.610035],[28.9778,39.610271],[28.977664,39.610511],[28.977668,39.610695],[28.977387,39.611061],[28.977359,39.61109],[28.977101,39.611354],[28.976989,39.611527],[28.976942,39.611599],[28.976661,39.611877],[28.976322,39.612175],[28.976114,39.612311],[28.975882,39.612406],[28.975479,39.612428],[28.975171,39.612427],[28.975028,39.612408],[28.974374,39.612142],[28.973788,39.611865],[28.973315,39.611414],[28.973926,39.614088],[28.975035,39.615714],[28.974663,39.616645],[28.977101,39.618248],[28.976908,39.620821],[28.981865,39.622176],[28.988055,39.624845],[28.992466,39.625695],[28.994228,39.626898],[28.994406,39.628767],[28.994609,39.6309],[28.995826,39.631599],[28.998725,39.630727],[28.998258,39.632996],[28.999623,39.634206],[29.001002,39.63593],[29.003266,39.636096],[29.006606,39.636655],[29.008041,39.635705],[29.009119,39.636201],[29.009172,39.63805],[29.008281,39.639401],[29.010231,39.639896],[29.010558,39.639979],[29.013351,39.640033],[29.013653,39.641261],[29.016848,39.641412],[29.017965,39.643242],[29.020227,39.643306],[29.021358,39.64488],[29.021612,39.645235],[29.023533,39.647257],[29.023164,39.648291],[29.024547,39.650117],[29.024072,39.652078],[29.026887,39.654258],[29.030171,39.655652]]]]}},{"type":"Feature","properties":{"id":"TR-Y-16-004-M-0015","level":"yerlesim","type":"mahalle","parent_id":"TR-D-16-004","province_id":"TR-P-16","district_id":"TR-D-16-004","name":"Gülözü","source_raw_name":"GÜLÖZÜ","source":"Kamuya açık veri ve kent rehberi servisleri","source_label":"Kamuya açık veri ve kent rehberi servisleri","source_name":"Bursa Açık Yeşil Platformu - Mahalle Sınırları"},"geometry":{"type":"MultiPolygon","coordinates":[[[[29.264006,39.734219],[29.268223,39.73247],[29.271858,39.730961],[29.278147,39.727268],[29.280406,39.725942],[29.283654,39.722838],[29.284155,39.72024],[29.284273,39.717887],[29.284379,39.715761],[29.282319,39.714142],[29.277364,39.712239],[29.269148,39.708206],[29.26182,39.703568],[29.258523,39.700577],[29.250545,39.702377],[29.246756,39.702975],[29.241392,39.705285],[29.237463,39.709983],[29.236949,39.71397],[29.236803,39.715037],[29.235545,39.723716],[29.240692,39.725679],[29.244713,39.728018],[29.248701,39.733509],[29.248701,39.733509],[29.251381,39.734834],[29.252072,39.735302],[29.254034,39.736742],[29.256325,39.737603],[29.258407,39.737239],[29.260065,39.73669],[29.264006,39.734219]]]]}},{"type":"Feature","properties":{"id":"TR-Y-16-004-M-0016","level":"yerlesim","type":"mahalle","parent_id":"TR-D-16-004","province_id":"TR-P-16","district_id":"TR-D-16-004","name":"Harmancıkakalan","source_raw_name":"HARMANCIK AKALAN","source":"Kamuya açık veri ve kent rehberi servisleri","source_label":"Kamuya açık veri ve kent rehberi servisleri","source_name":"Bursa Açık Yeşil Platformu - Mahalle Sınırları"},"geometry":{"type":"MultiPolygon","coordinates":[[[[29.191904,39.765046],[29.195701,39.763411],[29.19789,39.765402],[29.200529,39.765586],[29.202502,39.767112],[29.205837,39.766892],[29.205837,39.766892],[29.205837,39.766892],[29.205866,39.764625],[29.208437,39.762701],[29.209111,39.761594],[29.211809,39.761487],[29.217361,39.761339],[29.219724,39.761],[29.219226,39.758118],[29.219079,39.751557],[29.218989,39.747572],[29.216508,39.745979],[29.209468,39.746349],[29.20681,39.744658],[29.202951,39.742707],[29.20295,39.742707],[29.197357,39.739773],[29.193398,39.737677],[29.194603,39.733724],[29.182078,39.727261],[29.181506,39.730777],[29.183021,39.740283],[29.179917,39.741358],[29.175958,39.744245],[29.172118,39.747678],[29.173423,39.750545],[29.173222,39.757035],[29.1722,39.759946],[29.169933,39.761942],[29.169912,39.767726],[29.168957,39.769541],[29.166868,39.770752],[29.166816,39.772316],[29.171861,39.774957],[29.17259,39.775569],[29.173488,39.77414],[29.174229,39.772959],[29.174462,39.772669],[29.175691,39.771134],[29.177505,39.770866],[29.1783,39.770382],[29.177251,39.769229],[29.176822,39.768456],[29.1772,39.767589],[29.178785,39.767197],[29.179399,39.767065],[29.179734,39.766996],[29.180782,39.766781],[29.181837,39.766564],[29.182806,39.766364],[29.183865,39.766146],[29.184341,39.766048],[29.184955,39.765967],[29.185993,39.765829],[29.191904,39.765046]]]]}},{"type":"Feature","properties":{"id":"TR-Y-16-004-M-0018","level":"yerlesim","type":"mahalle","parent_id":"TR-D-16-004","province_id":"TR-P-16","district_id":"TR-D-16-004","name":"Ilıcaksu","source_raw_name":"ILICAKSU","source":"Kamuya açık veri ve kent rehberi servisleri","source_label":"Kamuya açık veri ve kent rehberi servisleri","source_name":"Bursa Açık Yeşil Platformu - Mahalle Sınırları"},"geometry":{"type":"MultiPolygon","coordinates":[[[[29.042571,39.688292],[29.042827,39.685385],[29.040266,39.681818],[29.037838,39.678347],[29.03897,39.676215],[29.038063,39.674384],[29.038524,39.67266],[29.038967,39.670277],[29.039189,39.669968],[29.039542,39.669608],[29.039593,39.669494],[29.039721,39.669339],[29.039727,39.669249],[29.040306,39.668925],[29.040608,39.668738],[29.040721,39.668499],[29.040705,39.668284],[29.040694,39.668103],[29.040736,39.667917],[29.040794,39.667792],[29.039835,39.664984],[29.036345,39.662406],[29.034095,39.66139],[29.030659,39.660658],[29.02907,39.658838],[29.027701,39.65873],[29.027329,39.657681],[29.026391,39.656919],[29.026347,39.656883],[29.024145,39.659485],[29.022268,39.660666],[29.019758,39.66194],[29.015856,39.662829],[29.009159,39.662535],[29.003948,39.658522],[28.999225,39.656717],[28.998605,39.656654],[28.993689,39.656155],[28.990963,39.653815],[28.990799,39.653674],[28.99035,39.655232],[28.988823,39.656302],[28.986393,39.658429],[28.982023,39.661061],[28.982023,39.661061],[28.985057,39.666929],[28.985056,39.666972],[28.985072,39.667005],[28.985071,39.667048],[28.984998,39.669268],[28.984996,39.669322],[28.985013,39.669344],[28.986227,39.670905],[28.987367,39.672369],[28.989325,39.675975],[28.991955,39.685754],[28.993145,39.689695],[28.993145,39.689695],[28.994718,39.689084],[28.995036,39.688961],[28.995632,39.688729],[28.996472,39.688403],[28.996853,39.688255],[28.997156,39.688138],[28.997903,39.687848],[28.998423,39.687646],[28.998577,39.687586],[28.99896,39.687387],[29.000057,39.686819],[29.001204,39.68702],[29.002168,39.68743],[29.002619,39.687712],[29.003127,39.688059],[29.003641,39.688371],[29.004784,39.688666],[29.005491,39.688845],[29.007754,39.689596],[29.013687,39.691576],[29.017127,39.693641],[29.017128,39.693641],[29.023932,39.697875],[29.025623,39.69849],[29.028036,39.699368],[29.028072,39.699367],[29.030938,39.699317],[29.033305,39.698484],[29.033247,39.696505],[29.036767,39.6942],[29.038392,39.691401],[29.042571,39.688292]]]]}},{"type":"Feature","properties":{"id":"TR-Y-16-004-M-0019","level":"yerlesim","type":"mahalle","parent_id":"TR-D-16-004","province_id":"TR-P-16","district_id":"TR-D-16-004","name":"İshaklar","source_raw_name":"İSHAKLAR","source":"Kamuya açık veri ve kent rehberi servisleri","source_label":"Kamuya açık veri ve kent rehberi servisleri","source_name":"Bursa Açık Yeşil Platformu - Mahalle Sınırları"},"geometry":{"type":"MultiPolygon","coordinates":[[[[29.135124,39.636966],[29.136235,39.635246],[29.139364,39.636088],[29.139856,39.635279],[29.142287,39.630236],[29.145277,39.63078],[29.147978,39.630331],[29.148698,39.628518],[29.149424,39.626905],[29.149211,39.624209],[29.149835,39.619299],[29.149364,39.61829],[29.148435,39.616294],[29.1484,39.616219],[29.14779,39.614909],[29.147528,39.614345],[29.147204,39.61365],[29.147128,39.613588],[29.146944,39.613438],[29.144685,39.611597],[29.144611,39.611497],[29.144473,39.611309],[29.143666,39.610214],[29.141884,39.607794],[29.140916,39.606479],[29.140526,39.605949],[29.139963,39.605186],[29.139246,39.602074],[29.139075,39.601331],[29.139068,39.601303],[29.139035,39.600976],[29.14099,39.581796],[29.138551,39.581872],[29.134656,39.582707],[29.130728,39.584142],[29.129833,39.584469],[29.125287,39.586139],[29.122041,39.586695],[29.11555,39.588843],[29.109241,39.590961],[29.104921,39.591745],[29.105383,39.596634],[29.105404,39.596854],[29.10548,39.597039],[29.105561,39.597249],[29.105643,39.597417],[29.105701,39.597521],[29.105828,39.59759],[29.10603,39.597607],[29.106257,39.597594],[29.106503,39.597592],[29.106774,39.597571],[29.106997,39.597504],[29.107186,39.597376],[29.107305,39.597297],[29.107378,39.597282],[29.107478,39.59729],[29.107865,39.597492],[29.108134,39.597642],[29.108338,39.597761],[29.108472,39.597843],[29.108595,39.597915],[29.108739,39.597964],[29.108938,39.598],[29.109119,39.598027],[29.109295,39.598074],[29.109479,39.598156],[29.109607,39.598251],[29.109693,39.598493],[29.109707,39.598666],[29.109748,39.598779],[29.109859,39.598912],[29.109968,39.599027],[29.110032,39.599136],[29.110105,39.599225],[29.110193,39.599287],[29.110313,39.599338],[29.110486,39.599384],[29.110637,39.599443],[29.110776,39.599519],[29.110866,39.5996],[29.110908,39.599657],[29.110999,39.59977],[29.111093,39.59989],[29.111156,39.600026],[29.111226,39.600128],[29.11128,39.600213],[29.111333,39.600289],[29.111334,39.600289],[29.111336,39.600292],[29.111457,39.600399],[29.111546,39.600478],[29.111666,39.600556],[29.111742,39.600627],[29.111817,39.600728],[29.111869,39.600822],[29.111923,39.600905],[29.111982,39.60098],[29.112066,39.601023],[29.11218,39.601051],[29.112337,39.601069],[29.112412,39.601071],[29.112499,39.601074],[29.112651,39.601078],[29.112812,39.601082],[29.113111,39.601134],[29.113359,39.6012],[29.113486,39.601235],[29.113613,39.601328],[29.113741,39.601475],[29.113798,39.601616],[29.113879,39.601783],[29.113985,39.601927],[29.114085,39.602059],[29.114188,39.602184],[29.11427,39.602277],[29.114328,39.602359],[29.114444,39.602407],[29.11461,39.602439],[29.114832,39.602455],[29.11506,39.602425],[29.11969,39.605757],[29.126873,39.612424],[29.122098,39.621109],[29.122039,39.623409],[29.125394,39.627447],[29.126273,39.63083],[29.127993,39.632098],[29.127546,39.634406],[29.133057,39.637004],[29.135124,39.636966]]]]}},{"type":"Feature","properties":{"id":"TR-Y-16-004-M-0020","level":"yerlesim","type":"mahalle","parent_id":"TR-D-16-004","province_id":"TR-P-16","district_id":"TR-D-16-004","name":"Karaca","source_raw_name":"KARACA","source":"Kamuya açık veri ve kent rehberi servisleri","source_label":"Kamuya açık veri ve kent rehberi servisleri","source_name":"Bursa Açık Yeşil Platformu - Mahalle Sınırları"},"geometry":{"type":"MultiPolygon","coordinates":[[[[29.156759,39.642464],[29.156334,39.641273],[29.157774,39.641846],[29.159448,39.641679],[29.159546,39.640613],[29.160955,39.640187],[29.163238,39.638745],[29.163856,39.637834],[29.166576,39.637983],[29.167496,39.638465],[29.169034,39.638037],[29.167626,39.634364],[29.169392,39.632932],[29.168542,39.630548],[29.169695,39.630227],[29.170556,39.628811],[29.169139,39.624839],[29.169839,39.622426],[29.170986,39.621905],[29.174969,39.622104],[29.176813,39.622196],[29.180428,39.621685],[29.182562,39.621141],[29.184537,39.620103],[29.185128,39.619665],[29.185535,39.619446],[29.185746,39.619097],[29.185876,39.618938],[29.186281,39.618872],[29.186538,39.618893],[29.186789,39.618891],[29.187002,39.618835],[29.18723,39.61868],[29.187629,39.618271],[29.188555,39.617523],[29.188768,39.617448],[29.189146,39.61755],[29.189391,39.617731],[29.189596,39.617896],[29.189865,39.617951],[29.190124,39.61785],[29.19043,39.617418],[29.190762,39.616863],[29.191132,39.61634],[29.191435,39.616159],[29.191717,39.6161],[29.1921,39.616198],[29.192597,39.616375],[29.192994,39.616521],[29.193328,39.616599],[29.194219,39.61667],[29.200479,39.614352],[29.201166,39.615638],[29.202975,39.615604],[29.206525,39.613407],[29.211754,39.61017],[29.209786,39.607565],[29.206657,39.60459],[29.200968,39.607068],[29.196944,39.60882],[29.19654,39.609214],[29.195874,39.609864],[29.195774,39.609961],[29.193809,39.611879],[29.191916,39.611696],[29.191216,39.611628],[29.190536,39.6111],[29.188699,39.609676],[29.187438,39.609261],[29.185826,39.60873],[29.185788,39.608731],[29.182438,39.608842],[29.181628,39.608868],[29.178725,39.608964],[29.177589,39.609069],[29.17712,39.609112],[29.175185,39.609291],[29.173266,39.610004],[29.172443,39.61031],[29.170548,39.611014],[29.170317,39.6111],[29.167706,39.612069],[29.166311,39.612397],[29.165803,39.612516],[29.162893,39.6132],[29.162194,39.613365],[29.160777,39.613698],[29.159961,39.614116],[29.157801,39.615221],[29.157074,39.615594],[29.153771,39.617284],[29.150576,39.61892],[29.149835,39.619299],[29.149211,39.624209],[29.149424,39.626905],[29.148698,39.628518],[29.147978,39.630331],[29.145277,39.63078],[29.142287,39.630236],[29.139856,39.635279],[29.139364,39.636088],[29.139613,39.636777],[29.141164,39.639954],[29.142598,39.640327],[29.146011,39.641964],[29.146632,39.641152],[29.145312,39.640277],[29.146456,39.639656],[29.148863,39.642211],[29.151583,39.64236],[29.153626,39.641523],[29.154845,39.6433],[29.156759,39.642464]]]]}},{"type":"Feature","properties":{"id":"TR-Y-16-004-M-0021","level":"yerlesim","type":"mahalle","parent_id":"TR-D-16-004","province_id":"TR-P-16","district_id":"TR-D-16-004","name":"Kepekdere","source_raw_name":"KEPEKDERE","source":"Kamuya açık veri ve kent rehberi servisleri","source_label":"Kamuya açık veri ve kent rehberi servisleri","source_name":"Bursa Açık Yeşil Platformu - Mahalle Sınırları"},"geometry":{"type":"MultiPolygon","coordinates":[[[[29.184017,39.677451],[29.185206,39.675749],[29.186036,39.675813],[29.187515,39.676745],[29.188504,39.676302],[29.188516,39.676297],[29.191802,39.674824],[29.192256,39.662976],[29.202897,39.655815],[29.201663,39.651384],[29.199287,39.6516],[29.19025,39.652402],[29.184131,39.64935],[29.18413,39.64935],[29.183923,39.646855],[29.18247,39.649001],[29.181254,39.648601],[29.179749,39.650568],[29.177461,39.653239],[29.175391,39.653532],[29.174815,39.65608],[29.173372,39.65543],[29.17186,39.65605],[29.169969,39.655319],[29.168925,39.656946],[29.16589,39.657848],[29.16626,39.659194],[29.167804,39.659588],[29.164778,39.662126],[29.164932,39.662569],[29.165104,39.663068],[29.165166,39.663397],[29.165231,39.663892],[29.165187,39.664163],[29.165015,39.664908],[29.164829,39.665576],[29.164561,39.666028],[29.16376,39.667057],[29.165119,39.669005],[29.166363,39.669062],[29.166743,39.671295],[29.168451,39.672943],[29.167474,39.674801],[29.169659,39.67516],[29.170214,39.67635],[29.171132,39.675933],[29.171672,39.676643],[29.174148,39.676356],[29.17411,39.675157],[29.177951,39.675485],[29.178927,39.676907],[29.18027,39.676801],[29.182377,39.677962],[29.184017,39.677451]]]]}},{"type":"Feature","properties":{"id":"TR-Y-16-004-M-0023","level":"yerlesim","type":"mahalle","parent_id":"TR-D-16-004","province_id":"TR-P-16","district_id":"TR-D-16-004","name":"Kılavuzlar","source_raw_name":"KILAVUZLAR","source":"Kamuya açık veri ve kent rehberi servisleri","source_label":"Kamuya açık veri ve kent rehberi servisleri","source_name":"Bursa Açık Yeşil Platformu - Mahalle Sınırları"},"geometry":{"type":"MultiPolygon","coordinates":[[[[29.186597,39.710436],[29.184442,39.707203],[29.182879,39.705954],[29.191307,39.704414],[29.187302,39.697028],[29.182168,39.700011],[29.18212,39.698512],[29.18062,39.698309],[29.179386,39.697063],[29.175744,39.700016],[29.174386,39.69958],[29.172806,39.701571],[29.161232,39.70815],[29.161167,39.708187],[29.161167,39.708185],[29.161107,39.710658],[29.159038,39.716527],[29.163097,39.719039],[29.168426,39.722337],[29.183038,39.7215],[29.183039,39.7215],[29.183478,39.720216],[29.183496,39.720166],[29.183774,39.719354],[29.184444,39.717099],[29.185111,39.714695],[29.18609,39.711162],[29.186597,39.710436]]]]}},{"type":"Feature","properties":{"id":"TR-Y-16-004-M-0024","level":"yerlesim","type":"mahalle","parent_id":"TR-D-16-004","province_id":"TR-P-16","district_id":"TR-D-16-004","name":"Kocapınar","source_raw_name":"KOCAPINAR","source":"Kamuya açık veri ve kent rehberi servisleri","source_label":"Kamuya açık veri ve kent rehberi servisleri","source_name":"Bursa Açık Yeşil Platformu - Mahalle Sınırları"},"geometry":{"type":"MultiPolygon","coordinates":[[[[29.094331,39.617714],[29.096621,39.616473],[29.098694,39.616636],[29.101809,39.61278],[29.102099,39.605277],[29.10375,39.599676],[29.105383,39.596634],[29.104921,39.591745],[29.094401,39.593651],[29.09402,39.593708],[29.077427,39.596156],[29.068615,39.597176],[29.068108,39.597215],[29.05197,39.598451],[29.04511,39.59981],[29.048891,39.608536],[29.052133,39.61602],[29.055561,39.622406],[29.056548,39.62366],[29.056741,39.623825],[29.057016,39.624042],[29.057263,39.624163],[29.057504,39.624453],[29.057689,39.624646],[29.05772,39.624789],[29.057731,39.624869],[29.057758,39.62491],[29.057842,39.62496],[29.057915,39.624984],[29.057943,39.625093],[29.058012,39.625194],[29.058532,39.625423],[29.058614,39.625493],[29.05868,39.625572],[29.058755,39.625821],[29.05872,39.626116],[29.058782,39.626259],[29.058921,39.626399],[29.059049,39.62657],[29.059141,39.626719],[29.059277,39.626837],[29.059526,39.627004],[29.0598,39.627153],[29.060136,39.627314],[29.061691,39.627868],[29.072845,39.623874],[29.086622,39.619253],[29.094331,39.617714]]]]}},{"type":"Feature","properties":{"id":"TR-Y-16-004-M-0025","level":"yerlesim","type":"mahalle","parent_id":"TR-D-16-004","province_id":"TR-P-16","district_id":"TR-D-16-004","name":"Kozluca","source_raw_name":"KOZLUCA","source":"Kamuya açık veri ve kent rehberi servisleri","source_label":"Kamuya açık veri ve kent rehberi servisleri","source_name":"Bursa Açık Yeşil Platformu - Mahalle Sınırları"},"geometry":{"type":"MultiPolygon","coordinates":[[[[29.185788,39.608731],[29.185826,39.60873],[29.187438,39.609261],[29.188699,39.609676],[29.190536,39.6111],[29.191216,39.611628],[29.191916,39.611696],[29.193809,39.611879],[29.195774,39.609961],[29.195874,39.609864],[29.19654,39.609214],[29.196944,39.60882],[29.200968,39.607068],[29.206657,39.60459],[29.204157,39.602213],[29.204128,39.602186],[29.197821,39.597455],[29.192769,39.594332],[29.19272,39.594301],[29.187061,39.589385],[29.180164,39.58394],[29.180012,39.58382],[29.176767,39.582148],[29.173891,39.580666],[29.167305,39.580109],[29.155416,39.58093],[29.153856,39.581037],[29.150424,39.581501],[29.14099,39.581796],[29.139035,39.600976],[29.139068,39.601303],[29.139075,39.601331],[29.139246,39.602074],[29.139963,39.605186],[29.140526,39.605949],[29.140916,39.606479],[29.141884,39.607794],[29.143666,39.610214],[29.144473,39.611309],[29.144611,39.611497],[29.144685,39.611597],[29.146944,39.613438],[29.147128,39.613588],[29.147204,39.61365],[29.147528,39.614345],[29.14779,39.614909],[29.1484,39.616219],[29.148435,39.616294],[29.149364,39.61829],[29.149835,39.619299],[29.150576,39.61892],[29.153771,39.617284],[29.157074,39.615594],[29.157801,39.615221],[29.159961,39.614116],[29.160777,39.613698],[29.162194,39.613365],[29.162893,39.6132],[29.165803,39.612516],[29.166311,39.612397],[29.167706,39.612069],[29.170317,39.6111],[29.170548,39.611014],[29.172443,39.61031],[29.173266,39.610004],[29.175185,39.609291],[29.17712,39.609112],[29.177589,39.609069],[29.178725,39.608964],[29.181628,39.608868],[29.182438,39.608842],[29.185788,39.608731]]]]}},{"type":"Feature","properties":{"id":"TR-Y-16-004-M-0026","level":"yerlesim","type":"mahalle","parent_id":"TR-D-16-004","province_id":"TR-P-16","district_id":"TR-D-16-004","name":"Merkez","source_raw_name":"MERKEZ","source":"Kamuya açık veri ve kent rehberi servisleri","source_label":"Kamuya açık veri ve kent rehberi servisleri","source_name":"Bursa Açık Yeşil Platformu - Mahalle Sınırları"},"geometry":{"type":"MultiPolygon","coordinates":[[[[29.085106,39.716102],[29.089071,39.714983],[29.091499,39.715064],[29.095855,39.715793],[29.09972,39.715147],[29.103511,39.712078],[29.104725,39.711055],[29.105055,39.71076],[29.10518,39.710269],[29.105989,39.70952],[29.107271,39.708867],[29.107809,39.708528],[29.1083,39.708291],[29.108542,39.707961],[29.109287,39.70759],[29.110337,39.706511],[29.111191,39.70574],[29.112101,39.705278],[29.112831,39.704929],[29.112952,39.70469],[29.113167,39.704096],[29.1135,39.70355],[29.113993,39.703222],[29.114203,39.702972],[29.114533,39.702654],[29.114761,39.702164],[29.115032,39.701879],[29.115933,39.701428],[29.116246,39.701294],[29.116614,39.700896],[29.116986,39.70071],[29.117336,39.700553],[29.117643,39.700292],[29.118019,39.699843],[29.11815,39.699642],[29.118389,39.699274],[29.118632,39.698824],[29.118917,39.698512],[29.119342,39.698252],[29.119633,39.698077],[29.11971,39.697843],[29.119574,39.69747],[29.119542,39.697098],[29.140375,39.698368],[29.141109,39.699338],[29.151404,39.712958],[29.151814,39.7135],[29.152003,39.713393],[29.161167,39.708185],[29.161167,39.708187],[29.161232,39.70815],[29.172806,39.701571],[29.174386,39.69958],[29.175744,39.700016],[29.179386,39.697063],[29.177558,39.695437],[29.17208,39.690564],[29.168672,39.688767],[29.168128,39.686414],[29.167039,39.685239],[29.166814,39.683493],[29.167188,39.682113],[29.167505,39.681429],[29.168064,39.681835],[29.168128,39.681833],[29.168176,39.681836],[29.168224,39.681843],[29.16827,39.681856],[29.168337,39.681879],[29.168394,39.681905],[29.168484,39.681954],[29.168606,39.682007],[29.168713,39.682048],[29.168827,39.682085],[29.16892,39.682104],[29.16899,39.682108],[29.169062,39.682104],[29.169139,39.682086],[29.1692,39.682062],[29.169264,39.682033],[29.169338,39.681993],[29.169382,39.681945],[29.169411,39.682109],[29.169517,39.682266],[29.169931,39.681419],[29.170146,39.680978],[29.171672,39.676643],[29.171132,39.675933],[29.170214,39.67635],[29.169659,39.67516],[29.167474,39.674801],[29.168451,39.672943],[29.166743,39.671295],[29.166363,39.669062],[29.165119,39.669005],[29.16376,39.667057],[29.164561,39.666028],[29.164829,39.665576],[29.163481,39.665546],[29.161947,39.666481],[29.156989,39.665425],[29.148989,39.664547],[29.148729,39.663706],[29.149573,39.663207],[29.148608,39.662318],[29.13818,39.666903],[29.134264,39.668624],[29.12953,39.669738],[29.120914,39.670292],[29.118373,39.670038],[29.111932,39.669395],[29.111408,39.67814],[29.107493,39.68707],[29.089074,39.684166],[29.087175,39.68806],[29.086583,39.689272],[29.08283,39.696967],[29.081995,39.698676],[29.076926,39.702391],[29.072238,39.705825],[29.069625,39.707739],[29.072646,39.709171],[29.078657,39.710333],[29.081795,39.713304],[29.081827,39.713334],[29.081887,39.713391],[29.082567,39.716148],[29.079435,39.71632],[29.079987,39.717615],[29.082643,39.718425],[29.083268,39.718733],[29.084724,39.718302],[29.085106,39.716102]]]]}},{"type":"Feature","properties":{"id":"TR-Y-16-004-M-0027","level":"yerlesim","type":"mahalle","parent_id":"TR-D-16-004","province_id":"TR-P-16","district_id":"TR-D-16-004","name":"Nalbant","source_raw_name":"NALBANT","source":"Kamuya açık veri ve kent rehberi servisleri","source_label":"Kamuya açık veri ve kent rehberi servisleri","source_name":"Bursa Açık Yeşil Platformu - Mahalle Sınırları"},"geometry":{"type":"MultiPolygon","coordinates":[[[[29.242722,39.733834],[29.246782,39.73323],[29.246787,39.733231],[29.248696,39.733509],[29.248696,39.733508],[29.248701,39.733509],[29.244713,39.728018],[29.240692,39.725679],[29.235545,39.723716],[29.236803,39.715037],[29.236798,39.715034],[29.226368,39.709289],[29.218047,39.706994],[29.210354,39.704515],[29.210351,39.704514],[29.204445,39.707238],[29.204445,39.707241],[29.203001,39.713287],[29.201826,39.718729],[29.206356,39.718982],[29.208822,39.718796],[29.215394,39.718113],[29.221527,39.717958],[29.22153,39.717959],[29.223723,39.718546],[29.225199,39.720493],[29.226706,39.722481],[29.228083,39.723602],[29.23028,39.725391],[29.232337,39.727105],[29.233441,39.7281],[29.233443,39.728102],[29.234959,39.729467],[29.236834,39.730844],[29.238582,39.732128],[29.24272,39.733834],[29.242722,39.733834]]]]}},{"type":"Feature","properties":{"id":"TR-Y-16-004-M-0028","level":"yerlesim","type":"mahalle","parent_id":"TR-D-16-004","province_id":"TR-P-16","district_id":"TR-D-16-004","name":"Okçular","source_raw_name":"OKÇULAR","source":"Kamuya açık veri ve kent rehberi servisleri","source_label":"Kamuya açık veri ve kent rehberi servisleri","source_name":"Bursa Açık Yeşil Platformu - Mahalle Sınırları"},"geometry":{"type":"MultiPolygon","coordinates":[[[[29.241392,39.705285],[29.246756,39.702975],[29.250545,39.702377],[29.258523,39.700577],[29.256812,39.699023],[29.255977,39.697539],[29.25288,39.690958],[29.25285,39.69088],[29.252849,39.69088],[29.251617,39.687707],[29.248371,39.682791],[29.242156,39.671846],[29.239743,39.666601],[29.240395,39.671241],[29.236626,39.672427],[29.230173,39.67635],[29.227844,39.677685],[29.225046,39.680283],[29.222098,39.684633],[29.21832,39.68876],[29.215591,39.690323],[29.208914,39.693949],[29.206288,39.69551],[29.205331,39.695347],[29.205266,39.696435],[29.204419,39.70486],[29.204445,39.707238],[29.210351,39.704514],[29.218047,39.706994],[29.226368,39.709289],[29.236803,39.715037],[29.236949,39.71397],[29.237463,39.709983],[29.241392,39.705285]]]]}},{"type":"Feature","properties":{"id":"TR-Y-16-004-M-0029","level":"yerlesim","type":"mahalle","parent_id":"TR-D-16-004","province_id":"TR-P-16","district_id":"TR-D-16-004","name":"Saçaklı","source_raw_name":"SAÇAKLI","source":"Kamuya açık veri ve kent rehberi servisleri","source_label":"Kamuya açık veri ve kent rehberi servisleri","source_name":"Bursa Açık Yeşil Platformu - Mahalle Sınırları"},"geometry":{"type":"MultiPolygon","coordinates":[[[[29.111932,39.669395],[29.107005,39.669313],[29.100583,39.669443],[29.097099,39.672805],[29.094477,39.676518],[29.090795,39.68173],[29.089074,39.684166],[29.107493,39.68707],[29.111408,39.67814],[29.111932,39.669395]]]]}},{"type":"Feature","properties":{"id":"TR-Y-16-004-M-0030","level":"yerlesim","type":"mahalle","parent_id":"TR-D-16-004","province_id":"TR-P-16","district_id":"TR-D-16-004","name":"Yayabaşı","source_raw_name":"YAYABAŞI","source":"Kamuya açık veri ve kent rehberi servisleri","source_label":"Kamuya açık veri ve kent rehberi servisleri","source_name":"Bursa Açık Yeşil Platformu - Mahalle Sınırları"},"geometry":{"type":"MultiPolygon","coordinates":[[[[29.192994,39.719608],[29.195618,39.719347],[29.19624,39.71968],[29.196822,39.719693],[29.199238,39.718987],[29.201826,39.71873],[29.201826,39.718729],[29.203001,39.713287],[29.204445,39.707241],[29.204445,39.707238],[29.204419,39.70486],[29.205266,39.696435],[29.205331,39.695347],[29.205331,39.695347],[29.204892,39.695273],[29.20039,39.694508],[29.195392,39.692695],[29.190738,39.691988],[29.187917,39.692862],[29.186115,39.69255],[29.188172,39.691473],[29.185612,39.690829],[29.184123,39.695703],[29.187302,39.697028],[29.191307,39.704414],[29.182879,39.705954],[29.184442,39.707203],[29.186597,39.710436],[29.18609,39.711162],[29.185111,39.714695],[29.184444,39.717099],[29.183774,39.719354],[29.183496,39.720166],[29.183478,39.720216],[29.185428,39.720052],[29.192994,39.719608]]]]}},{"type":"Feature","properties":{"id":"TR-Y-16-004-M-0031","level":"yerlesim","type":"mahalle","parent_id":"TR-D-16-004","province_id":"TR-P-16","district_id":"TR-D-16-004","name":"Yeşilyurt","source_raw_name":"YEŞİLYURT","source":"Kamuya açık veri ve kent rehberi servisleri","source_label":"Kamuya açık veri ve kent rehberi servisleri","source_name":"Bursa Açık Yeşil Platformu - Mahalle Sınırları"},"geometry":{"type":"MultiPolygon","coordinates":[[[[29.240783,39.746222],[29.239966,39.744268],[29.239938,39.7442],[29.239951,39.744192],[29.239976,39.744176],[29.241022,39.743503],[29.242318,39.742669],[29.242318,39.74267],[29.243128,39.743339],[29.24315,39.743357],[29.243144,39.743414],[29.24292,39.745424],[29.242915,39.745471],[29.242936,39.7455],[29.243869,39.746781],[29.243869,39.746781],[29.246595,39.746572],[29.24768,39.745772],[29.247683,39.74577],[29.247678,39.745752],[29.247664,39.745696],[29.247119,39.743509],[29.247101,39.743436],[29.247103,39.743434],[29.247134,39.743405],[29.247488,39.74307],[29.248868,39.741761],[29.248869,39.741746],[29.248973,39.738817],[29.248974,39.738789],[29.248958,39.738741],[29.24856,39.737582],[29.247877,39.73559],[29.247856,39.735529],[29.247862,39.735515],[29.24809,39.734968],[29.248701,39.733509],[29.248701,39.733509],[29.248696,39.733508],[29.248696,39.733509],[29.246787,39.733231],[29.246782,39.73323],[29.242722,39.733834],[29.24272,39.733834],[29.238582,39.732128],[29.236834,39.730844],[29.234959,39.729467],[29.233443,39.728102],[29.23011,39.729832],[29.225138,39.734559],[29.221991,39.736374],[29.217238,39.739681],[29.214393,39.741164],[29.211811,39.743625],[29.209468,39.746349],[29.215971,39.746007],[29.216508,39.745979],[29.218989,39.747572],[29.219079,39.751557],[29.219223,39.757971],[29.219226,39.758118],[29.219548,39.759979],[29.219724,39.761],[29.219724,39.761],[29.220688,39.760541],[29.221504,39.760153],[29.221601,39.760106],[29.221889,39.759969],[29.223692,39.759111],[29.224511,39.75872],[29.225325,39.758534],[29.226693,39.75822],[29.226795,39.758197],[29.22823,39.757867],[29.229601,39.756977],[29.229712,39.756905],[29.230415,39.756448],[29.230778,39.756212],[29.230893,39.756138],[29.230894,39.756137],[29.231022,39.756054],[29.231701,39.755613],[29.232607,39.754575],[29.23299,39.754136],[29.233688,39.753336],[29.234337,39.752592],[29.234756,39.752355],[29.236311,39.751475],[29.237711,39.750931],[29.239328,39.750386],[29.240302,39.749059],[29.240843,39.748322],[29.241354,39.747625],[29.241364,39.747611],[29.241364,39.74761],[29.241339,39.74755],[29.240783,39.746222]]]]}},{"type":"Feature","properties":{"id":"TR-Y-16-004-M-SRC-HOPANDANISMENT","level":"yerlesim","type":"mahalle","parent_id":"TR-D-16-004","province_id":"TR-P-16","district_id":"TR-D-16-004","name":"Hopandani̇şment","source_raw_name":"HOPANDANİŞMENT","source":"Kamuya açık veri ve kent rehberi servisleri","source_label":"Kamuya açık veri ve kent rehberi servisleri","source_name":"Bursa Açık Yeşil Platformu - Mahalle Sınırları","source_only":true},"geometry":{"type":"MultiPolygon","coordinates":[[[[29.225199,39.720493],[29.223723,39.718546],[29.22153,39.717959],[29.221527,39.717958],[29.215394,39.718113],[29.208822,39.718796],[29.206356,39.718982],[29.201826,39.718729],[29.201826,39.71873],[29.199238,39.718987],[29.196822,39.719693],[29.19624,39.71968],[29.195618,39.719347],[29.192994,39.719608],[29.185428,39.720052],[29.183478,39.720216],[29.183039,39.7215],[29.182078,39.727261],[29.194603,39.733724],[29.193398,39.737677],[29.193921,39.737954],[29.197357,39.739773],[29.20295,39.742707],[29.202951,39.742707],[29.205108,39.743798],[29.206292,39.744396],[29.20681,39.744658],[29.209468,39.746349],[29.211811,39.743625],[29.214393,39.741164],[29.217238,39.739681],[29.221991,39.736374],[29.225138,39.734559],[29.23011,39.729832],[29.233443,39.728102],[29.233441,39.7281],[29.232337,39.727105],[29.23028,39.725391],[29.228083,39.723602],[29.226706,39.722481],[29.225199,39.720493]]]]}},{"type":"Feature","properties":{"id":"TR-Y-16-004-M-SRC-KISMANLAR","level":"yerlesim","type":"mahalle","parent_id":"TR-D-16-004","province_id":"TR-P-16","district_id":"TR-D-16-004","name":"Kişmanlar","source_raw_name":"KIŞMANLAR","source":"Kamuya açık veri ve kent rehberi servisleri","source_label":"Kamuya açık veri ve kent rehberi servisleri","source_name":"Bursa Açık Yeşil Platformu - Mahalle Sınırları","source_only":true},"geometry":{"type":"MultiPolygon","coordinates":[[[[29.12953,39.669738],[29.134264,39.668624],[29.13818,39.666903],[29.148608,39.662318],[29.148113,39.661482],[29.146448,39.660727],[29.145916,39.66122],[29.145345,39.660446],[29.146493,39.659639],[29.145423,39.657907],[29.145403,39.657243],[29.147158,39.655881],[29.147584,39.654484],[29.148037,39.653993],[29.147172,39.65129],[29.147851,39.650492],[29.147187,39.649236],[29.146701,39.646164],[29.147859,39.64572],[29.148384,39.644985],[29.149185,39.645635],[29.150325,39.644587],[29.150765,39.643672],[29.151583,39.64236],[29.148863,39.642211],[29.146456,39.639656],[29.145312,39.640277],[29.146632,39.641152],[29.146011,39.641964],[29.142598,39.640327],[29.141164,39.639954],[29.139613,39.636777],[29.139364,39.636088],[29.136235,39.635246],[29.135124,39.636966],[29.133057,39.637004],[29.127546,39.634406],[29.123577,39.635678],[29.122156,39.635704],[29.12206,39.636805],[29.120666,39.637731],[29.118568,39.636769],[29.116005,39.637516],[29.11682,39.6388],[29.115576,39.640423],[29.121701,39.646209],[29.11991,39.646842],[29.114076,39.646348],[29.108594,39.648947],[29.107855,39.65016],[29.105673,39.6507],[29.103262,39.652243],[29.09897,39.651421],[29.096494,39.651292],[29.094695,39.651198],[29.093247,39.658359],[29.090787,39.661702],[29.090688,39.664079],[29.089422,39.667401],[29.090748,39.666058],[29.094002,39.666395],[29.097959,39.667379],[29.100583,39.669443],[29.107005,39.669313],[29.111932,39.669395],[29.118373,39.670038],[29.120914,39.670292],[29.12953,39.669738]]]]}}]}